 2017  1 1 2137 34.3 L  18.266 -67.669 23.0  DOM  6 0.7 2.8LDOM 4.0CDOM 3.1WDOM1
 SPEC AVERAGE  MO 13.7 ST 19.7 OM  2.5 f0 7.06 R0.3084 AL 0.00 WI 20.0 MW  3.1 3
 SPEC SD       MO  0.2 ST 12.5 OM  0.6 f0 2.77 R0.2081 AL      WI      MW  0.1 3
 GAP=197        1.96      26.8     5.6 46.6  0.1044E+03  0.1947E+03  0.8417E+03E
 SPEC AGPRBH Z MO 13.7 ST 35.8 OM  2.4 f0 8.87 R0.1848 AL-0.00 WI 20.0 MW  3.1 3
 SPEC AGPRBH Z T213751 K 0.020 GD 67.3 VS 4.43 DE 3.34 Q0400.0 QA 0.70 Q1 1.00 3
 SPEC PCDRBH Z MO 13.6 ST 10.6 OM  2.2 f0 6.41 R0.2557 AL-0.00 WI 20.0 MW  3.0 3
 SPEC PCDRBH Z T213754 K 0.020 GD 83.3 VS 4.43 DE 3.34 Q0400.0 QA 0.70 Q1 1.00 3
 SPEC AOPRBH Z MO 13.8 ST 22.9 OM  2.3 f0 7.23 R0.2267 AL-0.00 WI 20.0 MW  3.1 3
 SPEC AOPRBH Z T213760 K 0.020 GD 99.9 VS 4.43 DE 3.34 Q0400.0 QA 0.70 Q1 1.00 3
 SPEC ABDRBH Z MO 13.4 ST 28.2 OM  1.4 f0 10.5 R0.1561 AL-0.00 WI 20.0 MW  2.9 3
 SPEC ABDRBH Z T2139 3 K 0.020 GD  318 VS 4.43 DE 3.34 Q0400.0 QA 0.70 Q1 1.00 3
 SPEC SDDRBH Z MO 13.9 ST0.888 OM  1.8 f0 2.28 R0.7189 AL-0.00 WI 20.0 MW  3.2 3
 SPEC SDDRBH Z T213924 K 0.020 GD  390 VS 4.43 DE 3.34 Q0400.0 QA 0.70 Q1 1.00 3
 2017-01-01-2137-00S.MAN___096                                                 6
 OLDACT:ARG 17-01-01 23:30 OP:plst STATUS:               ID:20170101213700     3
 ACTION:UP  18-03-02 17:06 OP:JMLC STATUS:               ID:20170101213734 L   I
 OLDACT:UP  17-09-04 15:02 OP:jmlc STATUS:               ID:20170101213734     3
 STAT SP IPHASW D HRMM SECON CODA AMPLIT PERI AZIMU VELO AIN AR TRES W  DIS CAZ7
 AGPR BZ EPg      2137 44.43  111                        106   -0.3310 63.2  69 
 AGPR BN ESg      2137 52.51                             106   -0.0310 63.2  69 
 AGPR BN  IAML    2137 53.31      1138.5 0.35                          63.2  69 
 AGPR BZ  IAML    2137 53.68       523.2 0.25                          63.2  69 
 PCDR BZ EPg      2137 48.97  115                        102    1.7310 80.1 290 
 PCDR HZ ESg      2137 56.36                             102   -0.4810 80.1 290 
 PCDR HZ  IAML    2138  3.87       202.6 0.38                          80.1 290 
 PCDR BZ  IAML    2138  9.16       241.4 0.70                          80.1 290 
 AOPR BZ EPg      2137 49.25  127                         99   -0.5510 97.2  85 
 AOPR BN ESg      2138  1.94                              99    0.6410 97.2  85 
 AOPR BZ  IAML    2138  9.74       161.3 0.15                          97.2  85 
 AOPR BN  IAML    2138 13.16       358.9 0.25                          97.2  85 
 MIDR BZ EPg      2137 59.02  112                         95   -1.1010  166 299 
 MIDR BN ESg      2138 19.72                              95    0.4510  166 299 
 MIDR BN  IAML    2138 21.86        77.8 0.25                           166 299 
 MIDR BZ  IAML    2138 24.29        53.7 0.40                           166 299 
 ABDR BZ EPg      2138 23.13  121                         92   -0.1610  318 281 
 ABDR BN  IAML    2139  8.74        75.8 0.55                           318 281 
 ABDR BZ  IAML    2139 22.28        31.8 1.80                           318 281 
 SDDR BZ EPg      2138 33.92  125                         92   -0.1710  390 282 
 SDDR BZ  IAML    2139 27.58        30.7 0.60                           390 282 
 SDDR BN  IAML    2139 28.02        47.0 0.45                           390 282 
                                                                                
 2017  1 6 2022 37.5 L  18.083 -68.811113.6  DOM  6 0.6 2.2LDOM 3.4CDOM 2.7WDOM1
 SPEC AVERAGE  MO 13.1 ST  4.9 OM  2.7 f0 6.11 R1.1304 AL 0.00 WI 20.0 MW  2.7 3
 SPEC SD       MO  1.0 ST  6.8 OM  1.2 f0 6.95 R1.1452 AL      WI      MW  0.6 3
 GAP=211        1.73      18.9     6.3 18.6  0.7078E+02  0.4139E+02  0.2528E+03E
 SPEC MIDRBH Z MO 12.1 ST 14.6 OM  1.0 f0 15.9 R0.0745 AL-0.00 WI 20.0 MW  2.0 3
 SPEC MIDRBH Z T202310 K 0.020 GD  153 VS 3.20 DE 2.60 Q0400.0 QA 0.70 Q1 1.00 3
 SPEC SMDRBH Z MO 12.7 ST0.106 OM  1.5 f0 1.99 R0.5950 AL-0.00 WI 20.0 MW  2.4 3
 SPEC SMDRBH Z T202316 K 0.020 GD  179 VS 3.20 DE 2.60 Q0400.0 QA 0.70 Q1 1.00 3
 SPEC AGPRBH Z MO 14.4 ST0.053 OM  3.1 f00.435 R2.7218 AL-0.00 WI 20.0 MW  3.5 3
 SPEC AGPRBH Z T202324 K 0.020 GD  217 VS 3.20 DE 2.60 Q0400.0 QA 0.70 Q1 1.00 3
 2017-01-06-2022-00S.MAN___095                                                 6
 ACTION:UP  18-03-02 17:06 OP:JMLC STATUS:               ID:20170106202237 L   I
 OLDACT:ARG 17-01-06 21:10 OP:jmlc STATUS:               ID:20170106202200     3
 STAT SP IPHASW D HRMM SECON CODA AMPLIT PERI AZIMU VELO AIN AR TRES W  DIS CAZ7
 HIDR BZ EPg      2022 53.55   51                        151   -0.3710 57.2  10 
 HIDR BN ESg      2023  5.75                             151   -0.3310 57.2  10 
 HIDR BZ  IAML    2023 41.78        36.9 1.05                          57.2  10 
 MIDR BZ EPg      2022 56.02   46                        134   -1.1910  103 346 
 MIDR BN ESg      2023 11.95                             134    0.1610  103 346 
 MIDR BZ  IAML    2023 13.45        19.7 0.70                           103 346 
 SMDR BZ EPg      2022 59.39   55                        124   -1.1610  139 343 
 SMDR BN ESg      2023 18.39                             124    0.7710  139 343 
 SMDR BZ  IAML    2023 22.92        10.8 1.40                           139 343 
 AGPR BZ EPg      2023  5.53   90                        116    0.3310  185  76 
 AGPR BE ESg      2023 26.29                             116    0.5810  185  76 
 AGPR BZ  IAML    2024  6.19        92.6 1.95                           185  76 
 ABDR BZ EPg      2023  8.49   68                        113    0.4610  208 293 
 ABDR BN ESg      2023 31.35                             113    0.7310  208 293 
 ABDR BZ  IAML    2023 38.70        28.9 2.70                           208 293 
 AOPR BZ EPg      2023  8.65   64                        111   -0.3210  220  82 
 AOPR BN ESg      2023 32.62                             111    0.3510  220  82 
 AOPR BZ  IAML    2023 37.17        23.4 1.05                           220  82 
                                                                                
 2017  116 0907 10.8 L  18.312 -68.026 79.0  DOM  6 0.9 2.8LDOM 3.8CDOM 3.3WDOM1
 SPEC AVERAGE  MO 14.0 ST 14.3 OM  2.8 f0 4.29 R0.5322 AL 0.00 WI 20.0 MW  3.3 3
 SPEC SD       MO  0.4 ST 19.9 OM  0.6 f0 2.47 R0.2819 AL      WI      MW  0.2 3
 GAP=213        2.41      34.2    12.2 17.6  0.3468E+03  0.5950E+01 -0.2805E+02E
 SPEC PCDRBH Z MO 14.3 ST  3.4 OM  2.8 f0 2.67 R0.6236 AL-0.00 WI 20.0 MW  3.5 3
 SPEC PCDRBH Z T 9 730 K 0.020 GD 90.2 VS 4.50 DE 3.40 Q0400.0 QA 0.70 Q1 1.00 3
 SPEC AGPRBH Z MO 13.9 ST 57.0 OM  2.3 f0 9.01 R0.1848 AL-0.00 WI 20.0 MW  3.2 3
 SPEC AGPRBH Z T 9 739 K 0.020 GD  126 VS 4.50 DE 3.40 Q0400.0 QA 0.70 Q1 1.00 3
 SPEC MIDRBH Z MO 13.4 ST  3.2 OM  1.7 f0 5.12 R0.3252 AL-0.00 WI 20.0 MW  2.9 3
 SPEC MIDRBH Z T 9 745 K 0.020 GD  152 VS 4.50 DE 3.40 Q0400.0 QA 0.70 Q1 1.00 3
 SPEC AOPRBH Z MO 14.2 ST 18.2 OM  2.5 f0 4.92 R0.3384 AL-0.00 WI 20.0 MW  3.4 3
 SPEC AOPRBH Z T 9 747 K 0.020 GD  156 VS 4.50 DE 3.40 Q0400.0 QA 0.70 Q1 1.00 3
 SPEC SMDRBH Z MO 13.8 ST0.243 OM  2.0 f0 1.63 R1.0215 AL-0.00 WI 20.0 MW  3.1 3
 SPEC SMDRBH Z T 9 750 K 0.020 GD  181 VS 4.50 DE 3.40 Q0400.0 QA 0.70 Q1 1.00 3
 SPEC NADRBH Z MO 14.5 ST  4.0 OM  2.6 f0 2.38 R0.6996 AL-0.00 WI 20.0 MW  3.6 3
 SPEC NADRBH Z T 9 8 4 K 0.020 GD  238 VS 4.50 DE 3.40 Q0400.0 QA 0.70 Q1 1.00 3
 2017-01-16-0906-00S.MAN___100                                                 6
 OLDACT:ARG 17-01-16 11:16 OP:plst STATUS:               ID:20170116090600     3
 ACTION:UP  18-03-02 17:06 OP:JMLC STATUS:               ID:20170116090710 L   I
 OLDACT:UP  17-01-16 11:31 OP:FMGP STATUS:               ID:20170116090600     3
 STAT SP IPHASW D HRMM SECON CODA AMPLIT PERI AZIMU VELO AIN AR TRES W  DIS CAZ7
 PCDR BZ EPg       9 7 22.75   99                        148   -0.1310 43.6 301 
 PCDR HZ ESg       9 7 31.73                             148   -0.1110 43.6 301 
 PCDR HZ  IAML     9 7 34.44       280.3 0.56                          43.6 301 
 PCDR BZ  IAML     9 7 34.48       338.8 0.60                          43.6 301 
 AGPR BZ EPg       9 7 26.10   96                        123   -1.4810 98.4  80 
 AGPR BN ESg       9 7 40.86                             123    0.8410 98.4  80 
 AGPR BZ  IAML     9 7 43.46       317.6 0.15                          98.4  80 
 AGPR BN  IAML     9 7 43.66       587.0 0.20                          98.4  80 
 MIDR BZ EPg       9 7 30.29  103                        115   -0.7510  131 305 
 MIDR BN ESg       9 7 46.61                             115    0.5810  131 305 
 MIDR BN  IAML     9 7 48.51       153.7 0.50                           131 305 
 MIDR BZ  IAML     9 7 48.74        65.4 0.40                           131 305 
 AOPR BZ EPg       9 7 32.28  109                        114    0.8210  135  88 
 AOPR BZ  IAML     9 7 53.93       332.7 0.35                           135  88 
 AOPR BN  IAML     9 7 57.84       423.3 0.25                           135  88 
 SMDR BZ EPg       9 7 33.32   79                        109   -1.3510  163 312 
 SMDR BN ESg       9 7 51.76                             109   -0.5910  163 312 
 SMDR BN  IAML     9 7 54.51        96.9 0.50                           163 312 
 SMDR BZ  IAML     9 8  1.73        33.1 1.55                           163 312 
 NADR BZ EPg       9 7 43.14  100                        103    1.3110  225 301 
 NADR BN ESg       9 8  5.67                             103    0.8710  225 301 
 NADR BN  IAML     9 8 12.50         7.5 0.45                           225 301 
 NADR BZ  IAML     9 8 29.62       264.9 1.35                           225 301 
                                                                                
 2017  117 0908  0.1 L  19.631 -76.729  0.0  DOM  6 1.5 5.1LDOM 5.1CDOM 4.9WDOM1
 SPEC AVERAGE  MO 16.4 ST  1.3 OM  5.6 f00.270 R4.5196 AL 0.00 WI 20.0 MW  4.9 3
 SPEC SD       MO  2.7 ST  4.7 OM  3.7 f0 5.09 R3.7159 AL      WI      MW  1.8 3
 GAP=220        3.95      56.3    55.5 38.0 -0.2936E+04 -0.5106E+03  0.4753E+02E
 SPEC ABDRBH Z MO 16.1 ST0.841 OM  4.5 f00.302 R3.9205 AL-0.00 WI 20.0 MW  4.7 3
 SPEC ABDRBH Z T 91038 K 0.020 GD  408 VS 3.20 DE 2.60 Q0400.0 QA 0.70 Q1 0.00 3
 SPECBANDRBH Z MO 16.7 ST0.374 OM  5.1 f00.143 R8.2797 AL-0.00 WI 20.0 MW  5.1 3
 SPECBANDRBH Z T 91046 K 0.020 GD  429 VS 3.20 DE 2.60 Q0400.0 QA 0.70 Q1 0.00 3
 SPEC BON1HN Z MO 24.3 ST999.9 OM 12.7 f00.340 R3.4824 AL-0.00 WI 20.0 MW 10.1 3
 SPEC BON1HN Z T 91040 K 0.020 GD  423 VS 3.20 DE 2.60 Q0400.0 QA 0.70 Q1 0.00 3
 SPEC GRTKBH Z MO 16.0 ST  1.2 OM  4.7 f00.343 R3.4519 AL-0.00 WI 20.0 MW  4.6 3
 SPEC GRTKBH Z T 91021 K 0.020 GD  248 VS 3.20 DE 2.60 Q0400.0 QA 0.70 Q1 0.00 3
 SPEC JIDRBH Z MO 16.6 ST  1.0 OM  5.1 f00.220 R5.3818 AL-0.00 WI 20.0 MW  5.0 3
 SPEC JIDRBH Z T 91018 K 0.020 GD  327 VS 3.20 DE 2.60 Q0400.0 QA 0.70 Q1 0.00 3
 SPEC MCDRBH Z MO 16.5 ST  1.3 OM  5.2 f00.246 R4.8130 AL-0.00 WI 20.0 MW  5.0 3
 SPEC MCDRBH Z T 910 9 K 0.020 GD  230 VS 3.20 DE 2.60 Q0400.0 QA 0.70 Q1 0.00 3
 SPEC MIDRBH Z MO 16.1 ST0.152 OM  4.4 f00.171 R6.9240 AL-0.00 WI 20.0 MW  4.7 3
 SPEC MIDRBH Z T 911 4 K 0.020 GD  511 VS 3.20 DE 2.60 Q0400.0 QA 0.70 Q1 0.00 3
 SPEC MTDJBH Z MO 17.0 ST  2.4 OM  5.9 f00.212 R5.5849 AL-0.00 WI 20.0 MW  5.3 3
 SPEC MTDJBH Z T 9 851 K 0.020 GD  133 VS 3.20 DE 2.60 Q0400.0 QA 0.70 Q1 0.00 3
 SPEC SDD BH Z MO 16.3 ST0.108 OM  4.7 f00.126 R9.3968 AL-0.00 WI 20.0 MW  4.8 3
 SPEC SDD BH Z T 911 3 K 0.020 GD  455 VS 3.20 DE 2.60 Q0400.0 QA 0.70 Q1 0.00 3
 SPEC SDDRBH Z MO 15.9 ST0.496 OM  4.6 f00.280 R4.2286 AL-0.00 WI 20.0 MW  4.6 3
 SPEC SDDRBH Z T 91015 K 0.020 GD  239 VS 3.20 DE 2.60 Q0400.0 QA 0.70 Q1 0.00 3
 2017-01-17-0908-00S.MAN___100                                                 6
 OLDACT:ARG 17-01-17 10:30 OP:amrz STATUS:               ID:20170117090800     3
 ACTION:UP  18-03-02 17:06 OP:JMLC STATUS:               ID:20170117090800 L   I
 OLDACT:UP  17-01-17 19:11 OP:FMGP STATUS:               ID:20170117090800     3
 OLDACT:UP  17-01-17 19:09 OP:FMGP STATUS:               ID:20170117090800     3
 OLDACT:UP  17-01-17 19:05 OP:FMGP STATUS:               ID:20170117090800     3
 OLDACT:UP  17-01-17 18:55 OP:FMGP STATUS:               ID:20170117090800     3
 OLDACT:UP  17-01-17 18:53 OP:FMGP STATUS:               ID:20170117090800     3
 OLDACT:UP  17-01-17 18:52 OP:FMGP STATUS:               ID:20170117090800     3
 OLDACT:UP  17-01-17 18:51 OP:FMGP STATUS:               ID:20170117090800     3
 OLDACT:UP  17-01-17 18:50 OP:FMGP STATUS:               ID:20170117090800     3
 OLDACT:UP  17-01-17 18:45 OP:FMGP STATUS:               ID:20170117090800     3
 OLDACT:UP  17-01-17 12:38 OP:FMGP STATUS:               ID:20170117090800     3
 STAT SP IPHASW D HRMM SECON CODA AMPLIT PERI AZIMU VELO AIN AR TRES W  DIS CAZ7
 GTBY BZ EPg    C  9 8 26.04                              90   -1.9710  173  79 
 MTDJ BZ EPg    D  9 8 29.58  195                         90    0.7710  178 209 
 MTDJ BE ESg       9 8 49.20                              90   -0.8210  178 209 
 MTDJ BZ  IAML     9 8 57.06     25299.7 0.70                           178 209 
 PAPH BZ EPn       9 9  4.93  281                         50   -0.5610  482 104 
 MCDR BZ EPn    D  9 9 14.66  276                         50    2.9410  532  86 
 SDDR BZ EPn    C  9 9 18.19  259                         50    0.9710  576  96 
 SDDR BZ  IAML     910 42.35      1226.3 0.55                           576  96 
 GRTK BZ EPn       9 9 21.21  269                         50   -1.3310  620  69 
                                                                                
 2017  123 1654 57.8 L  19.235 -71.478 64.0  DOM  6 0.7 2.6LDOM 3.3CDOM        1
 GAP=140        1.92       7.6     9.8 14.1 -0.5304E+01 -0.3534E+02 -0.1136E+02E
 ACTION:UP  18-03-02 17:06 OP:JMLC STATUS:               ID:20170123165457 L   I
 OLDACT:ARG 17-01-23 18:45 OP:AMMR STATUS:               ID:20170123165300     3
 2017-01-23-1653-00S.MAN___100                                                 6
 STAT SP IPHASW D HRMM SECON CODA AMPLIT PERI AZIMU VELO AIN AR TRES W  DIS CAZ7
 SDDR BZ EPg      1655  7.03   53                        148   -0.7810 34.5 145 
 SDDR BN ESg      1655 15.11                             148   -0.1410 34.5 145 
 SDDR BN  IAML    1655 15.64       324.0 0.80                          34.5 145 
 SDDR BE  IAML    1655 15.98       208.3 0.70                          34.5 145 
 MADR BZ EPg      1655  9.15   53                        135   -0.0610 53.8  47 
 MADR BE  IAML    1655 23.24       355.2 0.15                          53.8  47 
 MADR BN  IAML    1655 23.29       455.2 0.15                          53.8  47 
 MCDR BZ EPg      1655 12.09   64                        124    0.8810 75.1 346 
 MCDR BE  IAML    1655 26.91       415.1 0.15                          75.1 346 
 MCDR BN  IAML    1655 30.46       569.6 0.45                          75.1 346 
 JIDR BZ EPg    D 1655 12.84   66                        118   -0.0310 91.1 206 
 JIDR BE  IAML    1655 26.16       198.0 0.30                          91.1 206 
 JIDR BN  IAML    1655 26.31        94.4 0.45                          91.1 206 
 PODR BZ EPg      1655 15.56   55                        110   -0.7310  120 170 
 PODR BN ESg      1655 31.11                             110    1.1110  120 170 
 PODR BE  IAML    1655 31.28        86.0 0.60                           120 170 
 PODR BN  IAML    1655 32.02        59.0 0.85                           120 170 
 MIDR BZ EPg      1655 31.35   91                         96   -1.0210  257  96 
 MIDR BE ESg      1655 58.76                              96    0.7710  257  96 
 MIDR BN ESg      1655 58.79                              96            257  96 
 MIDR BN  IAML    1655 59.21        23.7 1.15                           257  96 
 MIDR BE  IAML    1655 59.48        26.3 0.55                           257  96 
                                                                                
 2017  126 2214 38.9 L  18.719 -70.345109.1  DOM  6 0.9 2.4LDOM 3.4CDOM        1
 GAP=105        2.30      12.4     8.9 20.7  0.1886E+02 -0.2159E+02 -0.9026E+02E
 ACTION:UP  18-03-02 17:06 OP:JMLC STATUS:               ID:20170126221438 L   I
 OLDACT:ARG 17-01-27 00:04 OP:plst STATUS:               ID:20170126221300     3
 2017-01-26-2213-00S.MAN___100                                                 6
 STAT SP IPHASW D HRMM SECON CODA AMPLIT PERI AZIMU VELO AIN AR TRES W  DIS CAZ7
 ABDR BZ EPg      2214 52.16   52                        163   -1.9610 31.4 289 
 ABDR BN  IAML    2215  4.22       111.0 0.25                          31.4 289 
 BANI BZ EPg      2214 53.77   69                        160   -0.2210 35.6 183 
 BANI BN ESg      2215  5.83                             160    0.7110 35.6 183 
 BANI BN  IAML    2215  7.92       122.8 0.15                          35.6 183 
 SDDR BZ EPg      2214 58.30   65                        132   -0.1510  104 286 
 SDDR BN ESg      2215 12.23                             132   -0.6510  104 286 
 SDDR BN  IAML    2215 16.59        30.6 0.40                           104 286 
 PODR BZ EPg      2215  1.05   71                        129    1.3210  116 238 
 PODR BN  IAML    2215 21.54        35.1 0.45                           116 238 
 MIDR BZ EPg      2215  1.56   92                        123   -0.1810  140  78 
 MIDR BN ESg      2215 18.77                             123    0.1610  140  78 
 MIDR BN  IAML    2215 21.25        11.7 0.20                           140  78 
 LUDR BZ EPg      2215  2.23   56                        122   -0.0310  145 334 
 LUDR BN ESg      2215 20.52                             122    1.0110  145 334 
 LUDR BN  IAML    2215 25.13       206.8 0.35                           145 334 
                                                                                
 2017  127 2145 23.4 L  19.317 -68.130 12.0  DOM  6 0.7 2.5LDOM 3.7CDOM        1
 GAP=228        1.75      21.6     4.2171.7  0.5570E+02 -0.3623E+03 -0.3389E+04E
 ACTION:UP  18-03-02 17:06 OP:JMLC STATUS:               ID:20170127214523 L   I
 OLDACT:ARG 17-01-27 22:19 OP:plst STATUS:               ID:20170127214500     3
 2017-01-27-2145-00S.MAN___100                                                 6
 STAT SP IPHASW D HRMM SECON CODA AMPLIT PERI AZIMU VELO AIN AR TRES W  DIS CAZ7
 PCDR BZ EPg      2145 38.56   70                         97    0.0410 92.8 197 
 PCDR HZ ESg      2145 49.32                              97   -0.3610 92.8 197 
 PCDR HZ  IAML    2145 53.25       112.5 0.38                          92.8 197 
 MIDR BZ EPg    C 2145 41.15   83                         97    0.9110  104 249 
 MIDR BN  IAML    2145 56.09        47.8 0.15                           104 249 
 AGPR BZ EPg      2145 45.60   76                         95   -0.9110  143 131 
 AGPR BN ESg      2146  4.32                              95    0.7210  143 131 
 AGPR BN  IAML    2146  6.05       134.0 1.50                           143 131 
 AOPR BZ EPg      2145 52.40   97                         94   -0.2110  181 126 
 AOPR BN ESg      2146 14.62                              94    0.4210  181 126 
 AOPR BN  IAML    2146 18.03        57.5 0.20                           181 126 
 BANI BZ EPg      2146  4.14  100                         93   -0.6510  256 247 
 BANI BN ESg      2146 34.98                              93   -0.4310  256 247 
 BANI BN  IAML    2146 46.20        74.5 0.35                           256 247 
 ABDR BZ EPg      2146  6.19  102                         93   -0.6310  269 258 
 ABDR BN ESg      2146 40.04                              93    1.1110  269 258 
 ABDR BN  IAML    2146 43.37        28.9 0.35                           269 258 
                                                                                
