 2020  8 2 1901 41.7 L  19.455 -68.815 23.0  DOM  6 0.8 2.4LDOM 3.1CDOM 2.6WDOM1
 SPEC AVERAGE  MO 13.1 ST 12.9 OM  1.3 f0 9.61 R0.2991 AL 0.00 WI 20.0 MW  2.6 3
 SPEC SD       MO  0.4 ST 12.4 OM  0.4 f0 6.39 R0.1994 AL      WI      MW  0.3 3
 GAP=234        2.24      24.1    14.9 68.2  0.2168E+03 -0.9395E+03 -0.7931E+03E
 LOCALITY: 44.8 Km al ENE de Las Galeras. Oceano Atlantico.                    3
 SPEC HIDRBH N MO 12.8 ST 30.1 OM  1.4 f0 16.0 R0.1001 AL-0.00 WI 20.0 MW  2.5 3
 SPEC HIDRBH N T19 2 5 K 0.020 GD 98.8 VS 4.33 DE 3.26 Q0400.0 QA 0.70 Q1 1.00 3
 SPEC MLPRBH N MO 12.6 ST 19.2 OM  0.8 f0 16.0 R0.1001 AL-0.00 WI 20.0 MW  2.4 3
 SPEC MLPRBH N T19 248 K 0.020 GD  250 VS 4.33 DE 3.26 Q0400.0 QA 0.70 Q1 1.00 3
 SPEC AOPRBH N MO 13.7 ST  1.8 OM  1.9 f0 3.11 R0.5151 AL-0.00 WI 20.0 MW  3.1 3
 SPEC AOPRBH N T19 248 K 0.020 GD  250 VS 4.33 DE 3.26 Q0400.0 QA 0.70 Q1 1.00 3
 SPEC CELPBH N MO 13.0 ST0.389 OM  1.1 f0 3.33 R0.4811 AL-0.00 WI 20.0 MW  2.6 3
 SPEC CELPBH N T19 257 K 0.020 GD  281 VS 4.33 DE 3.26 Q0400.0 QA 0.70 Q1 1.00 3
 2020-08-02-1901-00S.MAN___114                                                 6
 OLDACT:ARG 20-08-02 21:11 OP:nr   STATUS:               ID:20200802190100     3
 ACTION:UPD 20-09-29 11:31 OP:jmlc STATUS:               ID:20200802190100     I
 OLDACT:UP  20-08-02 21:31 OP:CGRS STATUS:               ID:20200802190100     3
 OLDACT:UP  20-08-02 21:31 OP:CGRS STATUS:               ID:20200802190100     3
 STAT SP IPHASW D HRMM SECON CODA AMPLIT PERI AZIMU VELO AIN AR TRES W  DIS CAZ7
 SMDR BZ EPg    C 19 1 49.87   34                        115    0.5510 43.3 245 
 SMDR BE ESg    D 19 1 55.40                             115    0.4110 43.3 245 
 HIDR BZ EPg    C 19 1 54.89   39                         99   -2.1410 96.1 174 
 HIDR BN  IAML    19 2  9.29        49.4 0.30                          96.1 174 
 PRSN BZ EPg    C 19 2 16.14   51                         93   -0.0210  223 128 
 PRSN BE ESg    D 19 2 41.72                              93    0.0310  223 128 
 PRSN BN  IAML    19 2 51.58        69.9 0.28                           223 128 
 AOPR BE ESg      19 2 49.08                              93    0.4210  249 119 
 MLPR BZ EPg    C 19 2 19.36   45                         93   -0.7010  249 131 
 MLPR BE ESg    C 19 2 49.52                              93    1.0410  249 131 
 MLPR BN  IAML    19 2 51.24        17.8 0.08                           249 131 
 AOPR BZ EPg    C 19 2 20.40   53                         93    0.2310  249 119 
 AOPR BN  IAML    19 2 53.12        44.2 0.28                           249 119 
 CELP BZ EPg    C 19 2 24.35   60                         93   -0.6210  281 123 
 CELP BE ESg    C 19 2 57.82                              93    0.8010  281 123 
 CELP BN  IAML    19 3  1.04         8.0 0.76                           281 123 
                                                                                
 2020  8 3 0149 40.9 L  20.394 -70.929 13.0  DOM  4 0.7 2.1LDOM 2.6CDOM 2.5WDOM1
 LOCALITY: 55.9 Km al Norte de Luperon. Oceano Atlantico.                      3
 SPEC AVERAGE  MO 12.8 ST0.569 OM  1.5 f0 4.00 R0.3753 AL 0.00 WI 20.0 MW  2.5 3
 SPEC SD       MO  0.3 ST0.066 OM  0.4 f0 1.04 R0.0972 AL      WI      MW  0.2 3
 GAP=309        1.91      12.6    11.9249.1  0.3734E+02  0.4735E+03 -0.1212E+04E
 SPEC MADRBH N MO 13.1 ST0.504 OM  1.9 f0 2.96 R0.4725 AL-0.00 WI 20.0 MW  2.7 3
 SPEC MADRBH N T 150 6 K 0.020 GD 94.3 VS 3.78 DE 2.85 Q0400.0 QA 0.70 Q1 1.00 3
 SPEC SDDRBH N MO 12.5 ST0.635 OM  1.1 f0 5.03 R0.2781 AL-0.00 WI 20.0 MW  2.3 3
 SPEC SDDRBH N T 15022 K 0.020 GD  152 VS 3.78 DE 2.85 Q0400.0 QA 0.70 Q1 1.00 3
 2020-08-03-0149-00S.MAN___114                                                 6
 OLDACT:ARG 20-08-03 01:56 OP:nr   STATUS:               ID:20200803014900     3
 ACTION:UPD 20-09-29 11:31 OP:jmlc STATUS:               ID:20200803014900     I
 OLDACT:UP  20-08-03 02:04 OP:CGRS STATUS:               ID:20200803014900     3
 STAT SP IPHASW D HRMM SECON CODA AMPLIT PERI AZIMU VELO AIN AR TRES W  DIS CAZ7
 LUDR BZ EPg    C  149 50.89   27                         92    0.9210 55.5 183 
 LUDR BE ESg    C  149 55.60                              92   -1.0910 55.5 183 
 MADR BZ EPg       149 55.41   36                         91   -0.3110 93.4 191 
 MADR BE ESg    C  150  7.82                              91    1.1210 93.4 191 
 MADR BN  IAML     150  8.50       125.7 0.95                          93.4 191 
 MCDR BZ EPg    C  149 55.08   29                         91   -0.7610 94.2 234 
 MCDR BE ESg    C  150  7.23                              91    0.3310 94.2 234 
 MCDR BN  IAML     150 32.58        57.3 3.45                          94.2 234 
 SDDR BZ EPg       150  6.23   34                         90    0.2410  161 194 
 SDDR BE ESg    C  150 24.12                              90   -0.4410  161 194 
 SDDR BN  IAML     150 26.72        20.8 1.00                           161 194 
                                                                                
 2020  8 3 0252 25.9 L  17.918 -67.004 12.0  DOM  6 0.4 2.8LDOM 2.8CDOM 2.8WDOM1
 LOCALITY: 34.6 Km al SSE de Mayaguez. Region de Puerto Rico.                  3
 SPEC AVERAGE  MO 13.3 ST  4.5 OM  2.4 f0 4.64 R0.3194 AL 0.00 WI 20.0 MW  2.8 3
 SPEC SD       MO  0.3 ST  3.6 OM  0.5 f0 1.27 R0.0806 AL      WI      MW  0.2 3
 GAP=224        0.97       4.2     2.3  4.4  0.7319E+00 -0.1956E+01 -0.4451E+01E
 SPEC MLPRBH N MO 13.4 ST 11.1 OM  3.1 f0 6.26 R0.2205 AL-0.00 WI 20.0 MW  2.9 3
 SPEC MLPRBH N T 25227 K 0.020 GD 14.0 VS 3.73 DE 2.83 Q0400.0 QA 0.70 Q1 1.00 3
 SPEC CELPBH N MO 12.9 ST  2.9 OM  2.0 f0 6.10 R0.2262 AL-0.00 WI 20.0 MW  2.5 3
 SPEC CELPBH N T 25237 K 0.020 GD 50.0 VS 3.73 DE 2.83 Q0400.0 QA 0.70 Q1 1.00 3
 SPEC AOPRBH N MO 13.7 ST  5.5 OM  2.8 f0 3.93 R0.3512 AL-0.00 WI 20.0 MW  3.1 3
 SPEC AOPRBH N T 25239 K 0.020 GD 55.6 VS 3.73 DE 2.83 Q0400.0 QA 0.70 Q1 1.00 3
 SPEC AGPRBH N MO 13.5 ST  2.0 OM  2.5 f0 3.38 R0.4083 AL-0.00 WI 20.0 MW  2.9 3
 SPEC AGPRBH N T 25241 K 0.020 GD 63.3 VS 3.73 DE 2.83 Q0400.0 QA 0.70 Q1 1.00 3
 SPEC HIDRBH N MO 13.1 ST0.963 OM  1.7 f0 3.53 R0.3910 AL-0.00 WI 20.0 MW  2.7 3
 SPEC HIDRBH N T 25317 K 0.020 GD  169 VS 3.73 DE 2.83 Q0400.0 QA 0.70 Q1 1.00 3
 2020-08-03-0252-00S.MAN___114                                                 6
 OLDACT:ARG 20-08-03 03:28 OP:nr   STATUS:               ID:20200803025200     3
 ACTION:UPD 20-09-29 11:31 OP:jmlc STATUS:               ID:20200803025200     I
 OLDACT:UP  20-08-03 03:30 OP:CGRS STATUS:               ID:20200803025200     3
 STAT SP IPHASW D HRMM SECON CODA AMPLIT PERI AZIMU VELO AIN AR TRES W  DIS CAZ7
 MLPR BZ EPg    C  252 27.98   19                        148   -0.2110 7.07 323 
 MLPR BE ESg    C  252 29.48                             148   -0.3810 7.07 323 
 MLPR BN  IAML     252 29.58      4517.4 0.40                          7.07 323 
 PRSN BZ EPg    C  252 32.25   30                         92    0.1610 36.3 336 
 PRSN BE ESg    C  252 36.73                              92    0.0710 36.3 336 
 PRSN BN  IAML     252 37.73      4839.0 0.28                          36.3 336 
 CELP BZ EPg    D  252 34.02   36                         91    0.0610 48.5  69 
 CELP BE ESg    C  252 39.36                              91   -0.5410 48.5  69 
 CELP BN  IAML     252 41.72       206.5 0.48                          48.5  69 
 AOPR BZ EPg    C  252 34.66   50                         90   -0.1810 54.3  29 
 AOPR BN  IAML     252 41.19       976.7 0.28                          54.3  29 
 AOPR BE ESg    C  252 41.23                              90   -0.2010 54.3  29 
 AGPR BZ EPg    C  252 36.30   41                         90    0.3010 62.1 350 
 AGPR BE ESg    C  252 43.18                              90   -0.2810 62.1 350 
 HIDR BZ EPg    D  252 57.03   64                         90    0.7910  196 293 
 HIDR BE ESg    C  253 19.09                              90    0.4110  196 293 
 HIDR BN  IAML     253 34.69        50.4 1.65                           196 293 
                                                                                
 2020  8 3 0527 45.0 L  20.101 -70.814 31.0  DOM  7 0.9 2.0LDOM 3.0CDOM 3.6WDOM1
 LOCALITY: 27.9 Km al NE de Luperon. Oceano Atlantico.                         3
 SPEC AVERAGE  MO 14.4 ST0.006 OM  2.8 f00.279 R5.9677 AL 0.00 WI 20.0 MW  3.6 3
 SPEC SD       MO  0.0 ST0.000 OM  0.0 f00.000 R0.0000 AL      WI      MW  0.0 3
 GAP=159        2.38       5.6     8.9 17.7  0.9478E+01 -0.1433E+02 -0.1728E+02E
 SPEC SDDRBH N MO 14.4 ST0.006 OM  2.8 f00.279 R5.9677 AL-0.00 WI 20.0 MW  3.6 3
 SPEC SDDRBH N T 52818 K 0.020 GD  137 VS 4.50 DE 3.40 Q0400.0 QA 0.70 Q1 1.00 3
 2020-08-03-0527-00S.MAN___114                                                 6
 OLDACT:ARG 20-08-03 09:40 OP:nr   STATUS:               ID:20200803052700     3
 ACTION:UPD 20-09-29 11:31 OP:jmlc STATUS:               ID:20200803052700     I
 OLDACT:UP  20-08-03 09:47 OP:CGRS STATUS:               ID:20200803052700     3
 STAT SP IPHASW D HRMM SECON CODA AMPLIT PERI AZIMU VELO AIN AR TRES W  DIS CAZ7
 LUDR BZ EPg    C  527 51.56   63                        127    0.2410 27.2 212 
 LUDR BE ESg    C  527 55.20                             127   -0.7910 27.2 212 
 SODR BZ EPg    C  527 52.85   51                         96   -0.5910 45.9 147 
 SODR BE ESg    C  528  0.13                              96    0.4510 45.9 147 
 SODR BN  IAML     528  5.53       117.5 2.10                          45.9 147 
 SC01 BZ EPg    C  527 57.22   47                         90    0.1310 75.1 173 
 SC01 BE ESg    C  528  5.54                              90   -0.4910 75.1 173 
 SC01 BN  IAML     528 28.64        41.9 3.15                          75.1 173 
 MCDR BZ EPg    C  527 58.25   46                         90   -0.8210 91.2 255 
 MCDR BE ESg    C  528  9.61                              90    0.1410 91.2 255 
 MCDR BN  IAML     528 51.91        37.6 0.75                          91.2 255 
 SDDR BZ EPg    C  528  6.43   38                         90    2.0210  134 202 
 SDDR BE ESg    C  528 19.68                              90    0.9110  134 202 
 SDDR BN  IAML     528 28.08        12.1 0.45                           134 202 
 GRTK BZ EPg    C  528  6.18   44                         90   -1.3810  160 348 
 GRTK BN  IAML     528 24.71        33.5 1.60                           160 348 
 GRTK BE ESg    C  528 25.46                              90    1.2110  160 348 
 NEDR BZ EPg    C  528 10.80   34                         90   -0.7610  192 201 
 NEDR BE ESg    C  528 30.94                              90   -0.2710  192 201 
 NEDR BN  IAML     528 45.54        24.6 4.10                           192 201 
                                                                                
 2020  8 3 0649 50.1 L  20.417 -70.742 22.0  DOM 10 0.9 2.4LDOM 3.4CDOM 3.2WDOM1
 LOCALITY: 62.7 Km al NNE de Luperon. Oceano Atlantico.                        3
 SPEC AVERAGE  MO 13.9 ST 13.0 OM  2.3 f0 3.96 R0.8197 AL 0.00 WI 20.0 MW  3.2 3
 SPEC SD       MO  0.4 ST 27.4 OM  0.5 f0 4.01 R0.5231 AL      WI      MW  0.2 3
 GAP=254        2.39      10.0     6.8 34.7  0.1386E+02 -0.7928E+02 -0.1384E+03E
 SPEC SODRBH N MO 14.1 ST0.143 OM  2.7 f0 1.06 R1.5463 AL-0.00 WI 20.0 MW  3.3 3
 SPEC SODRBH N T 65010 K 0.020 GD 78.9 VS 4.43 DE 3.34 Q0400.0 QA 0.70 Q1 1.00 3
 SPEC MADRBH N MO 14.4 ST  1.4 OM  2.9 f0 1.78 R0.9208 AL-0.00 WI 20.0 MW  3.5 3
 SPEC MADRBH N T 65017 K 0.020 GD  103 VS 4.43 DE 3.34 Q0400.0 QA 0.70 Q1 1.00 3
 SPEC SC01BH N MO 13.7 ST0.466 OM  2.2 f0 2.05 R0.7996 AL-0.00 WI 20.0 MW  3.1 3
 SPEC SC01BH N T 65019 K 0.020 GD  112 VS 4.43 DE 3.34 Q0400.0 QA 0.70 Q1 1.00 3
 SPEC MCDRBH N MO 13.7 ST  7.5 OM  2.2 f0 5.15 R0.3183 AL-0.00 WI 20.0 MW  3.1 3
 SPEC MCDRBH N T 65021 K 0.020 GD  114 VS 4.43 DE 3.34 Q0400.0 QA 0.70 Q1 1.00 3
 SPEC SDDRBH N MO 14.5 ST0.389 OM  2.8 f0 1.06 R1.5463 AL-0.00 WI 20.0 MW  3.6 3
 SPEC SDDRBH N T 65033 K 0.020 GD  170 VS 4.43 DE 3.34 Q0400.0 QA 0.70 Q1 1.00 3
 SPEC BADRBH N MO 13.5 ST 79.9 OM  1.7 f0 13.2 R0.1242 AL-0.00 WI 20.0 MW  3.0 3
 SPEC BADRBH N T 65050 K 0.020 GD  228 VS 4.43 DE 3.34 Q0400.0 QA 0.70 Q1 1.00 3
 SPEC NEDRBH N MO 13.5 ST  1.4 OM  1.7 f0 3.40 R0.4821 AL-0.00 WI 20.0 MW  3.0 3
 SPEC NEDRBH N T 65049 K 0.020 GD  228 VS 4.43 DE 3.34 Q0400.0 QA 0.70 Q1 1.00 3
 2020-08-03-0649-00S.MAN___114                                                 6
 OLDACT:ARG 20-08-03 09:14 OP:nr   STATUS:               ID:20200803064900     3
 ACTION:UPD 20-09-29 11:31 OP:jmlc STATUS:               ID:20200803064900     I
 OLDACT:UP  20-08-03 09:24 OP:CGRS STATUS:               ID:20200803064900     3
 STAT SP IPHASW D HRMM SECON CODA AMPLIT PERI AZIMU VELO AIN AR TRES W  DIS CAZ7
 LUDR BZ EPg    C  650  0.33   55                        106   -0.0810 62.0 201 
 LUDR BE ESg    C  650  7.65                             106   -0.4010 62.0 201 
 SODR BZ EPg    C  650  2.00   67                        103   -0.3910 75.5 167 
 SODR BE ESg    C  650 12.02                             103    0.5310 75.5 167 
 SODR BN  IAML     650 27.92       246.1 0.75                          75.5 167 
 MADR BZ EPg    C  650  6.40   60                         99    0.1410  101 202 
 MADR BE ESg    C  650 18.81                              99    0.5810  101 202 
 MADR BN  IAML     650 19.61       501.2 0.60                           101 202 
 SC01 BZ EPg    C  650  8.42   81                         98    0.9410  110 179 
 SC01 BE ESg    C  650 20.53                              98    0.1810  110 179 
 SC01 BN  IAML     650 31.73       126.9 0.45                           110 179 
 MCDR BZ EPg    D  650  8.52   51                         98    0.7010  112 239 
 MCDR BE ESg    D  650 22.93                              98    1.9810  112 239 
 MCDR BN  IAML     650 23.71       175.0 0.20                           112 239 
 SDDR BZ EPg    C  650 15.77   55                         95   -0.7010  169 200 
 SDDR BE ESg    C  650 35.10                              95   -0.9010  169 200 
 SDDR BN  IAML     650 37.17       186.0 0.60                           169 200 
 ABDR BZ EPg    C  650 16.41   46                         94   -1.5410  178 176 
 ABDR BE ESg    C  650 37.80                              94   -0.7610  178 176 
 ABDR BN  IAML     651 22.28         0.2 0.30                           178 176 
 NEDR BZ EPg    D  650 24.43   72                         93   -0.7910  227 200 
 NEDR BN  IAML     650 51.10        34.2 0.80                           227 200 
 BADR BZ EPg    C  650 25.66   64                         93    0.4110  227 170 
 BADR BE ESg    C  650 51.58                              93    0.3210  227 170 
 BADR BN  IAML     651 37.15        69.7 2.45                           227 170 
 NEDR BE ESg    C  650 50.60                              93   -0.6210  227 200 
 HIDR BZ EPg    C  650 34.07   86                         92   -1.1710  293 133 
 HIDR BE ESg    C  651 10.20                              92    1.5510  293 133 
 HIDR BN  IAML     651 25.57        35.2 0.20                           293 133 
                                                                                
 2020  8 3 1430 35.9 L  18.681 -71.642 15.0  DOM  5 0.5 1.8LDOM 2.7CDOM 2.3WDOM1
 LOCALITY: 6.0 Km al OSO de Juan Santiago. Elias Pina.                         3
 SPEC AVERAGE  MO 12.6 ST 10.0 OM  1.7 f0 8.03 R0.2839 AL 0.00 WI 20.0 MW  2.3 3
 SPEC SD       MO  0.1 ST 13.6 OM  0.1 f0 5.70 R0.1576 AL      WI      MW  0.0 3
 GAP=208        1.39       3.5     9.9 12.7  0.1560E+02  0.4635E+02 -0.9419E+01E
 SPEC NEDRBH N MO 12.6 ST0.696 OM  1.8 f0 5.06 R0.2852 AL-0.00 WI 20.0 MW  2.3 3
 SPEC NEDRBH N T143044 K 0.020 GD 32.3 VS 3.90 DE 2.90 Q0400.0 QA 0.70 Q1 1.00 3
 SPEC SDDRBH N MO 12.6 ST0.152 OM  1.6 f0 3.03 R0.4762 AL-0.00 WI 20.0 MW  2.3 3
 SPEC SDDRBH N T143048 K 0.020 GD 51.9 VS 3.90 DE 2.90 Q0400.0 QA 0.70 Q1 1.00 3
 SPEC REDRBH N MO 12.7 ST 29.2 OM  1.6 f0 16.0 R0.0902 AL-0.00 WI 20.0 MW  2.4 3
 SPEC REDRBH N T143053 K 0.020 GD 67.9 VS 3.90 DE 2.90 Q0400.0 QA 0.70 Q1 1.00 3
 2020-08-03-1429-00S.MAN___111                                                 6
 OLDACT:ARG 20-08-03 16:34 OP:AMMR STATUS:               ID:20200803142900     3
 ACTION:UPD 20-09-29 11:31 OP:jmlc STATUS:               ID:20200803142900     I
 OLDACT:UP  20-08-03 16:38 OP:AMMR STATUS:               ID:20200803142900     3
 OLDACT:UP  20-08-03 16:38 OP:AMMR STATUS:               ID:20200803142900     3
 STAT SP IPHASW D HRMM SECON CODA AMPLIT PERI AZIMU VELO AIN AR TRES W  DIS CAZ7
 NEDR BZ EPg      1430 41.20   29                        112    0.1410 28.6 140 
 NEDR BN ESg      1430 45.68                             112    0.8210 28.6 140 
 NEDR BE  IAML    1430 47.70        74.1 0.25                          28.6 140 
 NEDR BN  IAML    1430 48.78        94.7 0.55                          28.6 140 
 SDDR BE ESg    C 1430 49.96                              99   -0.3410 49.7  48 
 SDDR BN  IAML    1430 52.14        31.7 0.30                          49.7  48 
 SDDR BE  IAML    1430 52.54        30.7 1.00                          49.7  48 
 REDR BZ EPg    C 1430 46.27   49                         95   -0.4110 66.2 355 
 REDR BN ESg    C 1430 55.02                              95    0.3810 66.2 355 
 REDR BE  IAML    1430 55.21        56.6 0.30                          66.2 355 
 REDR BN  IAML    1430 56.47        85.3 0.15                          66.2 355 
 PODR BZ EPg      1430 46.07   36                         95   -1.0210 68.5 146 
 PODR BN ESg    C 1430 55.45                              95    0.1110 68.5 146 
 PODR BN  IAML    1430 55.55       113.2 0.25                          68.5 146 
 PODR BE  IAML    1430 56.44       160.7 0.10                          68.5 146 
 MCDR BE ESg      1431 12.76                              92    0.3210  134 359 
 MCDR BE  IAML    1431 13.61        26.8 0.28                           134 359 
 MCDR BN  IAML    1431 14.41        36.8 1.10                           134 359 
                                                                                
