 2020 12 1 0108 37.80L  18.105 -71.365 21.7  DOM  4 0.6 3.0LDOM 2.5CDOM 2.7WDOM1
 SPEC AVERAGE  MO 13.1 ST  3.1 OM  1.9 f0 5.76 R0.2828 AL 0.00 WI 20.0 MW  2.7 3
 SPEC SD       MO  0.2 ST  2.3 OM  0.5 f00.719 R0.0364 AL      WI      MW  0.1 3
 GAP=257        1.60      11.3     9.0  6.8  0.3506E+02  0.2320E+02 -0.2458E+02E
 SPEC PODRBH N MO 13.3 ST  7.1 OM  2.5 f0 6.76 R0.2370 AL-0.00 WI 20.0 MW  2.8 3
 SPEC PODRBH N T 1 844 K 0.020 GD 24.4 VS 4.33 DE 3.26 Q0400.0 QA 0.70 Q1 0.00 3
 SPEC NEDRBH N MO 13.2 ST  1.9 OM  2.1 f0 4.73 R0.3387 AL-0.00 WI 20.0 MW  2.8 3
 SPEC NEDRBH N T 1 849 K 0.020 GD 48.4 VS 4.33 DE 3.26 Q0400.0 QA 0.70 Q1 0.00 3
 SPEC JIDRBH N MO 13.0 ST  2.1 OM  1.7 f0 5.82 R0.2753 AL-0.00 WI 20.0 MW  2.6 3
 SPEC JIDRBH N T 1 856 K 0.020 GD 70.6 VS 4.33 DE 3.26 Q0400.0 QA 0.70 Q1 0.00 3
 SPEC REDRBH N MO 12.8 ST  1.2 OM  1.2 f0 5.72 R0.2801 AL-0.00 WI 20.0 MW  2.5 3
 SPEC REDRBH N T 1 911 K 0.020 GD  135 VS 4.33 DE 3.26 Q0400.0 QA 0.70 Q1 0.00 3
 LOCALITY: 9.7 Km al Oeste de Polo. Barahona.                                  3
 2020-12-01-0107-00S.MAN___123                                                 6
 OLDACT:ARG 20-12-01 03:08 OP:njm  STATUS:               ID:20201201010700     3
 OLDACT:UP  20-12-01 03:11 OP:JMLC STATUS:               ID:20201201010700     3
 OLDACT:UP  20-12-01 03:11 OP:JMLC STATUS:               ID:20201201010700     3
 ACTION:UP  22-01-13 17:41 OP:jmlc STATUS:               ID:20201201010837 L   I
 OLDACT:UP  20-12-01 03:14 OP:JMLC STATUS:               ID:20201201010700     3
 STAT SP IPHASW D HRMM SECON CODA AMPLIT PERI AZIMU VELO AIN AR TRES W  DIS CAZ7
 PODR BZ IP        1 8 41.80   23                        152   -0.0910 11.1  53 
 PODR BE IS     D  1 8 45.63                             152    0.7310 11.1  53 
 PODR BN  IAML     1 8 49.10      5532.7 0.30                          11.1  53 
 NEDR BZ IP     D  1 8 44.30   23                        108   -1.0810 43.3 345 
 NEDR BE IS     C  1 8 50.50                             108   -0.4710 43.3 345 
 NEDR BN  IAML     1 8 52.35      1640.0 0.35                          43.3 345 
 JIDR BZ IP     C  1 8 48.42   28                         96   -0.3710 67.2 310 
 JIDR BE IS     D  1 8 57.61                              96    0.7010 67.2 310 
 JIDR BN  IAML     1 9  6.09       553.0 0.30                          67.2 310 
 REDR BZ IP     C  1 8 57.83   49                         59   -0.0910  134 345 
 REDR BE IS     C  1 9 13.44                              59    0.6610  134 345 
 REDR BN  IAML     1 9 16.18       132.0 0.25                           134 345 
                                                                                
 2020 12 1 0202 26.00L  18.146 -71.246 29.1  DOM  3 0.1 2.6LDOM 2.4CDOM 2.5WDOM1
 SPEC AVERAGE  MO 12.8 ST  2.4 OM  2.3 f0 5.79 R0.3036 AL 0.00 WI 20.0 MW  2.5 3
 SPEC SD       MO  0.2 ST  2.7 OM  0.8 f0 1.36 R0.0695 AL      WI      MW  0.2 3
 GAP=333        0.41       4.3     7.9  2.8  0.2457E+02  0.1872E+02  0.5823E+01E
 SPEC PODRBH N MO 13.2 ST  6.3 OM  2.2 f0 7.58 R0.2197 AL-0.00 WI 20.0 MW  2.7 3
 SPEC PODRBH N T 2 232 K 0.020 GD 29.4 VS 4.50 DE 3.40 Q0400.0 QA 0.70 Q1 0.00 3
 SPEC NEDRBH N MO 12.7 ST0.402 OM  1.5 f0 4.27 R0.3899 AL-0.00 WI 20.0 MW  2.4 3
 SPEC NEDRBH N T 2 238 K 0.020 GD 52.8 VS 4.50 DE 3.40 Q0400.0 QA 0.70 Q1 0.00 3
 SPEC JIDRBH N MO 12.6 ST0.665 OM  1.2 f0 5.53 R0.3011 AL-0.00 WI 20.0 MW  2.4 3
 SPEC JIDRBH N T 2 245 K 0.020 GD 80.3 VS 4.50 DE 3.40 Q0400.0 QA 0.70 Q1 0.00 3
 LOCALITY: 7.0 Km al NNE de Polo. Barahona.                                    3
 2020-12-01-0201-00S.MAN___123                                                 6
 OLDACT:UP  20-12-01 03:13 OP:JMLC STATUS:               ID:20201201020100     3
 OLDACT:ARG 20-12-01 03:09 OP:njm  STATUS:               ID:20201201020100     3
 OLDACT:UP  20-12-01 03:14 OP:JMLC STATUS:               ID:20201201020100     3
 OLDACT:UP  20-12-01 03:14 OP:JMLC STATUS:               ID:20201201020100     3
 ACTION:UP  22-01-13 17:41 OP:jmlc STATUS:               ID:20201201020226 L   I
 OLDACT:UP  20-12-01 03:17 OP:JMLC STATUS:               ID:20201201020100     3
 STAT SP IPHASW D HRMM SECON CODA AMPLIT PERI AZIMU VELO AIN AR TRES W  DIS CAZ7
 PODR BZ IP     C  2 2 30.88   22                        171    0.1510 4.36 301 
 PODR BE IS     C  2 2 34.16                             171   -0.0910 4.36 301 
 PODR BN  IAML     2 2 38.53      2518.1 0.35                          4.36 301 
 NEDR BZ IP     C  2 2 34.05   25                        117    0.0410 44.1 328 
 NEDR BE IS     D  2 2 39.94                             117   -0.0210 44.1 328 
 NEDR BN  IAML     2 2 41.24       277.7 0.30                          44.1 328 
 JIDR BZ IP     C  2 2 37.89   29                         62   -0.1910 74.8 301 
 JIDR BE IS     D  2 2 47.16                              62    0.1110 74.8 301 
 JIDR BN  IAML     2 2 49.80       246.5 0.30                          74.8 301 
                                                                                
 2020 12 1 0454 52.60L  17.989 -71.347 18.7  DOM  3 0.3 2.1LDOM 2.5CDOM 2.1WDOM1
 SPEC AVERAGE  MO 12.2 ST0.987 OM  2.3 f0 6.31 R0.2740 AL 0.00 WI 20.0 MW  2.1 3
 SPEC SD       MO  0.2 ST0.878 OM  1.2 f0 2.07 R0.0899 AL      WI      MW  0.1 3
 GAP=297        0.86       8.5     4.9  3.5  0.4832E+01  0.6670E+01 -0.2918E+01E
 SPEC PODRBH N MO 12.4 ST  1.9 OM  1.6 f0 8.38 R0.1841 AL-0.00 WI 20.0 MW  2.2 3
 SPEC PODRBH N T 45459 K 0.020 GD 28.0 VS 4.17 DE 3.13 Q0400.0 QA 0.70 Q1 0.00 3
 SPEC JIDRBH N MO 12.1 ST0.109 OM  0.8 f0 4.24 R0.3639 AL-0.00 WI 20.0 MW  2.0 3
 SPEC JIDRBH N T 45513 K 0.020 GD 79.6 VS 4.17 DE 3.13 Q0400.0 QA 0.70 Q1 0.00 3
 LOCALITY: 13.1 Km al SSO de Polo. Barahona.                                   3
 2020-12-01-0454-00S.MAN___123                                                 6
 OLDACT:ARG 20-12-01 10:14 OP:njm  STATUS:               ID:20201201045400     3
 OLDACT:UP  20-12-01 10:25 OP:JMLC STATUS:               ID:20201201045400     3
 OLDACT:UP  20-12-01 10:24 OP:JMLC STATUS:               ID:20201201045400     3
 ACTION:UP  22-01-13 17:41 OP:jmlc STATUS:               ID:20201201045452 L   I
 OLDACT:UP  20-12-01 11:22 OP:JMLC STATUS:               ID:20201201045400     3
 STAT SP IPHASW D HRMM SECON CODA AMPLIT PERI AZIMU VELO AIN AR TRES W  DIS CAZ7
 PODR BZ IP     C  454 57.07   22                        132   -0.1110 20.8  19 
 PODR BE IS     C  455  0.65                             132    0.0610 20.8  19 
 PODR BN  IAML     455  4.77       763.1 0.30                          20.8  19 
 JIDR BZ IP     C  455  4.63   26                         98   -0.4210 77.4 316 
 JIDR BE IS     D  455 14.53                              98    0.2410 77.4 316 
 JIDR BN  IAML     455 16.04        69.1 0.30                          77.4 316 
 REDR BZ IP     C  455 15.06   34                         55    0.5310  147 345 
 REDR BE IS     D  455 30.46                              55   -0.3110  147 345 
 REDR BN  IAML     455 30.81        16.7 0.25                           147 345 
                                                                                
 2020 12 1 0610 41.90L  18.110 -71.548  0.0  DOM  4 0.6 1.6LDOM 2.2CDOM 1.7WDOM1
 SPEC AVERAGE  MO 11.7 ST0.458 OM  2.4 f0 6.68 R0.1774 AL 0.00 WI 20.0 MW  1.7 3
 SPEC SD       MO  0.2 ST0.241 OM  1.2 f00.190 R0.0050 AL      WI      MW  0.1 3
 GAP=275        1.70       8.6     8.8  9.1  0.5056E+02 -0.8834E+01  0.3593E+01E
 SPEC PODRBH N MO 11.9 ST0.698 OM  1.5 f0 6.87 R0.1723 AL-0.00 WI 20.0 MW  1.9 3
 SPEC PODRBH N T 61048 K 0.020 GD 28.8 VS 3.20 DE 2.60 Q0400.0 QA 0.70 Q1 0.00 3
 SPEC NEDRBH N MO 11.5 ST0.217 OM  0.9 f0 6.49 R0.1824 AL-0.00 WI 20.0 MW  1.6 3
 SPEC NEDRBH N T 61053 K 0.020 GD 42.2 VS 3.20 DE 2.60 Q0400.0 QA 0.70 Q1 0.00 3
 LOCALITY: 15.4 Km al NE de Cabo Rojo. Pedernales.                             3
 2020-12-01-0610-00S.MAN___123                                                 6
 OLDACT:ARG 20-12-01 10:15 OP:njm  STATUS:               ID:20201201061000     3
 OLDACT:UP  20-12-01 10:29 OP:JMLC STATUS:               ID:20201201061000     3
 OLDACT:UP  20-12-01 10:28 OP:JMLC STATUS:               ID:20201201061000     3
 ACTION:UP  22-01-13 17:41 OP:jmlc STATUS:               ID:20201201061041 L   I
 OLDACT:UP  21-11-09 11:09 OP:CGRS STATUS:               ID:20201201061000     3
 OLDACT:UP  21-11-09 11:07 OP:CGRS STATUS:               ID:20201201061000     3
 OLDACT:UP  21-11-09 11:07 OP:CGRS STATUS:               ID:20201201061000     3
 OLDACT:UP  20-12-01 11:24 OP:JMLC STATUS:               ID:20201201061000     3
 STAT SP IPHASW D HRMM SECON CODA AMPLIT PERI AZIMU VELO AIN AR TRES W  DIS CAZ7
 PODR BZ IP     C  610 46.08   10                         93   -0.5210 28.8  77 
 PODR BE IS        610 49.66                              93   -0.3910 28.8  77 
 PODR BN  IAML     610 51.55       716.5 0.30                          28.8  77 
 NEDR BZ EPg       610 48.60   16                         90   -0.1510 42.2  11 
 NEDR BE ISg    C  610 54.10                              90    0.3110 42.2  11 
 NEDR BE IS        610 54.43                              90    0.6410 42.2  11 
 NEDR BN  IAML     610 54.82       100.7 0.25                          42.2  11 
 NEDR HN  IAML     611 22.75         8.3 0.36                          42.2  11 
 REDR BZ IP     C  611  2.78   23                         90   -0.1510  130 353 
 REDR BE IS        611 17.50                              90   -0.9710  130 353 
 REDR BN  IAML     611 21.63         9.5 0.25                           130 353 
 SFDR BZ IP        611 12.21   40                         50    1.3510  189  46 
 SFDR BN IS        611 32.13                              50   -0.1310  189  46 
                                                                                
 2020 12 1 0811 14.80L  19.155 -67.221  0.0  DOM 11 0.5 2.8LDOM 3.2CDOM 2.8WDOM1
 SPEC AVERAGE  MO 13.3 ST  5.5 OM  2.6 f0 4.31 R0.3611 AL 0.00 WI 20.0 MW  2.8 3
 SPEC SD       MO  0.3 ST  4.5 OM  0.4 f0 2.17 R0.1875 AL      WI      MW  0.2 3
 GAP=220        1.29       4.3     3.0  5.0  0.8355E+01 -0.3058E+01 -0.7903E+01E
 SPEC AOPRBH N MO 13.4 ST  6.5 OM  2.4 f0 4.77 R0.2482 AL-0.00 WI 20.0 MW  2.8 3
 SPEC AOPRBH N T 81141 K 0.020 GD  100 VS 3.20 DE 2.60 Q0400.0 QA 0.70 Q1 0.00 3
 SPEC PRSNBH N MO 13.2 ST 11.4 OM  2.2 f0 6.69 R0.1770 AL-0.00 WI 20.0 MW  2.7 3
 SPEC PRSNBH N T 81144 K 0.020 GD  101 VS 3.20 DE 2.60 Q0400.0 QA 0.70 Q1 0.00 3
 SPEC CRPRBH N MO 13.3 ST  3.4 OM  2.3 f0 4.01 R0.2953 AL-0.00 WI 20.0 MW  2.8 3
 SPEC CRPRBH N T 81149 K 0.020 GD  113 VS 3.20 DE 2.60 Q0400.0 QA 0.70 Q1 0.00 3
 SPEC PCDRBH N MO 13.2 ST0.474 OM  2.2 f0 2.20 R0.5382 AL-0.00 WI 20.0 MW  2.8 3
 SPEC PCDRBH N T 81153 K 0.020 GD  118 VS 3.20 DE 2.60 Q0400.0 QA 0.70 Q1 0.00 3
 SPEC HIDRBH N MO 13.0 ST 12.3 OM  1.9 f0 7.96 R0.1487 AL-0.00 WI 20.0 MW  2.6 3
 SPEC HIDRBH N T 81158 K 0.020 GD  130 VS 3.20 DE 2.60 Q0400.0 QA 0.70 Q1 0.00 3
 SPEC SADRBH N MO 13.6 ST0.505 OM  2.5 f0 1.69 R0.7006 AL-0.00 WI 20.0 MW  3.0 3
 SPEC SADRBH N T 812 9 K 0.020 GD  140 VS 3.20 DE 2.60 Q0400.0 QA 0.70 Q1 0.00 3
 SPEC NADRBH N MO 13.8 ST  3.5 OM  2.6 f0 2.82 R0.4199 AL-0.00 WI 20.0 MW  3.1 3
 SPEC NADRBH N T 81232 K 0.020 GD  166 VS 3.20 DE 2.60 Q0400.0 QA 0.70 Q1 0.00 3
 LOCALITY: 195.8 Km al Este de Miches. Oceano Atlantico.                       3
 2020-12-01-0810-00S.MAN___123                                                 6
 OLDACT:ARG 20-12-01 10:15 OP:njm  STATUS:               ID:20201201081000     3
 OLDACT:UP  20-12-01 10:35 OP:JMLC STATUS:               ID:20201201081000     3
 OLDACT:UP  20-12-01 10:35 OP:JMLC STATUS:               ID:20201201081000     3
 ACTION:UP  22-01-13 17:41 OP:jmlc STATUS:               ID:20201201081114 L   I
 OLDACT:UP  21-11-09 11:12 OP:CGRS STATUS:               ID:20201201081000     3
 OLDACT:UP  21-11-09 11:11 OP:CGRS STATUS:               ID:20201201081000     3
 OLDACT:UP  21-11-09 11:11 OP:CGRS STATUS:               ID:20201201081000     3
 OLDACT:UP  20-12-01 11:26 OP:JMLC STATUS:               ID:20201201081000     3
 STAT SP IPHASW D HRMM SECON CODA AMPLIT PERI AZIMU VELO AIN AR TRES W  DIS CAZ7
 AOPR BZ IP     C  811 31.14   62                         90   -0.1610  102 151 
 AOPR BE IS     C  811 43.18                              90   -0.3110  102 151 
 AOPR BN  IAML     811 46.58       266.1 0.32                           102 151 
 PRSN BZ IP     C  811 32.19   48                         90    0.5810  104 176 
 PRSN BE ESg    C  811 44.05                              90    0.0210  104 176 
 PRSN BN  IAML     811 52.38       442.5 0.24                           104 176 
 CRPR BZ IP     C  811 35.13   52                         90   -0.3210  128 174 
 CRPR BE IS     D  811 51.23                              90    0.5110  128 174 
 CRPR BN  IAML     811 54.05       219.7 0.44                           128 174 
 MLPR BZ IP     D  811 35.71   45                         90   -0.4910  133 172 
 MLPR BE IS     D  811 51.95                              90   -0.0710  133 172 
 MLPR BN  IAML     811 54.89        34.8 0.56                           133 172 
 CELP BZ IP     D  811 36.36   51                         70   -0.6510  138 150 
 CELP BE IS     C  811 53.50                              70    0.0810  138 150 
 CELP BN  IAML     811 57.92        65.5 0.64                           138 150 
 PCDR BZ IP     D  811 37.53   57                         70   -0.0510  141 240 
 PCDR BE IS     C  811 55.13                              70    0.7110  141 240 
 PCDR BN  IAML     811 56.31       170.1 0.95                           141 240 
 SJG  BZ IP     D  811 40.99   48                         50    0.6710  162 135 
 SJG  BE IS     C  811 59.41                              50    0.2310  162 135 
 HIDR BZ IP     D  811 41.39   57                         50    0.1410  169 249 
 HIDR BE IS     D  811 59.76                              50   -1.0410  169 249 
 HIDR BN  IAML     812  4.91       132.1 0.30                           169 249 
 SADR BZ IP     C  811 45.11   57                         50    0.5710  196 237 
 SADR BE ISg    C  812  9.38                              90   -0.4210  196 237 
 SADR BN  IAML     812 15.01       173.0 1.15                           196 237 
 SMDR BZ EPg    C  811 47.84   60                         90   -0.4410  207 274 
 SMDR BE ISg    D  812 13.64                              90    0.6110  207 274 
 SMDR BN  IAML     812 28.14        62.0 0.70                           207 274 
 NADR BZ IP     C  811 54.57   73                         50   -0.1610  278 275 
 NADR BN  IAML     812 42.63       197.3 0.60                           278 275 
                                                                                
 2020 12 1 0825 31.00L  18.058 -71.406  0.0  DOM 11 0.7 2.9LDOM 2.9CDOM 3.0WDOM1
 SPEC AVERAGE  MO 13.5 ST 16.2 OM  2.9 f0 3.61 R0.5493 AL 0.00 WI 20.0 MW  3.0 3
 SPEC SD       MO  0.4 ST 40.8 OM  0.6 f0 2.92 R0.3333 AL      WI      MW  0.3 3
 GAP=245        1.96       7.9     4.3 19.1  0.1216E+02  0.1297E+02  0.4348E+02E
 SPEC PODRBH N MO 13.9 ST138.0 OM  3.7 f0 8.68 R0.1364 AL-0.00 WI 20.0 MW  3.2 3
 SPEC PODRBH N T 82534 K 0.020 GD 17.8 VS 3.20 DE 2.60 Q0400.0 QA 0.70 Q1 0.00 3
 SPEC NEDRBH N MO 13.5 ST  2.5 OM  2.9 f0 3.02 R0.3921 AL-0.00 WI 20.0 MW  3.0 3
 SPEC NEDRBH N T 82543 K 0.020 GD 47.5 VS 3.20 DE 2.60 Q0400.0 QA 0.70 Q1 0.00 3
 SPEC JIDRBH N MO 13.6 ST  1.8 OM  2.8 f0 2.62 R0.4519 AL-0.00 WI 20.0 MW  3.0 3
 SPEC JIDRBH N T 82551 K 0.020 GD 67.5 VS 3.20 DE 2.60 Q0400.0 QA 0.70 Q1 0.00 3
 SPEC SDDRBH N MO 13.5 ST0.373 OM  2.5 f0 1.70 R0.6965 AL-0.00 WI 20.0 MW  2.9 3
 SPEC SDDRBH N T 82559 K 0.020 GD  101 VS 3.20 DE 2.60 Q0400.0 QA 0.70 Q1 0.00 3
 SPEC ABDRBH N MO 13.9 ST0.342 OM  2.9 f0 1.19 R0.9950 AL-0.00 WI 20.0 MW  3.2 3
 SPEC ABDRBH N T 826 4 K 0.020 GD  108 VS 3.20 DE 2.60 Q0400.0 QA 0.70 Q1 0.00 3
 SPEC BADRBH N MO 13.5 ST  1.7 OM  2.5 f0 2.75 R0.4305 AL-0.00 WI 20.0 MW  2.9 3
 SPEC BADRBH N T 826 4 K 0.020 GD  108 VS 3.20 DE 2.60 Q0400.0 QA 0.70 Q1 0.00 3
 SPEC REDRBH N MO 12.8 ST 15.6 OM  1.8 f0 9.62 R0.1231 AL-0.00 WI 20.0 MW  2.5 3
 SPEC REDRBH N T 826 7 K 0.020 GD  117 VS 3.20 DE 2.60 Q0400.0 QA 0.70 Q1 0.00 3
 SPEC MADRBH N MO 13.7 ST0.316 OM  2.6 f0 1.37 R0.8642 AL-0.00 WI 20.0 MW  3.1 3
 SPEC MADRBH N T 82617 K 0.020 GD  130 VS 3.20 DE 2.60 Q0400.0 QA 0.70 Q1 0.00 3
 SPEC SFDRBH N MO 14.0 ST0.303 OM  2.9 f0 1.06 R1.1170 AL-0.00 WI 20.0 MW  3.3 3
 SPEC SFDRBH N T 82621 K 0.020 GD  135 VS 3.20 DE 2.60 Q0400.0 QA 0.70 Q1 0.00 3
 SPEC MCDRBH N MO 12.8 ST  1.2 OM  1.7 f0 4.13 R0.2867 AL-0.00 WI 20.0 MW  2.5 3
 SPEC MCDRBH N T 82628 K 0.020 GD  143 VS 3.20 DE 2.60 Q0400.0 QA 0.70 Q1 0.00 3
 LOCALITY: 27.9 Km al ENE de Cabo Rojo. Pedernales.                            3
 2020-12-01-0825-00S.MAN___123                                                 6
 OLDACT:ARG 20-12-01 10:16 OP:njm  STATUS:               ID:20201201082500     3
 OLDACT:UP  20-12-01 10:42 OP:JMLC STATUS:               ID:20201201082500     3
 OLDACT:UP  20-12-01 10:42 OP:JMLC STATUS:               ID:20201201082500     3
 ACTION:UP  22-01-13 17:41 OP:jmlc STATUS:               ID:20201201082531 L   I
 OLDACT:UP  21-11-09 11:20 OP:CGRS STATUS:               ID:20201201082500     3
 OLDACT:UP  20-12-01 11:28 OP:JMLC STATUS:               ID:20201201082500     3
 STAT SP IPHASW D HRMM SECON CODA AMPLIT PERI AZIMU VELO AIN AR TRES W  DIS CAZ7
 PODR BZ EPg    D  825 33.85   23                         95   -0.0710 17.8  48 
 PODR BE IS     C  825 35.85                              95   -0.2110 17.8  48 
 PODR BN  IAML     825 36.35     13125.1 0.35                          17.8  48 
 NEDR BZ EPg    C  825 38.49   27                         90   -0.2110 47.5 352 
 NEDR BE ESg    D  825 44.52                              90    0.1510 47.5 352 
 NEDR BN  IAML     825 46.34      1530.7 0.75                          47.5 352 
 JIDR BZ EPg    C  825 42.79   42                         90    0.8710 67.5 316 
 JIDR BE ESg    D  825 50.95                              90    0.9610 67.5 316 
 JIDR BN  IAML     825 55.38       481.3 0.85                          67.5 316 
 SDDR BZ EPg    C  825 46.82   35                         90   -0.7910  103   7 
 SDDR BE ESg    C  826  0.67                              90    0.7910  103   7 
 SDDR BN  IAML     826  5.32       139.4 0.45                           103   7 
 ABDR BZ EPg    C  825 50.35   45                         91    0.4010  117  44 
 ABDR BE ESg    D  826  4.24                              91    0.2910  117  44 
 ABDR BN  IAML     826  8.73       129.2 0.70                           117  44 
 BADR BZ EPg    C  825 50.28   46                         91    0.4110  117  71 
 BADR BE ESg    C  826  4.30                              91    0.4910  117  71 
 BADR BN  IAML     826  9.66       249.5 0.60                           117  71 
 REDR BZ EPg    C  825 52.27   51                         90   -1.0910  138 347 
 REDR BN ESg    C  826 10.22                              90    0.3410  138 347 
 REDR BN  IAML     826 12.93       196.4 0.15                           138 347 
 MADR BZ EPg    C  825 56.92   46                         90   -1.5210  170  11 
 MADR BN  IAML     826 20.88       186.3 0.50                           170  11 
 SFDR BZ IP     C  826  0.08   34                         50    0.9110  183  42 
 SFDR BE ISg    D  826 22.25                              90   -0.1910  183  42 
 SFDR BN  IAML     826 27.03       252.7 0.85                           183  42 
 MCDR BZ EPg    C  826  2.75   53                         90   -1.3110  205 353 
 MCDR BN  IAML     826 52.11        44.8 1.85                           205 353 
 LUDR BZ EPg    C  826  4.46   51                         90   -0.2310  209  13 
                                                                                
