 2020 12 1 1151 16.70L  18.527 -69.022127.4  DOM 19 0.8 3.6LDOM 3.3CDOM 3.6WDOM1
 SPEC AVERAGE  MO 14.5 ST 67.0 OM  2.8 f0 4.41 R0.5107 AL 0.00 WI 20.0 MW  3.6 3
 SPEC SD       MO  0.5 ST137.2 OM  0.5 f0 3.22 R0.2343 AL      WI      MW  0.3 3
 GAP=116        2.25       8.9     4.9  8.9  0.1735E+02  0.7035E+01  0.7857E+01E
 SPEC HIDRBH N MO 14.5 ST396.2 OM  2.9 f0 10.7 R0.1539 AL-0.00 WI 20.0 MW  3.6 3
 SPEC HIDRBH N T115144 K 0.020 GD  131 VS 4.45 DE 3.40 Q0400.0 QA 0.70 Q1 0.00 3
 SPEC SADRBH N MO 14.7 ST  4.5 OM  3.1 f0 2.04 R0.8071 AL-0.00 WI 20.0 MW  3.8 3
 SPEC SADRBH N T115145 K 0.020 GD  135 VS 4.45 DE 3.40 Q0400.0 QA 0.70 Q1 0.00 3
 SPEC PCDRBH N MO 14.5 ST  2.0 OM  2.8 f0 1.91 R0.8620 AL-0.00 WI 20.0 MW  3.6 3
 SPEC PCDRBH N T115148 K 0.020 GD  144 VS 4.45 DE 3.40 Q0400.0 QA 0.70 Q1 0.00 3
 SPEC SMDRBH N MO 14.7 ST  7.1 OM  3.0 f0 2.46 R0.6693 AL-0.00 WI 20.0 MW  3.7 3
 SPEC SMDRBH N T115151 K 0.020 GD  153 VS 4.45 DE 3.40 Q0400.0 QA 0.70 Q1 0.00 3
 SPEC SDD BH N MO 13.8 ST 13.8 OM  2.1 f0 6.07 R0.2713 AL-0.00 WI 20.0 MW  3.1 3
 SPEC SDD BH N T115149 K 0.020 GD  158 VS 4.45 DE 3.40 Q0400.0 QA 0.70 Q1 0.00 3
 SPEC NADRBH N MO 15.2 ST 70.2 OM  3.4 f0 3.69 R0.4462 AL-0.00 WI 20.0 MW  4.0 3
 SPEC NADRBH N T115156 K 0.020 GD  179 VS 4.45 DE 3.40 Q0400.0 QA 0.70 Q1 0.00 3
 SPEC BADRBH N MO 14.6 ST 36.0 OM  2.8 f0 4.59 R0.3587 AL-0.00 WI 20.0 MW  3.7 3
 SPEC BADRBH N T115159 K 0.020 GD  190 VS 4.45 DE 3.40 Q0400.0 QA 0.70 Q1 0.00 3
 SPEC SFDRBH N MO 15.2 ST 71.2 OM  3.4 f0 3.58 R0.4599 AL-0.00 WI 20.0 MW  4.1 3
 SPEC SFDRBH N T1152 1 K 0.020 GD  199 VS 4.45 DE 3.40 Q0400.0 QA 0.70 Q1 0.00 3
 SPEC CADRBH N MO 15.2 ST 39.4 OM  3.4 f0 2.92 R0.5639 AL-0.00 WI 20.0 MW  4.1 3
 SPEC CADRBH N T115160 K 0.020 GD  203 VS 4.45 DE 3.40 Q0400.0 QA 0.70 Q1 0.00 3
 SPEC ABDRBH N MO 14.8 ST 11.6 OM  3.0 f0 2.60 R0.6333 AL-0.00 WI 20.0 MW  3.8 3
 SPEC ABDRBH N T1152 3 K 0.020 GD  214 VS 4.45 DE 3.40 Q0400.0 QA 0.70 Q1 0.00 3
 SPEC PRSNBH N MO 14.5 ST 15.0 OM  2.6 f0 3.71 R0.4438 AL-0.00 WI 20.0 MW  3.6 3
 SPEC PRSNBH N T115212 K 0.020 GD  237 VS 4.45 DE 3.40 Q0400.0 QA 0.70 Q1 0.00 3
 SPEC SC01BH N MO 15.0 ST  8.5 OM  3.1 f0 2.08 R0.7916 AL-0.00 WI 20.0 MW  3.9 3
 SPEC SC01BH N T115210 K 0.020 GD  241 VS 4.45 DE 3.40 Q0400.0 QA 0.70 Q1 0.00 3
 SPEC CRPRBH N MO 14.0 ST 10.1 OM  2.1 f0 4.71 R0.3496 AL-0.00 WI 20.0 MW  3.3 3
 SPEC CRPRBH N T115211 K 0.020 GD  247 VS 4.45 DE 3.40 Q0400.0 QA 0.70 Q1 0.00 3
 SPEC MLPRBH N MO 13.6 ST  3.1 OM  1.7 f0 4.28 R0.3847 AL-0.00 WI 20.0 MW  3.0 3
 SPEC MLPRBH N T115212 K 0.020 GD  252 VS 4.45 DE 3.40 Q0400.0 QA 0.70 Q1 0.00 3
 SPEC PODRBH N MO 14.6 ST  9.2 OM  2.7 f0 2.79 R0.5901 AL-0.00 WI 20.0 MW  3.7 3
 SPEC PODRBH N T115216 K 0.020 GD  273 VS 4.45 DE 3.40 Q0400.0 QA 0.70 Q1 0.00 3
 SPEC SDDRBH N MO 14.5 ST  1.7 OM  2.6 f0 1.72 R0.9573 AL-0.00 WI 20.0 MW  3.6 3
 SPEC SDDRBH N T115218 K 0.020 GD  275 VS 4.45 DE 3.40 Q0400.0 QA 0.70 Q1 0.00 3
 SPEC CELPBH N MO 13.9 ST  8.3 OM  1.9 f0 4.87 R0.3381 AL-0.00 WI 20.0 MW  3.2 3
 SPEC CELPBH N T115222 K 0.020 GD  292 VS 4.45 DE 3.40 Q0400.0 QA 0.70 Q1 0.00 3
 SPEC REDRBH N MO 14.2 ST498.9 OM  2.2 f0 14.7 R0.1120 AL-0.00 WI 20.0 MW  3.4 3
 SPEC REDRBH N T115227 K 0.020 GD  320 VS 4.45 DE 3.40 Q0400.0 QA 0.70 Q1 0.00 3
 LOCALITY: 9.8 Km al NNO de La Romana, La Romana.                              3
 2020-12-01-1151-00S.MAN___123                                                 6
 OLDACT:UP  20-12-01 12:06 OP:JMLC STATUS:               ID:20201201115100     3
 OLDACT:ARG 20-12-01 12:00 OP:njm  STATUS:               ID:20201201115100     3
 OLDACT:UP  20-12-01 12:07 OP:JMLC STATUS:               ID:20201201115100     3
 ACTION:UP  22-01-13 17:41 OP:jmlc STATUS:               ID:20201201115116 L   I
 OLDACT:UP  20-12-01 12:07 OP:JMLC STATUS:               ID:20201201115100     3
 STAT SP IPHASW D HRMM SECON CODA AMPLIT PERI AZIMU VELO AIN AR TRES W  DIS CAZ7
 HIDR BZ IP     C 1151 32.58   41                        164   -0.9810 33.1  78 
 HIDR BE IS     D 1151 45.82                             164   -0.1910 33.1  78 
 HIDR BN  IAML    1151 46.60      2337.4 0.30                          33.1  78 
 SADR BZ IP     D 1151 33.25   44                        159   -0.7410 45.1 145 
 SADR BE IS     D 1151 46.52                             159   -0.2310 45.1 145 
 SADR BN  IAML    1151 47.22       803.3 0.35                          45.1 145 
 PCDR BZ IP     C 1151 34.72   43                        150   -0.4310 67.6  91 
 PCDR BE IS     C 1151 49.62                             150    0.8510 67.6  91 
 PCDR BN  IAML    1151 51.17       372.9 0.90                          67.6  91 
 SMDR BZ IP     C 1151 35.11   46                        143   -1.2310 86.2 348 
 SMDR BE ESg    C 1151 51.35                             143    0.5110 86.2 348 
 SMDR BN  IAML    1151 58.15       827.5 0.35                          86.2 348 
 SDD  BZ IP     D 1151 35.69   51                        140   -1.2910 94.9 266 
 SDD  BE IS     C 1151 50.74                             140   -1.2110 94.9 266 
 SDD  BN  IAML    1151 59.59       132.6 0.30                          94.9 266 
 NADR BZ IP     D 1151 38.68   51                        132   -0.9210  127 316 
 NADR BE IS     D 1151 57.77                             132    1.2610  127 316 
 NADR BN  IAML    1152  3.17      3932.4 0.35                           127 316 
 BADR BZ IP     D 1151 41.34   55                        128    0.2310  142 264 
 BADR BE ESg    C 1151 59.29                             128    0.1510  142 264 
 BADR BN  IAML    1152  4.32      1001.5 0.20                           142 264 
 SFDR BZ IP     C 1151 42.12   48                        126    0.0410  154 303 
 SFDR BE ESg    C 1152  2.42                             126    1.5810  154 303 
 SFDR BN  IAML    1152  7.03      2364.3 0.50                           154 303 
 CADR BZ IP     D 1151 41.33   50                        125   -1.2310  159 323 
 CADR BE IS     D 1152  1.51                             125   -0.1610  159 323 
 CADR BN  IAML    1152  2.54      2020.8 0.45                           159 323 
 ABDR BZ IP     C 1151 43.95   48                        123   -0.2810  172 281 
 ABDR BE IS     C 1152  5.16                             123    0.5910  172 281 
 ABDR BN  IAML    1152 10.46       541.2 0.45                           172 281 
 PRSN BZ EPg    C 1151 47.99   65                        118    1.1510  201 100 
 PRSN BN  IAML    1152 20.20       682.1 0.28                           201 100 
 SC01 BZ IP     D 1151 47.73   61                        117    0.4310  205 299 
 SC01 BN  IAML    1152 20.56       670.3 0.60                           205 299 
 CRPR BZ IP     D 1151 48.14   81                        116    0.1310  212 105 
 CRPR BN  IAML    1152 28.50       125.0 0.64                           212 105 
 MLPR BZ IP     C 1151 48.99   77                        115    0.3810  218 106 
 MLPR BN  IAML    1152 26.65        37.2 0.88                           218 106 
 PODR BZ IP     C 1151 51.45   66                        113    0.0510  242 261 
 PODR BE IS     C 1152 18.35                             113    1.3110  242 261 
 PODR BN  IAML    1152 25.30       217.9 0.35                           242 261 
 SDDR BZ IP     C 1151 52.26   63                        112    0.7610  244 282 
 SDDR BE ESg    C 1152 17.23                             112    0.0010  244 282 
 SDDR BN  IAML    1152 25.68       195.0 0.50                           244 282 
 LUDR BZ IP     C 1151 51.37   73                        111   -1.0310  253 307 
 CELP BZ IP     C 1151 54.71   73                        111    1.1710  263 101 
 CELP BN  IAML    1152 29.50        78.1 0.68                           263 101 
 REDR BZ IP     C 1151 56.21   82                        108   -0.8210  294 287 
 REDR BE ESg    D 1152 26.99                             108    0.1510  294 287 
 REDR BN  IAML    1152 38.44       175.0 0.20                           294 287 
                                                                                
 2020 12 1 1316 51.20L  18.338 -68.889131.9  DOM 15 0.8 3.3LDOM 3.4CDOM 3.1WDOM1
 SPEC AVERAGE  MO 13.7 ST 21.8 OM  2.2 f0 6.06 R1.7058 AL 0.00 WI 20.0 MW  3.1 3
 SPEC SD       MO  0.8 ST 42.1 OM  0.9 f0 4.78 R2.9307 AL      WI      MW  0.5 3
 GAP=122        2.13      19.2     6.8 10.0  0.5730E+02  0.5961E+00 -0.1028E+02E
 SPEC SADRBH N MO 15.1 ST0.074 OM  3.5 f00.385 R4.2766 AL-0.00 WI 20.0 MW  4.0 3
 SPEC SADRBH N T131720 K 0.020 GD  133 VS 4.45 DE 3.40 Q0400.0 QA 0.70 Q1 0.00 3
 SPEC HIDRBH N MO 13.5 ST137.0 OM  1.9 f0 16.0 R0.1029 AL-0.00 WI 20.0 MW  3.0 3
 SPEC HIDRBH N T131719 K 0.020 GD  136 VS 4.45 DE 3.40 Q0400.0 QA 0.70 Q1 0.00 3
 SPEC BADRBH N MO 13.8 ST 17.3 OM  2.0 f0 6.49 R0.2537 AL-0.00 WI 20.0 MW  3.1 3
 SPEC BADRBH N T131737 K 0.020 GD  204 VS 4.45 DE 3.40 Q0400.0 QA 0.70 Q1 0.00 3
 SPEC CRPRBH N MO 13.2 ST  1.8 OM  1.3 f0 5.01 R0.3286 AL-0.00 WI 20.0 MW  2.7 3
 SPEC CRPRBH N T131745 K 0.020 GD  234 VS 4.45 DE 3.40 Q0400.0 QA 0.70 Q1 0.00 3
 SPEC MLPRBH N MO 12.6 ST0.811 OM  0.7 f0 6.03 R0.2731 AL-0.00 WI 20.0 MW  2.3 3
 SPEC MLPRBH N T131747 K 0.020 GD  238 VS 4.45 DE 3.40 Q0400.0 QA 0.70 Q1 0.00 3
 SPEC AOPRBH N MO 14.0 ST  4.6 OM  2.1 f0 3.55 R0.4638 AL-0.00 WI 20.0 MW  3.3 3
 SPEC AOPRBH N T131748 K 0.020 GD  261 VS 4.45 DE 3.40 Q0400.0 QA 0.70 Q1 0.00 3
 SPEC CELPBH N MO 12.9 ST  1.2 OM  1.0 f0 5.23 R0.3148 AL-0.00 WI 20.0 MW  2.6 3
 SPEC CELPBH N T131754 K 0.020 GD  279 VS 4.45 DE 3.40 Q0400.0 QA 0.70 Q1 0.00 3
 SPEC SDDRBH N MO 15.0 ST0.005 OM  3.0 f00.179 R9.1983 AL-0.00 WI 20.0 MW  3.9 3
 SPEC SDDRBH N T131756 K 0.020 GD  294 VS 4.45 DE 3.40 Q0400.0 QA 0.70 Q1 0.00 3
 SPEC REDRBH N MO 13.3 ST 33.7 OM  1.3 f0 11.7 R0.1407 AL-0.00 WI 20.0 MW  2.8 3
 SPEC REDRBH N T1318 4 K 0.020 GD  340 VS 4.45 DE 3.40 Q0400.0 QA 0.70 Q1 0.00 3
 LOCALITY: 7.3 Km al ESE de La Romana. La Romana.                              3
 2020-12-01-1316-00S.MAN___129                                                 6
 OLDACT:ARG 20-12-01 17:32 OP:jmlc STATUS:               ID:20201201131600     3
 OLDACT:UP  20-12-01 17:55 OP:JMLC STATUS:               ID:20201201131600     3
 ACTION:UP  22-01-13 17:41 OP:jmlc STATUS:               ID:20201201131651 L   I
 OLDACT:UP  21-11-09 11:59 OP:CGRS STATUS:               ID:20201201131600     3
 OLDACT:UP  21-11-09 11:58 OP:CGRS STATUS:               ID:20201201131600     3
 OLDACT:UP  20-12-01 17:57 OP:JMLC STATUS:               ID:20201201131600     3
 STAT SP IPHASW D HRMM SECON CODA AMPLIT PERI AZIMU VELO AIN AR TRES W  DIS CAZ7
 SADR BZ IP       1317  7.32   69                        171   -0.8810 19.9 144 
 SADR BN IS       1317 21.99                             171    1.2310 19.9 144 
 SADR BN  IAML    1317 25.29       558.9 0.35                          19.9 144 
 HIDR BZ IP       1317  7.49   35                        165   -1.0610 33.6  33 
 HIDR BN IS       1317 21.32                             165   -0.0610 33.6  33 
 HIDR BN  IAML    1317 22.09      1468.8 0.30                          33.6  33 
 SMDR BZ IP       1317 12.83   45                        137   -0.1710  110 343 
 SDD  BZ EPg    C 1317 11.68                             137   -1.3010  110 277 
 SDD  BN ESg    D 1317 28.96                             137   -0.1310  110 277 
 SDD  BN  IAML    1317 32.75      1723.0 0.35                           110 277 
 SMDR BN  IAML    1317 37.58        97.4 0.45                           110 343 
 BADR BZ IP       1317 18.20   55                        127    1.0410  156 273 
 BADR BN  IAML    1317 42.28      1249.9 0.30                           156 273 
 AGPR BZ IP       1317 19.96   54                        121   -0.3110  189  85 
 AGPR BN  IAML    1317 51.86       300.0 0.28                           189  85 
 ABDR BZ IP       1317 21.72   63                        121    0.8910  191 286 
 ABDR BN  IAML    1317 50.72       255.1 0.30                           191 286 
 CRPR BZ EPg    C 1317 20.34   70                        120   -0.4710  194 101 
 CRPR BN  IAML    1317 52.31        97.8 0.36                           194 101 
 MLPR BZ EPg    C 1317 20.96   47                        119   -0.4010  199 102 
 MLPR BN  IAML    1317 53.67        85.2 0.28                           199 102 
 AOPR BZ IP       1317 24.52   63                        116    0.3710  226  89 
 AOPR BN  IAML    1317 55.97       711.1 0.28                           226  89 
 CELP BZ IP       1317 27.62   66                        113    1.2710  246  96 
 CELP BN  IAML    1318  0.19       188.8 0.32                           246  96 
 PODR BZ IP       1317 26.30   77                        113   -1.0210  254 266 
 PODR BN  IAML    1318  3.54       249.6 0.30                           254 266 
 SDDR BZ IP       1317 29.09   80                        112    0.8810  263 286 
 SDDR BN  IAML    1318 26.40        13.2 2.20                           263 286 
 LUDR BZ IP       1317 30.00   74                        110    0.3210  277 309 
 REDR BZ IP       1317 33.70  102                        108   -0.1810  314 290 
 REDR BN  IAML    1318 15.91        67.3 0.25                           314 290 
                                                                                
 2020 12 1 1403 55.60L  18.096 -71.501 15.0  DOM  7 0.8 2.5LDOM 3.0CDOM 3.0WDOM1
 SPEC AVERAGE  MO 13.6 ST  4.2 OM  2.8 f0 3.81 R1.1812 AL 0.00 WI 20.0 MW  3.0 3
 SPEC SD       MO  0.6 ST  5.3 OM  0.7 f0 1.90 R1.9841 AL      WI      MW  0.4 3
 GAP=245        2.09       8.6     5.9  8.7  0.2931E+02 -0.1486E+02 -0.1296E+02E
 SPEC PODRBH N MO 13.7 ST 16.3 OM  3.0 f0 5.99 R0.2415 AL-0.00 WI 20.0 MW  3.1 3
 SPEC PODRBH N T14 4 1 K 0.020 GD 28.7 VS 3.91 DE 2.91 Q0400.0 QA 0.70 Q1 0.00 3
 SPEC NEDRBH N MO 13.5 ST  5.4 OM  2.6 f0 4.84 R0.2989 AL-0.00 WI 20.0 MW  3.0 3
 SPEC NEDRBH N T14 4 6 K 0.020 GD 45.5 VS 3.91 DE 2.91 Q0400.0 QA 0.70 Q1 0.00 3
 SPEC JIDRBH N MO 13.3 ST  2.6 OM  2.3 f0 4.36 R0.3318 AL-0.00 WI 20.0 MW  2.8 3
 SPEC JIDRBH N T14 411 K 0.020 GD 59.5 VS 3.91 DE 2.91 Q0400.0 QA 0.70 Q1 0.00 3
 SPEC SDDRBH N MO 13.2 ST0.181 OM  1.9 f0 2.04 R0.7092 AL-0.00 WI 20.0 MW  2.7 3
 SPEC SDDRBH N T14 422 K 0.020 GD  101 VS 3.91 DE 2.91 Q0400.0 QA 0.70 Q1 0.00 3
 SPEC ABDRBH N MO 15.0 ST0.018 OM  3.6 f00.240 R6.0279 AL-0.00 WI 20.0 MW  3.9 3
 SPEC ABDRBH N T14 427 K 0.020 GD  122 VS 3.91 DE 2.91 Q0400.0 QA 0.70 Q1 0.00 3
 SPEC BADRBH N MO 13.4 ST  1.6 OM  2.0 f0 3.60 R0.4019 AL-0.00 WI 20.0 MW  2.9 3
 SPEC BADRBH N T14 428 K 0.020 GD  125 VS 3.91 DE 2.91 Q0400.0 QA 0.70 Q1 0.00 3
 SPEC REDRBH N MO 13.1 ST  3.1 OM  1.7 f0 5.62 R0.2574 AL-0.00 WI 20.0 MW  2.7 3
 SPEC REDRBH N T14 428 K 0.020 GD  132 VS 3.91 DE 2.91 Q0400.0 QA 0.70 Q1 0.00 3
 LOCALITY: 25.2 Km al NE de Cabo Rojo. Pedernales.                             3
 2020-12-01-1403-00S.MAN___129                                                 6
 OLDACT:ARG 20-12-01 18:05 OP:jmlc STATUS:               ID:20201201140300     3
 OLDACT:UP  20-12-01 18:15 OP:JMLC STATUS:               ID:20201201140300     3
 OLDACT:UP  20-12-01 18:15 OP:JMLC STATUS:               ID:20201201140300     3
 OLDACT:UP  20-12-01 18:08 OP:JMLC STATUS:               ID:20201201140300     3
 OLDACT:UP  20-12-01 18:08 OP:JMLC STATUS:               ID:20201201140300     3
 ACTION:UP  22-01-13 17:41 OP:jmlc STATUS:               ID:20201201140355 L   I
 OLDACT:UP  20-12-01 18:18 OP:JMLC STATUS:               ID:20201201140300     3
 STAT SP IPHASW D HRMM SECON CODA AMPLIT PERI AZIMU VELO AIN AR TRES W  DIS CAZ7
 PODR BZ IP       14 3 59.92   30                        120   -0.4410 24.5  72 
 PODR BN IS       14 4  3.36                             120   -0.5010 24.5  72 
 PODR BN  IAML    14 4  6.64      2011.2 0.25                          24.5  72 
 NEDR BZ IP       14 4  1.35   37                        102   -1.5210 43.0   5 
 NEDR BN IS       14 4  8.38                             102    0.1610 43.0   5 
 NEDR BN  IAML    14 4  8.83      1206.4 0.25                          43.0   5 
 JIDR BZ IP       14 4  6.05   44                         97    0.9810 57.6 320 
 JIDR BN IS       14 4 12.52                              97    0.4810 57.6 320 
 JIDR BN  IAML    14 4 16.35       218.8 0.45                          57.6 320 
 SDDR BZ IP       14 4 10.41   56                         93   -1.1310  100  13 
 SDDR BN IS       14 4 24.48                              93    1.1710  100  13 
 SDDR BN  IAML    14 4 32.68        37.5 1.40                           100  13 
 ABDR BZ IP       14 4 14.76   58                         68   -0.1310  122  49 
 ABDR BN IS       14 4 29.35                              68    0.2110  122  49 
 BADR BZ IP       14 4 16.02   54                         55    0.8510  125  74 
 BADR BN IS       14 4 30.41                              55    0.7910  125  74 
 BADR BN  IAML    14 4 41.56        65.3 0.40                           125  74 
 REDR BZ IP       14 4 15.74   58                         55   -0.2910  132 351 
 REDR BN ISg    D 14 4 31.14                              92   -0.6310  132 351 
 REDR BN  IAML    14 4 32.38        90.0 0.15                           132 351 
                                                                                
