 2020  2 1 1220 19.00L  18.030 -66.850 15.0  DOM  6 1.8 2.5LDOM 3.3CDOM 2.6WDOM1
 SPEC AVERAGE  MO 13.0 ST 29.2 OM  3.5 f0 7.99 R0.1919 AL 0.00 WI 20.0 MW  2.6 3
 SPEC SD       MO  0.4 ST 37.3 OM  1.3 f0 3.33 R0.1291 AL      WI      MW  0.2 3
 GAP=294        4.75      23.4    33.8 16.4 -0.2791E+03  0.9924E+02 -0.5966E+02E
 LOCALITY: 30.7 Km al Oeste de Ponce, Region de Puerto Rico.                   3
 SPEC CRPRBH N MO 13.5 ST 80.7 OM  3.1 f0 9.72 R0.1218 AL-0.00 WI 20.0 MW  3.0 3
 SPEC CRPRBH N T122022 K 0.020 GD 29.5 VS 3.20 DE 2.60 Q0400.0 QA 0.70 Q1 1.00 3
 SPEC PRSNBH N MO 13.0 ST  4.9 OM  2.5 f0 5.87 R0.2017 AL-0.00 WI 20.0 MW  2.6 3
 SPEC PRSNBH N T122026 K 0.020 GD 32.5 VS 3.20 DE 2.60 Q0400.0 QA 0.70 Q1 1.00 3
 SPEC AGPRBH N MO 13.3 ST  2.2 OM  2.6 f0 3.44 R0.3442 AL-0.00 WI 20.0 MW  2.8 3
 SPEC AGPRBH N T122031 K 0.020 GD 57.9 VS 3.20 DE 2.60 Q0400.0 QA 0.70 Q1 1.00 3
 SPEC MIDRHH N MO 12.2 ST  4.8 OM  0.8 f0 10.8 R0.1096 AL-0.00 WI 20.0 MW  2.0 3
 SPEC MIDRHH N T122120 K 0.020 GD  255 VS 3.20 DE 2.60 Q0400.0 QA 0.70 Q1 1.00 3
 2020-02-01-1219-00S.MAN___147                                                 6
 OLDACT:UP  20-02-01 23:55 OP:AMMR STATUS:               ID:20200201121900     3
 OLDACT:UP  20-02-01 22:49 OP:AMMR STATUS:               ID:20200201121900     3
 OLDACT:ARG 20-02-01 22:41 OP:jrdn STATUS:               ID:20200201121900     3
 OLDACT:UP  20-04-19 16:58 OP:JMLC STATUS:               ID:20200201122017 L   3
 ACTION:UP  22-01-05 18:33 OP:JMLC STATUS:               ID:20200201122017 L   I
 OLDACT:UP  21-11-07 23:29 OP:CGRS STATUS:               ID:20200201122017 L   3
 OLDACT:UP  21-11-07 20:04 OP:CGRS STATUS:               ID:20200201122017 L   3
 OLDACT:UP  21-11-07 20:04 OP:CGRS STATUS:               ID:20200201122017 L   3
 STAT SP IPHASW D HRMM SECON CODA AMPLIT PERI AZIMU VELO AIN AR TRES W  DIS CAZ7
 PRSN BZ IP     C 1220 24.40   30                         90                    
 PRSN BE IS     C 1220 28.09                              90                    
 PRSN BN  IAML    1220 29.51      1212.9 0.35                                   
 CRPR BZ IP     D 1220 21.80   55                        116   -1.8810 25.4 264 
 CRPR BE IS     C 1220 24.09                             116   -3.0810 25.4 264 
 CRPR BN  IAML    1220 24.09      4469.8 0.25                          25.4 264 
 AGPR BZ IP     C 1220 28.16   53                         97    0.0110 55.9 331 
 AGPR BE IS       1220 32.85                              97   -2.0810 55.9 331 
 AGPR BN  IAML    1220 43.03       277.0 0.30                          55.9 331 
 PCDR HZ IP     C 1220 43.30   51                         55   -0.7510  171 289 
 PCDR HE IS     C 1221  4.99                              55    2.3910  171 289 
 PCDR HN  IAML    1221 13.72        41.6 0.56                           171 289 
 PCDR BN  IAML    1221 23.97       167.4 2.82                           171 289 
 MIDR HZ IP     C 1220 55.23   58                         55    0.6810  255 295 
 MIDR HE IS     C 1221 21.57                              55    0.6910  255 295 
 MIDR HN  IAML    1221 29.70         5.3 0.74                           255 295 
 MIDR BN  IAML    1221 45.33        25.3 1.66                           255 295 
 HMDR BZ IP     C 1220 59.41   73                         54    1.7110  280 288 
 HMDR BE IS     C 1221 28.67                              54    2.3210  280 288 
 HMDR BN  IAML    1221 37.67        12.3 1.30                           280 288 
                                                                                
 2020  2 1 1321 34.90L  18.025 -66.657  0.1  DOM  7 0.9 3.2LDOM 3.7CDOM 3.3WDOM1
 SPEC AVERAGE  MO 14.0 ST  2.2 OM  3.6 f0 1.69 R1.0511 AL 0.00 WI 20.0 MW  3.3 3
 SPEC SD       MO  0.6 ST  3.5 OM  1.2 f0 2.03 R0.4951 AL      WI      MW  0.4 3
 GAP=312        2.48      13.3    14.6  9.7 -0.8707E+01  0.9329E+01  0.9676E+01E
 LOCALITY: 6.4 Km al ONO de Ponce, Region de Puerto Rico.                      3
 SPEC CRPRBH N MO 14.7 ST0.697 OM  4.1 f00.800 R1.4800 AL-0.00 WI 20.0 MW  3.8 3
 SPEC CRPRBH N T132145 K 0.020 GD 45.7 VS 3.20 DE 2.60 Q0400.0 QA 0.70 Q1 1.00 3
 SPEC PRSNBH N MO 14.3 ST  4.8 OM  3.6 f0 2.11 R0.5611 AL-0.00 WI 20.0 MW  3.5 3
 SPEC PRSNBH N T132147 K 0.020 GD 54.2 VS 3.20 DE 2.60 Q0400.0 QA 0.70 Q1 1.00 3
 SPEC AGPRBH N MO 14.6 ST  1.7 OM  3.8 f0 1.19 R0.9950 AL-0.00 WI 20.0 MW  3.7 3
 SPEC AGPRBH N T132151 K 0.020 GD 68.7 VS 3.20 DE 2.60 Q0400.0 QA 0.70 Q1 1.00 3
 SPEC PCDRHN N MO 14.1 ST0.282 OM  3.0 f00.953 R1.2424 AL-0.00 WI 20.0 MW  3.3 3
 SPEC PCDRHN N T132224 K 0.020 GD  137 VS 3.20 DE 2.60 Q0400.0 QA 0.70 Q1 1.00 3
 SPEC HIDRBH N MO 13.4 ST  9.9 OM  2.3 f0 5.19 R0.2281 AL-0.00 WI 20.0 MW  2.9 3
 SPEC HIDRBH N T132232 K 0.020 GD  150 VS 3.20 DE 2.60 Q0400.0 QA 0.70 Q1 1.00 3
 SPEC MIDRHH N MO 13.8 ST0.117 OM  2.6 f00.908 R1.3040 AL-0.00 WI 20.0 MW  3.1 3
 SPEC MIDRHH N T132243 K 0.020 GD  165 VS 3.20 DE 2.60 Q0400.0 QA 0.70 Q1 1.00 3
 SPEC HMDRBH N MO 13.7 ST0.182 OM  2.5 f0 1.12 R1.0571 AL-0.00 WI 20.0 MW  3.1 3
 SPEC HMDRBH N T132248 K 0.020 GD  173 VS 3.20 DE 2.60 Q0400.0 QA 0.70 Q1 1.00 3
 2020-02-01-1320-00S.MAN___147                                                 6
 OLDACT:UP  20-02-01 23:55 OP:AMMR STATUS:               ID:20200201132000     3
 OLDACT:UP  20-02-01 22:52 OP:AMMR STATUS:               ID:20200201132000     3
 OLDACT:ARG 20-02-01 22:41 OP:jrdn STATUS:               ID:20200201132000     3
 OLDACT:UP  20-04-19 16:58 OP:JMLC STATUS:               ID:20200201132134 L   3
 ACTION:UP  22-01-05 18:33 OP:JMLC STATUS:               ID:20200201132134 L   I
 OLDACT:UP  21-11-07 23:31 OP:CGRS STATUS:               ID:20200201132134 L   3
 OLDACT:UP  21-11-07 20:15 OP:CGRS STATUS:               ID:20200201132134 L   3
 OLDACT:UP  21-11-07 20:15 OP:CGRS STATUS:               ID:20200201132134 L   3
 STAT SP IPHASW D HRMM SECON CODA AMPLIT PERI AZIMU VELO AIN AR TRES W  DIS CAZ7
 PRSN BZ IP     D 1321 42.56   52                         90                    
 PRSN BE IS     C 1321 49.41                              90                    
 PRSN BN  IAML    1321 55.49      4298.0 0.25                                   
 CRPR BZ IP     C 1321 41.23   88                         90   -1.0810 45.7 268 
 CRPR BE IS     C 1321 46.75                              90   -1.0210 45.7 268 
 CRPR BN  IAML    1321 51.55      1903.1 0.75                          45.7 268 
 AGPR BZ IP     C 1321 45.26   84                         90   -0.7510 68.7 316 
 AGPR BE IS     C 1321 53.29                              90   -0.9210 68.7 316 
 AGPR BN  IAML    1321 58.19      2887.2 1.05                          68.7 316 
 PCDR HZ IP     D 1322  3.61   69                         50   -0.3110  190 287 
 PCDR HE IS     C 1322 26.04                              50    0.6610  190 287 
 PCDR HN  IAML    1322 36.72       228.8 0.66                           190 287 
 PCDR BN  IAML    1322 36.77       252.0 0.64                           190 287 
 HIDR BZ IP     C 1322  8.14   83                         50   -0.2910  226 286 
 HIDR BE IS     C 1322 33.75                              50    0.5310  226 286 
 HIDR BN  IAML    1322 43.90       168.5 0.25                           226 286 
 MIDR HZ IP     C 1322 13.77   87                         50   -0.5710  274 293 
 MIDR HE IS       1322 45.17                              50    1.6710  274 293 
 MIDR HN  IAML    1322 53.11        58.6 1.14                           274 293 
 MIDR BN  IAML    1323  0.70        81.1 0.48                           274 293 
 HMDR BZ IP       1322 19.21  115                         49    1.6310  300 287 
 HMDR BE IS     C 1322 49.58                              49    0.4410  300 287 
 HMDR BN  IAML    1323  2.31        88.5 1.05                           300 287 
                                                                                
 2020  2 1 1338  2.90L  17.928 -66.825  0.0  DOM  7 0.8 2.9LDOM 3.3CDOM 2.9WDOM1
 SPEC AVERAGE  MO 13.4 ST  3.7 OM  3.1 f0 3.09 R0.5007 AL 0.00 WI 20.0 MW  2.9 3
 SPEC SD       MO  0.5 ST  3.7 OM  1.0 f0 1.63 R0.3002 AL      WI      MW  0.3 3
 GAP=314        2.14      11.9    12.5  9.5 -0.1359E+01  0.3143E+02  0.4348E+02E
 LOCALITY: 25.0 Km al OSO de Ponce, Region de Puerto Rico.                     3
 SPEC CRPRBH N MO 13.9 ST 10.5 OM  3.5 f0 3.63 R0.3262 AL-0.00 WI 20.0 MW  3.2 3
 SPEC CRPRBH N T1338 9 K 0.020 GD 29.3 VS 3.20 DE 2.60 Q0400.0 QA 0.70 Q1 1.00 3
 SPEC PRSNBH N MO 13.6 ST 13.9 OM  3.0 f0 5.16 R0.2295 AL-0.00 WI 20.0 MW  3.0 3
 SPEC PRSNBH N T133812 K 0.020 GD 42.9 VS 3.20 DE 2.60 Q0400.0 QA 0.70 Q1 1.00 3
 SPEC AGPRBH N MO 13.9 ST  4.7 OM  3.1 f0 2.86 R0.4140 AL-0.00 WI 20.0 MW  3.2 3
 SPEC AGPRBH N T133820 K 0.020 GD 67.2 VS 3.20 DE 2.60 Q0400.0 QA 0.70 Q1 1.00 3
 SPEC PCDRHN N MO 13.9 ST0.236 OM  2.8 f0 1.06 R1.1170 AL-0.00 WI 20.0 MW  3.2 3
 SPEC PCDRHN N T133849 K 0.020 GD  133 VS 3.20 DE 2.60 Q0400.0 QA 0.70 Q1 1.00 3
 SPEC HIDRBH N MO 13.0 ST  5.7 OM  1.9 f0 5.93 R0.1997 AL-0.00 WI 20.0 MW  2.6 3
 SPEC HIDRBH N T133856 K 0.020 GD  145 VS 3.20 DE 2.60 Q0400.0 QA 0.70 Q1 1.00 3
 SPEC MIDRHH N MO 13.0 ST0.536 OM  1.8 f0 2.81 R0.4214 AL-0.00 WI 20.0 MW  2.6 3
 SPEC MIDRHH N T1339 7 K 0.020 GD  161 VS 3.20 DE 2.60 Q0400.0 QA 0.70 Q1 1.00 3
 SPEC HMDRBH N MO 13.0 ST0.287 OM  1.8 f0 2.25 R0.5262 AL-0.00 WI 20.0 MW  2.6 3
 SPEC HMDRBH N T133912 K 0.020 GD  169 VS 3.20 DE 2.60 Q0400.0 QA 0.70 Q1 1.00 3
 2020-02-01-1337-00S.MAN___147                                                 6
 OLDACT:UP  20-02-01 22:54 OP:AMMR STATUS:               ID:20200201133700     3
 OLDACT:ARG 20-02-01 22:41 OP:jrdn STATUS:               ID:20200201133700     3
 OLDACT:UP  20-04-19 16:58 OP:JMLC STATUS:               ID:20200201133759 L   3
 ACTION:UP  22-01-05 18:33 OP:JMLC STATUS:               ID:20200201133759 L   I
 OLDACT:UP  21-11-07 20:27 OP:CGRS STATUS:               ID:20200201133759 L   3
 OLDACT:UP  21-11-07 20:26 OP:CGRS STATUS:               ID:20200201133759 L   3
 STAT SP IPHASW D HRMM SECON CODA AMPLIT PERI AZIMU VELO AIN AR TRES W  DIS CAZ7
 PRSN BZ IP     C 1338  9.69   49                         90                    
 PRSN BE IS     C 1338 14.11                              90                    
 PRSN BN  IAML    1338 18.11      4215.4 0.25                                   
 CRPR BZ IP     C 1338  7.16   32                         90   -0.4210 29.3 287 
 CRPR BE IS     C 1338 11.01                              90   -0.0610 29.3 287 
 CRPR BN  IAML    1338 11.29      5002.9 0.20                          29.3 287 
 AGPR BZ IP     D 1338 13.14   72                         90   -0.5510 67.2 333 
 AGPR BE IS     D 1338 21.79                              90    0.0810 67.2 333 
 AGPR BN  IAML    1338 27.01       937.1 0.65                          67.2 333 
 PCDR HZ IP     C 1338 29.33   55                         50   -0.8910  177 292 
 PCDR HE IS     C 1338 50.81                              50    0.3510  177 292 
 PCDR HN  IAML    1338 56.94       109.1 0.52                           177 292 
 PCDR BN  IAML    1339 11.22       153.5 2.86                           177 292 
 HIDR BZ IP       1338 33.95   60                         50   -0.7410  213 290 
 HIDR BE IS     C 1338 58.29                              50    0.0410  213 290 
 HIDR BN  IAML    1339  4.82       100.8 0.20                           213 290 
 MIDR HZ IP     C 1338 43.19   67                         50    2.3610  262 297 
 MIDR HE IS     C 1339  9.18                              50    0.2410  262 297 
 MIDR BN  IAML    1339 17.91        40.5 0.70                           262 297 
 MIDR HN  IAML    1339 20.11        40.2 0.34                           262 297 
 HMDR BZ IP     C 1338 43.88  104                         50    0.0310  286 290 
 HMDR BE IS       1339 13.76                              50   -0.4310  286 290 
 HMDR BN  IAML    1339 25.36        41.6 0.75                           286 290 
                                                                                
 2020  2 1 1543 31.60L  17.922 -66.876 24.5  DOM  4 0.1 2.8LDOM 3.1CDOM 3.1WDOM1
 SPEC AVERAGE  MO 13.8 ST 41.6 OM  4.1 f0 9.13 R0.1904 AL 0.00 WI 20.0 MW  3.1 3
 SPEC SD       MO  0.6 ST 30.8 OM  2.1 f0 3.27 R0.1092 AL      WI      MW  0.4 3
 GAP=218        0.41       7.0     2.6  6.3  0.1071E+02 -0.1381E+02 -0.2529E+02E
 LOCALITY: 33.0 Km al OSO de Ponce, Region de Puerto Rico.                     3
 SPEC CRPRBH N MO 13.8 ST 25.8 OM  2.8 f0 7.26 R0.2293 AL-0.00 WI 20.0 MW  3.2 3
 SPEC CRPRBH N T154339 K 0.020 GD 34.6 VS 4.50 DE 3.40 Q0400.0 QA 0.70 Q1 0.00 3
 SPEC PRSNBH N MO 13.9 ST 42.3 OM  2.6 f0 8.54 R0.1950 AL-0.00 WI 20.0 MW  3.2 3
 SPEC PRSNBH N T154344 K 0.020 GD 55.1 VS 4.50 DE 3.40 Q0400.0 QA 0.70 Q1 0.00 3
 SPEC AGPRBH N MO 13.7 ST 57.4 OM  2.3 f0 11.0 R0.1514 AL-0.00 WI 20.0 MW  3.0 3
 SPEC AGPRBH N T154349 K 0.020 GD 69.9 VS 4.50 DE 3.40 Q0400.0 QA 0.70 Q1 0.00 3
 2020-02-01-1542-00S.MAN___147                                                 6
 OLDACT:ARG 20-02-01 22:41 OP:jrdn STATUS:               ID:20200201154200     3
 OLDACT:UP  20-02-01 23:58 OP:AMMR STATUS:               ID:20200201154200     3
 OLDACT:UP  20-02-01 23:55 OP:AMMR STATUS:               ID:20200201154200     3
 OLDACT:UP  20-02-01 23:54 OP:AMMR STATUS:               ID:20200201154200     3
 ACTION:UP  22-01-05 18:33 OP:JMLC STATUS:               ID:20200201154330 L   I
 OLDACT:UP  21-11-07 23:33 OP:CGRS STATUS:               ID:20200201154330 L   3
 OLDACT:UP  20-04-19 16:58 OP:JMLC STATUS:               ID:20200201154330 L   3
 STAT SP IPHASW D HRMM SECON CODA AMPLIT PERI AZIMU VELO AIN AR TRES W  DIS CAZ7
 PRSN BZ EPg    C 1543 39.21   51                        109                    
 PRSN BN ESg    D 1543 45.98                             109                    
 PRSN BN  IAML    1543 46.25      1307.5 0.15                                   
 CRPR BZ EPg    C 1543 37.09   48                        129    0.1510 24.4 292 
 CRPR BN ESg    C 1543 40.82                             129   -0.0910 24.4 292 
 CRPR BN  IAML    1543 40.97      1640.9 0.25                          24.4 292 
 AGPR BZ EPg    C 1543 42.33   59                         96   -0.0010 65.5 338 
 AGPR BN  IAML    1543 54.60       409.6 1.00                          65.5 338 
 SJG  BZ EPg    C 1543 44.20   49                         93   -0.1510 79.7  75 
 SJG  BN ESg    C 1543 53.88                              93    0.0910 79.7  75 
                                                                                
 2020  2 1 1545 29.70L  17.985 -66.820  9.7  DOM  4 0.1 2.6LDOM 3.0CDOM 2.9WDOM1
 SPEC AVERAGE  MO 13.4 ST 13.5 OM  6.8 f0 7.00 R0.2014 AL 0.00 WI 20.0 MW  2.9 3
 SPEC SD       MO  0.0 ST0.000 OM  4.1 f00.000 R0.0000 AL      WI      MW  0.0 3
 GAP=196        0.38       4.7     1.3 11.7  0.2465E+01 -0.1140E+02 -0.3377E+02E
 LOCALITY: 23.1 Km al Oeste de Ponce, Region de Puerto Rico.                   3
 SPEC CRPRBH N MO 13.4 ST 13.5 OM  2.7 f0 7.00 R0.2014 AL-0.00 WI 20.0 MW  2.9 3
 SPEC CRPRBH N T154536 K 0.020 GD 30.2 VS 3.81 DE 2.86 Q0400.0 QA 0.70 Q1 0.00 3
 SPEC PRSNBH N MO 13.4 ST 15.8 OM  2.5 f0 7.54 R0.1870 AL-0.00 WI 20.0 MW  2.9 3
 SPEC PRSNBH N T154540 K 0.020 GD 44.8 VS 3.81 DE 2.86 Q0400.0 QA 0.70 Q1 0.00 3
 2020-02-01-1544-00S.MAN___147                                                 6
 OLDACT:ARG 20-02-01 22:41 OP:jrdn STATUS:               ID:20200201154400     3
 OLDACT:UP  20-02-02 00:03 OP:AMMR STATUS:               ID:20200201154400     3
 ACTION:UP  22-01-05 18:33 OP:JMLC STATUS:               ID:20200201154529 L   I
 OLDACT:UP  21-11-07 23:33 OP:CGRS STATUS:               ID:20200201154529 L   3
 OLDACT:UP  20-04-19 16:58 OP:JMLC STATUS:               ID:20200201154529 L   3
 STAT SP IPHASW D HRMM SECON CODA AMPLIT PERI AZIMU VELO AIN AR TRES W  DIS CAZ7
 PRSN BZ EPg    C 1545 36.71   45                         97                    
 PRSN BN  IAML    1545 50.28       856.9 0.25                                   
 CRPR BZ EPg    C 1545 34.49   56                        109   -0.1210 28.6 275 
 CRPR BN ESg    C 1545 38.29                             109    0.0710 28.6 275 
 CRPR BN  IAML    1545 38.44      1223.2 0.25                          28.6 275 
 AGPR BZ EPg    C 1545 39.83   47                         99    0.0010 61.8 330 
 AGPR BN  IAML    1545 51.88       339.8 0.30                          61.8 330 
 SJG  BZ EPg    D 1545 41.62   51                         98    0.1210 72.2  79 
 SJG  BN ESg      1545 50.14                              98   -0.0710 72.2  79 
                                                                                
