 2020  2 2 0241  5.60L  17.837 -66.763  0.0  DOM  4 1.0 1.8LDOM 2.8CDOM 2.4WDOM1
 SPEC AVERAGE  MO 12.7 ST  1.6 OM  3.6 f0 6.34 R0.2394 AL 0.00 WI 20.0 MW  2.4 3
 SPEC SD       MO  2.1 ST0.241 OM  1.5 f0 4.06 R1.3219 AL      WI      MW  1.4 3
 GAP=319        2.43      18.0    18.9 17.0  0.1046E+02  0.5779E+02  0.1697E+03E
 LOCALITY: 24.3 Km al SO de Ponce, Region de Puerto Rico.                      3
 SPEC CRPRBH N MO 12.5 ST  1.9 OM  1.6 f0 7.75 R0.1862 AL-0.00 WI 20.0 MW  2.2 3
 SPEC CRPRBH N T 24115 K 0.020 GD 39.3 VS 3.90 DE 2.90 Q0400.0 QA 0.70 Q1 0.00 3
 SPEC PRSNBH N MO 12.9 ST  1.0 OM  1.9 f0 4.34 R0.3325 AL-0.00 WI 20.0 MW  2.6 3
 SPEC PRSNBH N T 24123 K 0.020 GD 60.3 VS 3.90 DE 2.90 Q0400.0 QA 0.70 Q1 0.00 3
 SPEC AGPRBH N MO 12.9 ST  1.3 OM  1.7 f0 4.93 R0.2927 AL-0.00 WI 20.0 MW  2.5 3
 SPEC AGPRBH N T 24127 K 0.020 GD 79.1 VS 3.90 DE 2.90 Q0400.0 QA 0.70 Q1 0.00 3
 2020-02-02-0240-00S.MAN___147                                                 6
 OLDACT:ARG 20-02-02 04:45 OP:njm  STATUS:               ID:20200202024000     3
 OLDACT:UP  20-02-02 05:18 OP:CGRS STATUS:               ID:20200202024000     3
 ACTION:UP  22-01-05 18:33 OP:JMLC STATUS:               ID:20200202024103 L   I
 OLDACT:UP  21-11-07 23:41 OP:CGRS STATUS:               ID:20200202024103 L   3
 OLDACT:UP  21-11-07 22:42 OP:CGRS STATUS:               ID:20200202024103 L   3
 OLDACT:UP  21-11-07 22:41 OP:CGRS STATUS:               ID:20200202024103 L   3
 OLDACT:UP  21-11-07 22:40 OP:CGRS STATUS:               ID:20200202024103 L   3
 OLDACT:UP  20-04-19 16:58 OP:JMLC STATUS:               ID:20200202024103 L   3
 STAT SP IPHASW D HRMM SECON CODA AMPLIT PERI AZIMU VELO AIN AR TRES W  DIS CAZ7
 PRSN BZ IP     C  241 13.73   29                         90                    
 PRSN BE IS        241 21.90                              90                    
 PRSN BN  IAML     241 24.76       109.2 0.30                                   
 CRPR BZ IP     C  241 11.47   38                         90   -0.4710 39.3 299 
 CRPR BE IS        241 16.62                              90   -0.0210 39.3 299 
 CRPR BN  IAML     241 19.70        62.7 0.20                          39.3 299 
 AGPR BZ IP     C  241 17.02   39                         90   -1.3410 79.1 332 
 AGPR BE IS     C  241 28.62                              90    0.8210 79.1 332 
 AGPR BN  IAML     241 59.49        69.3 2.25                          79.1 332 
 HMDR BZ IP     C  241 49.39   32                         49    1.6010  296 291 
 HMDR BE IS     C  242 18.42                              49   -0.5910  296 291 
                                                                                
 2020  2 2 0247 49.00L  18.820 -67.692  0.0  DOM  6 0.7 2.3LDOM 3.3CDOM 3.2WDOM1
 SPEC AVERAGE  MO 13.9 ST  4.0 OM  3.7 f0 3.69 R2.3835 AL 0.00 WI 20.0 MW  3.2 3
 SPEC SD       MO  0.9 ST  5.3 OM  1.5 f0 3.25 R2.8114 AL      WI      MW  0.6 3
 GAP=194        1.77      14.8     4.7 14.2  0.2503E+02  0.3569E+01 -0.1549E+03E
 LOCALITY: 80.7 Km al ENE de Punta Cana, Canal de la Mona.                     3
 SPEC AGPRBH N MO 13.3 ST 11.5 OM  2.0 f0 8.05 R0.2036 AL-0.00 WI 20.0 MW  2.8 3
 SPEC AGPRBH N T 248 9 K 0.020 GD 72.6 VS 4.43 DE 3.34 Q0400.0 QA 0.70 Q1 0.00 3
 SPEC PCDRHN N MO 15.2 ST0.026 OM  3.8 f00.258 R6.3531 AL-0.00 WI 20.0 MW  4.1 3
 SPEC PCDRHN N T 24812 K 0.020 GD 80.2 VS 4.43 DE 3.34 Q0400.0 QA 0.70 Q1 0.00 3
 SPEC HMDRBH N MO 13.2 ST0.339 OM  1.6 f0 2.76 R0.5939 AL-0.00 WI 20.0 MW  2.7 3
 SPEC HMDRBH N T 24836 K 0.020 GD  133 VS 4.43 DE 3.34 Q0400.0 QA 0.70 Q1 0.00 3
 2020-02-02-0247-00S.MAN___147                                                 6
 OLDACT:ARG 20-02-02 04:47 OP:njm  STATUS:               ID:20200202024700     3
 OLDACT:UP  20-02-02 05:23 OP:CGRS STATUS:               ID:20200202024700     3
 ACTION:UP  22-01-05 18:33 OP:JMLC STATUS:               ID:20200202024747 L   I
 OLDACT:UP  21-11-07 23:41 OP:CGRS STATUS:               ID:20200202024747 L   3
 OLDACT:UP  21-11-07 22:49 OP:CGRS STATUS:               ID:20200202024747 L   3
 OLDACT:UP  21-11-07 22:46 OP:CGRS STATUS:               ID:20200202024747 L   3
 OLDACT:UP  21-11-07 22:45 OP:CGRS STATUS:               ID:20200202024747 L   3
 OLDACT:UP  20-04-19 16:58 OP:JMLC STATUS:               ID:20200202024747 L   3
 STAT SP IPHASW D HRMM SECON CODA AMPLIT PERI AZIMU VELO AIN AR TRES W  DIS CAZ7
 PRSN BZ IP     C  248  3.00   49                         90                    
 PRSN BE IS        248 16.32                              90                    
 PRSN BN  IAML     248 20.47       204.4 0.20                                   
 AGPR BZ IP     C  247 59.89   56                         90   -0.7810 72.6 122 
 AGPR BE IS     C  248 10.16                              90    0.8210 72.6 122 
 AGPR BN  IAML     248 11.02       173.0 0.20                          72.6 122 
 PCDR HZ IP     C  248  1.21   64                         90   -0.7010 80.2 245 
 PCDR HE IS     C  248 11.42                              90   -0.0710 80.2 245 
 PCDR BN  IAML     248 16.09       140.0 1.64                          80.2 245 
 PCDR HN  IAML     248 19.25       156.6 1.56                          80.2 245 
 MIDR HZ IP     C  248 11.91   75                         70   -0.2410  144 277 
 MIDR HE IS     C  248 29.83                              70    0.5310  144 277 
 MIDR HN  IAML     248 30.84        41.8 0.40                           144 277 
 MIDR BN  IAML     248 32.83        49.7 0.28                           144 277 
 SMDR BZ IP     C  248 15.57   42                         50    0.6210  166 289 
 SMDR BE IS     C  248 33.65                              50   -0.5310  166 289 
 SMDR BN  IAML     248 38.41        76.5 0.75                           166 289 
 HMDR BZ IP     C  248 15.79   86                         50   -0.7210  178 269 
 HMDR BE IS        248 37.98                              50    1.0910  178 269 
 HMDR BN  IAML     248 41.20        28.0 0.90                           178 269 
                                                                                
 2020  2 2 0252 52.10L  19.006 -67.635  7.5  DOM  8 0.6 2.6LDOM 3.5CDOM 2.9WDOM1
 SPEC AVERAGE  MO 13.5 ST 10.8 OM  2.6 f0 5.37 R0.3668 AL 0.00 WI 20.0 MW  2.9 3
 SPEC SD       MO  0.2 ST 14.0 OM  0.6 f0 3.10 R0.1857 AL      WI      MW  0.1 3
 GAP=216        1.55       9.6     4.2114.1  0.2739E+02 -0.1356E+03 -0.7635E+03E
 LOCALITY: 150.6 Km al Este de Miches, Oceano Atlantico.                       3
 SPEC AGPRBH N MO 13.7 ST 25.4 OM  2.4 f0 7.62 R0.1996 AL-0.00 WI 20.0 MW  3.1 3
 SPEC AGPRBH N T 25314 K 0.020 GD 81.5 VS 4.11 DE 3.08 Q0400.0 QA 0.70 Q1 0.00 3
 SPEC PCDRHN N MO 13.5 ST  1.3 OM  2.2 f0 3.10 R0.4905 AL-0.00 WI 20.0 MW  3.0 3
 SPEC PCDRHN N T 25317 K 0.020 GD 96.0 VS 4.11 DE 3.08 Q0400.0 QA 0.70 Q1 0.00 3
 SPEC PRSNBH N MO 13.8 ST 19.3 OM  2.4 f0 6.47 R0.2350 AL-0.00 WI 20.0 MW  3.1 3
 SPEC PRSNBH N T 25318 K 0.020 GD  101 VS 4.11 DE 3.08 Q0400.0 QA 0.70 Q1 0.00 3
 SPEC CRPRBH N MO 13.8 ST  4.7 OM  2.4 f0 3.92 R0.3879 AL-0.00 WI 20.0 MW  3.1 3
 SPEC CRPRBH N T 25324 K 0.020 GD  111 VS 4.11 DE 3.08 Q0400.0 QA 0.70 Q1 0.00 3
 SPEC HIDRBH N MO 13.3 ST 38.5 OM  1.9 f0 11.6 R0.1311 AL-0.00 WI 20.0 MW  2.8 3
 SPEC HIDRBH N T 25325 K 0.020 GD  110 VS 4.11 DE 3.08 Q0400.0 QA 0.70 Q1 0.00 3
 SPEC MIDRHH N MO 13.2 ST  3.4 OM  1.8 f0 5.38 R0.2827 AL-0.00 WI 20.0 MW  2.8 3
 SPEC MIDRHH N T 25332 K 0.020 GD  122 VS 4.11 DE 3.08 Q0400.0 QA 0.70 Q1 0.00 3
 SPEC SMDRBH N MO 13.6 ST0.567 OM  2.1 f0 2.32 R0.6555 AL-0.00 WI 20.0 MW  3.0 3
 SPEC SMDRBH N T 25337 K 0.020 GD  128 VS 4.11 DE 3.08 Q0400.0 QA 0.70 Q1 0.00 3
 SPEC HMDRBH N MO 13.4 ST  1.4 OM  1.9 f0 3.62 R0.4201 AL-0.00 WI 20.0 MW  2.9 3
 SPEC HMDRBH N T 25343 K 0.020 GD  136 VS 4.11 DE 3.08 Q0400.0 QA 0.70 Q1 0.00 3
 2020-02-02-0252-00S.MAN___147                                                 6
 OLDACT:ARG 20-02-02 04:52 OP:njm  STATUS:               ID:20200202025200     3
 OLDACT:UP  20-02-02 05:28 OP:CGRS STATUS:               ID:20200202025200     3
 ACTION:UP  22-01-05 18:33 OP:JMLC STATUS:               ID:20200202025252 L   I
 OLDACT:UP  21-11-07 23:42 OP:CGRS STATUS:               ID:20200202025252 L   3
 OLDACT:UP  20-04-19 16:58 OP:JMLC STATUS:               ID:20200202025252 L   3
 STAT SP IPHASW D HRMM SECON CODA AMPLIT PERI AZIMU VELO AIN AR TRES W  DIS CAZ7
 PRSN BZ EPg    D  253  8.12   74                         95                    
 PRSN BN  IAML     253 24.34       503.5 0.25                                   
 AGPR BZ EPg    D  253  5.36   73                         95    0.1310 81.2 137 
 AGPR BE ESg    C  253 16.21                              95    1.2510 81.2 137 
 AGPR BN  IAML     253 20.24       283.9 0.15                          81.2 137 
 PCDR HZ EPg    D  253  7.55   67                         95   -0.0110 95.7 235 
 PCDR HE ESg    D  253 18.81                              95   -0.2110 95.7 235 
 PCDR BN  IAML     253 25.99       177.0 1.50                          95.7 235 
 HIDR BZ EPg    C  253 11.02   61                         94   -0.9010  123 248 
 HIDR BE ESg    C  253 27.18                              94    0.5810  123 248 
 HIDR BN  IAML     253 33.71       156.6 0.25                           123 248 
 CRPR BZ EPg    C  253 11.87   72                         93   -0.3710  125 152 
 CRPR BE ESg    C  253 26.44                              93   -0.7210  125 152 
 CRPR BN  IAML     253 31.72       238.4 0.50                           125 152 
 MIDR HZ EPg    C  253 15.68   88                         93   -0.4610  149 269 
 MIDR BN  IAML     253 37.08        95.5 0.36                           149 269 
 SMDR BZ EPg    C  253 18.64   70                         93   -0.3010  166 281 
 SMDR BE ESg    C  253 39.45                              93    0.6310  166 281 
 SMDR BN  IAML     253 52.40        86.0 1.05                           166 281 
 HMDR BZ EPg    C  253 21.95   98                         92   -0.0810  186 263 
 HMDR BE ESg    D  253 44.64                              92    0.4510  186 263 
 HMDR BN  IAML     253 49.67        62.2 0.80                           186 263 
                                                                                
 2020  2 2 0318 58.20L  18.036 -67.042  0.0  DOM  7 1.0 3.3LDOM 3.4CDOM 3.4WDOM1
 SPEC AVERAGE  MO 14.3 ST 72.8 OM  3.7 f0 3.65 R0.6960 AL 0.00 WI 20.0 MW  3.4 3
 SPEC SD       MO  0.2 ST139.5 OM  0.8 f0 3.43 R0.3895 AL      WI      MW  0.1 3
 GAP=245        2.53      11.5    23.3 15.6 -0.2113E+03  0.2802E+03 -0.1206E+03E
 LOCALITY: 20.5 Km al SSE de Mayaguez, Region de Puerto Rico.                  3
 SPEC CRPRBH N MO 14.3 ST351.7 OM  4.3 f0 10.4 R0.1388 AL-0.00 WI 20.0 MW  3.5 3
 SPEC CRPRBH N T 31857 K 0.020 GD  5.9 VS 3.90 DE 2.90 Q0400.0 QA 0.70 Q1 0.00 3
 SPEC AGPRBH N MO 14.5 ST  8.0 OM  3.6 f0 2.50 R0.5772 AL-0.00 WI 20.0 MW  3.6 3
 SPEC AGPRBH N T 31911 K 0.020 GD 48.5 VS 3.90 DE 2.90 Q0400.0 QA 0.70 Q1 0.00 3
 SPEC HIDRBH N MO 14.1 ST  3.5 OM  2.7 f0 2.68 R0.5384 AL-0.00 WI 20.0 MW  3.3 3
 SPEC HIDRBH N T 31950 K 0.020 GD  136 VS 3.90 DE 2.90 Q0400.0 QA 0.70 Q1 0.00 3
 SPEC MIDRHH N MO 14.0 ST0.589 OM  2.6 f0 1.54 R0.9370 AL-0.00 WI 20.0 MW  3.3 3
 SPEC MIDRHH N T 320 3 K 0.020 GD  153 VS 3.90 DE 2.90 Q0400.0 QA 0.70 Q1 0.00 3
 SPEC HMDRBH N MO 14.3 ST0.378 OM  2.8 f0 1.12 R1.2884 AL-0.00 WI 20.0 MW  3.5 3
 SPEC HMDRBH N T 320 9 K 0.020 GD  161 VS 3.90 DE 2.90 Q0400.0 QA 0.70 Q1 0.00 3
 2020-02-02-0318-00S.MAN___147                                                 6
 OLDACT:ARG 20-02-02 04:54 OP:njm  STATUS:               ID:20200202031800     3
 OLDACT:UP  20-02-02 05:32 OP:CGRS STATUS:               ID:20200202031800     3
 ACTION:UP  22-01-05 18:33 OP:JMLC STATUS:               ID:20200202031855 L   I
 OLDACT:UP  21-11-07 23:43 OP:CGRS STATUS:               ID:20200202031855 L   3
 OLDACT:UP  21-11-07 22:54 OP:CGRS STATUS:               ID:20200202031855 L   3
 OLDACT:UP  20-04-19 16:58 OP:JMLC STATUS:               ID:20200202031855 L   3
 STAT SP IPHASW D HRMM SECON CODA AMPLIT PERI AZIMU VELO AIN AR TRES W  DIS CAZ7
 PRSN BZ IP     C  319  1.44   64                         90                    
 PRSN BE IS        319  4.11                              90                    
 PRSN BN  IAML     319  8.36     37501.4 0.30                                   
 CRPR BZ IP     C  318 58.22   24                         91   -0.9310 5.94 236 
 CRPR BE IS     C  318 59.41                              91   -0.4510 5.94 236 
 CRPR BN  IAML     318 59.92     74825.5 0.10                          5.94 236 
 AGPR BZ IP     C  319  5.75   65                         90   -0.2710 48.5 352 
 AGPR BE IS        319 10.95                              90   -0.8710 48.5 352 
 AGPR BN  IAML     319 12.79      4126.8 0.30                          48.5 352 
 HIDR BZ IP     C  319 26.56   93                         50   -0.2710  187 289 
 HIDR BE IS        319 46.27                              50   -1.7610  187 289 
 HIDR BN  IAML     319 53.16       379.0 0.30                           187 289 
 MIDR HZ IP     C  319 33.48   88                         50    0.5310  236 297 
 MIDR HE IS     C  319 59.51                              50    0.8510  236 297 
 MIDR HN  IAML     320 12.08       115.2 0.58                           236 297 
 MIDR BN  IAML     320 12.11       115.2 0.58                           236 297 
 HMDR BZ IP     C  319 37.40   87                         50    1.4010  261 289 
 HMDR BE IS        320  5.23                              50    1.2610  261 289 
 HMDR BN  IAML     320 17.23       147.1 0.60                           261 289 
 SMDR BZ IP     C  319 37.55   76                         50    1.0010  266 302 
 SMDR BE IS     C  320  4.45                              50   -0.4910  266 302 
                                                                                
 2020  2 2 0326 26.40L  19.277 -67.343 95.4  DOM  6 0.1 3.2LDOM 3.6CDOM 3.4WDOM1
 SPEC AVERAGE  MO 14.2 ST 10.8 OM  3.2 f0 3.74 R0.5355 AL 0.00 WI 20.0 MW  3.4 3
 SPEC SD       MO  0.2 ST152.9 OM  0.8 f0 3.48 R0.2685 AL      WI      MW  0.1 3
 GAP=258        0.32      10.8     4.9 22.5  0.4570E+02 -0.9256E+02 -0.2250E+03E
 LOCALITY: 97.3 Km al ENE de Punta Cana, Canal de la Mona.                     3
 SPEC AGPRBH N MO 14.4 ST 11.4 OM  2.7 f0 3.42 R 0.477 AL-0.00 WI 20.0 MW  3.6 3
 SPEC AGPRBH N T 327 2 K 0.020 GD18.30 VS 4.41 DE 3.40 Q0400.0 QA 0.70 Q1      3
 SPEC PRSNBH N MO 14.1 ST 44.3 OM  2.4 f0 6.81 R0.2401 AL-0.00 WI 20.0 MW  3.4 3
 SPEC PRSNBH N T 327 3 K 0.020 GD  180 VS 4.42 DE 3.40 Q0400.0 QA 0.70 Q1 0.00 3
 SPEC PCDRHN N MO 14.4 ST  2.0 OM  2.7 f0 1.97 R0.8302 AL-0.00 WI 20.0 MW  3.6 3
 SPEC PCDRHN N T 327 4 K 0.020 GD  167 VS 4.42 DE 3.40 Q0400.0 QA 0.70 Q1 0.00 3
 SPEC CRPRBH N MO 14.2 ST 12.5 OM  2.5 f0 4.20 R0.3894 AL-0.00 WI 20.0 MW  3.4 3
 SPEC CRPRBH N T 327 5 K 0.020 GD  171 VS 4.42 DE 3.40 Q0400.0 QA 0.70 Q1 0.00 3
 SPEC HIDRBH N MO 14.0 ST 33.1 OM  2.2 f0 7.10 R0.2303 AL-0.00 WI 20.0 MW  3.3 3
 SPEC HIDRBH N T 327 7 K 0.020 GD  188 VS 4.42 DE 3.40 Q0400.0 QA 0.70 Q1 0.00 3
 SPEC SMDRBH N MO 14.3 ST  2.6 OM  2.5 f0 2.32 R0.7049 AL-0.00 WI 20.0 MW  3.5 3
 SPEC SMDRBH N T 32715 K 0.020 GD  216 VS 4.42 DE 3.40 Q0400.0 QA 0.70 Q1 0.00 3
 SPEC HMDRBH N MO 14.1 ST  3.6 OM  2.2 f0 3.13 R0.5225 AL-0.00 WI 20.0 MW  3.3 3
 SPEC HMDRBH N T 32720 K 0.020 GD  240 VS 4.42 DE 3.40 Q0400.0 QA 0.70 Q1 0.00 3
 2020-02-02-0326-00S.MAN___147                                                 6
 OLDACT:ARG 20-02-02 04:56 OP:njm  STATUS:               ID:20200202032600     3
 OLDACT:UP  20-02-02 05:43 OP:CGRS STATUS:               ID:20200202032600     3
 OLDACT:UP  20-02-02 05:43 OP:CGRS STATUS:               ID:20200202032600     3
 OLDACT:UP  20-02-02 05:46 OP:CGRS STATUS:               ID:20200202032600     3
 ACTION:UP  22-01-05 18:33 OP:JMLC STATUS:               ID:20200202032625 L   I
 OLDACT:UP  21-11-07 23:43 OP:CGRS STATUS:               ID:20200202032625 L   3
 OLDACT:UP  20-04-19 16:58 OP:JMLC STATUS:               ID:20200202032625 L   3
 STAT SP IPHASW D HRMM SECON CODA AMPLIT PERI AZIMU VELO AIN AR TRES W  DIS CAZ7
 PRSN BZ EPg    C  326 48.40   75                        147                    
 PRSN BE ESg    C  327  5.34                             147                    
 PRSN BN  IAML     327 10.54       610.3 0.20                                   
 PCDR HZ EPg    C  326 48.28   72                        118    0.0910  138 232 
 PCDR BN  IAML     327 17.12       313.7 0.68                           138 232 
 CRPR BZ EPg    C  326 48.66   79                        117   -0.0510  143 169 
 CRPR BN  IAML     327 14.51       369.5 0.20                           143 169 
 HIDR BZ EPg    C  326 50.93   73                        113    0.0810  163 243 
 HIDR BE ESg    C  327  8.90                             113   -0.0410  163 243 
 HIDR BN  IAML     327 13.22       336.3 0.25                           163 243 
 SMDR BZ EPg    D  326 54.19   76                        108   -0.0410  194 271 
 SMDR BN  IAML     327 24.05       135.9 0.50                           194 271 
 HMDR BZ EPg    D  326 57.32   95                        105   -0.0410  221 256 
 HMDR BN  IAML     327 27.97       103.1 0.50                           221 256 
                                                                                
 2020  2 2 0343 13.10L  19.238 -70.436 58.4  DOM  5 0.8 2.1LDOM 2.8CDOM        1
 GAP=134        2.05      10.3     5.9 20.8 -0.2725E+01 -0.2529E+02  0.1187E+03E
 LOCALITY: 10.0 Km al Este de Concepcion de La Vega, La Vega.                  3
 2020-02-02-0343-00S.MAN___147                                                 6
 OLDACT:ARG 20-02-02 11:09 OP:cgrs STATUS:               ID:20200202034300     3
 OLDACT:UP  20-02-02 11:38 OP:CGRS STATUS:               ID:20200202034300     3
 OLDACT:UP  20-04-19 16:58 OP:JMLC STATUS:               ID:20200202034315 L   3
 OLDACT:UP  21-11-07 22:55 OP:CGRS STATUS:               ID:20200202034315 L   3
 OLDACT:UP  21-11-07 22:55 OP:CGRS STATUS:               ID:20200202034315 L   3
 ACTION:UP  22-01-05 18:33 OP:JMLC STATUS:               ID:20200202034315 L   I
 OLDACT:UP  21-11-07 23:44 OP:CGRS STATUS:               ID:20200202034315 L   3
 OLDACT:UP  21-11-07 23:01 OP:CGRS STATUS:               ID:20200202034315 L   3
 OLDACT:UP  21-11-07 23:01 OP:CGRS STATUS:               ID:20200202034315 L   3
 STAT SP IPHASW D HRMM SECON CODA AMPLIT PERI AZIMU VELO AIN AR TRES W  DIS CAZ7
 SC01 BZ IP     C  343 22.49   44                        143   -0.1510 37.1 304 
 SC01 BE IS        343 29.14                             143   -0.5810 37.1 304 
 SC01 BN  IAML     343 33.71        74.1 2.90                          37.1 304 
 NADR BZ IP        343 23.38   39                        126   -1.4010 62.2  78 
 NADR BE IS     C  343 34.87                             126    1.4210 62.2  78 
 NADR BN  IAML     343 47.84       162.8 2.70                          62.2  78 
 BADR BZ EPg    C  343 27.63   35                        114   -0.5510 93.3 175 
 BADR BE IS     C  343 39.32                             114   -0.0410 93.3 175 
 BADR BN  IAML     343 39.77       109.2 0.35                          93.3 175 
 SDDR BZ IP        343 29.42   39                        113    1.1810 94.3 252 
 SDDR BE IS        343 39.60                             113    0.1410 94.3 252 
 SDDR BN  IAML     343 42.62        12.5 0.55             90           94.3 252 
 HMDR BZ IP     C  343 31.42   35                        106    0.0710  122 114 
 HMDR BE IS     C  343 44.76                             106   -0.1110  122 114 
 HMDR BN  IAML     343 45.41        35.9 2.80                           122 114 
                                                                                
