 2020  8 5 0737 43.7 L  20.171 -70.798 10.0  DOM 20 0.9 2.9LDOM 3.0CDOM 3.2WDOM1
 LOCALITY: 35.5 Km al NNE de Luperon. Oceano Atlantico.                        3
 SPEC AVERAGE  MO 13.9 ST  2.9 OM  2.6 f0 2.17 R1.1820 AL 0.00 WI 20.0 MW  3.2 3
 SPEC SD       MO  0.6 ST  7.4 OM  0.7 f0 1.96 R0.9048 AL      WI      MW  0.4 3
 GAP=128        2.52       5.3     4.5  7.5  0.1655E+01 -0.7018E+01 -0.1769E+02E
 SPEC SODRBH N MO 14.8 ST0.268 OM  4.0 f00.589 R2.2363 AL-0.00 WI 20.0 MW  3.8 3
 SPEC SODRBH N T 73758 K 0.020 GD 52.5 VS 3.56 DE 2.75 Q0400.0 QA 0.70 Q1 1.00 3
 SPEC MADRBH N MO 14.6 ST0.215 OM  3.6 f00.661 R1.9927 AL-0.00 WI 20.0 MW  3.7 3
 SPEC MADRBH N T 738 2 K 0.020 GD 74.7 VS 3.56 DE 2.75 Q0400.0 QA 0.70 Q1 1.00 3
 SPEC SC01BH N MO 14.5 ST0.252 OM  3.5 f00.726 R1.8143 AL-0.00 WI 20.0 MW  3.6 3
 SPEC SC01BH N T 738 6 K 0.020 GD 83.1 VS 3.56 DE 2.75 Q0400.0 QA 0.70 Q1 1.00 3
 SPEC MCDRBH N MO 13.0 ST  5.3 OM  1.9 f0 6.55 R0.2011 AL-0.00 WI 20.0 MW  2.6 3
 SPEC MCDRBH N T 738 9 K 0.020 GD 95.4 VS 3.56 DE 2.75 Q0400.0 QA 0.70 Q1 1.00 3
 SPEC NADRBH N MO 14.3 ST  4.7 OM  3.1 f0 2.34 R0.5629 AL-0.00 WI 20.0 MW  3.5 3
 SPEC NADRBH N T 73821 K 0.020 GD  115 VS 3.56 DE 2.75 Q0400.0 QA 0.70 Q1 1.00 3
 SPEC REDRBH N MO 13.6 ST 31.8 OM  2.4 f0 7.56 R0.1742 AL-0.00 WI 20.0 MW  3.0 3
 SPEC REDRBH N T 73820 K 0.020 GD  117 VS 3.56 DE 2.75 Q0400.0 QA 0.70 Q1 1.00 3
 SPEC SDDRBH N MO 13.9 ST0.233 OM  2.7 f0 1.16 R1.1355 AL-0.00 WI 20.0 MW  3.2 3
 SPEC SDDRBH N T 73820 K 0.020 GD  119 VS 3.56 DE 2.75 Q0400.0 QA 0.70 Q1 1.00 3
 SPEC GRTKBH N MO 13.7 ST  1.0 OM  2.5 f0 2.20 R0.5987 AL-0.00 WI 20.0 MW  3.1 3
 SPEC GRTKBH N T 73824 K 0.020 GD  123 VS 3.56 DE 2.75 Q0400.0 QA 0.70 Q1 1.00 3
 SPEC SMDRBH N MO 13.7 ST0.583 OM  2.4 f0 1.88 R0.7006 AL-0.00 WI 20.0 MW  3.1 3
 SPEC SMDRBH N T 73832 K 0.020 GD  139 VS 3.56 DE 2.75 Q0400.0 QA 0.70 Q1 1.00 3
 SPEC NEDRBH N MO 14.4 ST0.050 OM  3.1 f00.484 R2.7215 AL-0.00 WI 20.0 MW  3.5 3
 SPEC NEDRBH N T 73836 K 0.020 GD  141 VS 3.56 DE 2.75 Q0400.0 QA 0.70 Q1 1.00 3
 SPEC BADRBH N MO 14.0 ST  1.7 OM  2.7 f0 2.13 R0.6184 AL-0.00 WI 20.0 MW  3.3 3
 SPEC BADRBH N T 73839 K 0.020 GD  141 VS 3.56 DE 2.75 Q0400.0 QA 0.70 Q1 1.00 3
 SPEC SDD BH N MO 14.2 ST0.106 OM  2.9 f00.717 R1.8371 AL-0.00 WI 20.0 MW  3.4 3
 SPEC SDD BH N T 73842 K 0.020 GD  144 VS 3.56 DE 2.75 Q0400.0 QA 0.70 Q1 1.00 3
 SPEC HIDRBH N MO 13.5 ST  1.4 OM  2.2 f0 2.75 R0.4790 AL-0.00 WI 20.0 MW  3.0 3
 SPEC HIDRBH N T 73850 K 0.020 GD  167 VS 3.56 DE 2.75 Q0400.0 QA 0.70 Q1 1.00 3
 SPEC PCDRBH N MO 14.5 ST0.038 OM  3.1 f00.409 R3.2205 AL-0.00 WI 20.0 MW  3.6 3
 SPEC PCDRBH N T 73911 K 0.020 GD  176 VS 3.56 DE 2.75 Q0400.0 QA 0.70 Q1 1.00 3
 SPEC AGPRBH N MO 13.1 ST0.437 OM  1.7 f0 2.56 R0.5145 AL-0.00 WI 20.0 MW  2.7 3
 SPEC AGPRBH N T 73945 K 0.020 GD  207 VS 3.56 DE 2.75 Q0400.0 QA 0.70 Q1 1.00 3
 SPEC MLPRBH N MO 12.3 ST0.061 OM  0.9 f0 2.43 R0.5421 AL-0.00 WI 20.0 MW  2.2 3
 SPEC MLPRBH N T 73954 K 0.020 GD  215 VS 3.56 DE 2.75 Q0400.0 QA 0.70 Q1 1.00 3
 SPEC AOPRBH N MO 13.6 ST0.379 OM  2.1 f0 1.77 R0.7442 AL-0.00 WI 20.0 MW  3.0 3
 SPEC AOPRBH N T 73956 K 0.020 GD  217 VS 3.56 DE 2.75 Q0400.0 QA 0.70 Q1 1.00 3
 2020-08-05-0737-00S.MAN___120                                                 6
 OLDACT:ARG 20-08-05 07:42 OP:jmlc STATUS:               ID:20200805073700     3
 ACTION:UPD 20-09-29 11:31 OP:jmlc STATUS:               ID:20200805073700     I
 OLDACT:UP  20-08-05 07:54 OP:JMLC STATUS:               ID:20200805073700     3
 STAT SP IPHASW D HRMM SECON CODA AMPLIT PERI AZIMU VELO AIN AR TRES W  DIS CAZ7
 LUDR BZ IP        737 49.92   24                        105    0.3910 34.7 208 
 LUDR BE IS        737 54.26                             105    0.4510 34.7 208 
 SODR BZ IP        737 52.59   29                        100    0.3810 51.7 153 
 SODR BN IS        737 59.83                             100    1.3510 51.7 153 
 SODR BN  IAML     738  1.96      1721.8 0.45                          51.7 153 
 MADR BZ IP        737 54.87   65                         97   -0.9210 74.1 206 
 MADR BN IS        738  4.17                              97   -0.5310 74.1 206 
 MADR BN  IAML     738 12.89       769.2 0.80                          74.1 206 
 SC01 BZ IP        737 55.48   49                         70   -1.6110 82.6 175 
 SC01 BN IS        738  7.54                              70    0.5710 82.6 175 
 SC01 BN  IAML     738 10.54       599.6 0.50                          82.6 175 
 MCDR BZ IP        737 59.27   55                         70    0.3110 95.0 251 
 MCDR BN IS        738 10.79                              70    0.5710 95.0 251 
 MCDR BN  IAML     738 22.94       103.8 0.20                          95.0 251 
 NADR BZ IP        738  4.33   36                         70   -0.5010  134 132 
 NADR BN IS        738 22.82                              70    2.3810  134 132 
 NADR BN  IAML     738 24.29      1060.4 0.25                           134 132 
 REDR BZ IP        738  4.14   34                         50   -1.1910  137 224 
 REDR BN IS        738 21.87                              50    0.5610  137 224 
 REDR BN  IAML     738 23.87       444.4 0.25                           137 224 
 SDDR BZ IP        738  5.61   36                         50   -0.2710  142 201 
 SDDR BN IS        738 21.81                              50   -0.4610  142 201 
 SDDR BN  IAML     738 24.99       175.4 0.30                           142 201 
 ABDR BZ IP        738  7.29   35                         50   -0.0510  151 173 
 ABDR BN  IAML     738 50.29         0.3 1.15                           151 173 
 GRTK BZ IP        738  7.32   45                         50    0.1410  152 347 
 GRTK BN IS        738 25.93                              50    1.4010  152 347 
 GRTK BN  IAML     738 27.98       214.0 0.25                           152 347 
 SMDR BZ IP        738 10.60   53                         50   -1.8510  195 120 
 SMDR BN IS        738 33.93                              50    0.2310  195 120 
 SMDR BN  IAML     738 34.58       128.6 0.40                           195 120 
 NEDR BZ IP        738 14.45   65                         50    1.4210  200 201 
 NEDR BN  IAML     738 39.66        77.2 0.45                           200 201 
 BADR BZ IP        738 13.24   49                         50   -0.1310  201 167 
 BADR BN  IAML     738 41.88       305.1 0.70                           201 167 
 SDD  BZ IP        738 13.72                              50   -0.6610  210 154 
 SDD  BN  IAML     738 48.25        95.6 0.90                           210 154 
 HIDR BZ IP        738 21.57   62                         50   -1.4610  280 128 
 HIDR BN IS        738 52.22                              50    0.1110  280 128 
 HIDR BN  IAML     738 56.27       115.7 0.30                           280 128 
 PCDR BZ IP        738 26.55   79                         50   -0.6010  313 125 
 PCDR BN  IAML     739 55.93        91.5 2.40                           313 125 
 AGPR BZ IP        738 42.18                              49    0.4510  431 115 
 AGPR BN  IAML     739 56.58        49.9 1.00                           431 115 
 MLPR BZ IP        738 45.04                              49   -0.7210  464 121 
 MLPR BN  IAML     739 57.83         7.9 2.88                           464 121 
 AOPR BZ IP        738 46.27                              49   -0.3110  471 115 
 AOPR BN  IAML     740  0.05        24.5 0.32                           471 115 
 CELP BZ IP        738 50.83                              49    0.5710  501 117 
 CELP BN  IAML     740  8.20         8.6 2.52                           501 117 
                                                                                
 2020  8 5 0750 54.9 L  18.989 -68.866  0.0  DOM 20 0.9 2.5LDOM 3.0CDOM 2.7WDOM1
 LOCALITY: 19.3 Km al Este de Miches. El Seibo.                                3
 SPEC AVERAGE  MO 13.2 ST  7.0 OM  2.1 f0 4.74 R0.7229 AL 0.00 WI 20.0 MW  2.7 3
 SPEC SD       MO  0.6 ST 11.1 OM  0.5 f0 3.97 R1.1307 AL      WI      MW  0.4 3
 GAP=147        2.46       5.5     3.6  6.1  0.1208E+02 -0.2445E+01 -0.9266E+01E
 SPEC HIDRBH N MO 12.6 ST 34.4 OM  2.0 f0 14.6 R0.0811 AL-0.00 WI 20.0 MW  2.4 3
 SPEC HIDRBH N T 751 7 K 0.020 GD 46.8 VS 3.20 DE 2.60 Q0400.0 QA 0.70 Q1 1.00 3
 SPEC SMDRBH N MO 12.7 ST0.638 OM  2.1 f0 3.56 R0.3326 AL-0.00 WI 20.0 MW  2.4 3
 SPEC SMDRBH N T 751 5 K 0.020 GD 47.5 VS 3.20 DE 2.60 Q0400.0 QA 0.70 Q1 1.00 3
 SPEC PCDRBH N MO 12.6 ST0.477 OM  1.8 f0 3.52 R0.3364 AL-0.00 WI 20.0 MW  2.4 3
 SPEC PCDRBH N T 75113 K 0.020 GD 73.3 VS 3.20 DE 2.60 Q0400.0 QA 0.70 Q1 1.00 3
 SPEC NADRBH N MO 13.9 ST  5.8 OM  2.9 f0 3.08 R0.3844 AL-0.00 WI 20.0 MW  3.2 3
 SPEC NADRBH N T 75123 K 0.020 GD  105 VS 3.20 DE 2.60 Q0400.0 QA 0.70 Q1 1.00 3
 SPEC BADRBH N MO 13.0 ST 13.8 OM  1.9 f0 8.26 R0.1433 AL-0.00 WI 20.0 MW  2.6 3
 SPEC BADRBH N T 75139 K 0.020 GD  130 VS 3.20 DE 2.60 Q0400.0 QA 0.70 Q1 1.00 3
 SPEC AGPRBH N MO 14.0 ST0.088 OM  2.9 f00.695 R1.7036 AL-0.00 WI 20.0 MW  3.3 3
 SPEC AGPRBH N T 75145 K 0.020 GD  139 VS 3.20 DE 2.60 Q0400.0 QA 0.70 Q1 1.00 3
 SPEC PRSNBH N MO 12.8 ST  9.3 OM  1.7 f0 8.21 R0.1442 AL-0.00 WI 20.0 MW  2.5 3
 SPEC PRSNBH N T 75150 K 0.020 GD  141 VS 3.20 DE 2.60 Q0400.0 QA 0.70 Q1 1.00 3
 SPEC SC01BH N MO 13.3 ST0.493 OM  2.2 f0 2.10 R0.5638 AL-0.00 WI 20.0 MW  2.8 3
 SPEC SC01BH N T 75146 K 0.020 GD  142 VS 3.20 DE 2.60 Q0400.0 QA 0.70 Q1 1.00 3
 SPEC AOPRBH N MO 13.5 ST0.818 OM  2.4 f0 2.08 R0.5692 AL-0.00 WI 20.0 MW  3.0 3
 SPEC AOPRBH N T 75154 K 0.020 GD  152 VS 3.20 DE 2.60 Q0400.0 QA 0.70 Q1 1.00 3
 SPEC MADRBH N MO 13.3 ST  1.1 OM  2.2 f0 2.69 R0.4401 AL-0.00 WI 20.0 MW  2.8 3
 SPEC MADRBH N T 75157 K 0.020 GD  156 VS 3.20 DE 2.60 Q0400.0 QA 0.70 Q1 1.00 3
 SPEC SDDRBH N MO 12.9 ST0.278 OM  1.7 f0 2.45 R0.4833 AL-0.00 WI 20.0 MW  2.5 3
 SPEC SDDRBH N T 75159 K 0.020 GD  159 VS 3.20 DE 2.60 Q0400.0 QA 0.70 Q1 1.00 3
 SPEC CELPBH N MO 12.4 ST0.503 OM  1.2 f0 4.36 R0.2716 AL-0.00 WI 20.0 MW  2.2 3
 SPEC CELPBH N T 75159 K 0.020 GD  161 VS 3.20 DE 2.60 Q0400.0 QA 0.70 Q1 1.00 3
 SPEC REDRBH N MO 13.0 ST 29.9 OM  1.8 f0 10.5 R0.1128 AL-0.00 WI 20.0 MW  2.6 3
 SPEC REDRBH N T 752 7 K 0.020 GD  173 VS 3.20 DE 2.60 Q0400.0 QA 0.70 Q1 1.00 3
 SPEC MCDRBH N MO 14.5 ST0.015 OM  3.3 f00.260 R4.5538 AL-0.00 WI 20.0 MW  3.6 3
 SPEC MCDRBH N T 752 9 K 0.020 GD  176 VS 3.20 DE 2.60 Q0400.0 QA 0.70 Q1 1.00 3
 2020-08-05-0750-00S.MAN___120                                                 6
 OLDACT:ARG 20-08-05 07:58 OP:jmlc STATUS:               ID:20200805075000     3
 ACTION:UPD 20-09-29 11:31 OP:jmlc STATUS:               ID:20200805075000     I
 OLDACT:UP  20-08-05 08:19 OP:JMLC STATUS:               ID:20200805075000     3
 STAT SP IPHASW D HRMM SECON CODA AMPLIT PERI AZIMU VELO AIN AR TRES W  DIS CAZ7
 HIDR BZ IP        751  2.78   12                         90    0.3510 46.8 160 
 HIDR BN IS        751  8.97                              90    0.9610 46.8 160 
 HIDR BN  IAML     751  9.22       369.5 0.25                          46.8 160 
 SMDR BZ IP        751  2.20   26                         90   -0.3410 47.5 315 
 SMDR BN IS        751  7.24                              90   -0.9710 47.5 315 
 SMDR BN  IAML     751  9.56       122.4 0.30                          47.5 315 
 PCDR BZ IP        751  5.99   29                         90   -0.7310 73.3 136 
 PCDR BN IS        751 15.19                              90   -0.2810 73.3 136 
 PCDR BN  IAML     751 20.24       146.0 1.05                          73.3 136 
 NADR BZ IP   5    751  9.12   35                         90   -3.78 0  112 291 
 NADR BN IS        751 24.92                              90   -1.3110  112 291 
 NADR BN  IAML     751 28.49       951.6 0.25                           112 291 
 SDD  BZ IP        751 14.51                              90   -0.5910  125 242 
 SDD  BE IS        751 29.20                              90   -0.8510  125 242 
 SDD  BN  IAML     751 48.90        70.1 2.55                           125 242 
 BADR BZ IP        751 21.77   36                         50    0.1410  171 248 
 BADR BN IS        751 40.84                              50   -0.5910  171 248 
 BADR BN  IAML     751 42.69       107.0 0.15                           171 248 
 ABDR BZ IP        751 23.49   53                         50   -0.2910  187 264 
 ABDR BE IS        751 46.11                              50    0.9410  187 264 
 ABDR BN  IAML     752 31.01         0.3 0.50                           187 264 
 AGPR BZ IP        751 23.70                              50   -0.7210  194 107 
 AGPR BN IS        751 46.90                              50    0.6210  194 107 
 AGPR BN  IAML     751 57.72        43.7 1.12                           194 107 
 SODR BZ IP        751 24.33   51                         50   -0.6610  199 295 
 SODR BN IS        751 48.63                              50    1.3710  199 295 
 SODR BN  IAML     752  1.13       126.4 0.65                           199 295 
 PRSN BZ IP        751 24.88                              50   -0.3810  201 115 
 PRSN BN  IAML     751 55.73       110.9 0.28                           201 115 
 SC01 BZ IP        751 27.01   53                         50    1.6110  202 284 
 SC01 BN IS        751 47.71                              50   -0.2710  202 284 
 SC01 BN  IAML     751 54.36       101.0 1.30                           202 284 
 MLPR BZ IP        751 26.11                              50   -1.9210  223 120 
 MLPR BN IS        751 52.30                              50   -0.2610  223 120 
 MLPR BN  IAML     752  0.26         9.6 1.40                           223 120 
 AOPR BN IS        751 55.71                              50    0.7410  234 107 
 AOPR BN  IAML     752  3.45        57.8 0.48                           234 107 
 LUDR BZ IP        751 29.28   59                         50   -0.9710  241 295 
 LUDR BE IS        751 56.09                              50   -0.3310  241 295 
 MADR BZ IP        751 32.20   55                         50    1.6110  244 286 
 MADR BN IS        751 58.50                              50    1.4910  244 286 
 MADR BN  IAML     752 13.00        82.9 0.40                           244 286 
 SDDR BZ IP        751 31.27   63                         50   -0.8210  255 270 
 SDDR BN IS        752  0.76                              50    1.1410  255 270 
 SDDR BN  IAML     752  9.86        30.6 0.50                           255 270 
 CELP BZ IP        751 33.77   51                         50    0.8710  262 112 
 CELP BN IS        752  0.90                              50   -0.1410  262 112 
 CELP BN  IAML     752  7.62        13.1 0.48                           262 112 
 REDR BZ IP   3    751 35.17   63                         50   -2.49 2  300 277 
 REDR BN IS        752  9.05                              50   -0.2710  300 277 
 REDR BN  IAML     752 17.25        80.9 0.25                           300 277 
 MCDR BZ IP        751 38.55   64                         50   -0.2410  310 289 
 MCDR BN IS        752 10.99                              50   -0.2910  310 289 
 MCDR BN  IAML     752 44.69        58.5 4.50                           310 289 
 GRTK BZ IP        751 47.57                              50    1.7710  366 320 
 GRTK BN IS        752 23.25                              50   -0.2310  366 320 
 GRTK BN  IAML     752 49.25        56.4 1.85                           366 320 
                                                                                
 2020  8 5 1558 49.9 L  17.968 -66.897 16.9  DOM  6 0.3 2.4LDOM 2.5CDOM 2.7WDOM1
 SPEC AVERAGE  MO 13.1 ST 15.8 OM  2.1 f0 9.01 R0.2130 AL 0.00 WI 20.0 MW  2.7 3
 SPEC SD       MO  0.3 ST 22.5 OM  0.3 f0 5.53 R0.0816 AL      WI      MW  0.2 3
 GAP=192        0.87       3.5     2.2  7.1  0.2816E+01 -0.8485E+01 -0.1140E+02E
 SPEC MLPRBH N MO 12.8 ST 60.6 OM  2.1 f0 19.7 R0.0757 AL-0.00 WI 20.0 MW  2.5 3
 SPEC MLPRBH N T155854 K 0.020 GD 23.0 VS 4.03 DE 3.01 Q0400.0 QA 0.70 Q1 1.00 3
 SPEC CELPBH N MO 12.6 ST  4.0 OM  1.7 f0 9.06 R0.1646 AL-0.00 WI 20.0 MW  2.4 3
 SPEC CELPBH N T155859 K 0.020 GD 39.7 VS 4.03 DE 3.01 Q0400.0 QA 0.70 Q1 1.00 3
 SPEC PRSNBH N MO 13.3 ST  3.7 OM  2.4 f0 5.07 R0.2941 AL-0.00 WI 20.0 MW  2.8 3
 SPEC PRSNBH N T155859 K 0.020 GD 41.7 VS 4.03 DE 3.01 Q0400.0 QA 0.70 Q1 1.00 3
 SPEC AOPRBH N MO 13.5 ST  7.6 OM  2.5 f0 5.69 R0.2621 AL-0.00 WI 20.0 MW  2.9 3
 SPEC AOPRBH N T1559 1 K 0.020 GD 47.6 VS 4.03 DE 3.01 Q0400.0 QA 0.70 Q1 1.00 3
 SPEC AGPRBH N MO 13.1 ST  2.9 OM  2.0 f0 5.55 R0.2687 AL-0.00 WI 20.0 MW  2.7 3
 SPEC AGPRBH N T1559 5 K 0.020 GD 62.2 VS 4.03 DE 3.01 Q0400.0 QA 0.70 Q1 1.00 3
 2020-08-05-1558-00S.MAN___120                                                 6
 OLDACT:ARG 20-08-05 17:48 OP:njm  STATUS:               ID:20200805155800     3
 ACTION:UPD 20-09-29 11:31 OP:jmlc STATUS:               ID:20200805155800     I
 OLDACT:UP  20-08-05 18:10 OP:JMLC STATUS:               ID:20200805155800     3
 STAT SP IPHASW D HRMM SECON CODA AMPLIT PERI AZIMU VELO AIN AR TRES W  DIS CAZ7
 MLPR BZ IP     D 1558 53.34   17                        135   -0.1610 15.6 270 
 MLPR BE IS     C 1558 56.31                             135    0.1210 15.6 270 
 MLPR BN  IAML    1558 57.19       631.7 0.08                          15.6 270 
 CELP BZ IP     D 1558 55.90   25                        110   -0.2510 35.9  71 
 CELP BE IS     C 1559  0.83                             110    0.0310 35.9  71 
 CELP BN  IAML    1559  1.49       210.7 0.28                          35.9  71 
 PRSN BZ IP     C 1558 56.44   27                        109    0.0010 38.1 316 
 PRSN BE IS     C 1559  1.49                             109    0.1810 38.1 316 
 PRSN BN  IAML    1559  2.55       791.3 0.28                          38.1 316 
 AOPR BZ IP     C 1558 57.14   40                        105   -0.2510 44.5  20 
 AOPR BE IS     D 1559  2.54                             105   -0.4410 44.5  20 
 AOPR BN  IAML    1559  3.80       693.1 0.20                          44.5  20 
 AGPR BZ IP     C 1558 59.58   37                         99   -0.0910 59.9 338 
 AGPR BE IS     C 1559  7.34                              99    0.4110 59.9 338 
 AGPR BN  IAML    1559 10.08       109.1 0.44                          59.9 338 
 SJG  BZ IP     C 1559  2.49   42                         96   -0.3110 80.6  79 
 SJG  BE IS     D 1559 13.13                              96    0.7510 80.6  79 
                                                                                
