 2020  9 5 1716 33.2 L  19.068 -70.004 25.5  DOM 10 0.9 2.2LDOM 3.1CDOM 2.3WDOM1
 SPEC AVERAGE  MO 12.5 ST  4.5 OM  2.0 f0 7.24 R0.2137 AL 0.00 WI 20.0 MW  2.3 3
 SPEC SD       MO  0.0 ST  3.7 OM  0.6 f0 2.98 R0.1176 AL      WI      MW  0.0 3
 GAP= 89        2.28       5.2     3.7  6.7 -0.3989E+00 -0.2613E+01 -0.5561E+01E
 LOCALITY: 10.0 Km al SSE de Eugenio Maria de Hostos. Duarte.                  3
 SPEC ABDRBH N MO 12.5 ST  4.2 OM  1.6 f0 8.35 R0.1440 AL-0.00 WI 20.0 MW  2.2 3
 SPEC ABDRBH N T171655 K 0.020 GD 75.9 VS 3.25 DE 2.62 Q0400.0 QA 0.70 Q1 1.00 3
 SPEC SMDRBH N MO 12.4 ST0.223 OM  1.5 f0 3.17 R0.3793 AL-0.00 WI 20.0 MW  2.2 3
 SPEC SMDRBH N T1717 0 K 0.020 GD 92.8 VS 3.25 DE 2.62 Q0400.0 QA 0.70 Q1 1.00 3
 SPEC REDRBH N MO 12.5 ST  9.2 OM  1.3 f0 10.2 R0.1179 AL-0.00 WI 20.0 MW  2.3 3
 SPEC REDRBH N T171722 K 0.020 GD  181 VS 3.25 DE 2.62 Q0400.0 QA 0.70 Q1 1.00 3
 2020-09-05-1716-00S.MAN___123                                                 6
 OLDACT:UP  20-09-05 22:20 OP:CGRS STATUS:               ID:20200905171600     3
 OLDACT:ARG 20-09-05 21:36 OP:plst STATUS:               ID:20200905171600     3
 ACTION:UP  22-06-23 12:36 OP:jmlc STATUS:               ID:20200905171633 L   I
 OLDACT:UP  20-09-05 22:21 OP:CGRS STATUS:               ID:20200905171600     3
 OLDACT:UP  20-09-05 22:21 OP:CGRS STATUS:               ID:20200905171600     3
 OLDACT:UP  20-09-05 22:21 OP:CGRS STATUS:               ID:20200905171600     3
 STAT SP IPHASW D HRMM SECON CODA AMPLIT PERI AZIMU VELO AIN AR TRES W  DIS CAZ7
 NADR BZ IP     C 1716 42.27   43                        115    0.7310 35.2  26 
 NADR BN  IAML    1716 46.68       357.9 0.15                          35.2  26 
 SDD  BN IS     C 1716 56.71                              99   -0.3210 67.6 172 
 SDD  BN  IAML    1717 15.58        51.4 0.90                          67.6 172 
 ABDR BZ IP     C 1716 47.91   56                         98    0.1310 71.5 247 
 ABDR BN IS     C 1716 57.42                              98   -1.4510 71.5 247 
 ABDR BN  IAML    1716 58.19       100.8 0.25                          71.5 247 
 BADR BZ IP     C 1716 50.72   39                         62    1.2710 83.2 207 
 BADR BN IS     C 1717  2.18                              62    0.3710 83.2 207 
 BADR BN  IAML    1717  3.48       266.8 0.15                          83.2 207 
 SC01 BN IS     C 1717  2.65                              62    0.3810 85.8 298 
 SC01 BN  IAML    1717  2.95       140.5 0.40                          85.8 298 
 SMDR BZ IP     C 1716 50.02   52                         62   -0.1510 89.2  74 
 SMDR BN IS     C 1717  2.00                              62   -1.0810 89.2  74 
 SMDR BN  IAML    1717  4.90        72.1 0.55                          89.2  74 
 SDDR BN IS     C 1717 16.09                              53    0.8310  136 266 
 SDDR BN  IAML    1718  0.61        11.5 1.25                           136 266 
 HIDR BN IS     C 1717 17.14                              53   -0.3010  146 111 
 HIDR BN  IAML    1717 17.59        60.6 0.25                           146 111 
 REDR BZ IP     C 1717  3.78   69                         48    0.7710  180 278 
 REDR BN IS     C 1717 24.01                              48   -1.6610  180 278 
 REDR BN  IAML    1717 31.36        29.2 0.20                           180 278 
 PCDR BN IS     C 1717 26.30                              48    0.4810  182 109 
 PCDR BN  IAML    1717 54.08        91.0 1.75                           182 109 
                                                                                
 2020  9 5 1718  9.5 L  18.207 -71.265 37.6  DOM  6 1.6 2.1LDOM 3.1CDOM 2.7WDOM1
 SPEC AVERAGE  MO 13.1 ST 35.3 OM  2.3 f0 10.0 R0.1975 AL 0.00 WI 20.0 MW  2.7 3
 SPEC SD       MO  0.3 ST 42.9 OM  0.7 f0 4.34 R0.0746 AL      WI      MW  0.2 3
 GAP=178        4.13      45.1    17.4 32.6  0.1444E+03 -0.1639E+03 -0.1359E+04E
 LOCALITY: 2.0 Km al Norte de Polo, Barahona.                                  3
 SPEC NEDRBH N MO 12.7 ST0.981 OM  1.5 f0 5.81 R0.2866 AL-0.00 WI 20.0 MW  2.4 3
 SPEC NEDRBH N T171825 K 0.020 GD 51.2 VS 4.50 DE 3.40 Q0400.0 QA 0.70 Q1 1.00 3
 SPEC REDRBH N MO 13.2 ST  9.2 OM  1.6 f0 8.25 R0.2018 AL-0.00 WI 20.0 MW  2.8 3
 SPEC REDRBH N T171843 K 0.020 GD  132 VS 4.50 DE 3.40 Q0400.0 QA 0.70 Q1 1.00 3
 SPEC SC01BH N MO 13.4 ST 95.7 OM  1.7 f0 16.0 R0.1041 AL-0.00 WI 20.0 MW  2.9 3
 SPEC SC01BH N T171850 K 0.020 GD  150 VS 4.50 DE 3.40 Q0400.0 QA 0.70 Q1 1.00 3
 2020-09-05-1716-00S.MAN___123                                                 6
 OLDACT:UP  20-09-05 22:27 OP:CGRS STATUS:               ID:20200905171601D    3
 OLDACT:UP  20-09-05 22:27 OP:CGRS STATUS:               ID:20200905171601D    3
 OLDACT:DUP 20-09-05 22:18 OP:CGRS STATUS:               ID:20200905171601D    3
 ACTION:UP  22-06-23 12:36 OP:jmlc STATUS:               ID:20200905171809 L   I
 OLDACT:UP  20-09-05 22:49 OP:CGRS STATUS:               ID:20200905171601D    3
 OLDACT:UP  20-09-05 22:34 OP:CGRS STATUS:               ID:20200905171601D    3
 OLDACT:UP  20-09-05 22:34 OP:CGRS STATUS:               ID:20200905171601D    3
 OLDACT:UP  20-09-05 22:33 OP:CGRS STATUS:               ID:20200905171601D    3
 STAT SP IPHASW D HRMM SECON CODA AMPLIT PERI AZIMU VELO AIN AR TRES W  DIS CAZ7
 PODR BE IS     C 1718 20.55                             171   -1.7410 5.15 201 
 PODR BN  IAML    1718 40.18        64.6 0.85                          5.15 201 
 NEDR BZ IP     C 1718 20.55   58                        127    1.8010 34.7 332 
 NEDR BN  IAML    1718 43.26        52.3 0.35                          34.7 332 
 JIDR BZ IP     C 1718 24.22   44                        103    0.7410 69.9 297 
 JIDR BN IS     C 1718 34.18                             103    0.1110 69.9 297 
 JIDR BN  IAML    1718 35.36       549.6 0.20                          69.9 297 
 SDDR BZ IP     C 1718 27.95   61                         65    2.1110 85.6 358 
 SDDR BN IS     C 1718 39.22                              65    1.0010 85.6 358 
 SDDR BN  IAML    1718 40.22        12.6 1.00                          85.6 358 
 REDR BN IS     C 1718 44.83                              65   -3.1810  127 339 
 REDR BN  IAML    1718 45.51        89.8 0.30                           127 339 
 SC01 BZ IP     C 1718 33.58   56                         65   -0.3210  146  23 
 SC01 BE IS     C 1718 51.90                              65   -0.5110  146  23 
 SC01 BN  IAML    1718 52.33        58.8 1.15                           146  23 
                                                                                
 2020  9 5 1813  2.0 L  19.417 -69.425 90.3  DOM  5 0.9 2.5LDOM 3.4CDOM 2.8WDOM1
 SPEC AVERAGE  MO 13.3 ST 88.3 OM  3.9 f0 16.0 R0.1036 AL 0.00 WI 20.0 MW  2.8 3
 SPEC SD       MO  0.0 ST0.000 OM  2.3 f00.000 R0.0000 AL      WI      MW  0.0 3
 GAP=218        2.10      24.0    15.8 23.6  0.6271E+02  0.2027E+03  0.3544E+03E
 LOCALITY: 29.8 Km al NNO de Las Galeras. Oceano Atlantico.                    3
 SPEC BADRBH N MO 13.3 ST 88.3 OM  1.6 f0 16.0 R0.1036 AL-0.00 WI 20.0 MW  2.8 3
 SPEC BADRBH N T181345 K 0.020 GD  175 VS 4.48 DE 3.40 Q0400.0 QA 0.70 Q1 1.00 3
 2020-09-05-1813-00S.MAN___123                                                 6
 OLDACT:ARG 20-09-05 21:42 OP:plst STATUS:               ID:20200905181300     3
 ACTION:UP  22-06-23 12:36 OP:jmlc STATUS:               ID:20200905181302 L   I
 OLDACT:UP  20-09-05 22:49 OP:CGRS STATUS:               ID:20200905181300     3
 OLDACT:UP  20-09-05 22:48 OP:CGRS STATUS:               ID:20200905181300     3
 OLDACT:UP  20-09-05 22:48 OP:CGRS STATUS:               ID:20200905181300     3
 STAT SP IPHASW D HRMM SECON CODA AMPLIT PERI AZIMU VELO AIN AR TRES W  DIS CAZ7
 SMDR BN IS     C 1813 26.07                             158   -0.6710 28.6 119 
 SMDR BN  IAML    1813 56.89        78.8 0.80                          28.6 119 
 NADR BN IS     C 1813 29.24                             147    0.8810 45.7 261 
 NADR BN  IAML    1813 54.26       163.0 0.45                          45.7 261 
 SDD  BN IS     C 1813 40.16                             114    0.4310  118 206 
 ABDR BN IS     C 1813 44.22                             107   -1.3210  143 242 
 ABDR BN  IAML    1813 44.82       125.8 0.20                           143 242 
 BADR BZ IP     C 1813 27.83   65                        105    0.6810  150 221 
 BADR BN  IAML    1813 50.28        70.8 1.70                           150 221 
                                                                                
 2020  9 5 2002 42.2 L  20.095 -70.270 38.1  DOM 15 1.0 2.7LDOM 3.4CDOM 2.9WDOM1
 SPEC AVERAGE  MO 13.4 ST 15.7 OM  2.6 f0 5.08 R0.7169 AL 0.00 WI 20.0 MW  2.9 3
 SPEC SD       MO  0.4 ST 27.3 OM  0.6 f0 4.53 R1.0611 AL      WI      MW  0.3 3
 GAP=158        2.61       5.8     5.4 11.4  0.6139E+01 -0.7626E+01  0.1599E+02E
 LOCALITY: 47.3 Km al NNE de Cabarete. Oceano Atlantico.                       3
 SPEC SC01BH N MO 13.2 ST0.424 OM  2.2 f0 2.25 R0.5624 AL-0.00 WI 20.0 MW  2.8 3
 SPEC SC01BH N T20 310 K 0.020 GD 96.0 VS 3.42 DE 2.69 Q0400.0 QA 0.70 Q1 1.00 3
 SPEC NADRBH N MO 14.8 ST0.039 OM  3.7 f00.317 R3.9918 AL-0.00 WI 20.0 MW  3.8 3
 SPEC NADRBH N T20 3 9 K 0.020 GD  100 VS 3.42 DE 2.69 Q0400.0 QA 0.70 Q1 1.00 3
 SPEC MADRBH N MO 13.4 ST  1.7 OM  2.3 f0 3.13 R0.4043 AL-0.00 WI 20.0 MW  2.9 3
 SPEC MADRBH N T20 314 K 0.020 GD  111 VS 3.42 DE 2.69 Q0400.0 QA 0.70 Q1 1.00 3
 SPEC SMDRBH N MO 13.1 ST0.677 OM  1.9 f0 2.86 R0.4424 AL-0.00 WI 20.0 MW  2.7 3
 SPEC SMDRBH N T20 323 K 0.020 GD  148 VS 3.42 DE 2.69 Q0400.0 QA 0.70 Q1 1.00 3
 SPEC MCDRBH N MO 13.1 ST 35.2 OM  1.9 f0 10.6 R0.1194 AL-0.00 WI 20.0 MW  2.7 3
 SPEC MCDRBH N T20 323 K 0.020 GD  151 VS 3.42 DE 2.69 Q0400.0 QA 0.70 Q1 1.00 3
 SPEC ABDRBH N MO 13.4 ST  1.3 OM  2.2 f0 2.81 R0.4503 AL-0.00 WI 20.0 MW  2.9 3
 SPEC ABDRBH N T20 323 K 0.020 GD  151 VS 3.42 DE 2.69 Q0400.0 QA 0.70 Q1 1.00 3
 SPEC SDDRBH N MO 13.4 ST0.148 OM  2.1 f0 1.42 R0.8911 AL-0.00 WI 20.0 MW  2.9 3
 SPEC SDDRBH N T20 326 K 0.020 GD  167 VS 3.42 DE 2.69 Q0400.0 QA 0.70 Q1 1.00 3
 SPEC GRTKBH N MO 13.6 ST0.885 OM  2.3 f0 2.14 R0.5913 AL-0.00 WI 20.0 MW  3.0 3
 SPEC GRTKBH N T20 330 K 0.020 GD  184 VS 3.42 DE 2.69 Q0400.0 QA 0.70 Q1 1.00 3
 SPEC REDRBH N MO 13.4 ST 24.2 OM  2.1 f0 7.60 R0.1665 AL-0.00 WI 20.0 MW  2.9 3
 SPEC REDRBH N T20 329 K 0.020 GD  179 VS 3.42 DE 2.69 Q0400.0 QA 0.70 Q1 1.00 3
 SPEC BADRBH N MO 13.3 ST 14.4 OM  2.0 f0 6.75 R0.1875 AL-0.00 WI 20.0 MW  2.8 3
 SPEC BADRBH N T20 333 K 0.020 GD  191 VS 3.42 DE 2.69 Q0400.0 QA 0.70 Q1 1.00 3
 SPEC HIDRBH N MO 13.0 ST 94.2 OM  1.6 f0 16.0 R0.0791 AL-0.00 WI 20.0 MW  2.6 3
 SPEC HIDRBH N T20 349 K 0.020 GD  236 VS 3.42 DE 2.69 Q0400.0 QA 0.70 Q1 1.00 3
 2020-09-05-2002-00S.MAN___123                                                 6
 OLDACT:ARG 20-09-05 21:44 OP:plst STATUS:               ID:20200905200200     3
 ACTION:UP  22-06-23 12:36 OP:jmlc STATUS:               ID:20200905200242 L   I
 OLDACT:UP  20-09-05 22:08 OP:CGRS STATUS:               ID:20200905200200     3
 OLDACT:UP  20-09-05 22:07 OP:CGRS STATUS:               ID:20200905200200     3
 STAT SP IPHASW D HRMM SECON CODA AMPLIT PERI AZIMU VELO AIN AR TRES W  DIS CAZ7
 LUDR BZ IP     C 20 2 57.42   63                        102    0.5110 74.9 253 
 LUDR BE IS     C 20 3  6.58                             102   -1.4810 74.9 253 
 SC01 BN IS     C 20 3 11.97                              65    0.6210 88.1 213 
 SC01 BN  IAML    20 3 19.04        65.2 0.30                          88.1 213 
 NADR BN IS     C 20 3 10.80                              65   -1.6210 92.9 152 
 NADR BN  IAML    20 3 19.88       242.2 1.15                          92.9 152 
 MADR BN IS     C 20 3 16.09                              65    0.8110  105 236 
 MADR BN  IAML    20 3 19.71       224.5 0.70                           105 236 
 SMDR BZ IP     C 20 3  5.17   61                         65   -1.0810  144 128 
 SMDR BN IS     C 20 3 24.89                              65    0.4010  144 128 
 SMDR BN  IAML    20 3 30.82        80.0 0.75                           144 128 
 ABDR BN IS     C 20 3 25.24                              65   -0.7110  147 195 
 ABDR BN  IAML    20 3 28.76        78.4 0.30                           147 195 
 MCDR BZ IP     C 20 3  7.63   54                         65    1.0410  147 261 
 MCDR BN IS     C 20 3 24.82                              65   -0.2710  147 261 
 MCDR BN  IAML    20 3 49.79       106.5 0.85                           147 261 
 SDDR BZ IP     C 20 3  8.18   67                         58   -0.6510  163 221 
 SDDR BN IS     C 20 3 28.13                              58   -0.9110  163 221 
 SDDR BN  IAML    20 3 36.73        42.3 0.50                           163 221 
 REDR BZ IP     D 20 3 10.00   74                         58   -0.3410  175 239 
 REDR BN IS     C 20 3 30.92                              58   -0.7710  175 239 
 REDR BN  IAML    20 3 33.35       301.6 0.25                           175 239 
 GRTK BZ IP     C 20 3 10.80   59                         58   -0.0710  181 330 
 GRTK BN IS     C 20 3 32.08                              58   -0.5510  181 330 
 GRTK BN  IAML    20 3 34.65        77.8 0.35                           181 330 
 SDD  BN IS     C 20 3 33.35                              58   -0.1210  184 168 
 SDD  BN  IAML    20 3 37.32        99.6 1.70                           184 168 
 BADR BZ IP     C 20 3 12.56   74                         58    0.5810  188 183 
 BADR BN IS     C 20 3 35.29                              58    0.7110  188 183 
 BADR BN  IAML    20 3 36.39       115.1 0.20                           188 183 
 NEDR BZ IP     C 20 3 17.85   65                         58    2.6610  215 214 
 NEDR BN IS     C 20 3 39.69                              58   -0.5410  215 214 
 NEDR BN  IAML    20 3 48.09        66.0 0.35                           215 214 
 HIDR BZ IP     C 20 3 17.50   76                         58    0.0810  233 135 
 HIDR BN  IAML    20 3 50.81        49.2 0.20                           233 135 
 PODR BZ IP     C 20 3 19.96   63                         58    1.5510  239 207 
 PODR BN IS     C 20 3 46.03                              58    0.1510  239 207 
 PODR BN  IAML    20 4 13.21        72.7 1.25                           239 207 
                                                                                
 2020  9 5 2017  4.5 L  19.198 -71.044 22.0  DOM  8 1.5 2.1LDOM 3.2CDOM 2.7WDOM1
 SPEC AVERAGE  MO 13.1 ST 10.0 OM  3.0 f0 7.47 R3.3583 AL 0.00 WI 20.0 MW  2.7 3
 SPEC SD       MO  1.2 ST 14.7 OM  1.3 f0 5.68 R5.5732 AL      WI      MW  0.8 3
 GAP= 82        3.96       8.4     7.2 16.7 -0.8040E+00 -0.1258E+01  0.7421E+02E
 LOCALITY: 19.6 Km al SO de San Jose de las Matas. Santiago.                   3
 SPEC SDDRBH N MO 12.5 ST  3.5 OM  1.9 f0 7.66 R0.1546 AL-0.00 WI 20.0 MW  2.3 3
 SPEC SDDRBH N T201715 K 0.020 GD 41.7 VS 3.20 DE 2.60 Q0400.0 QA 0.70 Q1 1.00 3
 SPEC ABDRBH N MO 12.3 ST  1.1 OM  1.5 f0 6.12 R0.1935 AL-0.00 WI 20.0 MW  2.1 3
 SPEC ABDRBH N T201724 K 0.020 GD 65.1 VS 3.20 DE 2.60 Q0400.0 QA 0.70 Q1 1.00 3
 SPEC REDRBH N MO 12.5 ST 35.4 OM  1.7 f0 16.0 R0.0740 AL-0.00 WI 20.0 MW  2.3 3
 SPEC REDRBH N T201727 K 0.020 GD 73.0 VS 3.20 DE 2.60 Q0400.0 QA 0.70 Q1 1.00 3
 SPEC JIDRBH N MO 15.2 ST0.003 OM  4.2 f00.091 R 13.01 AL-0.00 WI 20.0 MW  4.1 3
 SPEC JIDRBH N T201739 K 0.020 GD  118 VS 3.20 DE 2.60 Q0400.0 QA 0.70 Q1 1.00 3
 2020-09-05-2016-00S.MAN___123                                                 6
 OLDACT:ARG 20-09-05 22:51 OP:plst STATUS:               ID:20200905201600     3
 ACTION:UP  22-06-23 12:36 OP:jmlc STATUS:               ID:20200905201704 L   I
 OLDACT:UP  20-09-05 23:02 OP:CGRS STATUS:               ID:20200905201600     3
 OLDACT:UP  20-09-05 23:02 OP:CGRS STATUS:               ID:20200905201600     3
 OLDACT:UP  20-09-05 23:01 OP:CGRS STATUS:               ID:20200905201600     3
 STAT SP IPHASW D HRMM SECON CODA AMPLIT PERI AZIMU VELO AIN AR TRES W  DIS CAZ7
 SDDR BZ IP     C 2017 13.96   61                        106    1.2010 35.4 227 
 SDDR BN IS     C 2017 17.26                             106   -1.7710 35.4 227 
 SDDR BN  IAML    2017 19.24       244.7 0.40                          35.4 227 
 MADR BN IS     C 2017 18.73                             101   -1.8210 41.2 351 
 MADR BN  IAML    2018  3.08       218.0 0.10                          41.2 351 
 SC01 BN IS     C 2017 20.67                             100   -0.1110 41.8  53 
 SC01 BN  IAML    2017 36.74        31.5 0.75                          41.8  53 
 ABDR BZ IP     C 2017 18.60   67                         94    1.2510 61.3 134 
 ABDR BN IS     C 2017 26.09                              94   -1.0010 61.3 134 
 ABDR BN  IAML    2017 27.61        64.3 0.60                          61.3 134 
 REDR BZ IP     C 2017 21.33   65                         93    2.8910 69.6 277 
 REDR BN IS     C 2017 28.67                              93   -0.3510 69.6 277 
 REDR BN  IAML    2017 32.32       236.5 0.15                          69.6 277 
 BADR BE IS       2017 41.44                              62   -0.2010  114 141 
 BADR BN  IAML    2017 48.39        53.0 2.45                           114 141 
 JIDR BZ IP     C 2017 25.24   51                         62   -0.4210  116 228 
 JIDR BN IS       2017 40.98                              62   -0.7510  116 228 
 JIDR BN  IAML    2017 42.88        42.7 1.85                           116 228 
 PODR BZ IP     C 2017 28.77   47                         62    2.6010  117 192 
 PODR BN IS     C 2017 41.10                              62   -1.5310  117 192 
 PODR BN  IAML    2017 53.17        66.1 1.50                           117 192 
                                                                                
