 2020 11 4 0826 16.70L  18.760 -67.241 31.8  DOM  7 0.4 2.0LDOM 2.5CDOM 2.4WDOM1
 SPEC AVERAGE  MO 12.7 ST  7.8 OM  1.5 f0 11.1 R0.1887 AL 0.00 WI 20.0 MW  2.4 3
 SPEC SD       MO  0.3 ST  5.8 OM  0.5 f0 4.09 R0.1134 AL      WI      MW  0.2 3
 GAP=234        1.19       6.8     4.7 11.9  0.1739E+02  0.6770E+01 -0.7251E+01E
 SPEC AGPRBH N MO 12.8 ST 12.8 OM  1.6 f0 13.0 R0.1281 AL-0.00 WI 20.0 MW  2.5 3
 SPEC AGPRBH N T 82627 K 0.020 GD 47.2 VS 4.50 DE 3.40 Q0400.0 QA 0.70 Q1 0.00 3
 SPEC PRSNBH N MO 13.1 ST  4.4 OM  1.8 f0 6.92 R0.2406 AL-0.00 WI 20.0 MW  2.7 3
 SPEC PRSNBH N T 82632 K 0.020 GD 68.6 VS 4.50 DE 3.40 Q0400.0 QA 0.70 Q1 0.00 3
 SPEC AOPRBH N MO 12.8 ST 18.7 OM  1.4 f0 14.7 R0.1133 AL-0.00 WI 20.0 MW  2.5 3
 SPEC AOPRBH N T 82634 K 0.020 GD 75.8 VS 4.50 DE 3.40 Q0400.0 QA 0.70 Q1 0.00 3
 SPEC CRPRBH N MO 12.8 ST  6.5 OM  1.3 f0 10.5 R0.1586 AL-0.00 WI 20.0 MW  2.5 3
 SPEC CRPRBH N T 82638 K 0.020 GD 90.7 VS 4.50 DE 3.40 Q0400.0 QA 0.70 Q1 0.00 3
 SPEC MLPRBH N MO 12.2 ST  3.0 OM  0.7 f0 12.7 R0.1311 AL-0.00 WI 20.0 MW  2.1 3
 SPEC MLPRBH N T 82639 K 0.020 GD 95.4 VS 4.50 DE 3.40 Q0400.0 QA 0.70 Q1 0.00 3
 SPEC CELPBH N MO 12.3 ST  8.9 OM  0.8 f0 16.2 R0.1028 AL-0.00 WI 20.0 MW  2.2 3
 SPEC CELPBH N T 82641 K 0.020 GD  107 VS 4.50 DE 3.40 Q0400.0 QA 0.70 Q1 0.00 3
 SPEC PCDRBH N MO 12.6 ST0.204 OM  1.0 f0 3.73 R0.4464 AL-0.00 WI 20.0 MW  2.4 3
 SPEC PCDRBH N T 82646 K 0.020 GD  127 VS 4.50 DE 3.40 Q0400.0 QA 0.70 Q1 0.00 3
 LOCALITY: 62.8 Km al Norte de Mayaguez. Region de Puerto Rico.                3
 2020-11-04-0826-00S.MAN___111                                                 6
 OLDACT:ARG 20-11-04 10:12 OP:cgrs STATUS:               ID:20201104082600     3
 OLDACT:UP  20-11-04 10:16 OP:CGRS STATUS:               ID:20201104082600     3
 OLDACT:UP  20-11-04 10:15 OP:CGRS STATUS:               ID:20201104082600     3
 ACTION:UP  22-01-07 19:21 OP:jmlc STATUS:               ID:20201104082616 L   I
 OLDACT:UP  21-12-20 14:27 OP:AMMR STATUS:               ID:20201104082600     3
 OLDACT:UP  20-11-04 17:20 OP:CGRS STATUS:               ID:20201104082600     3
 STAT SP IPHASW D HRMM SECON CODA AMPLIT PERI AZIMU VELO AIN AR TRES W  DIS CAZ7
 AGPR BZ EPg    C  826 23.71   20                        117   -0.1410 34.9 157 
 AGPR BN ESg    C  826 29.26                             117    0.1310 34.9 157 
 AGPR BN  IAML     826 31.40       102.2 0.20                          34.9 157 
 PRSN BZ EPg    D  826 26.75   21                         93   -0.2110 60.8 170 
 PRSN BN ESg    C  826 34.10                              93   -0.4510 60.8 170 
 PRSN BN  IAML     826 36.14       158.2 0.16                          60.8 170 
 AOPR BZ EPg    C  826 27.60   35                         92   -0.3910 68.8 132 
 AOPR BN  IAML     826 43.20        44.3 0.28                          68.8 132 
 CRPR BZ EPg    C  826 29.87   24                         91   -0.0810 84.9 169 
 CRPR BN ESg    D  826 40.32                              91    0.5710 84.9 169 
 CRPR BN  IAML     826 42.34        51.9 1.24                          84.9 169 
 MLPR BZ EPg    D  826 30.76   28                         91    0.1910 89.9 167 
 MLPR BN ESg    C  826 40.78                              91   -0.0410 89.9 167 
 CELP BZ EPg    D  826 33.39   29                         91    1.1310  103 137 
 CELP BN ESg    D  826 43.25                              91   -0.5110  103 137 
 PCDR BZ EPg    C  826 34.37   40                         91   -0.3710  123 257 
 PCDR BN ESg    C  826 48.25                              91    0.1710  123 257 
                                                                                
 2020 11 4 1745 12.00L  18.046 -68.206 80.2  DOM 19 0.9 4.7LDOM 3.9CDOM 4.5WDOM1
 SPEC AVERAGE  MO 15.8 ST140.9 OM  4.0 f0 2.64 R0.8150 AL 0.00 WI 20.0 MW  4.5 3
 SPEC SD       MO  0.4 ST179.6 OM  0.4 f0 1.37 R0.4348 AL      WI      MW  0.3 3
 GAP=179        2.38      12.2     4.3 10.7  0.2914E+02  0.1395E+02  0.2276E+02E
 SPEC PCDRBH N MO 15.7 ST 43.5 OM  4.2 f0 2.09 R0.7967 AL-0.00 WI 20.0 MW  4.4 3
 SPEC PCDRBH N T174532 K 0.020 GD 97.2 VS 4.50 DE 3.40 Q0400.0 QA 0.70 Q1 0.00 3
 SPEC SADRBH N MO 16.1 ST133.5 OM  4.6 f0 2.20 R0.7568 AL-0.00 WI 20.0 MW  4.7 3
 SPEC SADRBH N T174534 K 0.020 GD  101 VS 4.50 DE 3.40 Q0400.0 QA 0.70 Q1 0.00 3
 SPEC PRSNBH N MO 15.5 ST 73.4 OM  3.8 f0 3.00 R0.5550 AL-0.00 WI 20.0 MW  4.2 3
 SPEC PRSNBH N T174542 K 0.020 GD  139 VS 4.50 DE 3.40 Q0400.0 QA 0.70 Q1 0.00 3
 SPEC CRPRBH N MO 15.6 ST 26.4 OM  3.9 f0 1.96 R0.8495 AL-0.00 WI 20.0 MW  4.3 3
 SPEC CRPRBH N T174541 K 0.020 GD  142 VS 4.50 DE 3.40 Q0400.0 QA 0.70 Q1 0.00 3
 SPEC MLPRBH N MO 15.0 ST  9.0 OM  3.3 f0 2.15 R0.7744 AL-0.00 WI 20.0 MW  3.9 3
 SPEC MLPRBH N T174545 K 0.020 GD  146 VS 4.50 DE 3.40 Q0400.0 QA 0.70 Q1 0.00 3
 SPEC AGPRBH N MO 15.8 ST 66.8 OM  4.1 f0 2.26 R0.7367 AL-0.00 WI 20.0 MW  4.5 3
 SPEC AGPRBH N T174546 K 0.020 GD  148 VS 4.50 DE 3.40 Q0400.0 QA 0.70 Q1 0.00 3
 SPEC AOPRBH N MO 15.6 ST212.0 OM  3.8 f0 3.95 R0.4215 AL-0.00 WI 20.0 MW  4.3 3
 SPEC AOPRBH N T174552 K 0.020 GD  176 VS 4.50 DE 3.40 Q0400.0 QA 0.70 Q1 0.00 3
 SPEC CELPBH N MO 15.0 ST 32.1 OM  3.2 f0 3.25 R0.5123 AL-0.00 WI 20.0 MW  3.9 3
 SPEC CELPBH N T174553 K 0.020 GD  190 VS 4.50 DE 3.40 Q0400.0 QA 0.70 Q1 0.00 3
 SPEC SMDRBH N MO 16.4 ST 24.1 OM  4.6 f0 1.01 R1.6485 AL-0.00 WI 20.0 MW  4.9 3
 SPEC SMDRBH N T174552 K 0.020 GD  189 VS 4.50 DE 3.40 Q0400.0 QA 0.70 Q1 0.00 3
 SPEC BADRBH N MO 15.9 ST576.5 OM  4.0 f0 4.24 R0.3927 AL-0.00 WI 20.0 MW  4.5 3
 SPEC BADRBH N T1746 8 K 0.020 GD  244 VS 4.50 DE 3.40 Q0400.0 QA 0.70 Q1 0.00 3
 SPEC CADRBH N MO 16.4 ST138.2 OM  4.5 f0 1.74 R0.9569 AL-0.00 WI 20.0 MW  4.9 3
 SPEC CADRBH N T174612 K 0.020 GD  268 VS 4.50 DE 3.40 Q0400.0 QA 0.70 Q1 0.00 3
 SPEC ABDRBH N MO 16.0 ST 81.6 OM  4.0 f0 2.11 R0.7891 AL-0.00 WI 20.0 MW  4.6 3
 SPEC ABDRBH N T174613 K 0.020 GD  280 VS 4.50 DE 3.40 Q0400.0 QA 0.70 Q1 0.00 3
 SPEC SC01BH N MO 16.3 ST 48.2 OM  4.3 f0 1.35 R1.2333 AL-0.00 WI 20.0 MW  4.8 3
 SPEC SC01BH N T174624 K 0.020 GD  317 VS 4.50 DE 3.40 Q0400.0 QA 0.70 Q1 0.00 3
 SPEC PODRBH N MO 15.4 ST220.7 OM  3.4 f0 4.39 R0.3793 AL-0.00 WI 20.0 MW  4.2 3
 SPEC PODRBH N T174626 K 0.020 GD  335 VS 4.50 DE 3.40 Q0400.0 QA 0.70 Q1 0.00 3
 SPEC SDDRBH N MO 16.2 ST  8.3 OM  4.1 f00.847 R1.9658 AL-0.00 WI 20.0 MW  4.7 3
 SPEC SDDRBH N T174632 K 0.020 GD  351 VS 4.50 DE 3.40 Q0400.0 QA 0.70 Q1 0.00 3
 SPEC MADRBH N MO 16.0 ST 72.5 OM  3.9 f0 2.02 R0.8243 AL-0.00 WI 20.0 MW  4.6 3
 SPEC MADRBH N T174631 K 0.020 GD  358 VS 4.50 DE 3.40 Q0400.0 QA 0.70 Q1 0.00 3
 SPEC REDRBH N MO 15.4 ST627.8 OM  3.3 f0 6.33 R0.2630 AL-0.00 WI 20.0 MW  4.2 3
 SPEC REDRBH N T174641 K 0.020 GD  401 VS 4.50 DE 3.40 Q0400.0 QA 0.70 Q1 0.00 3
 LOCALITY: 61.8 Km al SSE de Punta Cana. Canal de la Mona.                     3
 2020-11-04-1745-00S.MAN___111                                                 6
 OLDACT:UP  20-11-04 18:03 OP:CGRS STATUS:               ID:20201104174500     3
 OLDACT:UP  20-11-04 18:02 OP:CGRS STATUS:               ID:20201104174500     3
 OLDACT:ARG 20-11-04 17:56 OP:plst STATUS:               ID:20201104174500     3
 OLDACT:UP  20-11-04 18:16 OP:CGRS STATUS:               ID:20201104174500     3
 OLDACT:UP  20-11-04 18:15 OP:CGRS STATUS:               ID:20201104174500     3
 OLDACT:UP  20-11-04 18:09 OP:CGRS STATUS:               ID:20201104174500     3
 OLDACT:UP  20-11-04 18:05 OP:CGRS STATUS:               ID:20201104174500     3
 OLDACT:UP  20-11-04 18:04 OP:CGRS STATUS:               ID:20201104174500     3
 OLDACT:UP  20-11-04 18:04 OP:CGRS STATUS:               ID:20201104174500     3
 OLDACT:UP  20-11-04 18:03 OP:CGRS STATUS:               ID:20201104174500     3
 ACTION:UP  22-01-07 19:21 OP:jmlc STATUS:               ID:20201104174512 L   I
 STAT SP IPHASW D HRMM SECON CODA AMPLIT PERI AZIMU VELO AIN AR TRES W  DIS CAZ7
 PCDR BZ IP     D 1745 23.79  124                        141   -1.1410 55.0 340 
 PCDR BN IS     C 1745 34.41                             141   -0.1110 55.0 340 
 PCDR BN  IAML    1745 35.89     22103.9 0.60                          55.0 340 
 SADR BZ IP     C 1745 25.81  104                        137    0.2910 62.8 285 
 SADR BN IS     C 1745 36.21                             137    0.6510 62.8 285 
 SADR BN  IAML    1745 40.71     52592.0 0.40                          62.8 285 
 PRSN BZ IP     C 1745 29.96  110                        117   -0.4110  114  80 
 PRSN BN  IAML    1745 54.53     10588.9 0.24                           114  80 
 CRPR BZ IP     C 1745 30.66   97                        115   -0.1910  118  92 
 CRPR BN IS     C 1745 43.33                             115   -1.4910  118  92 
 CRPR BN  IAML    1745 46.31      3602.7 1.08                           118  92 
 MLPR BZ IP     C 1745 31.33   75                        114   -0.0410  123  94 
 MLPR BN IS     C 1745 46.79                             114    1.0610  123  94 
 MLPR BN  IAML    1745 48.11       967.7 0.32                           123  94 
 AGPR BZ IP     C 1745 31.42   73                        114   -0.1510  125  68 
 AGPR BN IS     C 1745 47.65                             114    1.5710  125  68 
 AGPR BN  IAML    1745 49.21      7729.2 1.04                           125  68 
 AOPR BZ IP     C 1745 34.59   88                        106   -0.5610  157  78 
 AOPR BN IS     C 1745 53.88                             106    1.5710  157  78 
 AOPR BN  IAML    1745 57.10     14290.9 0.32                           157  78 
 SMDR BZ IP     D 1745 35.49  113                        103   -1.3510  172 323 
 SMDR BN IS     C 1745 54.14                             103   -1.1110  172 323 
 SMDR BN  IAML    1745 58.24     21565.5 0.60                           172 323 
 CELP BZ IP     C 1745 36.63   95                        103   -0.2610  173  89 
 CELP BN IS     C 1745 54.51                             103   -0.8210  173  89 
 CELP BN  IAML    1746  2.53      1242.3 0.28                           173  89 
 SDD  BZ IP     C 1745 38.30   89                        100   -0.2310  187 285 
 SDD  BN IS     C 1745 58.87                             100    0.6910  187 285 
 SDD  BN  IAML    1746  0.67      2503.8 0.65                           187 285 
 SJG  BZ IP     C 1745 41.51  109                         94            218  88 
 SJG  BN IS     C 1746  5.59                              94            218  88 
 BADR BZ IP     C 1745 44.65  104                        103            231 280 
 BADR BN IS     C 1746  9.89                             103            231 280 
 BADR BN  IAML    1746 19.74     12880.5 0.50                           231 280 
 CADR BZ IP     C 1745 45.85   85                         90   -0.7810  256 315 
 CADR BN IS     C 1746 13.65                              90    1.3710  256 315 
 CADR BN  IAML    1746 22.20     12952.9 0.50                           256 315 
 ABDR BZ IP     C 1745 48.08   98                         90   -0.4410  269 289 
 ABDR BN IS     C 1746 15.38                              90   -0.1810  269 289 
 ABDR BN  IAML    1746 26.40      5244.6 0.80                           269 289 
 SC01 BZ IP     C 1745 53.80  106                         90    1.1810  307 300 
 SC01 BN  IAML    1746 31.08      7237.9 0.60                           307 300 
 PODR BZ IP     C 1745 54.46  111                         90   -0.5610  326 273 
 PODR BN  IAML    1746 39.65      2391.4 0.60                           326 273 
 SDDR BZ IP     C 1745 58.07  114                         90    1.3010  342 288 
 SDDR BN  IAML    1746 43.15      2529.3 0.65                           342 288 
 MADR BZ IP     C 1745 57.51  103                         90   -0.0110  349 299 
 MADR BN  IAML    1746 49.73      5118.3 0.65                           349 299 
 REDR BZ IP     C 1746  3.00  134                         90    0.1610  393 291 
 REDR BN  IAML    1746 53.55      1825.5 0.25                           393 291 
                                                                                
 2020 11 6 0429 51.00L  19.127 -68.960 20.5  DOM  5 0.5 2.3LDOM 2.5CDOM 2.1WDOM1
 SPEC AVERAGE  MO 12.2 ST  5.7 OM  2.6 f0 8.17 R0.2106 AL 0.00 WI 20.0 MW  2.1 3
 SPEC SD       MO  0.0 ST  7.6 OM  1.4 f0 5.54 R0.0968 AL      WI      MW  0.0 3
 GAP=175        1.39      10.3     9.0 19.6  0.7104E+02 -0.6141E+01  0.9576E+02E
 SPEC SMDRBH N MO 12.2 ST0.301 OM  1.7 f0 4.12 R0.2874 AL-0.00 WI 20.0 MW  2.1 3
 SPEC SMDRBH N T 42959 K 0.020 GD 36.3 VS 3.20 DE 2.60 Q0400.0 QA 0.70 Q1 0.00 3
 SPEC HIDRBH N MO 12.2 ST 16.5 OM  1.4 f0 16.0 R0.0740 AL-0.00 WI 20.0 MW  2.1 3
 SPEC HIDRBH N T 430 7 K 0.020 GD 67.8 VS 3.20 DE 2.60 Q0400.0 QA 0.70 Q1 0.00 3
 SPEC CRPRBH N MO 12.1 ST0.293 OM  0.8 f0 4.38 R0.2703 AL-0.00 WI 20.0 MW  2.0 3
 SPEC CRPRBH N T 43055 K 0.020 GD  233 VS 3.20 DE 2.60 Q0400.0 QA 0.70 Q1 0.00 3
 LOCALITY: 22.2 Km al NE de Miches. Oceano Atlantico.                          3
 2020-11-06-0429-00S.MAN___111                                                 6
 OLDACT:ARG 20-11-06 10:18 OP:njm  STATUS:               ID:20201106042900     3
 OLDACT:UP  20-11-06 10:28 OP:CGRS STATUS:               ID:20201106042900     3
 OLDACT:UP  20-11-06 10:28 OP:CGRS STATUS:               ID:20201106042900     3
 ACTION:UP  22-01-07 19:21 OP:jmlc STATUS:               ID:20201106042951 L   I
 OLDACT:UP  21-12-20 14:48 OP:AMMR STATUS:               ID:20201106042900     3
 OLDACT:UP  21-12-20 14:47 OP:AMMR STATUS:               ID:20201106042900     3
 OLDACT:UP  20-11-06 10:54 OP:CGRS STATUS:               ID:20201106042900     3
 STAT SP IPHASW D HRMM SECON CODA AMPLIT PERI AZIMU VELO AIN AR TRES W  DIS CAZ7
 SMDR BZ EPg    C  429 55.80   21                        117   -0.8710 30.0 307 
 SMDR BE ESg       430  1.39                             117    0.5010 30.0 307 
 HIDR BZ EPg       430  1.16   19                         92   -0.3910 64.6 156 
 HIDR BE ESg    D  430  9.55                              92    0.1610 64.6 156 
 HIDR BN  IAML     430 12.57        90.5 0.25                          64.6 156 
 PCDR BZ EPg    C  430  4.78   37                         91   -0.6410 91.2 138 
 PCDR BE ESg       430 16.30                              91    0.1810 91.2 138 
 PCDR BN  IAML     430 16.56       101.1 1.50                          91.2 138 
 CRPR BZ EPg       430 26.81   46                         90    0.7210  233 122 
 REDR BZ EPg    C  430 34.56                              90    0.3410  289 274 
 REDR BN  IAML     431 18.97        19.9 2.35                           289 274 
                                                                                
 2020 11 6 0626  4.30L  17.934 -70.951 38.4  DOM  3 0.1 1.9LDOM 2.4CDOM 2.4WDOM1
 SPEC AVERAGE  MO 12.7 ST  3.8 OM  2.6 f0 9.01 R0.1857 AL 0.00 WI 20.0 MW  2.4 3
 SPEC SD       MO  0.0 ST  1.1 OM  1.3 f00.655 R0.0135 AL      WI      MW  0.0 3
 GAP=256        0.46       4.5     3.3  9.4 -0.4598E+01 -0.2423E+02  0.4168E+01E
 SPEC PODRBH N MO 12.7 ST  2.6 OM  1.4 f0 8.36 R0.1992 AL-0.00 WI 20.0 MW  2.4 3
 SPEC PODRBH N T 62617 K 0.020 GD 58.0 VS 4.50 DE 3.40 Q0400.0 QA 0.70 Q1 0.00 3
 SPEC ABDRBH N MO 12.8 ST  4.9 OM  1.2 f0 9.67 R0.1722 AL-0.00 WI 20.0 MW  2.4 3
 SPEC ABDRBH N T 62630 K 0.020 GD  109 VS 4.50 DE 3.40 Q0400.0 QA 0.70 Q1 0.00 3
 LOCALITY: 23.6 Km al ESE de Paraiso. Mar Caribe.                              3
 2020-11-06-0625-00S.MAN___111                                                 6
 OLDACT:UP  20-11-06 10:30 OP:CGRS STATUS:               ID:20201106062500     3
 OLDACT:ARG 20-11-06 10:18 OP:njm  STATUS:               ID:20201106062500     3
 OLDACT:UP  20-11-06 10:54 OP:CGRS STATUS:               ID:20201106062500     3
 OLDACT:UP  20-11-06 10:31 OP:CGRS STATUS:               ID:20201106062500     3
 OLDACT:UP  20-11-06 10:31 OP:CGRS STATUS:               ID:20201106062500     3
 ACTION:UP  22-01-07 19:21 OP:jmlc STATUS:               ID:20201106062604 L   I
 STAT SP IPHASW D HRMM SECON CODA AMPLIT PERI AZIMU VELO AIN AR TRES W  DIS CAZ7
 PODR BZ IP     C  626 13.17   21                        122    0.1610 43.5 306 
 PODR BE IS     C  626 19.33                             122   -0.0910 43.5 306 
 PODR BN  IAML     626 21.88        55.1 0.25                          43.5 306 
 BADR BZ IP     C  626 17.04   26                        101   -0.2410 80.8  50 
 BADR BE IS     D  626 26.99                             101    0.1410 80.8  50 
 BADR BN  IAML     626 43.04        44.7 1.55                          80.8  50 
 ABDR BZ IP     C  626 20.28   26                         98    0.0810  103  19 
 ABDR BE IS     C  626 31.88                              98   -0.0510  103  19 
 ABDR BN  IAML     626 33.20        46.5 0.30                           103  19 
                                                                                
