 2020 11 1 0021 28.10L  18.599 -69.626131.9  DOM 14 0.9 3.2LDOM 3.0CDOM 3.3WDOM1
 SPEC AVERAGE  MO 14.0 ST116.7 OM  2.3 f0 6.62 R0.3599 AL 0.00 WI 20.0 MW  3.3 3
 SPEC SD       MO  0.4 ST270.7 OM  0.4 f0 3.89 R0.2194 AL      WI      MW  0.3 3
 GAP=127        2.58      10.9     6.6 12.1  0.1674E+02  0.1340E+02 -0.3574E+01E
 SPEC HMDRBH N MO 13.4 ST 74.4 OM  1.8 f0 14.1 R0.1165 AL-0.00 WI 20.0 MW  2.9 3
 SPEC HMDRBH N T 02155 K 0.020 GD  136 VS 4.44 DE 3.40 Q0400.0 QA 0.70 Q1 0.00 3
 SPEC SDD BH N MO 13.7 ST 11.4 OM  2.1 f0 5.99 R0.2743 AL-0.00 WI 20.0 MW  3.1 3
 SPEC SDD BH N T 02156 K 0.020 GD  136 VS 4.44 DE 3.40 Q0400.0 QA 0.70 Q1 0.00 3
 SPEC NAVIBH N MO 15.2 ST999.9 OM  3.5 f0 10.8 R0.1521 AL-0.00 WI 20.0 MW  4.0 3
 SPEC NAVIBH N T 02157 K 0.020 GD  144 VS 4.44 DE 3.40 Q0400.0 QA 0.70 Q1 0.00 3
 SPEC BADRBH N MO 14.4 ST 67.7 OM  2.7 f0 6.56 R0.2504 AL-0.00 WI 20.0 MW  3.5 3
 SPEC BADRBH N T 022 2 K 0.020 GD  154 VS 4.44 DE 3.40 Q0400.0 QA 0.70 Q1 0.00 3
 SPEC SMDRBH N MO 13.9 ST  3.4 OM  2.2 f0 3.52 R0.4667 AL-0.00 WI 20.0 MW  3.2 3
 SPEC SMDRBH N T 022 2 K 0.020 GD  159 VS 4.44 DE 3.40 Q0400.0 QA 0.70 Q1 0.00 3
 SPEC HGY1HN N MO 13.7 ST 21.6 OM  2.0 f0 7.53 R0.2182 AL-0.00 WI 20.0 MW  3.1 3
 SPEC HGY1HN N T 022 3 K 0.020 GD  163 VS 4.44 DE 3.40 Q0400.0 QA 0.70 Q1 0.00 3
 SPEC SADRBH N MO 14.2 ST  2.6 OM  2.5 f0 2.52 R0.6519 AL-0.00 WI 20.0 MW  3.4 3
 SPEC SADRBH N T 022 4 K 0.020 GD  165 VS 4.44 DE 3.40 Q0400.0 QA 0.70 Q1 0.00 3
 SPEC ABDRBH N MO 14.1 ST 22.9 OM  2.4 f0 5.57 R0.2949 AL-0.00 WI 20.0 MW  3.4 3
 SPEC ABDRBH N T 022 5 K 0.020 GD  170 VS 4.44 DE 3.40 Q0400.0 QA 0.70 Q1 0.00 3
 SPEC PCDRBH N MO 14.0 ST0.974 OM  2.2 f0 2.20 R0.7467 AL-0.00 WI 20.0 MW  3.3 3
 SPEC PCDRBH N T 02211 K 0.020 GD  186 VS 4.44 DE 3.40 Q0400.0 QA 0.70 Q1 0.00 3
 SPEC SDDRBH N MO 13.9 ST  1.0 OM  2.1 f0 2.29 R0.7174 AL-0.00 WI 20.0 MW  3.2 3
 SPEC SDDRBH N T 02216 K 0.020 GD  223 VS 4.44 DE 3.40 Q0400.0 QA 0.70 Q1 0.00 3
 SPEC PODRBH N MO 14.0 ST 17.6 OM  2.2 f0 5.43 R0.3025 AL-0.00 WI 20.0 MW  3.3 3
 SPEC PODRBH N T 02216 K 0.020 GD  223 VS 4.44 DE 3.40 Q0400.0 QA 0.70 Q1 0.00 3
 SPEC REDRBH N MO 13.9 ST176.6 OM  2.0 f0 12.9 R0.1273 AL-0.00 WI 20.0 MW  3.2 3
 SPEC REDRBH N T 02224 K 0.020 GD  266 VS 4.44 DE 3.40 Q0400.0 QA 0.70 Q1 0.00 3
 LOCALITY: 9.1 Km al ENE de San Antonio de Guerra, Santo Domingo.              3
 2020-11-01-0021-00S.MAN___117                                                 6
 OLDACT:ARG 20-11-01 10:05 OP:njm  STATUS:               ID:20201101002100     3
 OLDACT:UP  20-11-01 10:12 OP:CGRS STATUS:               ID:20201101002100     3
 ACTION:UP  22-01-07 19:21 OP:jmlc STATUS:               ID:20201101002128 L   I
 OLDACT:UP  20-11-01 10:12 OP:CGRS STATUS:               ID:20201101002100     3
 STAT SP IPHASW D HRMM SECON CODA AMPLIT PERI AZIMU VELO AIN AR TRES W  DIS CAZ7
 HMDR BZ IP     D  021 44.24   39                        165   -1.2010 33.2  51 
 HMDR BE IS     C  021 57.47                             165   -0.8310 33.2  51 
 HMDR BN  IAML     022  0.54       154.2 0.30                          33.2  51 
 SDD  BZ IP     C  021 44.38   34                        164   -1.0410 34.4 244 
 SDD  BE IS     D  021 57.52                             164   -0.7410 34.4 244 
 SDD  BN  IAML     022  0.62       158.9 0.35                          34.4 244 
 NAVI BZ IP     C  021 45.44   34                        155   -1.0610 58.1 313 
 NAVI BE IS     C  021 58.93                             155   -1.2110 58.1 313 
 NAVI BN  IAML     022  0.23      8087.4 0.20                          58.1 313 
 BADR BZ IP     D  021 47.19   34                        146   -0.6810 80.7 254 
 BADR BE IS     C  022  4.40                             146    1.8810 80.7 254 
 BADR BN  IAML     022  7.83       831.9 0.35                          80.7 254 
 SMDR BZ IP     D  021 47.60   39                        143   -0.6910 89.2  31 
 SMDR BE IS     D  022  3.95                             143    0.6910 89.2  31 
 SMDR BN  IAML     022  8.02       217.1 1.10                          89.2  31 
 HGY1 HZ IP     C  021 49.01   39                        141    0.2110 96.1  90 
 HGY1 BN  IAML     022  7.92       163.7 0.19                          96.1  90 
 SADR BZ IP     C  021 49.50   45                        140    0.4110  100 117 
 SADR BE IS     C  022  5.94                             140    1.2910  100 117 
 SADR BN  IAML     022  9.01       333.7 0.35                           100 117 
 ABDR BZ IP     C  021 49.43   38                        138   -0.6810  108 283 
 ABDR BE IS     C  022  6.73                             138    0.3110  108 283 
 ABDR BN  IAML     022  9.41       325.6 0.30                           108 283 
 PCDR BZ IP     C  021 52.63   48                        132    0.9410  132  94 
 PCDR BN  IAML     022 15.59       163.1 2.25                           132  94 
 SC01 BZ IP     D  021 53.13   40                        128   -0.0410  148 308 
 SC01 BE IS     C  022 12.87                             128    1.1310  148 308 
 SC01 BN  IAML     022 16.02       281.6 0.45                           148 308 
 SDDR BZ IP     C  021 55.89   47                        122   -0.4710  180 284 
 SDDR BE IS     C  022 17.80                             122    0.5110  180 284 
 SDDR BN  IAML     022 23.58        67.9 0.50                           180 284 
 PODR BZ IP     C  021 56.24   46                        122   -0.3510  181 255 
 PODR BE IS     C  022 18.33                             122    0.6210  181 255 
 PODR BN  IAML     022 19.01       211.6 1.10                           181 255 
 LUDR BZ IP     C  022  0.45   55                        119    2.1810  200 316 
 LUDR BE IS     C  022 20.96                             119    0.3410  200 316 
 REDR BZ IP     C  022  0.50   65                        115   -1.1210  231 289 
 REDR BE IS     C  022 26.05                             115   -0.4110  231 289 
 REDR BN  IAML     022 28.58       148.2 0.15                           231 289 
                                                                                
 2020 11 1 0417 13.90L  17.855 -67.023 11.8  DOM  7 0.4 2.3LDOM 2.5CDOM 2.4WDOM1
 SPEC AVERAGE  MO 12.6 ST  8.3 OM  2.3 f0 6.88 R0.2723 AL 0.00 WI 20.0 MW  2.4 3
 SPEC SD       MO  0.7 ST 13.8 OM  0.4 f0 5.62 R0.1813 AL      WI      MW  0.5 3
 GAP=230        1.03       4.6     2.9  5.0  0.1483E+01 -0.9166E+00  0.7314E+01E
 LOCALITY: 40.4 Km al SSE de Mayaguez, Region de Puerto Rico.                  3
 SPEC MLPRBH N MO 12.3 ST 41.5 OM  2.1 f0 20.0 R0.0592 AL-0.00 WI 20.0 MW  2.1 3
 SPEC MLPRBH N T 41716 K 0.020 GD 17.4 VS 3.20 DE 2.60 Q0400.0 QA 0.70 Q1 0.00 3
 SPEC CRPRBH N MO 12.9 ST 10.5 OM  2.6 f0 8.03 R0.1474 AL-0.00 WI 20.0 MW  2.5 3
 SPEC CRPRBH N T 41719 K 0.020 GD 21.6 VS 3.20 DE 2.60 Q0400.0 QA 0.70 Q1 0.00 3
 SPEC PRSNBH N MO 13.2 ST  1.2 OM  2.6 f0 3.07 R0.3857 AL-0.00 WI 20.0 MW  2.7 3
 SPEC PRSNBH N T 41725 K 0.020 GD 43.7 VS 3.20 DE 2.60 Q0400.0 QA 0.70 Q1 0.00 3
 SPEC CELPBH N MO 12.2 ST0.775 OM  1.5 f0 5.75 R0.2059 AL-0.00 WI 20.0 MW  2.1 3
 SPEC CELPBH N T 41728 K 0.020 GD 54.5 VS 3.20 DE 2.60 Q0400.0 QA 0.70 Q1 0.00 3
 SPEC AOPRBH N MO 12.8 ST  3.4 OM  2.1 f0 5.67 R0.2088 AL-0.00 WI 20.0 MW  2.5 3
 SPEC AOPRBH N T 41729 K 0.020 GD 62.4 VS 3.20 DE 2.60 Q0400.0 QA 0.70 Q1 0.00 3
 SPEC AGPRBH N MO 12.8 ST0.743 OM  2.0 f0 3.56 R0.3326 AL-0.00 WI 20.0 MW  2.5 3
 SPEC AGPRBH N T 41731 K 0.020 GD 69.6 VS 3.20 DE 2.60 Q0400.0 QA 0.70 Q1 0.00 3
 SPEC PCDRBH N MO 12.1 ST  0.1 OM  1.0 f0 2.86 R 0.414 AL-0.00 WI 20.0 MW  2.0 3
 SPEC PCDRBH N T 41759 K 0.020 GD12.70 VS 3.20 DE 2.60 Q0400.0 QA 0.70 Q1      3
 SPEC HMDRBH N MO 12.3 ST0.046 OM  1.0 f0 2.09 R0.5665 AL-0.00 WI 20.0 MW  2.1 3
 SPEC HMDRBH N T 41831 K 0.020 GD  211 VS 3.20 DE 2.60 Q0400.0 QA 0.70 Q1 0.00 3
 2020-11-01-0416-00S.MAN___117                                                 6
 OLDACT:ARG 20-11-01 10:05 OP:njm  STATUS:               ID:20201101041600     3
 OLDACT:UP  20-11-01 10:16 OP:CGRS STATUS:               ID:20201101041600     3
 ACTION:UP  22-01-07 19:21 OP:jmlc STATUS:               ID:20201101041714 L   I
 OLDACT:UP  21-12-14 18:52 OP:AMMR STATUS:               ID:20201101041600     3
 OLDACT:UP  20-11-01 10:16 OP:CGRS STATUS:               ID:20201101041600     3
 STAT SP IPHASW D HRMM SECON CODA AMPLIT PERI AZIMU VELO AIN AR TRES W  DIS CAZ7
 MLPR BZ IP     C  417 16.68   13                        133   -0.0610 12.8 350 
 MLPR BE IS     C  417 18.27                             133   -0.5510 12.8 350 
 MLPR BN  IAML     417 19.01       499.5 0.16                          12.8 350 
 CRPR BZ IP     C  417 17.92   20                        123    0.5010 18.1 337 
 CRPR BE IS        417 20.47                             123    0.4610 18.1 337 
 CRPR BN  IAML     417 20.74      1578.9 0.24                          18.1 337 
 PRSN BZ IP     C  417 21.23   25                         70    0.2510 42.1 342 
 PRSN BE ESg       417 26.65                             106    0.4510 42.1 342 
 PRSN BN  IAML     417 26.98       873.0 0.32                          42.1 342 
 CELP BZ EPg    C  417 22.81   23                        103    0.0910 53.2  63 
 CELP BE ESg    C  417 29.58                             103    0.3610 53.2  63 
 CELP BN  IAML     417 30.51       100.4 0.24                          53.2  63 
 AOPR BZ EPg    D  417 23.67   28                        101   -0.3410 61.3  28 
 AOPR BE ESg       417 30.97                             101   -0.5110 61.3  28 
 AOPR BN  IAML     417 31.05       145.7 0.16                          61.3  28 
 AGPR BZ EPg    C  417 25.26   40                        100    0.0910 68.6 352 
 AGPR BE ESg       417 33.29                             100   -0.1910 68.6 352 
 AGPR BN  IAML     417 33.58       122.4 0.40                          68.6 352 
 HMDR BZ EPg       417 56.95   69                         93   -0.5410  270 293 
                                                                                
 2020 11 1 0852 18.40L  19.184 -67.494 17.4  DOM 10 0.7 2.5LDOM 2.9CDOM 2.6WDOM1
 SPEC AVERAGE  MO 12.9 ST  6.6 OM  2.2 f0 5.90 R0.2415 AL 0.00 WI 20.0 MW  2.6 3
 SPEC SD       MO  0.4 ST  6.0 OM  0.6 f0 2.40 R0.1698 AL      WI      MW  0.3 3
 GAP=216        1.79      11.4     6.3125.6  0.5600E+02 -0.2727E+03 -0.9618E+03E
 SPEC AGPRBH N MO 13.1 ST 14.8 OM  2.2 f0 7.59 R0.1560 AL-0.00 WI 20.0 MW  2.7 3
 SPEC AGPRBH N T 85241 K 0.020 GD 90.5 VS 3.20 DE 2.60 Q0400.0 QA 0.70 Q1 0.00 3
 SPEC PCDRBH N MO 13.1 ST0.381 OM  2.1 f0 2.20 R0.5382 AL-0.00 WI 20.0 MW  2.7 3
 SPEC PCDRBH N T 85243 K 0.020 GD  120 VS 3.20 DE 2.60 Q0400.0 QA 0.70 Q1 0.00 3
 SPEC PRSNBH N MO 13.1 ST 16.8 OM  2.1 f0 7.90 R0.1499 AL-0.00 WI 20.0 MW  2.7 3
 SPEC PRSNBH N T 85248 K 0.020 GD  114 VS 3.20 DE 2.60 Q0400.0 QA 0.70 Q1 0.00 3
 SPEC AOPRBH N MO 13.2 ST  9.0 OM  2.2 f0 5.82 R0.2034 AL-0.00 WI 20.0 MW  2.8 3
 SPEC AOPRBH N T 85250 K 0.020 GD  122 VS 3.20 DE 2.60 Q0400.0 QA 0.70 Q1 0.00 3
 SPEC CRPRBH N MO 13.3 ST  3.0 OM  2.2 f0 3.85 R0.3075 AL-0.00 WI 20.0 MW  2.8 3
 SPEC CRPRBH N T 85253 K 0.020 GD  138 VS 3.20 DE 2.60 Q0400.0 QA 0.70 Q1 0.00 3
 SPEC MLPRBH N MO 12.4 ST  2.8 OM  1.3 f0 7.46 R0.1587 AL-0.00 WI 20.0 MW  2.2 3
 SPEC MLPRBH N T 85256 K 0.020 GD  144 VS 3.20 DE 2.60 Q0400.0 QA 0.70 Q1 0.00 3
 SPEC CELPBH N MO 12.5 ST  4.8 OM  1.4 f0 7.99 R0.1482 AL-0.00 WI 20.0 MW  2.3 3
 SPEC CELPBH N T 85259 K 0.020 GD  156 VS 3.20 DE 2.60 Q0400.0 QA 0.70 Q1 0.00 3
 SPEC SADRBH N MO 13.5 ST0.198 OM  2.4 f0 1.37 R0.8642 AL-0.00 WI 20.0 MW  2.9 3
 SPEC SADRBH N T 853 2 K 0.020 GD  129 VS 3.20 DE 2.60 Q0400.0 QA 0.70 Q1 0.00 3
 SPEC HMDRBH N MO 12.7 ST  1.0 OM  1.4 f0 4.39 R0.2697 AL-0.00 WI 20.0 MW  2.4 3
 SPEC HMDRBH N T 85311 K 0.020 GD  204 VS 3.20 DE 2.60 Q0400.0 QA 0.70 Q1 0.00 3
 LOCALITY: 152.9 Km al Este de Miches. Oceano Atlantico.                       3
 2020-11-01-0852-00S.MAN___117                                                 6
 OLDACT:ARG 20-11-01 10:06 OP:njm  STATUS:               ID:20201101085200     3
 OLDACT:UP  20-11-01 10:22 OP:CGRS STATUS:               ID:20201101085200     3
 ACTION:UP  22-01-07 19:21 OP:jmlc STATUS:               ID:20201101085218 L   I
 OLDACT:UP  21-12-14 18:55 OP:AMMR STATUS:               ID:20201101085200     3
 OLDACT:UP  20-11-01 10:22 OP:CGRS STATUS:               ID:20201101085200     3
 STAT SP IPHASW D HRMM SECON CODA AMPLIT PERI AZIMU VELO AIN AR TRES W  DIS CAZ7
 AGPR BZ EPg       852 32.68   36                         95    0.0910 88.8 153 
 AGPR BE ES     C  852 43.16                              95    0.0910 88.8 153 
 AGPR BN  IAML     852 45.06       226.5 0.16                          88.8 153 
 PRSN BZ EPg       852 36.66   35                         94    0.4010  113 161 
 PRSN BE ESg    C  852 49.98                              94    0.5210  113 161 
 PRSN BN  IAML     852 55.88       324.0 0.32                           113 161 
 PCDR BZ EPg       852 35.45   34                         94   -1.7610  119 232 
 AOPR BZ EPg    C  852 37.65   43                         93    0.1610  121 140 
 AOPR BE ESg       852 51.82                              93    0.2210  121 140 
 AOPR BN  IAML     853  6.92       135.7 0.36                           121 140 
 CRPR BZ EPg       852 39.27   36                         93   -0.6310  137 162 
 CRPR BE ESg       852 55.28                              93   -0.5110  137 162 
 CRPR BN  IAML     852 58.95       179.4 0.40                           137 162 
 MLPR BZ EPg       852 40.61   39                         93   -0.1010  143 160 
 MLPR BE ESg       852 58.16                              93    0.9610  143 160 
 MLPR BN  IAML     852 58.64        41.3 0.48                           143 160 
 CELP BZ EPg       852 42.58   39                         92   -0.2310  156 142 
 CELP BE ESg       853  0.75                              92   -0.1110  156 142 
 CELP BN  IAML     853  9.07        24.1 0.32                           156 142 
 SMDR BZ EPg       852 47.14                              92    0.9810  179 274 
 SMDR BE ESg       853  7.63                              92    0.9510  179 274 
 SJG  BZ EPg    C  852 46.83   51                         92   -0.3110  185 130 
 SJG  BE ESg       853  8.46                              92    0.0610  185 130 
 HMDR BZ EPg       852 49.17   51                         92   -0.7910  204 258 
 HMDR BN  IAML     853 15.41        36.1 2.15                           204 258 
                                                                                
 2020 11 1 1012  8.60L  18.123 -71.739 25.6  DOM  4 0.2 2.3LDOM 2.7CDOM 2.9WDOM1
 SPEC AVERAGE  MO 13.4 ST  2.7 OM  2.8 f0 4.71 R0.3732 AL 0.00 WI 20.0 MW  2.9 3
 SPEC SD       MO  0.1 ST  1.5 OM  0.8 f0 1.15 R0.0821 AL      WI      MW  0.1 3
 GAP=259        0.58       3.8     3.6  3.1  0.6389E+01  0.1141E+01 -0.1014E+01E
 SPEC JIDRBH N MO 13.3 ST  4.9 OM  2.1 f0 6.30 R0.2643 AL-0.00 WI 20.0 MW  2.8 3
 SPEC JIDRBH N T101220 K 0.020 GD 49.9 VS 4.50 DE 3.40 Q0400.0 QA 0.70 Q1 0.00 3
 SPEC NEDRBH N MO 13.6 ST  1.6 OM  2.3 f0 3.60 R0.4625 AL-0.00 WI 20.0 MW  3.0 3
 SPEC NEDRBH N T101221 K 0.020 GD 55.5 VS 4.50 DE 3.40 Q0400.0 QA 0.70 Q1 0.00 3
 SPEC REDRBH N MO 13.3 ST  1.5 OM  1.7 f0 4.24 R0.3927 AL-0.00 WI 20.0 MW  2.8 3
 SPEC REDRBH N T101240 K 0.020 GD  130 VS 4.50 DE 3.40 Q0400.0 QA 0.70 Q1 0.00 3
 LOCALITY: 12.9 Km al NNE de Pedernales, Pedernales.                           3
 2020-11-01-1012-00S.MAN___117                                                 6
 OLDACT:ARG 20-11-01 10:28 OP:njm  STATUS:               ID:20201101101200     3
 OLDACT:UP  20-11-01 10:32 OP:CGRS STATUS:               ID:20201101101200     3
 OLDACT:UP  20-11-01 10:31 OP:CGRS STATUS:               ID:20201101101200     3
 OLDACT:UP  20-11-01 10:31 OP:CGRS STATUS:               ID:20201101101200     3
 ACTION:UP  22-01-07 19:21 OP:jmlc STATUS:               ID:20201101101208 L   I
 OLDACT:UP  21-12-14 19:04 OP:AMMR STATUS:               ID:20201101101200     3
 OLDACT:UP  21-12-14 19:01 OP:AMMR STATUS:               ID:20201101101200     3
 OLDACT:UP  20-11-01 10:32 OP:CGRS STATUS:               ID:20201101101200     3
 STAT SP IPHASW D HRMM SECON CODA AMPLIT PERI AZIMU VELO AIN AR TRES W  DIS CAZ7
 JIDR BZ IP     C 1012 16.30   30                        112   -0.0110 42.8 344 
 JIDR BE IS     C 1012 21.89                             112   -0.1010 42.8 344 
 JIDR BN  IAML    1012 24.01       230.1 0.45                          42.8 344 
 PODR BZ IP     C 1012 16.97   43                        109   -0.2710 48.7  84 
 NEDR BZ IP     C 1012 17.56   37                        107    0.4010 49.2  36 
 NEDR BE IS     C 1012 23.45                             107   -0.0110 49.2  36 
 NEDR BN  IAML    1012 24.15       263.7 0.40                          49.2  36 
 REDR BZ IP     C 1012 27.79   29                         62    0.1510  128   2 
 REDR BE IS     C 1012 41.55                              62   -0.1510  128   2 
 REDR BN  IAML    1012 44.80        76.8 0.20                           128   2 
                                                                                
