 2020  2 1 2146 23.10L  18.905 -67.685 19.6  DOM  7 0.8 2.7LDOM 3.2CDOM 3.1WDOM1
 SPEC AVERAGE  MO 13.7 ST  3.8 OM  2.7 f0 3.85 R0.5144 AL 0.00 WI 20.0 MW  3.1 3
 SPEC SD       MO  0.3 ST  3.8 OM  0.6 f0 1.69 R0.2631 AL      WI      MW  0.2 3
 GAP=203        2.22      17.7     7.7 92.6  0.8045E+02  0.1212E+03 -0.7573E+03E
 SPEC AGPRBH N MO 13.6 ST  6.3 OM  2.3 f0 5.16 R0.3019 AL-0.00 WI 20.0 MW  3.0 3
 SPEC AGPRBH N T214643 K 0.020 GD 79.9 VS 4.21 DE 3.16 Q0400.0 QA 0.70 Q1 1.00 3
 SPEC PCDRHN N MO 14.0 ST0.759 OM  2.7 f0 1.82 R0.8559 AL-0.00 WI 20.0 MW  3.3 3
 SPEC PCDRHN N T214645 K 0.020 GD 87.4 VS 4.21 DE 3.16 Q0400.0 QA 0.70 Q1 1.00 3
 SPEC HIDRBH N MO 13.6 ST 11.3 OM  2.1 f0 6.46 R0.2411 AL-0.00 WI 20.0 MW  3.0 3
 SPEC HIDRBH N T214653 K 0.020 GD  115 VS 4.21 DE 3.16 Q0400.0 QA 0.70 Q1 1.00 3
 SPEC CRPRBH N MO 14.1 ST0.709 OM  2.6 f0 1.73 R0.9004 AL-0.00 WI 20.0 MW  3.3 3
 SPEC CRPRBH N T214656 K 0.020 GD  119 VS 4.21 DE 3.16 Q0400.0 QA 0.70 Q1 1.00 3
 SPEC MIDRHH N MO 13.5 ST  2.4 OM  1.9 f0 4.14 R0.3763 AL-0.00 WI 20.0 MW  2.9 3
 SPEC MIDRHH N T2147 1 K 0.020 GD  145 VS 4.21 DE 3.16 Q0400.0 QA 0.70 Q1 1.00 3
 SPEC HMDRBH N MO 13.3 ST  1.4 OM  1.7 f0 3.79 R0.4110 AL-0.00 WI 20.0 MW  2.8 3
 SPEC HMDRBH N T214711 K 0.020 GD  180 VS 4.21 DE 3.16 Q0400.0 QA 0.70 Q1 1.00 3
 LOCALITY: 83.1 Km al ENE de Punta Cana, Canal de la Mona.                     3
 2020-02-01-2145-00S.MAN___147                                                 6
 OLDACT:ARG 20-04-19 16:58 OP:JMLC STATUS:               ID:20200201214500 L   3
 ACTION:UP  22-01-05 18:33 OP:JMLC STATUS:               ID:20200201214500 L   I
 OLDACT:UP  21-05-07 19:07 OP:AMMR STATUS:               ID:20200201214500 L   3
 STAT SP IPHASW D HRMM SECON CODA AMPLIT PERI AZIMU VELO AIN AR TRES W  DIS CAZ7
 AGPR BZ EPg      2146 34.88   55                         99   -0.7610 77.5 128 
 AGPR BN ESg      2146 45.31                              99    0.4110 77.5 128 
 AGPR BE  IAML    2146 45.98       367.5 0.25                          77.5 128 
 AGPR BN  IAML    2146 46.33       332.3 0.20                          77.5 128 
 PCDR HZ EPg      2146 36.66   43                         98   -0.1410 85.2 240 
 PCDR BN  IAML    2146 51.25       199.5 0.28                          85.2 240 
 HIDR BZ EPg      2146 39.65   58                         95   -1.4810  114 252 
 HIDR BN ESg      2146 54.61                              95    0.1610  114 252 
 HIDR BE  IAML    2146 59.11       173.8 0.30                           114 252 
 HIDR BN  IAML    2146 59.18       245.9 0.30                           114 252 
 CRPR BZ EPg      2146 42.67   63                         95    0.9710  118 148 
 CRPR BE  IAML    2147  0.87       218.7 0.60                           118 148 
 CRPR BN  IAML    2147  2.23       202.6 0.55                           118 148 
 MIDR HZ EPg      2146 45.53   51                         94   -0.1210  144 274 
 MIDR HN  IAML    2147  5.87       162.0 0.54                           144 274 
 MIDR BN  IAML    2147  5.91       162.0 0.54                           144 274 
 MIDR HE  IAML    2147  6.08       113.7 0.24                           144 274 
 SMDR BZ EPg      2146 47.80   39                         93   -0.8410  164 285 
 SMDR BN ESg      2147  9.06                              93    1.5410  164 285 
 HMDR BZ EPg      2146 51.26   76                         93    0.2610  179 266 
 HMDR BE  IAML    2147 14.89        48.4 0.25                           179 266 
 HMDR BN  IAML    2147 15.65        56.2 0.20                           179 266 
                                                                                
 2020  2 1 2205 25.20L  17.880 -68.754152.3  DOM  7 0.8 2.8LDOM 3.2CDOM 2.9WDOM1
 SPEC AVERAGE  MO 13.4 ST 51.9 OM  2.0 f0 10.6 R0.1820 AL 0.00 WI 20.0 MW  2.9 3
 SPEC SD       MO  0.2 ST 47.7 OM  0.5 f0 3.66 R0.0870 AL      WI      MW  0.1 3
 GAP=208        2.21      36.7    12.5 32.9  0.2038E+03  0.2024E+03  0.1029E+04E
 LOCALITY: 27.4 Km al Sur de Mano Juan Isla Saona, Mar Caribe.                 3
 SPEC HIDRBH N MO 13.5 ST137.1 OM  1.8 f0 16.0 R0.1022 AL-0.00 WI 20.0 MW  3.0 3
 SPEC HIDRBH N T22 6 2 K 0.020 GD  171 VS 4.42 DE 3.40 Q0400.0 QA 0.70 Q1 1.00 3
 SPEC HMDRBH N MO 13.2 ST 11.0 OM  1.4 f0 9.00 R0.1817 AL-0.00 WI 20.0 MW  2.7 3
 SPEC HMDRBH N T22 6 5 K 0.020 GD  193 VS 4.42 DE 3.40 Q0400.0 QA 0.70 Q1 1.00 3
 SPEC MIDRHH N MO 13.2 ST 14.0 OM  1.4 f0 9.69 R0.1688 AL-0.00 WI 20.0 MW  2.7 3
 SPEC MIDRHH N T22 6 7 K 0.020 GD  197 VS 4.42 DE 3.40 Q0400.0 QA 0.70 Q1 1.00 3
 SPEC BADRBH N MO 13.5 ST 76.1 OM  1.6 f0 13.8 R0.1185 AL-0.00 WI 20.0 MW  2.9 3
 SPEC BADRBH N T22 617 K 0.020 GD  235 VS 4.42 DE 3.40 Q0400.0 QA 0.70 Q1 1.00 3
 SPEC PODRBH N MO 13.6 ST  3.4 OM  1.6 f0 4.46 R0.3667 AL-0.00 WI 20.0 MW  3.0 3
 SPEC PODRBH N T22 632 K 0.020 GD  309 VS 4.42 DE 3.40 Q0400.0 QA 0.70 Q1 1.00 3
 SPEC REDRBH N MO 13.8 ST 70.0 OM  1.7 f0 10.6 R0.1543 AL-0.00 WI 20.0 MW  3.1 3
 SPEC REDRBH N T22 646 K 0.020 GD  378 VS 4.42 DE 3.40 Q0400.0 QA 0.70 Q1 1.00 3
 2020-02-01-2204-00S.MAN___147                                                 6
 OLDACT:ARG 20-04-19 16:58 OP:JMLC STATUS:               ID:20200201220400 L   3
 ACTION:UP  22-01-05 18:33 OP:JMLC STATUS:               ID:20200201220400 L   I
 OLDACT:UP  21-05-07 19:35 OP:AMMR STATUS:               ID:20200201220400 L   3
 STAT SP IPHASW D HRMM SECON CODA AMPLIT PERI AZIMU VELO AIN AR TRES W  DIS CAZ7
 HIDR BZ EPg      22 5 45.36   41                        151   -1.3910 78.8   3 
 HIDR BN ESg      22 6  3.60                             151    0.8710 78.8   3 
 HIDR BN  IAML    22 6  6.85       137.5 0.20                          78.8   3 
 HIDR BE  IAML    22 6  7.59       101.3 0.20                          78.8   3 
 HMDR BZ EPg      22 5 48.43   50                        139   -1.1710  120 327 
 HMDR BE ESg      22 6  6.98                             139   -0.7210  120 327 
 HMDR BN  IAML    22 6 11.36        47.9 0.35                           120 327 
 HMDR BE  IAML    22 6 11.50        37.7 0.20                           120 327 
 MIDR HZ EPg      22 5 49.45   36                        138   -0.5410  126 346 
 MIDR HE ESg      22 6  8.92                             138    0.5610  126 346 
 MIDR HE  IAML    22 6 10.57        46.9 0.13                           126 346 
 MIDR HN  IAML    22 6 11.05        63.3 0.16                           126 346 
 MIDR BN  IAML    22 6 11.07        63.3 0.16                           126 346 
 BADR BZ EPg      22 5 55.42   45                        127    0.6410  179 289 
 BADR BN  IAML    22 6 25.89        64.3 1.15                           179 289 
 AGPR BZ EPg      22 5 56.24   63                        126    0.9910  186  69 
 AGPR BE  IAML    22 6 24.39        51.3 0.29                           186  69 
 AGPR BN  IAML    22 6 32.50        82.5 2.00                           186  69 
 PODR BZ EPg      22 6  3.99   54                        116    0.0510  270 277 
 PODR BE  IAML    22 6 39.56        57.5 0.20                           270 277 
 PODR BN  IAML    22 6 40.50        42.5 0.50                           270 277 
 REDR BE ESg    D 22 6 47.88                             109    0.6910  347 297 
 REDR BN  IAML    22 6 48.88        41.0 0.20                           347 297 
 REDR BE  IAML    22 6 50.16        26.0 0.10                           347 297 
                                                                                
 2020  2 1 2211 17.20L  18.923 -67.663  0.1  DOM  6 0.8 2.3LDOM 2.9CDOM 2.4WDOM1
 SPEC AVERAGE  MO 12.8 ST 12.0 OM  2.2 f0 6.34 R0.3447 AL 0.00 WI 20.0 MW  2.4 3
 SPEC SD       MO  0.2 ST 19.7 OM  0.5 f0 5.31 R0.2152 AL      WI      MW  0.2 3
 GAP=225        1.99      14.7     5.2 13.9  0.4606E+02 -0.8125E+01 -0.1171E+03E
 LOCALITY: 85.2 Km al ENE de Punta Cana, Canal de la Mona.                     3
 SPEC AGPRBH N MO 12.6 ST  6.8 OM  1.8 f0 8.41 R0.1408 AL-0.00 WI 20.0 MW  2.4 3
 SPEC AGPRBH N T221137 K 0.020 GD 76.9 VS 3.20 DE 2.60 Q0400.0 QA 0.70 Q1 1.00 3
 SPEC PCDRHN N MO 13.0 ST0.174 OM  2.1 f0 1.88 R0.6298 AL-0.00 WI 20.0 MW  2.6 3
 SPEC PCDRHN N T221141 K 0.020 GD 88.2 VS 3.20 DE 2.60 Q0400.0 QA 0.70 Q1 1.00 3
 SPEC PRSNBH N MO 12.7 ST  6.3 OM  1.8 f0 7.66 R0.1546 AL-0.00 WI 20.0 MW  2.4 3
 SPEC PRSNBH N T221141 K 0.020 GD 93.7 VS 3.20 DE 2.60 Q0400.0 QA 0.70 Q1 1.00 3
 SPEC HIDRBH N MO 12.7 ST 52.5 OM  1.7 f0 16.0 R0.0740 AL-0.00 WI 20.0 MW  2.4 3
 SPEC HIDRBH N T221147 K 0.020 GD  108 VS 3.20 DE 2.60 Q0400.0 QA 0.70 Q1 1.00 3
 SPEC CRPRBH N MO 12.9 ST0.482 OM  1.9 f0 2.87 R0.4125 AL-0.00 WI 20.0 MW  2.5 3
 SPEC CRPRBH N T221148 K 0.020 GD  108 VS 3.20 DE 2.60 Q0400.0 QA 0.70 Q1 1.00 3
 SPEC HMDRBH N MO 12.6 ST0.165 OM  1.5 f0 2.54 R0.4661 AL-0.00 WI 20.0 MW  2.3 3
 SPEC HMDRBH N T2212 4 K 0.020 GD  134 VS 3.20 DE 2.60 Q0400.0 QA 0.70 Q1 1.00 3
 2020-02-01-2210-00S.MAN___147                                                 6
 OLDACT:UP  20-02-01 23:52 OP:AMMR STATUS:               ID:20200201221000     3
 OLDACT:ARG 20-02-01 22:46 OP:jrdn STATUS:               ID:20200201221000     3
 OLDACT:UP  20-04-19 16:58 OP:JMLC STATUS:               ID:20200201221114 L   3
 ACTION:UP  22-01-05 18:33 OP:JMLC STATUS:               ID:20200201221114 L   I
 OLDACT:UP  21-11-07 23:39 OP:CGRS STATUS:               ID:20200201221114 L   3
 OLDACT:UP  21-11-07 21:36 OP:CGRS STATUS:               ID:20200201221114 L   3
 OLDACT:UP  21-11-07 21:35 OP:CGRS STATUS:               ID:20200201221114 L   3
 OLDACT:UP  21-11-07 21:35 OP:CGRS STATUS:               ID:20200201221114 L   3
 STAT SP IPHASW D HRMM SECON CODA AMPLIT PERI AZIMU VELO AIN AR TRES W  DIS CAZ7
 PRSN BZ IP     C 2211 32.56   31                         90                    
 PRSN BE IS     C 2211 42.60                              90                    
 PRSN BN  IAML    2211 51.17       182.3 0.25                                   
 AGPR BZ IP     C 2211 28.32   53                         90   -1.2710 76.9 131 
 AGPR BE IS     C 2211 39.33                              90    0.5610 76.9 131 
 AGPR BN  IAML    2211 39.82       127.4 0.20                          76.9 131 
 PCDR HZ IP     C 2211 30.31   31                         90   -1.1010 88.2 239 
 PCDR HE IS     C 2211 42.55                              90    0.6110 88.2 239 
 PCDR HN  IAML    2211 44.92        73.3 0.80                          88.2 239 
 PCDR BN  IAML    2211 56.33       137.2 2.34                          88.2 239 
 HIDR BZ IP     C 2211 36.90   28                         90    0.8810  117 252 
 HIDR BE IS       2211 49.14                              90   -0.8310  117 252 
 HIDR BN  IAML    2211 52.86        99.2 0.65                           117 252 
 CRPR BZ IP     C 2211 36.70   38                         90    0.4510  118 149 
 CRPR BE IS     C 2211 50.33                              90   -0.0210  118 149 
 CRPR BN  IAML    2211 55.73        82.1 0.55                           118 149 
 HMDR BZ IP     C 2211 45.90   65                         50    0.7410  182 266 
 HMDR BE IS     C 2212  5.85                              50   -0.0110  182 266 
 HMDR BN  IAML    2212 12.15        20.3 0.30                           182 266 
                                                                                
 2020  2 2 0002 49.20L  18.965 -67.657  0.1  DOM  8 0.8 4.3LDOM 4.0CDOM 4.0WDOM1
 SPEC AVERAGE  MO 15.2 ST 19.4 OM  4.5 f0 1.55 R0.8827 AL 0.00 WI 20.0 MW  4.0 3
 SPEC SD       MO  0.8 ST 18.4 OM  1.3 f0 3.37 R0.3718 AL      WI      MW  0.5 3
 GAP=198        2.17      14.0     5.9 11.2  0.6361E+02 -0.2486E+02 -0.1026E+03E
 SPEC SMDRBH N MO 15.0 ST 10.5 OM  3.9 f0 1.63 R0.7264 AL-0.00 WI 20.0 MW  3.9 3
 SPEC SMDRBH N T 0 334 K 0.020 GD  128 VS 3.20 DE 2.60 Q0400.0 QA 0.70 Q1 0.00 3
 SPEC AGPRBH N MO 15.1 ST 60.0 OM  4.2 f0 2.72 R0.4353 AL-0.00 WI 20.0 MW  4.0 3
 SPEC AGPRBH N T 0 310 K 0.020 GD 79.6 VS 3.20 DE 2.60 Q0400.0 QA 0.70 Q1 1.00 3
 SPEC PRSNBH N MO 15.0 ST126.7 OM  4.0 f0 3.77 R0.3141 AL-0.00 WI 20.0 MW  3.9 3
 SPEC PRSNBH N T 0 316 K 0.020 GD  100 VS 3.20 DE 2.60 Q0400.0 QA 0.70 Q1 1.00 3
 SPEC HIDRBH N MO 15.2 ST 24.2 OM  4.2 f0 1.81 R0.6541 AL-0.00 WI 20.0 MW  4.1 3
 SPEC HIDRBH N T 0 320 K 0.020 GD  109 VS 3.20 DE 2.60 Q0400.0 QA 0.70 Q1 1.00 3
 SPEC CRPRBH N MO 15.5 ST 15.8 OM  4.5 f0 1.24 R0.9548 AL-0.00 WI 20.0 MW  4.3 3
 SPEC CRPRBH N T 0 322 K 0.020 GD  110 VS 3.20 DE 2.60 Q0400.0 QA 0.70 Q1 1.00 3
 SPEC MIDRHH N MO 15.0 ST  3.8 OM  4.0 f0 1.10 R1.0764 AL-0.00 WI 20.0 MW  4.0 3
 SPEC MIDRHH N T 0 326 K 0.020 GD  121 VS 3.20 DE 2.60 Q0400.0 QA 0.70 Q1 1.00 3
 SPEC HMDRBH N MO 15.2 ST  2.2 OM  4.1 f00.817 R1.4492 AL-0.00 WI 20.0 MW  4.1 3
 SPEC HMDRBH N T 0 337 K 0.020 GD  135 VS 3.20 DE 2.60 Q0400.0 QA 0.70 Q1 1.00 3
 LOCALITY: 152.1 Km al Este de Miches, Oceano Atlantico.                       3
 2020-02-02-0002-00S.MAN___147                                                 6
 OLDACT:UP  20-02-02 00:40 OP:AMMR STATUS:               ID:20200202000200     3
 OLDACT:ARG 20-02-02 00:30 OP:jrdn STATUS:               ID:20200202000200     3
 OLDACT:UP  20-04-19 16:58 OP:JMLC STATUS:               ID:20200202000248 L   3
 ACTION:UP  22-01-05 18:33 OP:JMLC STATUS:               ID:20200202000248 L   I
 OLDACT:UP  21-11-07 21:42 OP:CGRS STATUS:               ID:20200202000248 L   3
 OLDACT:UP  21-11-07 21:42 OP:CGRS STATUS:               ID:20200202000248 L   3
 STAT SP IPHASW D HRMM SECON CODA AMPLIT PERI AZIMU VELO AIN AR TRES W  DIS CAZ7
 PRSN BZ IP     C  0 3  4.48   82                         90                    
 PRSN BE IS     C  0 3 17.75                              90                    
 PRSN BN  IAML     0 3 29.60     26368.2 0.30                                   
 AGPR BZ IP     C  0 3  2.34  104                         90    0.2910 79.6 133 
 AGPR BE IS     C  0 3 12.46                              90    0.9110 79.6 133 
 AGPR BN  IAML     0 3 13.04     13071.8 0.40                          79.6 133 
 HIDR BZ IP     C  0 3  7.31  138                         90   -1.0810  119 250 
 HIDR BE IS     C  0 3 21.72                              90   -0.8710  119 250 
 HIDR BN  IAML     0 3 24.52     10171.6 0.65                           119 250 
 CRPR BZ IP     C  0 3  8.56   90                         90   -0.3210  122 150 
 CRPR BE IS     C  0 3 23.80                              90    0.3710  122 150 
 CRPR BN  IAML     0 3 29.20     16657.9 0.60                           122 150 
 MIDR HZ IP     C  0 3 11.69  176                         70   -1.0710  147 271 
 MIDR HE IS        0 3 31.02                              70    0.8410  147 271 
 MIDR HN  IAML     0 3 33.17      3273.5 1.08             90            147 271 
 MIDR BN  IAML     0 3 33.18      3273.4 1.08                           147 271 
 SMDR BZ IP     D  0 3 15.13  147                         50    0.0510  165 283 
 SMDR BE IS     C  0 3 35.41                              50    1.1910  165 283 
 SMDR BN  IAML     0 3 38.68      3243.5 0.75                           165 283 
 HMDR BZ IP     C  0 3 17.13  124                         50   -0.1810  183 264 
 HMDR BE IS        0 3 39.17                              50    1.0610  183 264 
 HMDR BN  IAML     0 3 41.62      3060.0 0.95                           183 264 
 SJG  BZ IP        0 3 16.31  117                         50   -1.3110  185 120 
 SJG  BE IS        0 3 38.75                              50    0.1110  185 120 
                                                                                
 2020  2 2 0011 39.40L  19.090 -67.585  0.0  DOM  8 0.8 4.3LDOM 3.8CDOM 4.3WDOM1
 SPEC AVERAGE  MO 15.6 ST 28.7 OM  4.8 f0 1.72 R1.0301 AL 0.00 WI 20.0 MW  4.3 3
 SPEC SD       MO  0.2 ST 25.5 OM  0.7 f00.420 R0.2694 AL      WI      MW  0.1 3
 GAP=208        2.25      13.7     6.2 11.2  0.6019E+02 -0.1978E+02 -0.1004E+03E
 SPEC AGPRBH N MO 15.7 ST 81.0 OM  4.3 f0 2.49 R0.6642 AL-0.00 WI 20.0 MW  4.4 3
 SPEC AGPRBH N T 012 1 K 0.020 GD 85.0 VS 4.47 DE 3.40 Q0400.0 QA 0.70 Q1 0.00 3
 SPEC CRPRBH N MO 15.8 ST 31.6 OM  4.2 f0 1.78 R0.9292 AL-0.00 WI 20.0 MW  4.5 3
 SPEC CRPRBH N T 012 9 K 0.020 GD  114 VS 4.47 DE 3.40 Q0400.0 QA 0.70 Q1 0.00 3
 SPEC MIDRHH N MO 15.5 ST  7.2 OM  3.9 f0 1.33 R1.2435 AL-0.00 WI 20.0 MW  4.3 3
 SPEC MIDRHH N T 01219 K 0.020 GD  124 VS 4.47 DE 3.40 Q0400.0 QA 0.70 Q1 0.00 3
 SPEC PRSNBH N MO 15.3 ST182.0 OM  3.8 f0 4.47 R0.3700 AL-0.00 WI 20.0 MW  4.2 3
 SPEC PRSNBH N T 012 6 K 0.020 GD  104 VS 4.47 DE 3.40 Q0400.0 QA 0.70 Q1 0.00 3
 SPEC SMDRBH N MO 15.4 ST  6.0 OM  3.8 f0 1.33 R1.2435 AL-0.00 WI 20.0 MW  4.2 3
 SPEC SMDRBH N T 01225 K 0.020 GD  130 VS 4.47 DE 3.40 Q0400.0 QA 0.70 Q1 0.00 3
 SPEC HIDRBH N MO 15.7 ST 41.3 OM  4.1 f0 2.10 R0.7876 AL-0.00 WI 20.0 MW  4.4 3
 SPEC HIDRBH N T 01211 K 0.020 GD  114 VS 4.47 DE 3.40 Q0400.0 QA 0.70 Q1 0.00 3
 SPEC HMDRBH N MO 15.4 ST  5.4 OM  3.8 f0 1.26 R1.3126 AL-0.00 WI 20.0 MW  4.2 3
 SPEC HMDRBH N T 01230 K 0.020 GD  138 VS 4.47 DE 3.40 Q0400.0 QA 0.70 Q1 0.00 3
 LOCALITY: 152.4 Km al Este de Miches, Oceano Atlantico.                       3
 2020-02-02-0011-00S.MAN___147                                                 6
 OLDACT:ARG 20-02-02 00:55 OP:jrdn STATUS:               ID:20200202001100     3
 OLDACT:UP  20-02-02 01:03 OP:AMMR STATUS:               ID:20200202001100     3
 ACTION:UP  22-01-05 18:33 OP:JMLC STATUS:               ID:20200202001139 L   I
 OLDACT:UP  21-11-07 21:52 OP:CGRS STATUS:               ID:20200202001139 L   3
 OLDACT:UP  21-11-07 21:51 OP:CGRS STATUS:               ID:20200202001139 L   3
 OLDACT:UP  20-04-19 16:58 OP:JMLC STATUS:               ID:20200202001139 L   3
 STAT SP IPHASW D HRMM SECON CODA AMPLIT PERI AZIMU VELO AIN AR TRES W  DIS CAZ7
 PRSN BZ IP     C  011 57.33   74                         90                    
 PRSN BE IS     C  012 10.31                              90                    
 PRSN BN  IAML     012 16.58     20248.4 0.25                                   
 AGPR BZ IP     C  011 51.71   95                         90   -1.4110 85.0 144 
 AGPR BE IS     C  012  4.37                              90    1.1110 85.0 144 
 AGPR BN  IAML     012  5.18     17799.5 0.30                          85.0 144 
 HIDR BZ IP     C  012  0.50  131                         90   -0.0810  131 245 
 HIDR BN  IAML     012 17.82      7486.7 0.30                           131 245 
 CRPR BZ IP     C  011 59.46   84                         90   -1.0610  131 156 
 CRPR BE IS     C  012 17.05                              90    0.9110  131 156 
 CRPR BN  IAML     012 20.49     15857.8 0.55                           131 156 
 HIDR BE IS     C  012 15.03                              90   -1.2110  131 245 
 MIDR HZ IP     C  012  4.49   94                         50    0.4910  155 266 
 MIDR HE IS     C  012 22.23                              50    0.0410  155 266 
 MIDR HN  IAML     012 26.30      2463.0 0.86                           155 266 
 MIDR BN  IAML     012 26.31      2463.0 0.86                           155 266 
 SMDR BZ IP     C  012  5.57  145                         50   -0.3410  170 278 
 SMDR BE IS     C  012 25.96                              50    0.4410  170 278 
 SMDR BN  IAML     012 31.31      2612.6 1.00                           170 278 
 SJG  BZ IP     C  012  7.23   94                         50   -0.7410  186 125 
 SJG  BE IS     C  012 29.24                              50    0.1510  186 125 
 HMDR BZ IP     C  012 10.12  108                         50    1.4310  192 260 
 HMDR BE IS     C  012 30.64                              50    0.2810  192 260 
 HMDR BN  IAML     012 32.94      2872.2 0.60                           192 260 
                                                                                
