 2020  3 2 2151 58.30L  17.527 -66.949 15.0  DOM 13 0.9 3.8LDOM 3.8CDOM 3.7WDOM1
 SPEC AVERAGE  MO 14.6 ST 10.7 OM  3.2 f0 2.35 R0.8991 AL 0.00 WI 20.0 MW  3.7 3
 SPEC SD       MO  0.5 ST 12.1 OM  0.7 f0 1.48 R0.5025 AL      WI      MW  0.3 3
 GAP=227        2.34      25.1    10.7 23.8 -0.1436E+03 -0.1280E+02 -0.2584E+02E
 SPEC CRPRBH N MO 14.9 ST 34.0 OM  3.9 f0 3.05 R0.4731 AL-0.00 WI 20.0 MW  3.9 3
 SPEC CRPRBH N T215210 K 0.020 GD 57.1 VS 3.90 DE 2.90 Q0400.0 QA 0.70 Q1 0.00 3
 SPEC HIDRBH N MO 14.1 ST 30.6 OM  2.5 f0 5.49 R0.2628 AL-0.00 WI 20.0 MW  3.3 3
 SPEC HIDRBH N T215259 K 0.020 GD  221 VS 3.90 DE 2.90 Q0400.0 QA 0.70 Q1 0.00 3
 SPEC HMDRBH N MO 14.6 ST0.483 OM  2.9 f00.923 R1.5634 AL-0.00 WI 20.0 MW  3.7 3
 SPEC HMDRBH N T215320 K 0.020 GD  293 VS 3.90 DE 2.90 Q0400.0 QA 0.70 Q1 0.00 3
 SPEC NAVIBH N MO 15.0 ST 12.1 OM  3.2 f0 2.00 R0.7215 AL-0.00 WI 20.0 MW  4.0 3
 SPEC NAVIBH N T215340 K 0.020 GD  362 VS 3.90 DE 2.90 Q0400.0 QA 0.70 Q1 0.00 3
 SPEC NADRBH N MO 15.5 ST  4.7 OM  3.7 f00.988 R1.4605 AL-0.00 WI 20.0 MW  4.3 3
 SPEC NADRBH N T215341 K 0.020 GD  368 VS 3.90 DE 2.90 Q0400.0 QA 0.70 Q1 0.00 3
 SPEC BADRBH N MO 14.1 ST  9.2 OM  2.3 f0 3.60 R0.4008 AL-0.00 WI 20.0 MW  3.4 3
 SPEC BADRBH N T215343 K 0.020 GD  374 VS 3.90 DE 2.90 Q0400.0 QA 0.70 Q1 0.00 3
 SPEC SC01BH N MO 14.8 ST  1.6 OM  2.9 f0 1.19 R1.2126 AL-0.00 WI 20.0 MW  3.8 3
 SPEC SC01BH N T2154 5 K 0.020 GD  451 VS 3.90 DE 2.90 Q0400.0 QA 0.70 Q1 0.00 3
 SPEC PODRBH N MO 13.9 ST  3.3 OM  2.0 f0 2.99 R0.4826 AL-0.00 WI 20.0 MW  3.2 3
 SPEC PODRBH N T2154 9 K 0.020 GD  465 VS 3.90 DE 2.90 Q0400.0 QA 0.70 Q1 0.00 3
 SPEC SDDRBH N MO 14.5 ST0.442 OM  2.6 f00.953 R1.5142 AL-0.00 WI 20.0 MW  3.6 3
 SPEC SDDRBH N T215415 K 0.020 GD  486 VS 3.90 DE 2.90 Q0400.0 QA 0.70 Q1 0.00 3
 LOCALITY: 64.4 Km al SO de Ponce, Region de Puerto Rico.                      3
 2020-03-02-2151-00S.MAN___126                                                 6
 OLDACT:ARG 20-03-04 01:53 OP:njm  STATUS:               ID:20200302215101d    3
 OLDACT:UP  20-03-05 14:10 OP:JMLC STATUS:               ID:20200302215101d    3
 ACTION:UP  22-01-08 17:50 OP:jmlc STATUS:               ID:20200302215158 L   I
 STAT SP IPHASW D HRMM SECON CODA AMPLIT PERI AZIMU VELO AIN AR TRES W  DIS CAZ7
 CRPR BZ EPg      2152  5.74                              97   -1.6110 55.1 344 
 CRPR BN  IAML    2152 11.47      9897.1 0.30                          55.1 344 
 SJG  BZ EPg      2152 15.37   36                         92    0.2310  107  52 
 HIDR BZ EPg      2152 32.46                              91   -0.0110  221 302 
 HIDR BN  IAML    2153  8.99       348.3 0.20                           221 302 
 HMDR BZ EPg      2152 43.44   95                         91    0.0910  293 299 
 HMDR BN  IAML    2153 22.46       136.4 0.70                           293 299 
 SMDR BZ EPg      2152 45.79   74                         91    0.3510  307 310 
 SMDR BN  IAML    2153 32.49       220.6 0.60                           307 310 
 NAVI BZ EPg      2152 53.75   79                         91   -0.1310  362 296 
 NAVI BN  IAML    2153 51.20      1234.3 0.30                           362 296 
 NADR BZ EPg      2152 55.35  100                         91    0.6610  368 304 
 NADR BN  IAML    2153 50.82       474.3 0.75                           368 304 
 BADR BZ EPg      2152 56.12  103                         91    0.4110  374 285 
 BADR BN  IAML    2153 52.28        84.1 0.65                           374 285 
 SC01 BZ EPg      2153  8.78                              90    1.4410  451 298 
 SC01 BN  IAML    2154 21.41       112.8 0.65                           451 298 
 PODR BZ EPg      2153  7.97  123                         90   -1.5010  465 279 
 PODR BN  IAML    2154 36.88        82.9 2.90                           465 279 
 SDDR BZ EPg      2153 12.63                              90   -0.0810  486 290 
 SDDR BN  IAML    2154 23.58        58.0 0.85                           486 290 
 REDR BZ EPg      2153 19.56                              90   -1.0010  538 292 
 REDR BN  IAML    2154 36.49        45.8 1.80                           538 292 
 GRTK BZ EPn      2153 20.64                              55    1.1510  622 316 
 GRTK BN  IAML    2154 57.96       141.2 2.75                           622 316 
                                                                                
 2020  3 3 0310 16.70L  18.326 -68.911183.6  DOM  5 0.4 4.3LDOM 3.8CDOM 4.1WDOM1
 SPEC AVERAGE  MO 15.3 ST227.6 OM  4.1 f0 4.67 R0.6774 AL 0.00 WI 20.0 MW  4.1 3
 SPEC SD       MO  0.3 ST387.2 OM  0.7 f0 4.30 R0.4528 AL      WI      MW  0.2 3
 GAP=201        1.03      15.8     7.8  9.1  0.9735E+02  0.1637E+02  0.6486E+02E
 SPEC HIDRBH N MO 15.4 ST 82.8 OM  3.6 f0 3.30 R0.4989 AL-0.00 WI 20.0 MW  4.2 3
 SPEC HIDRBH N T 31056 K 0.020 GD  187 VS 4.45 DE 3.40 Q0400.0 QA 0.70 Q1 0.00 3
 SPEC HMDRBH N MO 14.8 ST 43.5 OM  3.0 f0 4.15 R0.3967 AL-0.00 WI 20.0 MW  3.8 3
 SPEC HMDRBH N T 31057 K 0.020 GD  196 VS 4.45 DE 3.40 Q0400.0 QA 0.70 Q1 0.00 3
 SPEC SMDRBH N MO 15.5 ST  5.3 OM  3.7 f0 1.17 R1.4073 AL-0.00 WI 20.0 MW  4.3 3
 SPEC SMDRBH N T 311 1 K 0.020 GD  214 VS 4.45 DE 3.40 Q0400.0 QA 0.70 Q1 0.00 3
 SPEC NAVIBH N MO 15.5 ST999.9 OM  3.6 f0 13.0 R0.1267 AL-0.00 WI 20.0 MW  4.2 3
 SPEC NAVIBH N T 311 5 K 0.020 GD  229 VS 4.45 DE 3.40 Q0400.0 QA 0.70 Q1 0.00 3
 SPEC CRPRBH N MO 15.1 ST  6.7 OM  3.2 f0 1.72 R0.9573 AL-0.00 WI 20.0 MW  4.0 3
 SPEC CRPRBH N T 31113 K 0.020 GD  268 VS 4.45 DE 3.40 Q0400.0 QA 0.70 Q1 0.00 3
 LOCALITY: 10.8 Km al ESE de Isla Catalina, Mar Caribe.                        3
 2020-03-03-0310-00S.MAN___126                                                 6
 OLDACT:ARG 20-03-03 03:17 OP:njm  STATUS:               ID:20200303031000     3
 OLDACT:UP  20-03-03 03:20 OP:AMMR STATUS:               ID:20200303031000     3
 ACTION:UP  22-01-08 17:50 OP:jmlc STATUS:               ID:20200303031016 L   I
 STAT SP IPHASW D HRMM SECON CODA AMPLIT PERI AZIMU VELO AIN AR TRES W  DIS CAZ7
 HIDR BZ EPg    C  310 39.83   91                        168   -0.1910 35.9  35 
 HIDR BE ESg    C  310 57.70                             168    0.4210 35.9  35 
 HIDR BN  IAML     310 58.52      5757.5 0.35                          35.9  35 
 HMDR BZ EPg    C  310 40.93   88                        158   -0.3610 71.2 316 
 HMDR BE ESg    D  310 58.83                             158   -0.6610 71.2 316 
 HMDR BN  IAML     311  1.68      1524.3 0.60                          71.2 316 
 SMDR BZ EPg    C  310 43.03   92                        147   -0.3310  111 345 
 SMDR BE ESg    D  311  3.31                             147    0.2110  111 345 
 SMDR BN  IAML     311  9.38      2620.8 0.70                           111 345 
 NAVI BZ EPg    C  310 45.99   95                        141    0.7110  137 301 
 NAVI BE ESg    C  311  6.59                             141    0.1610  137 301 
 NAVI BN  IAML     311  9.26      7013.2 0.15                           137 301 
 CRPR BZ EPg    D  310 49.99  119                        131   -0.0310  196 100 
 CRPR BE ESg    D  311 14.76                             131    0.0810  196 100 
 CRPR BN  IAML     311 24.64       755.4 0.55                           196 100 
                                                                                
 2020  3 3 0713 54.00L  20.228 -70.643 19.9  DOM  5 0.6 2.4LDOM 3.3CDOM 2.9WDOM1
 SPEC AVERAGE  MO 13.4 ST  7.1 OM  3.0 f0 4.64 R0.4459 AL 0.00 WI 20.0 MW  2.9 3
 SPEC SD       MO  0.3 ST  9.2 OM  1.4 f0 2.14 R0.2014 AL      WI      MW  0.2 3
 GAP=273        1.56      14.3     4.5126.5 -0.3953E+01  0.6909E+02 -0.1294E+04E
 SPEC HMDRBH N MO 13.0 ST0.695 OM  1.2 f0 4.09 R0.4062 AL-0.00 WI 20.0 MW  2.6 3
 SPEC HMDRBH N T 71448 K 0.020 GD  207 VS 4.49 DE 3.39 Q0400.0 QA 0.70 Q1 0.00 3
 SPEC REDRBH N MO 13.7 ST 20.1 OM  2.0 f0 7.50 R0.2215 AL-0.00 WI 20.0 MW  3.1 3
 SPEC REDRBH N T 71434 K 0.020 GD  154 VS 4.49 DE 3.39 Q0400.0 QA 0.70 Q1 0.00 3
 SPEC SDDRBH N MO 13.5 ST0.387 OM  1.8 f0 2.34 R0.7100 AL-0.00 WI 20.0 MW  2.9 3
 SPEC SDDRBH N T 71433 K 0.020 GD  155 VS 4.49 DE 3.39 Q0400.0 QA 0.70 Q1 0.00 3
 LOCALITY: 49.0 Km al Norte de Puerto Plata, Oceano Atlantico.                 3
 2020-03-03-0713-00S.MAN___120                                                 6
 OLDACT:ARG 20-03-03 09:43 OP:njm  STATUS:               ID:20200303071300     3
 OLDACT:UP  20-03-03 09:54 OP:AMMR STATUS:               ID:20200303071300     3
 ACTION:UP  22-01-08 17:50 OP:jmlc STATUS:               ID:20200303071354 L   I
 STAT SP IPHASW D HRMM SECON CODA AMPLIT PERI AZIMU VELO AIN AR TRES W  DIS CAZ7
 SFDR BZ EPg    C  714 11.94   55                         96    0.2110  112 158 
 SFDR BE ESg    C  714 25.88                              96    1.0310  112 158 
 SFDR BN  IAML     714 31.65       126.3 1.60                           112 158 
 REDR BZ EPg    C  714 18.31   67                         94    0.3910  153 227 
 REDR BE ESg    C  714 35.70                              94    0.0910  153 227 
 REDR BN  IAML     714 38.65       117.9 0.20                           153 227 
 SDDR BZ EPg    C  714 17.72   51                         94   -0.3410  154 206 
 SDDR BE ESg    C  714 34.70                              94   -1.1510  154 206 
 SDDR BN  IAML     714 35.22        38.3 1.70                           154 206 
 HMDR BZ EPg    C  714 25.54   67                         93   -0.5910  207 140 
 HMDR BE ESg    D  714 49.50                              93   -0.3910  207 140 
 HMDR BN  IAML     715  6.53        27.6 3.65                           207 140 
 JIDR BZ EPg    C  714 29.96   60                         92    0.3810  230 214 
 JIDR BE ESg    C  714 56.27                              92    0.3710  230 214 
 JIDR BN  IAML     715 17.77        31.3 2.85                           230 214 
                                                                                
 2020  3 3 0823 29.10L  19.103 -67.584 18.9  DOM  7 0.9 3.5LDOM 3.2CDOM 3.5WDOM1
 SPEC AVERAGE  MO 14.3 ST204.1 OM  3.2 f0 4.37 R0.5688 AL 0.00 WI 20.0 MW  3.5 3
 SPEC SD       MO  0.4 ST397.9 OM  0.7 f0 3.04 R0.3734 AL      WI      MW  0.3 3
 GAP=208        2.48      21.0     8.3173.7  0.1368E+03 -0.1303E+03 -0.8579E+03E
 SPEC CRPRBH N MO 14.5 ST0.790 OM  3.0 f0 1.27 R1.2353 AL-0.00 WI 20.0 MW  3.6 3
 SPEC CRPRBH N T 824 3 K 0.020 GD  133 VS 4.24 DE 3.18 Q0400.0 QA 0.70 Q1 0.00 3
 SPEC SMDRBH N MO 14.1 ST  2.0 OM  2.5 f0 2.32 R0.6762 AL-0.00 WI 20.0 MW  3.4 3
 SPEC SMDRBH N T 82414 K 0.020 GD  171 VS 4.24 DE 3.18 Q0400.0 QA 0.70 Q1 0.00 3
 SPEC HMDRBH N MO 13.8 ST  3.1 OM  2.1 f0 3.54 R0.4432 AL-0.00 WI 20.0 MW  3.1 3
 SPEC HMDRBH N T 82420 K 0.020 GD  192 VS 4.24 DE 3.18 Q0400.0 QA 0.70 Q1 0.00 3
 SPEC NAVIBH N MO 15.0 ST999.9 OM  3.2 f0 10.0 R0.1569 AL-0.00 WI 20.0 MW  4.0 3
 SPEC NAVIBH N T 82435 K 0.020 GD  258 VS 4.24 DE 3.18 Q0400.0 QA 0.70 Q1 0.00 3
 SPEC BADRBH N MO 14.1 ST 14.6 OM  2.2 f0 4.72 R0.3324 AL-0.00 WI 20.0 MW  3.3 3
 SPEC BADRBH N T 82447 K 0.020 GD  303 VS 4.24 DE 3.18 Q0400.0 QA 0.70 Q1 0.00 3
 LOCALITY: 153.5 Km al Este de Miches, Oceano Atlantico.                       3
 2020-03-03-0823-00S.MAN___120                                                 6
 OLDACT:UP  20-03-03 10:02 OP:AMMR STATUS:               ID:20200303082300     3
 OLDACT:UP  20-03-03 09:58 OP:AMMR STATUS:               ID:20200303082300     3
 OLDACT:ARG 20-03-03 09:44 OP:njm  STATUS:               ID:20200303082300     3
 OLDACT:UP  20-03-03 10:03 OP:AMMR STATUS:               ID:20200303082300     3
 ACTION:UP  22-01-08 17:50 OP:jmlc STATUS:               ID:20200303082329 L   I
 OLDACT:UP  20-03-03 10:03 OP:AMMR STATUS:               ID:20200303082300     3
 STAT SP IPHASW D HRMM SECON CODA AMPLIT PERI AZIMU VELO AIN AR TRES W  DIS CAZ7
 CRPR BZ EPg    D  823 49.62   41                         94   -0.2310  132 157 
 CRPR BN  IAML     824 10.84       446.9 0.55                           132 157 
 SMDR BZ EPg    C  823 55.21   44                         93   -0.3610  170 277 
 SMDR BE ESg    D  824 16.44                              93    1.3010  170 277 
 SMDR BN  IAML     824 17.79       215.6 0.40                           170 277 
 SJG  BZ EPg    D  823 58.01   43                         93   -0.1510  187 126 
 SJG  BE ESg       824 20.15                              93    0.5110  187 126 
 HMDR BZ EPg    D  823 58.93   47                         93   -0.0610  192 260 
 HMDR BE ESg    D  824 22.07                              93    0.9710  192 260 
 HMDR BN  IAML     824 22.72       134.9 0.50                           192 260 
 NADR BZ EPg    C  824  4.88   58                         92   -1.3710  241 277 
 NADR BE ESg    D  824 34.66                              92    0.9310  241 277 
 NADR BN  IAML     824 34.79       614.5 0.35                           241 277 
 NAVI BZ EPg    D  824  8.14   42                         92   -0.7610  258 267 
 NAVI BE ESg    D  824 37.12                              92   -1.2110  258 267 
 NAVI BN  IAML     824 40.54      3335.0 0.25                           258 267 
 BADR BZ EPg    C  824 17.26   65                         91    1.4910  303 256 
 BADR BE ESg    C  824 49.22                              91   -1.0710  303 256 
 BADR BN  IAML     824 56.79       133.6 0.55                           303 256 
                                                                                
 2020  3 3 1147 45.70L  17.688 -66.730 12.1  DOM  3 0.5 2.5LDOM 3.1CDOM 3.4WDOM1
 SPEC AVERAGE  MO 14.1 ST0.865 OM  4.5 f0 2.06 R5.1737 AL 0.00 WI 20.0 MW  3.4 3
 SPEC SD       MO  0.9 ST0.860 OM  1.7 f0 1.92 R4.8270 AL      WI      MW  0.6 3
 GAP=241        1.23      26.1     3.1 55.8  0.2627E+01  0.2060E+02  0.1284E+04E
 SPEC CRPRBH N MO 13.2 ST  1.7 OM  2.3 f0 3.98 R0.3468 AL-0.00 WI 20.0 MW  2.8 3
 SPEC CRPRBH N T114759 K 0.020 GD 53.3 VS 3.73 DE 2.83 Q0400.0 QA 0.70 Q1 0.00 3
 SPEC HMDRBH N MO 15.1 ST0.005 OM  3.5 f00.138 R 10.00 AL-0.00 WI 20.0 MW  4.0 3
 SPEC HMDRBH N T114910 K 0.020 GD  243 VS 3.73 DE 2.83 Q0400.0 QA 0.70 Q1 0.00 3
 LOCALITY: 38.1 Km al SSO de Ponce, Region de Puerto Rico.                     3
 2020-03-03-1147-00S.MAN___120                                                 6
 OLDACT:ARG 20-03-03 14:00 OP:jaaf STATUS:               ID:20200303114700     3
 OLDACT:UP  20-03-03 14:11 OP:JAAF STATUS:               ID:20200303114700     3
 ACTION:UP  22-01-08 17:50 OP:jmlc STATUS:               ID:20200303114745 L   I
 STAT SP IPHASW D HRMM SECON CODA AMPLIT PERI AZIMU VELO AIN AR TRES W  DIS CAZ7
 CRPR BZ EPg      1147 55.18   43                        103    0.8610 51.9 313 
 CRPR BE ESg      1148  0.54                             103   -0.1410 51.9 313 
 CRPR BN  IAML    1148  5.64       271.7 0.30                          51.9 313 
 SJG  BZ EPg      1147 58.59   40                         99    0.2310 77.3  53 
 SJG  BE ESg      1148  7.45                              99   -0.2610 77.3  53 
 HMDR BZ EPg      1148 34.36   72                         92   -0.7010  306 294 
 HMDR BN ESg      1149 11.59                              92    0.0110  306 294 
 HMDR BN  IAML    1149 47.94        29.6 2.65                           306 294 
                                                                                
 2020  3 3 1242 54.00L  19.163 -69.666 10.5  DOM  4 0.4 2.3LDOM 2.5CDOM 2.4WDOM1
 SPEC AVERAGE  MO 12.6 ST 97.1 OM  4.0 f0 15.6 R0.0880 AL 0.00 WI 20.0 MW  2.4 3
 SPEC SD       MO  0.8 ST 93.3 OM  2.4 f00.350 R0.0020 AL      WI      MW  0.5 3
 GAP=230        1.02       6.3     3.1 23.2  0.9113E+01 -0.3653E+01 -0.8403E+02E
 SPEC NAVIBH N MO 13.4 ST190.4 OM  2.6 f0 16.0 R0.0860 AL-0.00 WI 20.0 MW  2.9 3
 SPEC NAVIBH N T1243 5 K 0.020 GD 45.5 VS 3.72 DE 2.82 Q0400.0 QA 0.70 Q1 0.00 3
 SPEC HMDRBH N MO 11.8 ST  3.8 OM  0.9 f0 15.3 R0.0900 AL-0.00 WI 20.0 MW  1.8 3
 SPEC HMDRBH N T1243 7 K 0.020 GD 52.4 VS 3.72 DE 2.82 Q0400.0 QA 0.70 Q1 0.00 3
 LOCALITY: 9.4 Km al SO de Sanchez, Samana.                                    3
 2020-03-03-1242-00S.MAN___120                                                 6
 OLDACT:ARG 20-03-03 14:02 OP:jaaf STATUS:               ID:20200303124200     3
 OLDACT:UP  20-03-03 14:21 OP:JAAF STATUS:               ID:20200303124200     3
 ACTION:UP  22-01-08 17:50 OP:jmlc STATUS:               ID:20200303124254 L   I
 OLDACT:UP  20-03-03 14:22 OP:JAAF STATUS:               ID:20200303124200     3
 STAT SP IPHASW D HRMM SECON CODA AMPLIT PERI AZIMU VELO AIN AR TRES W  DIS CAZ7
 NAVI BZ EPg      1243  1.66   21                        104    0.2710 44.3 239 
 NAVI BE ESg      1243  7.04                             104    0.2010 44.3 239 
 NAVI BN  IAML    1243  7.82      1811.8 0.15                          44.3 239 
 HMDR BZ EPg      1243  2.84   24                        102    0.3610 51.3 144 
 HMDR BE ESg      1243  8.75                             102    0.0110 51.3 144 
 HMDR BN  IAML    1243  9.25        40.1 0.15                          51.3 144 
 BADR BZ EPg      1243 11.37   34                         96   -0.8110  112 221 
 BADR BE ESg      1243 25.64                              96    0.0210  112 221 
 BADR BN  IAML    1243 27.74        78.4 0.10                           112 221 
 REDR BZ EPg      1243 28.26   40                         93   -0.3910  214 274 
 REDR BE ESg      1243 54.62                              93    0.3510  214 274 
                                                                                
 2020  3 3 1347 17.30L  17.931 -66.912 12.1  DOM  3 0.4 3.1LDOM 2.9CDOM 3.4WDOM1
 SPEC AVERAGE  MO 14.1 ST  2.7 OM  5.3 f0 1.64 R1.1820 AL 0.00 WI 20.0 MW  3.4 3
 SPEC SD       MO  0.1 ST  2.6 OM  2.0 f0 1.02 R0.7369 AL      WI      MW  0.1 3
 GAP=214        1.02      25.6     3.0 11.9  0.3765E+02 -0.7871E+01  0.9837E+02E
 SPEC CRPRBH N MO 14.0 ST  5.3 OM  3.7 f0 2.66 R0.4451 AL-0.00 WI 20.0 MW  3.3 3
 SPEC CRPRBH N T134722 K 0.020 GD 23.8 VS 3.20 DE 2.60 Q0400.0 QA 0.70 Q1 0.00 3
 SPEC HMDRBH N MO 14.2 ST0.099 OM  2.9 f00.617 R1.9190 AL-0.00 WI 20.0 MW  3.4 3
 SPEC HMDRBH N T134834 K 0.020 GD  225 VS 3.20 DE 2.60 Q0400.0 QA 0.70 Q1 0.00 3
 LOCALITY: 39.6 Km al SO de Ponce, Region de Puerto Rico.                      3
 2020-03-03-1346-00S.MAN___120                                                 6
 OLDACT:ARG 20-03-03 14:03 OP:jaaf STATUS:               ID:20200303134600     3
 OLDACT:UP  20-03-03 14:32 OP:JAAF STATUS:               ID:20200303134600     3
 OLDACT:UP  20-03-03 14:31 OP:JAAF STATUS:               ID:20200303134600     3
 OLDACT:UP  20-03-03 14:28 OP:JAAF STATUS:               ID:20200303134600     3
 OLDACT:UP  20-03-03 14:28 OP:JAAF STATUS:               ID:20200303134600     3
 ACTION:UP  22-01-08 17:50 OP:jmlc STATUS:               ID:20200303134717 L   I
 STAT SP IPHASW D HRMM SECON CODA AMPLIT PERI AZIMU VELO AIN AR TRES W  DIS CAZ7
 CRPR BZ EPg      1347 20.66   22                        114   -0.4510 20.5 294 
 CRPR BE ESg      1347 23.68                             114   -0.2810 20.5 294 
 CRPR BN  IAML    1347 23.68      3836.2 0.40                          20.5 294 
 SJG  BZ EPg      1347 30.21   46                         90   -0.3510 83.2  76 
 SJG  BE ESg      1347 40.65                              90    0.2610 83.2  76 
 HMDR BZ EPg      1348  0.67   76                         90    0.6510  278 290 
 HMDR BE ESg      1348 31.82                              90    0.1710  278 290 
 HMDR BN  IAML    1348 36.97        85.8 0.60                           278 290 
                                                                                
