 2020  9 4 2354 31.2 L  19.738 -71.096 20.1  DOM 15 2.0 3.3LDOM 3.5CDOM 3.2WDOM1
 SPEC AVERAGE  MO 13.9 ST  7.9 OM  3.0 f0 3.14 R0.4681 AL 0.00 WI 20.0 MW  3.2 3
 SPEC SD       MO  0.2 ST  7.2 OM  0.4 f0 1.35 R0.2320 AL      WI      MW  0.1 3
 GAP= 76        5.51       9.9    10.4 12.4 -0.1301E+02 -0.1187E+02  0.5312E+02E
 LOCALITY: 25.2 Km al ENE de Guayubin. Montecristi.                            3
 SPEC MCDRBH N MO 13.6 ST 19.0 OM  2.8 f0 5.83 R0.2031 AL-0.00 WI 20.0 MW  3.0 3
 SPEC MCDRBH N T235448 K 0.020 GD 64.4 VS 3.20 DE 2.60 Q0400.0 QA 0.70 Q1 1.00 3
 SPEC SC01BH N MO 13.9 ST  4.7 OM  3.2 f0 2.82 R0.4199 AL-0.00 WI 20.0 MW  3.2 3
 SPEC SC01BH N T235447 K 0.020 GD 55.5 VS 3.20 DE 2.60 Q0400.0 QA 0.70 Q1 1.00 3
 SPEC SODRBH N MO 14.2 ST0.735 OM  3.4 f0 1.17 R1.0120 AL-0.00 WI 20.0 MW  3.4 3
 SPEC SODRBH N T235448 K 0.020 GD 77.3 VS 3.20 DE 2.60 Q0400.0 QA 0.70 Q1 1.00 3
 SPEC SDDRBH N MO 13.8 ST  1.4 OM  2.9 f0 2.01 R0.5891 AL-0.00 WI 20.0 MW  3.1 3
 SPEC SDDRBH N T235455 K 0.020 GD 88.6 VS 3.20 DE 2.60 Q0400.0 QA 0.70 Q1 1.00 3
 SPEC ABDRBH N MO 13.7 ST 11.3 OM  2.7 f0 4.35 R0.2722 AL-0.00 WI 20.0 MW  3.1 3
 SPEC ABDRBH N T2355 6 K 0.020 GD  115 VS 3.20 DE 2.60 Q0400.0 QA 0.70 Q1 1.00 3
 SPEC NEDRBH N MO 13.5 ST  2.7 OM  2.4 f0 3.14 R0.3771 AL-0.00 WI 20.0 MW  3.0 3
 SPEC NEDRBH N T235512 K 0.020 GD  144 VS 3.20 DE 2.60 Q0400.0 QA 0.70 Q1 1.00 3
 SPEC NADRBH N MO 14.1 ST 22.4 OM  3.0 f0 4.09 R0.2895 AL-0.00 WI 20.0 MW  3.3 3
 SPEC NADRBH N T235515 K 0.020 GD  138 VS 3.20 DE 2.60 Q0400.0 QA 0.70 Q1 1.00 3
 SPEC JIDRBH N MO 14.2 ST  1.8 OM  3.0 f0 1.69 R0.7006 AL-0.00 WI 20.0 MW  3.4 3
 SPEC JIDRBH N T235518 K 0.020 GD  160 VS 3.20 DE 2.60 Q0400.0 QA 0.70 Q1 1.00 3
 SPEC BADRBH N MO 14.0 ST 13.3 OM  2.8 f0 3.76 R0.3149 AL-0.00 WI 20.0 MW  3.3 3
 SPEC BADRBH N T235521 K 0.020 GD  168 VS 3.20 DE 2.60 Q0400.0 QA 0.70 Q1 1.00 3
 SPEC GRTKBH N MO 13.8 ST 11.3 OM  2.6 f0 3.93 R0.3013 AL-0.00 WI 20.0 MW  3.2 3
 SPEC GRTKBH N T235524 K 0.020 GD  197 VS 3.20 DE 2.60 Q0400.0 QA 0.70 Q1 1.00 3
 SPEC SMDRBH N MO 13.9 ST  1.4 OM  2.6 f0 1.95 R0.6072 AL-0.00 WI 20.0 MW  3.2 3
 SPEC SMDRBH N T235530 K 0.020 GD  206 VS 3.20 DE 2.60 Q0400.0 QA 0.70 Q1 1.00 3
 SPEC HIDRBH N MO 13.7 ST 12.1 OM  2.3 f0 4.50 R0.2631 AL-0.00 WI 20.0 MW  3.1 3
 SPEC HIDRBH N T235544 K 0.020 GD  281 VS 3.20 DE 2.60 Q0400.0 QA 0.70 Q1 1.00 3
 SPEC PCDRBH N MO 13.8 ST0.624 OM  2.3 f0 1.61 R0.7354 AL-0.00 WI 20.0 MW  3.1 3
 SPEC PCDRBH N T235554 K 0.020 GD  316 VS 3.20 DE 2.60 Q0400.0 QA 0.70 Q1 1.00 3
 2020-09-04-2354-00S.MAN___123                                                 6
 OLDACT:ARG 20-09-05 00:08 OP:plst STATUS:               ID:20200904235400     3
 ACTION:UP  22-06-23 12:36 OP:jmlc STATUS:               ID:20200904235431 L   I
 OLDACT:UP  20-09-05 00:19 OP:CGRS STATUS:               ID:20200904235400     3
 OLDACT:UP  20-09-05 00:19 OP:CGRS STATUS:               ID:20200904235400     3
 OLDACT:UP  20-09-05 00:19 OP:CGRS STATUS:               ID:20200904235400     3
 OLDACT:UP  20-09-05 00:18 OP:CGRS STATUS:               ID:20200904235400     3
 STAT SP IPHASW D HRMM SECON CODA AMPLIT PERI AZIMU VELO AIN AR TRES W  DIS CAZ7
 LODA EZ IP     C 2354 45.09   64                         90                    
 LODA BN  IAML    2354 55.74      2734.1 0.44                                   
 LUDR BZ IP     C 2354 38.50   92                        127    1.2410 22.8  41 
 LUDR BE IS     C 2354 41.56                             127   -0.3410 22.8  41 
 SC01 BZ IP     C 2354 44.18   81                         64    2.1710 51.7 132 
 SC01 BN IS       2354 49.33                              64   -0.9210 51.7 132 
 SC01 BN  IAML    2354 54.58      1369.0 0.20                          51.7 132 
 MCDR BZ IP     C 2354 43.44  100                         64   -0.1210 61.2 286 
 MCDR BN  IAML    2354 53.14      1017.7 0.45                          61.2 286 
 SODR BZ IP     C 2354 45.30   68                         64   -0.4910 74.6  89 
 SODR BN IS     C 2354 50.46                              64   -6.4510 74.6  89 
 SODR BN  IAML    2355 12.03      1129.0 0.70                          74.6  89 
 SDDR BZ IP     C 2354 48.47   73                         64    0.6510 86.3 194 
 SDDR BN IS     C 2354 56.87                              64   -3.6110 86.3 194 
 SDDR BN  IAML    2355  1.07       957.0 0.40                          86.3 194 
 ABDR BZ IP     C 2354 53.06   70                         53    0.4410  114 154 
 ABDR BN IS     C 2355  7.59                              53   -1.3410  114 154 
 ABDR BN  IAML    2355  9.79       538.5 0.30                           114 154 
 NADR BZ IP     C 2354 57.15   79                         53    1.5510  137 108 
 NADR BN IS     C 2355 16.56                              53    2.3910  137 108 
 NADR BN  IAML    2355 21.06      1584.7 0.30                           137 108 
 NEDR BZ IP     C 2354 57.47   60                         46    1.0110  143 194 
 NEDR BN IS     C 2355 13.97                              46   -1.7210  143 194 
 NEDR BN  IAML    2355 17.65       318.2 0.25                           143 194 
 JIDR BZ IP     C 2354 59.99   79                         46    1.3710  159 210 
 JIDR BN  IAML    2355 22.70       335.8 0.65                           159 210 
 BADR BZ IP     C 2355  1.64   84                         46    1.7610  167 152 
 BADR BN  IAML    2355 30.21       462.1 0.35                           167 152 
 GRTK BZ IP     C 2355  2.70   83                         42   -0.7810  196 359 
 GRTK BN IS     C 2355 25.82                              42   -2.2210  196 359 
 GRTK BN  IAML    2355 27.69       339.6 0.30                           196 359 
 SMDR BZ IP     C 2355  6.58   75                         42    1.8710  206 104 
 SMDR BN IS     C 2355 31.74                              42    1.5310  206 104 
 SMDR BN  IAML    2355 45.29       156.8 0.40                           206 104 
 HIDR BZ IP     C 2355 15.63   89                         42    1.6610  281 116 
 HIDR BN IS     C 2355 45.53                              42   -0.9710  281 116 
 HIDR BN  IAML    2355 57.90       275.0 0.25                           281 116 
 PCDR BN IS     C 2355 55.54                              42    1.3110  316 115 
 PCDR BN  IAML    2356 23.42       102.3 1.90                           316 115 
                                                                                
 2020  9 5 0138 41.0 L  19.773 -71.212 20.1  DOM 10 1.1 2.2LDOM 3.2CDOM 2.4WDOM1
 SPEC AVERAGE  MO 12.7 ST  2.2 OM  2.2 f0 4.38 R0.3395 AL 0.00 WI 20.0 MW  2.4 3
 SPEC SD       MO  0.4 ST  3.4 OM  0.7 f0 2.49 R0.1282 AL      WI      MW  0.2 3
 GAP= 77        3.07       5.4     5.0  7.5 -0.2199E+01  0.7314E+01  0.1149E+02E
 LOCALITY: 17.2 Km al OSO de Villa Isabela. Puerto Plata.                      3
 SPEC REDRBH N MO 12.6 ST  8.9 OM  1.8 f0 9.15 R0.1294 AL-0.00 WI 20.0 MW  2.4 3
 SPEC REDRBH N T 139 4 K 0.020 GD 77.8 VS 3.20 DE 2.60 Q0400.0 QA 0.70 Q1 1.00 3
 SPEC SDDRBH N MO 12.7 ST0.199 OM  1.8 f0 2.45 R0.4833 AL-0.00 WI 20.0 MW  2.4 3
 SPEC SDDRBH N T 139 7 K 0.020 GD 90.5 VS 3.20 DE 2.60 Q0400.0 QA 0.70 Q1 1.00 3
 SPEC NADRBH N MO 13.3 ST  1.4 OM  2.2 f0 2.94 R0.4027 AL-0.00 WI 20.0 MW  2.8 3
 SPEC NADRBH N T 13926 K 0.020 GD  151 VS 3.20 DE 2.60 Q0400.0 QA 0.70 Q1 1.00 3
 SPEC JIDRBH N MO 12.6 ST0.260 OM  1.5 f0 2.80 R0.4229 AL-0.00 WI 20.0 MW  2.4 3
 SPEC JIDRBH N T 13925 K 0.020 GD  158 VS 3.20 DE 2.60 Q0400.0 QA 0.70 Q1 1.00 3
 SPEC SMDRBH N MO 12.2 ST0.394 OM  0.9 f0 4.57 R0.2591 AL-0.00 WI 20.0 MW  2.1 3
 SPEC SMDRBH N T 13940 K 0.020 GD  219 VS 3.20 DE 2.60 Q0400.0 QA 0.70 Q1 1.00 3
 2020-09-05-0138-00S.MAN___123                                                 6
 OLDACT:ARG 20-09-05 01:49 OP:plst STATUS:               ID:20200905013800     3
 ACTION:UP  22-06-23 12:36 OP:jmlc STATUS:               ID:20200905013841 L   I
 OLDACT:UP  20-09-05 01:59 OP:CGRS STATUS:               ID:20200905013800     3
 OLDACT:UP  20-09-05 01:58 OP:CGRS STATUS:               ID:20200905013800     3
 STAT SP IPHASW D HRMM SECON CODA AMPLIT PERI AZIMU VELO AIN AR TRES W  DIS CAZ7
 LUDR BZ IP     C  138 48.05   34                        118   -0.1510 30.2  64 
 LUDR BE IS     C  138 52.61                             118   -1.1010 30.2  64 
 MCDR BZ IP     C  138 52.84   60                         64    1.6010 48.5 286 
 MCDR BN IS     C  138 57.68                              64   -1.3810 48.5 286 
 MCDR BN  IAML     139 40.73        96.5 1.00                          48.5 286 
 SC01 BZ IP     C  138 53.89   51                         64    0.1010 63.6 127 
 SC01 BN IS     C  139  2.93                              64   -0.6010 63.6 127 
 SC01 BN  IAML     139  3.93        87.7 0.20                          63.6 127 
 REDR BZ IP     D  138 56.62   86                         64    0.8210 75.2 223 
 REDR BN IS     C  139  6.34                              64   -0.7410 75.2 223 
 REDR BN  IAML     139  7.69       133.8 0.25                          75.2 223 
 SDDR BZ IP     C  138 58.12   53                         64    0.1810 88.2 185 
 SDDR BN IS     C  139  9.33                              64   -1.5110 88.2 185 
 SDDR BN  IAML     139 10.43        64.2 0.35                          88.2 185 
 NEDR BZ IP     C  139  7.28   59                         46    0.8210  144 189 
 NEDR BN IS     C  139 27.01                              46    1.1610  144 189 
 NEDR BN  IAML     139 53.36        33.0 1.45                           144 189 
 NADR BZ IP     C  139  9.04   60                         46    1.8710  150 108 
 NADR BN IS     C  139 27.71                              46    0.6210  150 108 
 NADR BN  IAML     139 30.41       121.9 0.35                           150 108 
 JIDR BZ IP     C  139  9.04   71                         46    0.9110  157 206 
 JIDR BN IS     C  139 27.23                              46   -1.5610  157 206 
 JIDR BN  IAML     139 47.75        33.9 3.50                           157 206 
 GRTK BZ IP     C  139 14.32   63                         42    1.5110  193   2 
 GRTK BN IS     C  139 35.46                              42   -1.5510  193   2 
 GRTK BN  IAML     139 54.66        71.4 0.10                           193   2 
 SMDR BN IS     C  139 41.80                              42   -0.9910  219 104 
 SMDR BN  IAML     139 58.18        24.9 0.80                           219 104 
                                                                                
 2020  9 5 0408 12.1 L  18.123 -67.529 40.1  DOM 10 1.1 3.4LDOM 3.8CDOM 3.3WDOM1
 SPEC AVERAGE  MO 14.1 ST 17.5 OM  3.1 f0 3.97 R0.4286 AL 0.00 WI 20.0 MW  3.3 3
 SPEC SD       MO  0.3 ST 14.1 OM  0.5 f0 1.31 R0.2934 AL      WI      MW  0.2 3
 GAP=171        3.07      13.0     6.5 20.9  0.2655E+02  0.8791E+02 -0.9855E+01E
 SPEC PRSNBH N MO 14.2 ST 21.1 OM  3.3 f0 4.15 R0.3281 AL-0.00 WI 20.0 MW  3.4 3
 SPEC PRSNBH N T 4 829 K 0.020 GD 58.0 VS 3.68 DE 2.81 Q0400.0 QA 0.70 Q1 1.00 3
 SPEC CRPRBH N MO 14.5 ST 30.1 OM  3.5 f0 3.90 R0.3491 AL-0.00 WI 20.0 MW  3.6 3
 SPEC CRPRBH N T 4 829 K 0.020 GD 62.8 VS 3.68 DE 2.81 Q0400.0 QA 0.70 Q1 1.00 3
 SPEC MLPRBH N MO 13.7 ST  6.5 OM  2.7 f0 4.23 R0.3219 AL-0.00 WI 20.0 MW  3.1 3
 SPEC MLPRBH N T 4 829 K 0.020 GD 67.3 VS 3.68 DE 2.81 Q0400.0 QA 0.70 Q1 1.00 3
 SPEC AGPRBH N MO 14.0 ST 36.7 OM  3.0 f0 5.87 R0.2320 AL-0.00 WI 20.0 MW  3.3 3
 SPEC AGPRBH N T 4 831 K 0.020 GD 71.0 VS 3.68 DE 2.81 Q0400.0 QA 0.70 Q1 1.00 3
 SPEC AOPRBH N MO 14.3 ST 36.8 OM  3.2 f0 4.58 R0.2973 AL-0.00 WI 20.0 MW  3.5 3
 SPEC AOPRBH N T 4 837 K 0.020 GD 94.5 VS 3.68 DE 2.81 Q0400.0 QA 0.70 Q1 1.00 3
 SPEC PCDRBH N MO 14.5 ST0.673 OM  3.3 f0 1.07 R1.2725 AL-0.00 WI 20.0 MW  3.6 3
 SPEC PCDRBH N T 4 840 K 0.020 GD  107 VS 3.68 DE 2.81 Q0400.0 QA 0.70 Q1 1.00 3
 SPEC CELPBH N MO 13.8 ST  7.5 OM  2.6 f0 4.07 R0.3345 AL-0.00 WI 20.0 MW  3.1 3
 SPEC CELPBH N T 4 842 K 0.020 GD  108 VS 3.68 DE 2.81 Q0400.0 QA 0.70 Q1 1.00 3
 SPEC HIDRBH N MO 14.0 ST 29.7 OM  2.7 f0 5.47 R0.2489 AL-0.00 WI 20.0 MW  3.3 3
 SPEC HIDRBH N T 4 850 K 0.020 GD  141 VS 3.68 DE 2.81 Q0400.0 QA 0.70 Q1 1.00 3
 SPEC SMDRBH N MO 13.9 ST  2.1 OM  2.4 f0 2.44 R0.5580 AL-0.00 WI 20.0 MW  3.2 3
 SPEC SMDRBH N T 4 9 9 K 0.020 GD  221 VS 3.68 DE 2.81 Q0400.0 QA 0.70 Q1 1.00 3
 SPEC SDD BH N MO 13.6 ST  4.1 OM  2.0 f0 3.96 R0.3438 AL-0.00 WI 20.0 MW  3.0 3
 SPEC SDD BH N T 4 915 K 0.020 GD  258 VS 3.68 DE 2.81 Q0400.0 QA 0.70 Q1 1.00 3
 LOCALITY: 104.6 Km al ESE de Punta Cana. Canal de la Mona.                    3
 2020-09-05-0408-00S.MAN___123                                                 6
 OLDACT:ARG 20-09-05 12:58 OP:plst STATUS:               ID:20200905040800     3
 OLDACT:UP  20-09-05 13:07 OP:CGRS STATUS:               ID:20200905040800     3
 OLDACT:UP  20-09-05 13:05 OP:CGRS STATUS:               ID:20200905040800     3
 ACTION:UP  22-06-23 12:36 OP:jmlc STATUS:               ID:20200905040812 L   I
 OLDACT:UP  20-09-05 13:11 OP:CGRS STATUS:               ID:20200905040800     3
 OLDACT:UP  20-09-05 13:11 OP:CGRS STATUS:               ID:20200905040800     3
 OLDACT:UP  20-09-05 13:10 OP:CGRS STATUS:               ID:20200905040800     3
 STAT SP IPHASW D HRMM SECON CODA AMPLIT PERI AZIMU VELO AIN AR TRES W  DIS CAZ7
 PRSN BZ IP     C  4 8 23.98  111                        123    1.5710 41.9  75 
 PRSN BN IS     C  4 8 30.58                             123    0.3610 41.9  75 
 PRSN BN  IAML     4 8 36.72      5843.1 0.24                          41.9  75 
 CRPR BZ IP     C  4 8 23.94   97                        118    0.7210 48.3 105 
 CRPR BN IS     C  4 8 31.00                             118   -0.6410 48.3 105 
 CRPR BN  IAML     4 8 31.64      8920.9 0.32                          48.3 105 
 MLPR BZ IP     C  4 8 24.54   94                         65    0.5910 54.0 108 
 MLPR BN IS     C  4 8 30.93                              65   -2.0110 54.0 108 
 MLPR BN  IAML     4 8 35.07      1099.7 0.36                          54.0 108 
 AGPR BZ IP     D  4 8 26.28   91                         65    1.7010 58.6  49 
 AGPR BN IS     C  4 8 32.58                              65   -1.4710 58.6  49 
 AGPR BN  IAML     4 8 35.86      3103.1 0.24                          58.6  49 
 AOPR BZ IP     D  4 8 29.14  116                         65    0.9110 85.6  73 
 AOPR BN IS     C  4 8 38.99                              65   -1.4710 85.6  73 
 AOPR BN  IAML     4 8 42.07      4429.8 0.24                          85.6  73 
 PCDR BZ IP     C  4 8 30.78  124                         65    0.6810100.0 296 
 PCDR BN IS     C  4 8 42.27                              65   -1.4910100.0 296 
 PCDR BN  IAML     4 8 56.77       575.1 0.50                         100.0 296 
 CELP BZ IP     C  4 8 31.06  123                         65    0.8110  101  93 
 CELP BN IS     C  4 8 43.81                              65   -0.2210  101  93 
 CELP BN  IAML     4 8 46.31       654.2 0.32                           101  93 
 HIDR BZ IP     C  4 8 35.14  130                         65    0.2610  136 293 
 HIDR BN IS     C  4 8 51.78                              65   -0.3910  136 293 
 HIDR BN  IAML     4 8 52.13      1296.8 0.25                           136 293 
 SMDR BN IS     C  4 9 11.28                              58    0.9810  218 307 
 SMDR BN  IAML     4 9 29.00       120.8 0.90                           218 307 
 SDD  BZ IP     C  4 8 50.78  111                         58    0.9010  255 279 
 SDD  BN IS     C  4 9 16.79                              58   -1.7810  255 279 
 SDD  BN  IAML     4 9 30.64        86.1 1.10                           255 279 
                                                                                
 2020  9 5 0456 40.6 L  18.061 -68.048 79.2  DOM  7 1.1 2.3LDOM 3.4CDOM 2.3WDOM1
 SPEC AVERAGE  MO 12.5 ST  2.9 OM  1.4 f0 7.77 R0.2965 AL 0.00 WI 20.0 MW  2.3 3
 SPEC SD       MO  0.2 ST  4.7 OM  0.7 f0 4.55 R0.1637 AL      WI      MW  0.1 3
 GAP=218        2.87      30.2    10.9 13.0  0.2588E+03  0.2229E+02 -0.7525E+01E
 LOCALITY: 74.9 Km al ESE de Mano Juan Isla Saona. Mar Caribe.                 3
 SPEC PCDRBH N MO 12.6 ST0.091 OM  1.1 f0 2.86 R0.5822 AL-0.00 WI 20.0 MW  2.4 3
 SPEC PCDRBH N T 457 5 K 0.020 GD  100 VS 4.50 DE 3.40 Q0400.0 QA 0.70 Q1 1.00 3
 SPEC HIDRBH N MO 12.5 ST 12.2 OM  0.9 f0 16.0 R0.1041 AL-0.00 WI 20.0 MW  2.3 3
 SPEC HIDRBH N T 45711 K 0.020 GD  121 VS 4.50 DE 3.40 Q0400.0 QA 0.70 Q1 1.00 3
 SPEC AGPRBH N MO 12.6 ST  1.1 OM  1.0 f0 6.36 R0.2618 AL-0.00 WI 20.0 MW  2.4 3
 SPEC AGPRBH N T 45713 K 0.020 GD  134 VS 4.50 DE 3.40 Q0400.0 QA 0.70 Q1 1.00 3
 SPEC CELPBH N MO 12.1 ST0.743 OM  0.3 f0 8.83 R0.1886 AL-0.00 WI 20.0 MW  2.0 3
 SPEC CELPBH N T 45723 K 0.020 GD  174 VS 4.50 DE 3.40 Q0400.0 QA 0.70 Q1 1.00 3
 SPEC SMDRBH N MO 12.6 ST0.431 OM  0.8 f0 4.81 R0.3462 AL-0.00 WI 20.0 MW  2.4 3
 SPEC SMDRBH N T 45729 K 0.020 GD  198 VS 4.50 DE 3.40 Q0400.0 QA 0.70 Q1 1.00 3
 2020-09-05-0456-00S.MAN___123                                                 6
 OLDACT:ARG 20-09-05 12:15 OP:plst STATUS:               ID:20200905045600     3
 ACTION:UP  22-06-23 12:36 OP:jmlc STATUS:               ID:20200905045640 L   I
 OLDACT:UP  20-09-05 13:19 OP:CGRS STATUS:               ID:20200905045600     3
 OLDACT:UP  20-09-05 13:19 OP:CGRS STATUS:               ID:20200905045600     3
 OLDACT:UP  20-09-05 13:18 OP:CGRS STATUS:               ID:20200905045600     3
 STAT SP IPHASW D HRMM SECON CODA AMPLIT PERI AZIMU VELO AIN AR TRES W  DIS CAZ7
 PCDR BZ IP     C  456 55.91   69                        135    0.1510 61.3 325 
 PCDR BN IS     C  457  7.43                             135    0.1410 61.3 325 
 PCDR BN  IAML     457 22.23       103.2 2.05                          61.3 325 
 HIDR BZ IP     C  456 57.77   60                        122   -0.9810 91.8 310 
 HIDR BN IS     C  457 12.56                             122    0.0010 91.8 310 
 HIDR BN  IAML     457 13.63        30.5 0.20                          91.8 310 
 AGPR BZ IP     C  457  3.68   61                        116    3.0510  109  65 
 AGPR BN IS     C  457 15.38                             116   -0.4910  109  65 
 AGPR BN  IAML     457 51.74        72.8 2.52                           109  65 
 AOPR BN IS     C  457 21.37                             109   -0.9410  141  77 
 AOPR BN  IAML     457 24.33        35.5 0.32                           141  77 
 CELP BZ IP     C  457  6.22   73                        107    0.1510  156  89 
 CELP BE IS     C  457 24.65                             107   -0.8010  156  89 
 CELP BN  IAML     457 27.15        10.5 3.28                           156  89 
 SMDR BN IS     C  457 31.23                              69    0.5410  182 319 
 SMDR BN  IAML     458  7.45        38.1 1.60                           182 319 
 NADR BN IS        457 41.45                              69   -0.8210  238 307 
 NADR BN  IAML     458  5.50       101.4 2.55                           238 307 
                                                                                
