 2020  8 2 0829 41.1 L  19.925 -70.968 10.0  DOM  7 0.8 1.9LDOM 3.0CDOM 2.1WDOM1
 LOCALITY: 3.8 Km al Norte de Luperon. Oceano Atlantico.                       3
 SPEC AVERAGE  MO 12.3 ST  3.7 OM  1.3 f0 7.37 R0.2292 AL 0.00 WI 20.0 MW  2.1 3
 SPEC SD       MO  0.0 ST  3.5 OM  0.0 f0 4.03 R0.1253 AL      WI      MW  0.0 3
 GAP=127        2.16       5.7     7.0  7.2 -0.1066E+02  0.2620E+02 -0.1617E+02E
 SPEC REDRBH N MO 12.3 ST  7.2 OM  1.3 f0 11.4 R0.1039 AL-0.00 WI 20.0 MW  2.1 3
 SPEC REDRBH N T 830 8 K 0.020 GD  102 VS 3.20 DE 2.60 Q0400.0 QA 0.70 Q1 1.00 3
 SPEC SDDRBH N MO 12.3 ST0.184 OM  1.3 f0 3.34 R0.3545 AL-0.00 WI 20.0 MW  2.1 3
 SPEC SDDRBH N T 83011 K 0.020 GD  104 VS 3.20 DE 2.60 Q0400.0 QA 0.70 Q1 1.00 3
 2020-08-02-0829-00S.MAN___114                                                 6
 OLDACT:UP  20-08-02 10:45 OP:CGRS STATUS:               ID:20200802082900     3
 OLDACT:ARG 20-08-02 10:30 OP:plst STATUS:               ID:20200802082900     3
 ACTION:UPD 20-09-29 11:31 OP:jmlc STATUS:               ID:20200802082900     I
 OLDACT:UP  20-08-02 10:47 OP:CGRS STATUS:               ID:20200802082900     3
 OLDACT:UP  20-08-02 10:46 OP:CGRS STATUS:               ID:20200802082900     3
 STAT SP IPHASW D HRMM SECON CODA AMPLIT PERI AZIMU VELO AIN AR TRES W  DIS CAZ7
 LUDR BZ IP     C  829 41.83   36                        149   -0.5310 3.87 157 
 LUDR BE IS     C  829 44.14                             149    0.8910 3.87 157 
 MADR BN IS     C  829 53.19                              99    0.0610 42.2 200 
 MADR BN  IAML     830 16.62        79.2 2.85                          42.2 200 
 SODR BN IS     C  829 53.19                              98   -0.7810 45.2 115 
 SODR BE IS     C  829 56.71                              90           45.2 115 
 SODR BN  IAML     830  8.24       111.9 1.05                          45.2 115 
 SC01 BN IS     C  829 58.83                              96    0.5710 60.6 155 
 SC01 BN  IAML     830 17.31        60.9 2.25                          60.6 155 
 REDR BZ IP     C  829 57.12   66                         70   -0.9910  105 227 
 REDR BN IS     C  830 10.28                              70   -0.3810  105 227 
 REDR BN  IAML     830 12.15        42.8 0.20                           105 227 
 SDDR BZ IP     C  829 57.77   43                         70   -1.0410  110 198 
 SDDR BN  IAML     830 13.07        24.9 0.30                           110 198 
 SDDR BN IS     C  830 13.27                              70    1.3810  110 198 
 GRTK BN IS     C  830 28.41                              50    0.8110  176 354 
 GRTK BN  IAML     830 55.01        55.4 1.25                           176 354 
                                                                                
 2020  8 2 1054 39.5 L  17.815 -66.854 16.0  DOM  5 0.2 2.9LDOM 2.9CDOM 3.0WDOM1
 LOCALITY: 33.5 Km al SO de Ponce. Region de Puerto Rico.                      3
 SPEC AVERAGE  MO 13.6 ST  9.8 OM  2.5 f0 5.81 R0.2680 AL 0.00 WI 20.0 MW  3.0 3
 SPEC SD       MO  0.4 ST  3.3 OM  0.5 f0 1.11 R0.0640 AL      WI      MW  0.2 3
 GAP=248        0.55       3.3     1.5  5.2 -0.1441E+01  0.1917E+00  0.4143E+01E
 SPEC MLPRBH N MO 13.5 ST  7.8 OM  2.7 f0 5.66 R0.2628 AL-0.00 WI 20.0 MW  2.9 3
 SPEC MLPRBH N T105446 K 0.020 GD 31.3 VS 4.02 DE 3.00 Q0400.0 QA 0.70 Q1 1.00 3
 SPEC CELPBH N MO 13.1 ST  5.5 OM  2.1 f0 7.10 R0.2095 AL-0.00 WI 20.0 MW  2.6 3
 SPEC CELPBH N T105449 K 0.020 GD 44.5 VS 4.02 DE 3.00 Q0400.0 QA 0.70 Q1 1.00 3
 SPEC PRSNBH N MO 13.7 ST 15.0 OM  2.6 f0 6.24 R0.2384 AL-0.00 WI 20.0 MW  3.1 3
 SPEC PRSNBH N T105453 K 0.020 GD 56.6 VS 4.02 DE 3.00 Q0400.0 QA 0.70 Q1 1.00 3
 SPEC AOPRBH N MO 14.2 ST 11.7 OM  3.1 f0 3.80 R0.3914 AL-0.00 WI 20.0 MW  3.4 3
 SPEC AOPRBH N T105455 K 0.020 GD 62.0 VS 4.02 DE 3.00 Q0400.0 QA 0.70 Q1 1.00 3
 SPEC HIDRBH N MO 13.4 ST  9.1 OM  1.8 f0 6.25 R0.2380 AL-0.00 WI 20.0 MW  2.9 3
 SPEC HIDRBH N T105535 K 0.020 GD  215 VS 4.02 DE 3.00 Q0400.0 QA 0.70 Q1 1.00 3
 2020-08-02-1054-00S.MAN___114                                                 6
 OLDACT:ARG 20-08-02 11:41 OP:nr   STATUS:               ID:20200802105400     3
 ACTION:UPD 20-09-29 11:31 OP:jmlc STATUS:               ID:20200802105400     I
 OLDACT:UP  20-08-02 11:44 OP:CGRS STATUS:               ID:20200802105400     3
 STAT SP IPHASW D HRMM SECON CODA AMPLIT PERI AZIMU VELO AIN AR TRES W  DIS CAZ7
 MLPR BZ EPg    C 1054 44.55   29                        119    0.0810 26.4 310 
 MLPR BE ESg    C 1054 48.10                             119   -0.0310 26.4 310 
 MLPR BN  IAML    1054 48.22      1226.8 0.36                          26.4 310 
 CELP BZ EPg    D 1054 46.84   37                        107    0.2810 41.2  46 
 CELP BE ESg    C 1054 51.42                             107   -0.3510 41.2  46 
 CELP BN  IAML    1054 52.94       418.4 0.16                          41.2  46 
 PRSN BZ EPg    C 1054 48.62   47                        101    0.1710 54.1 325 
 PRSN BE ESg    C 1054 55.26                             101    0.1910 54.1 325 
 PRSN BN  IAML    1055  0.12      1644.9 0.24                          54.1 325 
 AOPR BZ EPg    D 1054 49.36   51                         99    0.0410 59.7  10 
 AOPR BE ESg    C 1054 56.56                              99   -0.0110 59.7  10 
 AOPR BN  IAML    1054 59.52      2888.9 0.24                          59.7  10 
 HIDR BZ EPg    C 1055 12.62   65                         92   -0.1210  215 294 
 HIDR BE ESg    C 1055 37.06                              92   -0.2610  215 294 
 HIDR BN  IAML    1055 38.36        73.3 0.20                           215 294 
                                                                                
 2020  8 2 1320 21.2 L  18.337 -68.916142.0  DOM 10 0.8 2.9LDOM 3.2CDOM 3.2WDOM1
 LOCALITY: 9.8 Km al Este de Isla Catalina. Mar Caribe.                        3
 SPEC AVERAGE  MO 13.9 ST 46.6 OM  2.1 f0 6.23 R0.3592 AL 0.00 WI 20.0 MW  3.2 3
 SPEC SD       MO  0.1 ST 70.5 OM  0.1 f0 3.52 R0.1836 AL      WI      MW  0.1 3
 GAP=236        2.26      13.7    10.6 17.8  0.1244E+02  0.9238E+01  0.6040E+02E
 SPEC HIDRBH N MO 13.8 ST 28.2 OM  2.1 f0 7.90 R0.2075 AL-0.00 WI 20.0 MW  3.1 3
 SPEC HIDRBH N T132052 K 0.020 GD  146 VS 4.43 DE 3.40 Q0400.0 QA 0.70 Q1 1.00 3
 SPEC SMDRBH N MO 13.8 ST  1.9 OM  2.1 f0 3.01 R0.5446 AL-0.00 WI 20.0 MW  3.2 3
 SPEC SMDRBH N T1321 0 K 0.020 GD  179 VS 4.43 DE 3.40 Q0400.0 QA 0.70 Q1 1.00 3
 SPEC BADRBH N MO 14.0 ST186.2 OM  2.2 f0 12.2 R0.1344 AL-0.00 WI 20.0 MW  3.3 3
 SPEC BADRBH N T1321 6 K 0.020 GD  209 VS 4.43 DE 3.40 Q0400.0 QA 0.70 Q1 1.00 3
 SPEC SC01BH N MO 14.0 ST 15.5 OM  2.1 f0 5.30 R0.3093 AL-0.00 WI 20.0 MW  3.3 3
 SPEC SC01BH N T132117 K 0.020 GD  267 VS 4.43 DE 3.40 Q0400.0 QA 0.70 Q1 1.00 3
 SPEC SDDRBH N MO 13.8 ST  1.2 OM  1.8 f0 2.73 R0.6004 AL-0.00 WI 20.0 MW  3.1 3
 SPEC SDDRBH N T132124 K 0.020 GD  296 VS 4.43 DE 3.40 Q0400.0 QA 0.70 Q1 1.00 3
 2020-08-02-1320-00S.MAN___114                                                 6
 OLDACT:ARG 20-08-02 13:25 OP:nr   STATUS:               ID:20200802132000     3
 ACTION:UPD 20-09-29 11:31 OP:jmlc STATUS:               ID:20200802132000     I
 OLDACT:UP  20-08-02 13:46 OP:CGRS STATUS:               ID:20200802132000     3
 STAT SP IPHASW D HRMM SECON CODA AMPLIT PERI AZIMU VELO AIN AR TRES W  DIS CAZ7
 HIDR BZ EPg    C 1320 39.80   37                        165   -0.0210 35.2  37 
 HIDR BN  IAML    1320 59.56       429.5 0.25                          35.2  37 
 SMDR BZ EPg    C 1320 42.51   44                        140   -1.3910  109 345 
 SMDR BE ESg    C 1321  2.15                             140    1.4310  109 345 
 SMDR BN  IAML    1321  8.60       124.0 0.50                           109 345 
 BADR BZ EPg    C 1320 45.91   50                        130   -1.7910  153 273 
 BADR BE ESg    C 1321  7.85                             130    0.5310  153 273 
 BADR BN  IAML    1321 12.57       243.1 0.45                           153 273 
 CADR BZ EPg    C 1320 49.96   42                        124   -0.3810  182 324 
 CADR BE ESg    C 1321 11.42                             124   -0.5110  182 324 
 CADR BN  IAML    1321 14.67       172.2 0.50                           182 324 
 ABDR BZ EPg    C 1320 51.73   42                        124    0.4710  188 286 
 ABDR BE ESg    C 1321 13.54                             124    0.0210  188 286 
 ABDR BN  IAML    1321 46.54         0.2 0.25                           188 286 
 SC01 BZ EPg    C 1320 54.97   53                        118    0.2310  226 303 
 SC01 BE ESg    C 1321 19.43                             118   -0.1610  226 303 
 SC01 BN  IAML    1321 21.73       269.0 0.25                           226 303 
 SODR BZ EPg    C 1320 55.30   60                        117   -0.3410  235 312 
 SODR BE ESg    C 1321 20.45                             117   -0.7110  235 312 
 SODR BN  IAML    1321 31.52       151.4 0.65                           235 312 
 SDDR BZ EPg    C 1320 59.21   52                        114    0.7710  260 286 
 SDDR BE ESg    C 1321 26.07                             114    0.0510  260 286 
 SDDR BN  IAML    1321 33.79        46.7 0.65                           260 286 
 MADR BZ EPg    C 1320 59.57   51                        114    0.4310  267 301 
 MADR BE ESg    C 1321 27.00                             114   -0.2410  267 301 
 MADR BN  IAML    1321 31.68       219.6 0.35                           267 301 
 LUDR BZ EPg    C 1321  1.82   56                        113    1.8710  275 309 
 LUDR BE ESg    C 1321 28.37                             113   -0.2710  275 309 
                                                                                
 2020  8 2 1608  7.8 L  20.168 -70.640 23.0  DOM  6 0.5 2.4LDOM 3.0CDOM 3.0WDOM1
 LOCALITY: 42.7 Km al Norte de Puerto Plata. Oceano Atlantico.                 3
 SPEC AVERAGE  MO 13.6 ST0.668 OM  2.1 f0 2.72 R1.4993 AL 0.00 WI 20.0 MW  3.0 3
 SPEC SD       MO  0.7 ST0.789 OM  0.9 f0 2.19 R1.3524 AL      WI      MW  0.5 3
 GAP=190        1.43       3.1     5.3 13.0  0.5297E+01 -0.1327E+02 -0.1307E+02E
 SPEC SODRBH N MO 14.6 ST0.045 OM  3.4 f00.484 R3.3866 AL-0.00 WI 20.0 MW  3.7 3
 SPEC SODRBH N T16 820 K 0.020 GD 51.9 VS 4.43 DE 3.34 Q0400.0 QA 0.70 Q1 1.00 3
 SPEC GRTKBH N MO 13.0 ST  1.8 OM  1.3 f0 5.70 R0.2876 AL-0.00 WI 20.0 MW  2.6 3
 SPEC GRTKBH N T16 849 K 0.020 GD  158 VS 4.43 DE 3.34 Q0400.0 QA 0.70 Q1 1.00 3
 SPEC PODRBH N MO 13.4 ST0.177 OM  1.5 f0 1.99 R0.8237 AL-0.00 WI 20.0 MW  2.8 3
 SPEC PODRBH N T16 9 9 K 0.020 GD  233 VS 4.43 DE 3.34 Q0400.0 QA 0.70 Q1 1.00 3
 2020-08-02-1607-00S.MAN___114                                                 6
 OLDACT:ARG 20-08-02 16:13 OP:nr   STATUS:               ID:20200802160700     3
 ACTION:UPD 20-09-29 11:31 OP:jmlc STATUS:               ID:20200802160700     I
 OLDACT:UP  20-08-02 16:24 OP:CGRS STATUS:               ID:20200802160700     3
 STAT SP IPHASW D HRMM SECON CODA AMPLIT PERI AZIMU VELO AIN AR TRES W  DIS CAZ7
 LUDR BZ EPg    C 16 8 15.50   38                        114   -0.1310 44.7 227 
 LUDR BE ESg    C 16 8 21.77                             114    0.3210 44.7 227 
 SODR BZ EPg    C 16 8 16.24   46                        113    0.3610 46.5 172 
 SODR BE ESg    C 16 8 22.46                             113    0.5910 46.5 172 
 SODR BN  IAML    16 8 37.91       220.4 1.00                          46.5 172 
 MCDR BZ EPg    C 16 8 25.40   44                         98    0.0810  111 254 
 MCDR BE ESg    C 16 8 37.97                              98   -0.3510  111 254 
 MCDR BN  IAML    16 9 14.12        38.8 2.15                           111 254 
 GRTK BZ EPg    C 16 8 31.73   54                         95   -0.6110  157 341 
 GRTK BE ESg    C 16 8 51.18                              95    0.6610  157 341 
 GRTK BN  IAML    16 8 55.06        63.0 1.60                           157 341 
 BADR BZ EPg    C 16 8 38.25   46                         94   -0.3110  198 171 
 BADR BE ESg    C 16 9  0.13                              94   -1.2210  198 171 
 BADR BN  IAML    16 9 42.06        52.8 1.80                           198 171 
 PODR BZ EPg    C 16 8 43.71   42                         93    0.0410  232 197 
 PODR BE ESg    C 16 9 10.81                              93    0.5810  232 197 
 PODR BN  IAML    16 9 26.41        47.0 1.75                           232 197 
                                                                                
 2020  8 2 1637 13.6 L  19.716 -71.947 52.0  DOM  7 0.7 2.5LDOM 2.8CDOM 2.7WDOM1
 LOCALITY: 20.8 Km al Oeste de Pepillo Salcedo. Region Haiti.                  3
 SPEC AVERAGE  MO 13.2 ST 61.9 OM  1.7 f0 12.9 R0.1522 AL 0.00 WI 20.0 MW  2.7 3
 SPEC SD       MO  0.3 ST 48.7 OM  0.4 f0 4.35 R0.0676 AL      WI      MW  0.2 3
 GAP=260        1.84       7.2    12.3 12.0 -0.3371E+02 -0.1580E+02  0.3221E+02E
 SPEC MCDRBH N MO 13.2 ST 62.8 OM  1.9 f0 15.9 R0.1047 AL-0.00 WI 20.0 MW  2.8 3
 SPEC MCDRBH N T163728 K 0.020 GD 63.5 VS 4.50 DE 3.40 Q0400.0 QA 0.70 Q1 1.00 3
 SPEC REDRBH N MO 13.5 ST121.0 OM  2.1 f0 16.0 R0.1041 AL-0.00 WI 20.0 MW  2.9 3
 SPEC REDRBH N T163730 K 0.020 GD 75.9 VS 4.50 DE 3.40 Q0400.0 QA 0.70 Q1 1.00 3
 SPEC SDDRBH N MO 12.8 ST  1.8 OM  1.2 f0 6.72 R0.2478 AL-0.00 WI 20.0 MW  2.5 3
 SPEC SDDRBH N T163740 K 0.020 GD  119 VS 4.50 DE 3.40 Q0400.0 QA 0.70 Q1 1.00 3
 2020-08-02-1637-00S.MAN___114                                                 6
 OLDACT:ARG 20-08-02 16:42 OP:nr   STATUS:               ID:20200802163700     3
 ACTION:UPD 20-09-29 11:31 OP:jmlc STATUS:               ID:20200802163700     I
 OLDACT:UP  20-08-02 16:52 OP:CGRS STATUS:               ID:20200802163700     3
 STAT SP IPHASW D HRMM SECON CODA AMPLIT PERI AZIMU VELO AIN AR TRES W  DIS CAZ7
 MCDR BZ EPg    C 1637 21.65   35                        140   -0.8810 36.1  57 
 MCDR BE ESg    C 1637 30.09                             140    0.9410 36.1  57 
 MCDR BN  IAML    1637 31.01       251.7 0.10                          36.1  57 
 REDR BZ EPg    C 1637 24.87   35                        126    0.5510 55.0 152 
 REDR BE ESg    C 1637 31.83                             126   -0.4210 55.0 152 
 REDR BN  IAML    1637 32.18       579.3 0.15                          55.0 152 
 MADR BZ EPg    C 1637 28.41   34                        108    0.3710 90.1 100 
 MADR BE ESg    C 1637 37.75                             108   -0.9810 90.1 100 
 MADR BN  IAML    1638 10.90        75.5 3.30                          90.1 100 
 LUDR BZ EPg    C 1637 29.38   31                        103   -0.5110  106  79 
 LUDR BE ESg    C 1637 42.65                             103    0.7110  106  79 
 SDDR BZ EPg    C 1637 29.15   35                        103   -0.8910  107 140 
 SDDR BE ESg    C 1637 41.94                             103   -0.2710  107 140 
 SDDR BN  IAML    1637 44.47        24.7 0.30                           107 140 
 PODR BZ EPg    C 1637 39.51   53                         92   -0.0910  185 158 
 PODR BE ESg    C 1637 59.90                              92    1.0510  185 158 
 PODR BN  IAML    1638  5.83        45.9 2.35                           185 158 
 HIDR BZ EPg    C 1638  1.25   40                         91    0.4010  362 110 
 HIDR BN  IAML    1639 14.29        88.0 0.10                           362 110 
                                                                                
 2020  8 2 1753 42.5 L  17.260 -68.844 21.0  DOM  7 0.8 2.2LDOM 3.1CDOM 2.1WDOM1
 LOCALITY: 97.3 Km al Sur de Mano Juan Isla Saona. Mar Caribe.                 3
 SPEC AVERAGE  MO 12.2 ST0.836 OM  0.4 f0 7.60 R0.2111 AL 0.00 WI 20.0 MW  2.1 3
 SPEC SD       MO  0.1 ST0.001 OM  0.0 f00.565 R0.0157 AL      WI      MW  0.1 3
 GAP=222        2.02      32.8     4.1436.6  0.6638E+02  0.8517E+03  0.1361E+05E
 SPEC MLPRBH N MO 12.2 ST0.837 OM  0.4 f0 8.16 R0.1954 AL-0.00 WI 20.0 MW  2.0 3
 SPEC MLPRBH N T175437 K 0.020 GD  208 VS 4.31 DE 3.24 Q0400.0 QA 0.70 Q1 1.00 3
 SPEC CELPBH N MO 12.3 ST0.835 OM  0.5 f0 7.03 R0.2268 AL-0.00 WI 20.0 MW  2.2 3
 SPEC CELPBH N T175449 K 0.020 GD  257 VS 4.31 DE 3.24 Q0400.0 QA 0.70 Q1 1.00 3
 2020-08-02-1753-00S.MAN___114                                                 6
 OLDACT:ARG 20-08-02 20:38 OP:nr   STATUS:               ID:20200802175300     3
 ACTION:UPD 20-09-29 11:31 OP:jmlc STATUS:               ID:20200802175300     I
 OLDACT:UP  20-08-02 20:52 OP:CGRS STATUS:               ID:20200802175300     3
 STAT SP IPHASW D HRMM SECON CODA AMPLIT PERI AZIMU VELO AIN AR TRES W  DIS CAZ7
 HIDR BZ EPg    C 1754  7.01   33                         95    1.4110  148   5 
 HIDR BE ESg    C 1754 21.73                              95   -1.0010  148   5 
 HIDR BN  IAML    1754 22.90        82.4 0.25                           148   5 
 BADR BZ EPg    C 1754 14.84   57                         93    0.6810  204 308 
 BADR BE ESg    C 1754 38.01                              93    0.3810  204 308 
 MLPR BZ EPg    C 1754 14.39   53                         93   -0.0610  207  67 
 MLPR BE ESg    C 1754 38.80                              93    0.6810  207  67 
 MLPR BN  IAML    1754 39.26         4.2 0.88                           207  67 
 PRSN BZ EPg    C 1754 15.56   45                         93    0.7310  209  59 
 PRSN BE ESg    C 1754 38.78                              93   -0.0110  209  59 
 PRSN BN  IAML    1754 45.02        30.5 0.20                           209  59 
 AOPR BZ EPg    C 1754 20.00   40                         92   -1.3710  252  61 
 AOPR BN  IAML    1755  3.44        18.9 0.92                           252  61 
 CELP BZ EPg    C 1754 22.00   58                         92   -0.0910  257  69 
 CELP BE ESg    C 1754 51.18                              92   -0.2510  257  69 
 CELP BN  IAML    1754 52.88         4.8 0.28                           257  69 
 PODR BZ EPg    C 1754 24.31   47                         92   -0.9510  277 292 
 PODR BE ESg    C 1754 56.79                              92   -0.1410  277 292 
 PODR BN  IAML    1755 26.89        31.5 3.65                           277 292 
                                                                                
