 2020  3 6 1625 43.10L  18.941 -70.127 18.3  DOM  5 0.7 1.5LDOM 2.7CDOM 2.4WDOM1
 SPEC AVERAGE  MO 12.6 ST  4.3 OM  2.1 f0 9.55 R0.2966 AL 0.00 WI 20.0 MW  2.4 3
 SPEC SD       MO  0.6 ST  3.4 OM  1.1 f0 4.48 R0.2945 AL      WI      MW  0.4 3
 GAP=156        1.77       6.7     5.2 10.7  0.1621E+01  0.2969E+02  0.1431E+02E
 SPEC NAVIBH N MO 13.6 ST0.319 OM  2.9 f0 1.89 R0.8066 AL-0.00 WI 20.0 MW  3.0 3
 SPEC NAVIBH N T162548 K 0.020 GD 21.2 VS 4.12 DE 3.08 Q0400.0 QA 0.70 Q1 0.00 3
 SPEC BADRBH N MO 12.5 ST  7.7 OM  1.3 f0 12.7 R0.1200 AL-0.00 WI 20.0 MW  2.3 3
 SPEC BADRBH N T1626 0 K 0.020 GD 67.4 VS 4.12 DE 3.08 Q0400.0 QA 0.70 Q1 0.00 3
 SPEC HMDRBH N MO 12.0 ST  1.5 OM  0.7 f0 10.9 R0.1399 AL-0.00 WI 20.0 MW  1.9 3
 SPEC HMDRBH N T1626 5 K 0.020 GD 82.6 VS 4.12 DE 3.08 Q0400.0 QA 0.70 Q1 0.00 3
 SPEC REDRBH N MO 12.5 ST  7.8 OM  0.9 f0 12.7 R0.1200 AL-0.00 WI 20.0 MW  2.3 3
 SPEC REDRBH N T162628 K 0.020 GD  170 VS 4.12 DE 3.08 Q0400.0 QA 0.70 Q1 0.00 3
 LOCALITY: 12.8 Km al Sur de Cotui, Sanchez Ramirez.                           3
 2020-03-06-1624-00S.MAN___129                                                 6
 OLDACT:UP  20-03-06 18:20 OP:JMLC STATUS:               ID:20200306162400     3
 OLDACT:ARG 20-03-06 17:37 OP:jmlc STATUS:               ID:20200306162400     3
 OLDACT:UP  20-03-06 18:22 OP:JMLC STATUS:               ID:20200306162400     3
 ACTION:UP  22-01-08 17:50 OP:jmlc STATUS:               ID:20200306162543 L   I
 STAT SP IPHASW D HRMM SECON CODA AMPLIT PERI AZIMU VELO AIN AR TRES W  DIS CAZ7
 NAVI BZ EPg      1625 45.43   23                        149   -1.1410 10.7  79 
 NAVI BE  IAML    1625 46.31      2006.0 0.10                          10.7  79 
 NAVI BE ES       1625 49.86                             149    0.7410 10.7  79 
 NAVI BN  IAML    1625 50.76      2242.5 0.20                          10.7  79 
 ABDR BE ESg    D 1625 58.45                             105   -0.7410 54.5 255 
 ABDR BE  IAML    1625 59.26         0.9 0.25                          54.5 255 
 ABDR BN  IAML    1626  3.07         0.3 0.55                          54.5 255 
 BADR BZ EPg      1625 53.45   38                        101   -0.3410 64.9 202 
 BADR BN ESg    D 1626  2.23                             101    0.5610 64.9 202 
 BADR BE  IAML    1626  2.45        40.0 0.10                          64.9 202 
 BADR BN  IAML    1626  3.73        55.8 0.15                          64.9 202 
 HMDR BZ EPg      1625 56.33   47                         97    0.2510 80.5 102 
 HMDR BN  IAML    1626  8.00        20.1 4.10                          80.5 102 
 REDR BZ EPg      1626  9.36                              93   -0.2210  170 283 
 REDR BN ESg      1626 30.03                              93    0.8810  170 283 
 REDR BE  IAML    1626 31.69        11.1 1.00                           170 283 
 REDR BN  IAML    1626 32.06        20.2 0.15                           170 283 
                                                                                
 2020  3 6 1919  3.20L  19.193 -67.564  0.0  DOM  7 0.6 2.2LDOM 3.2CDOM 2.6WDOM1
 SPEC AVERAGE  MO 12.9 ST  2.3 OM  2.0 f0 4.73 R0.3296 AL 0.00 WI 20.0 MW  2.6 3
 SPEC SD       MO  0.2 ST  2.1 OM  0.4 f0 1.53 R0.1274 AL      WI      MW  0.1 3
 GAP=224        1.46      10.3     5.6999.9  0.4854E+02 -0.1713E+04 -0.1473E+04E
 SPEC AGPRBH N MO 12.9 ST  5.2 OM  1.8 f0 6.99 R0.1964 AL-0.00 WI 20.0 MW  2.6 3
 SPEC AGPRBH N T191927 K 0.020 GD 93.2 VS 3.71 DE 2.82 Q0400.0 QA 0.70 Q1 0.00 3
 SPEC AOPRBH N MO 13.2 ST  5.4 OM  2.0 f0 5.70 R0.2408 AL-0.00 WI 20.0 MW  2.8 3
 SPEC AOPRBH N T191938 K 0.020 GD  112 VS 3.71 DE 2.82 Q0400.0 QA 0.70 Q1 0.00 3
 SPEC MLPRBH N MO 12.8 ST0.312 OM  1.5 f0 3.17 R0.4330 AL-0.00 WI 20.0 MW  2.5 3
 SPEC MLPRBH N T191943 K 0.020 GD  120 VS 3.71 DE 2.82 Q0400.0 QA 0.70 Q1 0.00 3
 SPEC CELPBH N MO 12.7 ST  1.2 OM  1.4 f0 5.22 R0.2630 AL-0.00 WI 20.0 MW  2.4 3
 SPEC CELPBH N T191947 K 0.020 GD  127 VS 3.71 DE 2.82 Q0400.0 QA 0.70 Q1 0.00 3
 SPEC SMDRBH N MO 13.2 ST0.387 OM  1.9 f0 2.44 R0.5626 AL-0.00 WI 20.0 MW  2.7 3
 SPEC SMDRBH N T191950 K 0.020 GD  130 VS 3.71 DE 2.82 Q0400.0 QA 0.70 Q1 0.00 3
 SPEC HMDRBH N MO 12.8 ST  1.3 OM  1.5 f0 4.87 R0.2819 AL-0.00 WI 20.0 MW  2.5 3
 SPEC HMDRBH N T191956 K 0.020 GD  140 VS 3.71 DE 2.82 Q0400.0 QA 0.70 Q1 0.00 3
 LOCALITY: 157.5 Km al Este de Miches, Oceano Atlantico.                       3
 2020-03-06-1918-00S.MAN___129                                                 6
 OLDACT:ARG 20-03-06 19:34 OP:AMMR STATUS:               ID:20200306191800     3
 OLDACT:UP  20-03-06 20:28 OP:AMMR STATUS:               ID:20200306191800     3
 ACTION:UP  22-01-08 17:50 OP:jmlc STATUS:               ID:20200306191903 L   I
 STAT SP IPHASW D HRMM SECON CODA AMPLIT PERI AZIMU VELO AIN AR TRES W  DIS CAZ7
 AGPR BZ EPg    D 1919 18.55   48                         90    0.3310 93.2 149 
 AGPR BE ESg    D 1919 29.38                              90    0.0310 93.2 149 
 AGPR BE  IAML    1919 31.04        80.1 0.24                          93.2 149 
 AGPR BN  IAML    1919 32.32        72.7 0.24                          93.2 149 
 AOPR BZ EPg      1919 23.67   68                         90    0.0410  127 138 
 AOPR BN  IAML    1919 49.87        71.9 0.24                           127 138 
 AOPR BE  IAML    1919 52.85       231.9 0.28                           127 138 
 HIDR BE  IAML    1919 42.91        80.5 0.30                           138 241 
 MLPR BZ EPg      1919 25.74   52                         90   -1.0110  146 158 
 MLPR BE ESg      1919 44.64                              90    0.4510  146 158 
 MLPR BN  IAML    1919 45.00        22.1 0.24                           146 158 
 MLPR BE  IAML    1919 45.90        20.9 0.56                           146 158 
 CELP BZ EPg    D 1919 28.70   50                         90   -0.5910  162 140 
 CELP BE ESg    D 1919 49.01                              90    0.4110  162 140 
 CELP BE  IAML    1919 51.14        17.1 0.24                           162 140 
 CELP BN  IAML    1919 51.85        19.0 0.28                           162 140 
 SMDR BN ESg    D 1919 51.75                              90    0.5510  171 274 
 SMDR BN  IAML    1919 53.60        87.3 0.75                           171 274 
 SMDR BE  IAML    1919 55.93        43.6 0.25                           171 274 
 HMDR BZ EPg      1919 35.44   58                         90    0.5610  196 257 
 HMDR BN ESg    D 1919 57.57                              90   -0.7610  196 257 
 HMDR BE  IAML    1919 58.71        17.6 0.45                           196 257 
 HMDR BN  IAML    1920  4.62        38.7 2.15                           196 257 
                                                                                
 2020  3 6 2019 58.70L  19.102 -67.527 21.7  DOM  5 0.3 2.5LDOM 3.3CDOM 3.0WDOM1
 SPEC AVERAGE  MO 13.6 ST  2.7 OM  2.4 f0 3.65 R0.5045 AL 0.00 WI 20.0 MW  3.0 3
 SPEC SD       MO  0.2 ST  2.4 OM  0.4 f0 1.18 R0.1730 AL      WI      MW  0.1 3
 GAP=219        0.91      15.2     5.3157.3  0.6986E+02 -0.4150E+03 -0.1860E+04E
 SPEC AGPRBH N MO 13.5 ST  4.0 OM  2.1 f0 4.98 R0.3291 AL-0.00 WI 20.0 MW  3.0 3
 SPEC AGPRBH N T202020 K 0.020 GD 85.4 VS 4.43 DE 3.34 Q0400.0 QA 0.70 Q1 0.00 3
 SPEC AOPRBH N MO 13.8 ST  6.7 OM  2.2 f0 4.89 R0.3352 AL-0.00 WI 20.0 MW  3.1 3
 SPEC AOPRBH N T202029 K 0.020 GD  118 VS 4.43 DE 3.34 Q0400.0 QA 0.70 Q1 0.00 3
 SPEC CELPBH N MO 13.4 ST  1.2 OM  1.7 f0 3.76 R0.4359 AL-0.00 WI 20.0 MW  2.9 3
 SPEC CELPBH N T202038 K 0.020 GD  153 VS 4.43 DE 3.34 Q0400.0 QA 0.70 Q1 0.00 3
 SPEC SMDRBH N MO 13.7 ST0.673 OM  2.0 f0 2.32 R0.7065 AL-0.00 WI 20.0 MW  3.1 3
 SPEC SMDRBH N T202044 K 0.020 GD  177 VS 4.43 DE 3.34 Q0400.0 QA 0.70 Q1 0.00 3
 SPEC HMDRBH N MO 13.8 ST0.727 OM  2.0 f0 2.29 R0.7158 AL-0.00 WI 20.0 MW  3.1 3
 SPEC HMDRBH N T202049 K 0.020 GD  199 VS 4.43 DE 3.34 Q0400.0 QA 0.70 Q1 0.00 3
 LOCALITY: 158.1 Km al Este de Miches, Oceano Atlantico.                       3
 2020-03-06-2019-00S.MAN___129                                                 6
 OLDACT:ARG 20-03-06 20:31 OP:AMMR STATUS:               ID:20200306201900     3
 OLDACT:UP  20-03-06 20:34 OP:AMMR STATUS:               ID:20200306201900     3
 ACTION:UP  22-01-08 17:50 OP:jmlc STATUS:               ID:20200306201958 L   I
 STAT SP IPHASW D HRMM SECON CODA AMPLIT PERI AZIMU VELO AIN AR TRES W  DIS CAZ7
 AGPR BZ EPg    D 2020 11.67   46                         93   -0.2510 82.6 148 
 AGPR BN ESg      2020 22.07                              93    0.3710 82.6 148 
 AGPR BE  IAML    2020 23.35       173.8 0.52                          82.6 148 
 AGPR BN  IAML    2020 26.69       123.1 0.64                          82.6 148 
 AOPR BZ EPg      2020 16.90   68                         92   -0.0110  117 136 
 AOPR BN  IAML    2020 39.33       167.5 0.24                           117 136 
 AOPR BE  IAML    2020 46.18       414.4 0.28                           117 136 
 CELP BZ EPg    C 2020 21.93   58                         91   -0.0410  152 138 
 CELP BE  IAML    2020 44.26        30.6 0.20                           152 138 
 CELP BN  IAML    2020 46.58        46.9 0.32                           152 138 
 SMDR BN ESg    D 2020 45.92                              91    0.6210  176 277 
 SMDR BE  IAML    2020 46.07       107.7 0.55                           176 277 
 SMDR BN  IAML    2020 47.12        78.0 0.30                           176 277 
 HMDR BZ EPg      2020 28.41   71                         91   -0.3710  198 260 
 HMDR BN ESg    D 2020 50.72                              91   -0.3110  198 260 
 HMDR BN  IAML    2020 51.94        53.4 1.15                           198 260 
 HMDR BE  IAML    2020 53.08        31.6 0.25                           198 260 
                                                                                
 2020  3 6 2050 11.60L  18.424 -70.335 31.0  DOM  6 0.4 1.6LDOM 2.6CDOM        1
 GAP=156        1.09       4.5     2.6  5.4 -0.2906E+01  0.6774E+00 -0.6854E+01E
 LOCALITY: 16.3 Km al Norte de Bani, Peravia.                                  3
 2020-03-06-2050-00S.MAN___129                                                 6
 OLDACT:UP  20-03-06 21:10 OP:AMMR STATUS:               ID:20200306205000     3
 OLDACT:UP  20-03-06 21:10 OP:AMMR STATUS:               ID:20200306205000     3
 OLDACT:ARG 20-03-06 21:06 OP:plst STATUS:               ID:20200306205000     3
 OLDACT:UP  20-03-06 21:12 OP:AMMR STATUS:               ID:20200306205000     3
 OLDACT:UP  20-03-06 21:12 OP:AMMR STATUS:               ID:20200306205000     3
 OLDACT:UP  20-03-06 21:12 OP:AMMR STATUS:               ID:20200306205000     3
 ACTION:UP  22-01-08 17:50 OP:jmlc STATUS:               ID:20200306205011 L   I
 OLDACT:UP  21-12-26 19:07 OP:CGRS STATUS:               ID:20200306205000     3
 OLDACT:UP  20-03-06 21:39 OP:AMMR STATUS:               ID:20200306205000     3
 STAT SP IPHASW D HRMM SECON CODA AMPLIT PERI AZIMU VELO AIN AR TRES W  DIS CAZ7
 BADR BZ EPg    C 2050 16.54   26                        173   -0.1110 3.92 224 
 BADR BN ESg    D 2050 20.60                             173    0.2110 3.92 224 
 BADR BN  IAML    2050 21.05       214.6 0.60                          3.92 224 
 ABDR BE ESg    C 2050 27.99                             117   -0.3410 52.9 324 
 ABDR BN  IAML    2050 52.42         0.2 0.60                          52.9 324 
 NAVI BZ EPg    C 2050 23.60   41                        108    0.6810 67.6  29 
 NAVI BN ESg      2050 31.00                             108   -0.2910 67.6  29 
 NAVI BN  IAML    2051 15.50       192.1 0.10                          67.6  29 
 PODR BN ESg    C 2050 39.80                             100   -0.3310  104 254 
 PODR BN  IAML    2051 21.15        67.0 1.80                           104 254 
 HMDR BZ EPg    C 2050 28.99   29                         99    0.4810  108  68 
 HMDR BN ESg    C 2050 40.51                              99   -0.5210  108  68 
 HMDR BN  IAML    2050 59.68        24.7 2.05                           108  68 
 SDDR BZ EPg    C 2050 29.59   33                         98   -0.2710  118 302 
 SDDR BN ESg    C 2050 43.87                              98    0.5010  118 302 
 SDDR BN  IAML    2051  5.72        25.7 2.20                           118 302 
                                                                                
 2020  3 6 2050 36.30L  17.967 -66.889  5.4  DOM  4 0.3 1.8LDOM 2.2CDOM 2.0WDOM1
 SPEC AVERAGE  MO 12.1 ST  2.5 OM  2.1 f0 8.20 R0.1532 AL 0.00 WI 20.0 MW  2.0 3
 SPEC SD       MO  0.2 ST  2.6 OM  0.6 f0 1.12 R0.0185 AL      WI      MW  0.2 3
 GAP=201        0.84       5.3     2.4 21.8  0.3529E+01 -0.2736E+02 -0.8085E+02E
 SPEC MLPRBH N MO 12.0 ST0.857 OM  1.7 f0 7.41 R0.1668 AL-0.00 WI 20.0 MW  1.9 3
 SPEC MLPRBH N T205039 K 0.020 GD 17.4 VS 3.34 DE 2.66 Q0400.0 QA 0.70 Q1 0.00 3
 SPEC CELPBH N MO 11.9 ST0.870 OM  1.3 f0 7.97 R0.1551 AL-0.00 WI 20.0 MW  1.9 3
 SPEC CELPBH N T205045 K 0.020 GD 35.6 VS 3.34 DE 2.66 Q0400.0 QA 0.70 Q1 0.00 3
 SPEC AOPRBH N MO 12.5 ST  7.0 OM  1.8 f0 10.1 R0.1224 AL-0.00 WI 20.0 MW  2.3 3
 SPEC AOPRBH N T205047 K 0.020 GD 44.7 VS 3.34 DE 2.66 Q0400.0 QA 0.70 Q1 0.00 3
 SPEC AGPRBH N MO 12.1 ST  1.2 OM  1.3 f0 7.33 R0.1686 AL-0.00 WI 20.0 MW  2.0 3
 SPEC AGPRBH N T205051 K 0.020 GD 60.6 VS 3.34 DE 2.66 Q0400.0 QA 0.70 Q1 0.00 3
 LOCALITY: 29.5 Km al Oeste de Ponce, Region de Puerto Rico.                   3
 2020-03-06-2050-00S.MAN___129                                                 6
 OLDACT:UP  20-03-06 21:19 OP:AMMR STATUS:               ID:20200306205001D    3
 OLDACT:UP  20-03-06 21:18 OP:AMMR STATUS:               ID:20200306205001D    3
 OLDACT:DUP 20-03-06 21:07 OP:AMMR STATUS:               ID:20200306205001D    3
 OLDACT:UP  20-03-06 21:20 OP:AMMR STATUS:               ID:20200306205001D    3
 OLDACT:UP  20-03-06 21:20 OP:AMMR STATUS:               ID:20200306205001D    3
 ACTION:UP  22-01-08 17:50 OP:jmlc STATUS:               ID:20200306205036 L   I
 OLDACT:UP  20-03-06 21:39 OP:AMMR STATUS:               ID:20200306205001D    3
 STAT SP IPHASW D HRMM SECON CODA AMPLIT PERI AZIMU VELO AIN AR TRES W  DIS CAZ7
 MLPR BZ EPg    D 2050 39.29   19                        108    0.2010 16.5 271 
 MLPR BN ESg    C 2050 41.05                             108   -0.1110 16.5 271 
 MLPR BN  IAML    2050 42.81       258.2 0.40                          16.5 271 
 CELP BZ EPg    D 2050 41.43   21                         99   -0.6110 35.2  70 
 CELP BN ESg    C 2050 46.59                              99    0.3010 35.2  70 
 CELP BN  IAML    2050 47.05        76.9 0.36                          35.2  70 
 AOPR BZ EPg    C 2050 43.67   26                         97    0.1610 44.4  19 
 AOPR BN  IAML    2050 51.52       186.4 0.20                          44.4  19 
 AGPR BZ EPg    C 2050 46.38   24                         95    0.3010 60.4 337 
 AGPR BN ESg      2050 53.07                              95   -0.2510 60.4 337 
 AGPR BN  IAML    2051 13.79        58.0 1.80                          60.4 337 
                                                                                
 2020  3 6 2133 17.40L  17.955 -66.902 12.3  DOM  7 0.6 2.5LDOM 2.7CDOM 2.6WDOM1
 SPEC AVERAGE  MO 13.0 ST  6.2 OM  2.5 f0 6.63 R0.2658 AL 0.00 WI 20.0 MW  2.6 3
 SPEC SD       MO  0.3 ST  4.1 OM  0.6 f0 3.09 R0.1383 AL      WI      MW  0.2 3
 GAP=199        1.70       7.2     3.9 15.0  0.1031E+02 -0.3243E+02 -0.5964E+02E
 SPEC MLPRBH N MO 12.7 ST 12.1 OM  2.2 f0 11.5 R0.1200 AL-0.00 WI 20.0 MW  2.4 3
 SPEC MLPRBH N T213320 K 0.020 GD 19.5 VS 3.73 DE 2.83 Q0400.0 QA 0.70 Q1 0.00 3
 SPEC CELPBH N MO 12.7 ST  7.6 OM  1.9 f0 9.83 R0.1404 AL-0.00 WI 20.0 MW  2.4 3
 SPEC CELPBH N T213326 K 0.020 GD 39.0 VS 3.73 DE 2.83 Q0400.0 QA 0.70 Q1 0.00 3
 SPEC PRSNBH N MO 13.5 ST  5.8 OM  2.7 f0 4.80 R0.2875 AL-0.00 WI 20.0 MW  2.9 3
 SPEC PRSNBH N T213328 K 0.020 GD 40.7 VS 3.73 DE 2.83 Q0400.0 QA 0.70 Q1 0.00 3
 SPEC AOPRBH N MO 13.4 ST  9.6 OM  2.5 f0 6.28 R0.2198 AL-0.00 WI 20.0 MW  2.9 3
 SPEC AOPRBH N T213328 K 0.020 GD 47.7 VS 3.73 DE 2.83 Q0400.0 QA 0.70 Q1 0.00 3
 SPEC AGPRBH N MO 13.1 ST  2.2 OM  2.1 f0 4.79 R0.2881 AL-0.00 WI 20.0 MW  2.7 3
 SPEC AGPRBH N T213332 K 0.020 GD 62.3 VS 3.73 DE 2.83 Q0400.0 QA 0.70 Q1 0.00 3
 SPEC HMDRBH N MO 12.8 ST0.158 OM  1.2 f0 2.56 R0.5391 AL-0.00 WI 20.0 MW  2.4 3
 SPEC HMDRBH N T213435 K 0.020 GD  230 VS 3.73 DE 2.83 Q0400.0 QA 0.70 Q1 0.00 3
 LOCALITY: 31.1 Km al Oeste de Ponce, Region de Puerto Rico.                   3
 2020-03-06-2133-00S.MAN___129                                                 6
 OLDACT:ARG 20-03-06 21:42 OP:plst STATUS:               ID:20200306213300     3
 OLDACT:UP  20-03-06 21:46 OP:AMMR STATUS:               ID:20200306213300     3
 OLDACT:UP  20-03-06 21:45 OP:AMMR STATUS:               ID:20200306213300     3
 ACTION:UP  22-01-08 17:50 OP:jmlc STATUS:               ID:20200306213317 L   I
 OLDACT:UP  20-03-06 22:02 OP:AMMR STATUS:               ID:20200306213300     3
 STAT SP IPHASW D HRMM SECON CODA AMPLIT PERI AZIMU VELO AIN AR TRES W  DIS CAZ7
 MLPR BZ EPg    C 2133 21.19   27                        125    0.6910 15.1 276 
 MLPR BN ESg      2133 22.25                             125   -0.5710 15.1 276 
 MLPR BN  IAML    2133 24.31       818.6 0.28                          15.1 276 
 CELP BZ EPg    C 2133 23.79   28                         94    0.1410 37.0  69 
 CELP BN ESg    C 2133 28.00                              94   -0.3010 37.0  69 
 CELP BN  IAML    2133 29.30       330.7 0.12                          37.0  69 
 PRSN BZ EPg    C 2133 23.66   28                         93   -0.2410 38.8 319 
 PRSN BN ESg    C 2133 30.12                              93    1.3810 38.8 319 
 PRSN BN  IAML    2133 30.40      2216.5 0.24                          38.8 319 
 AOPR BZ EPg    C 2133 25.39   37                         92    0.3610 46.1  20 
 AOPR BN ESg    C 2133 30.49                              92   -0.2210 46.1  20 
 AOPR BN  IAML    2133 32.37       604.1 0.28                          46.1  20 
 AGPR BZ EPg    C 2133 27.77   34                         91    0.4810 61.1 339 
 AGPR BN ESg    C 2133 33.58                              91   -1.0610 61.1 339 
 AGPR BN  IAML    2133 38.64       152.7 0.24                          61.1 339 
 SJG  BZ EPg    D 2133 29.99   37                         90   -0.4110 81.5  78 
 SJG  BN ESg    C 2133 40.51                              90    0.4610 81.5  78 
 HMDR BZ EPg    C 2133 59.43   55                         90   -0.6910  278 290 
 HMDR BN  IAML    2134 39.50        27.4 2.80                           278 290 
                                                                                
