 2020 12 2 1357 27.70L  18.189 -71.336  5.8  DOM  6 0.7 2.3LDOM 2.7CDOM        1
 GAP=188        1.95       9.4     4.7  9.1  0.2025E+02 -0.9954E+01 -0.5784E+02E
 LOCALITY: 11.9 Km al NO de Polo. Barahona.                                    3
 2020-12-02-1356-00S.MAN___129                                                 6
 OLDACT:ARG 20-12-02 14:05 OP:jmlc STATUS:               ID:20201202135600     3
 OLDACT:UP  20-12-02 14:09 OP:JMLC STATUS:               ID:20201202135600     3
 OLDACT:UP  20-12-02 14:09 OP:JMLC STATUS:               ID:20201202135600     3
 ACTION:UP  22-01-13 17:41 OP:jmlc STATUS:               ID:20201202135727 L   I
 OLDACT:UP  21-11-21 11:16 OP:CGRS STATUS:               ID:20201202135600     3
 OLDACT:UP  21-11-21 11:15 OP:CGRS STATUS:               ID:20201202135600     3
 OLDACT:UP  20-12-02 14:09 OP:JMLC STATUS:               ID:20201202135600     3
 STAT SP IPHASW D HRMM SECON CODA AMPLIT PERI AZIMU VELO AIN AR TRES W  DIS CAZ7
 PODR BZ IP       1357 28.36   20                        140   -0.9410 6.22 114 
 PODR BN IS       1357 30.61                             140    0.1510 6.22 114 
 PODR BN  IAML    1357 35.06      2947.1 0.30                          6.22 114 
 JIDR BZ IP       1357 39.56   31                         95    1.4110 64.3 302 
 JIDR BN IS       1357 45.98                              95    0.1310 64.3 302 
 JIDR BN  IAML    1357 50.82       223.3 0.30                          64.3 302 
 SDDR BZ IP       1357 41.76   48                         94   -0.1510 87.7   3 
 SDDR BN  IAML    1358  0.13       185.7 0.30                          87.7   3 
 ABDR BZ IP     C 1357 44.83   36                         95    0.6210  102  47 
 ABDR BN ISg    D 1357 56.46                              95    0.0610  102  47 
 ABDR BN  IAML    1358  5.66        42.2 0.30                           102  47 
 BADR BZ IP     C 1357 44.16   31                         70   -0.6410  106  77 
 BADR BN IS       1357 58.27                              70    0.8410  106  77 
 BADR BN  IAML    1358  5.15       177.1 0.30                           106  77 
 REDR BZ IP       1357 46.76   42                         70   -1.1710  126 342 
 REDR BN IS       1358  2.57                              70   -0.3210  126 342 
 REDR BN  IAML    1358  5.16        46.0 0.25                           126 342 
                                                                                
 2020 12 2 1527 17.20L  19.460 -69.829 10.3  DOM 21 0.9 3.3LDOM 3.1CDOM 3.3WDOM1
 SPEC AVERAGE  MO 14.0 ST 25.8 OM  3.1 f0 4.23 R0.5424 AL 0.00 WI 20.0 MW  3.3 3
 SPEC SD       MO  0.3 ST 37.3 OM  0.6 f0 3.48 R0.3330 AL      WI      MW  0.2 3
 GAP=132        2.33       4.8     4.6  5.0  0.8972E+01 -0.1968E+01 -0.4963E+01E
 SPEC NADRBH N MO 14.5 ST 54.8 OM  4.1 f0 4.76 R0.2829 AL-0.00 WI 20.0 MW  3.6 3
 SPEC NADRBH N T152721 K 0.020 GD 15.9 VS 3.64 DE 2.79 Q0400.0 QA 0.70 Q1 0.00 3
 SPEC CADRBH N MO 14.3 ST  4.2 OM  3.7 f0 2.28 R0.5907 AL-0.00 WI 20.0 MW  3.5 3
 SPEC CADRBH N T152724 K 0.020 GD 27.6 VS 3.64 DE 2.79 Q0400.0 QA 0.70 Q1 0.00 3
 SPEC SFDRBH N MO 14.1 ST 71.9 OM  3.3 f0 6.63 R0.2031 AL-0.00 WI 20.0 MW  3.4 3
 SPEC SFDRBH N T152727 K 0.020 GD 48.7 VS 3.64 DE 2.79 Q0400.0 QA 0.70 Q1 0.00 3
 SPEC SMDRBH N MO 14.1 ST  1.1 OM  3.1 f0 1.67 R0.8065 AL-0.00 WI 20.0 MW  3.3 3
 SPEC SMDRBH N T152734 K 0.020 GD 70.8 VS 3.64 DE 2.79 Q0400.0 QA 0.70 Q1 0.00 3
 SPEC SODRBH N MO 14.5 ST0.871 OM  3.4 f0 1.17 R1.1511 AL-0.00 WI 20.0 MW  3.6 3
 SPEC SODRBH N T152740 K 0.020 GD 85.3 VS 3.64 DE 2.79 Q0400.0 QA 0.70 Q1 0.00 3
 SPEC SC01BH N MO 14.5 ST  1.8 OM  3.4 f0 1.43 R0.9418 AL-0.00 WI 20.0 MW  3.6 3
 SPEC SC01BH N T152742 K 0.020 GD 95.0 VS 3.64 DE 2.79 Q0400.0 QA 0.70 Q1 0.00 3
 SPEC SDD BH N MO 14.0 ST0.908 OM  2.8 f0 1.75 R0.7696 AL-0.00 WI 20.0 MW  3.3 3
 SPEC SDD BH N T152745 K 0.020 GD  105 VS 3.64 DE 2.79 Q0400.0 QA 0.70 Q1 0.00 3
 SPEC ABDRBH N MO 13.9 ST  9.5 OM  2.7 f0 4.14 R0.3253 AL-0.00 WI 20.0 MW  3.2 3
 SPEC ABDRBH N T152742 K 0.020 GD  105 VS 3.64 DE 2.79 Q0400.0 QA 0.70 Q1 0.00 3
 SPEC BADRBH N MO 14.0 ST 35.1 OM  2.8 f0 5.75 R0.2342 AL-0.00 WI 20.0 MW  3.3 3
 SPEC BADRBH N T152748 K 0.020 GD  115 VS 3.64 DE 2.79 Q0400.0 QA 0.70 Q1 0.00 3
 SPEC MADRBH N MO 14.4 ST  8.9 OM  3.2 f0 2.66 R0.5063 AL-0.00 WI 20.0 MW  3.6 3
 SPEC MADRBH N T152753 K 0.020 GD  117 VS 3.64 DE 2.79 Q0400.0 QA 0.70 Q1 0.00 3
 SPEC HIDRBH N MO 13.4 ST 39.9 OM  2.2 f0 9.25 R0.1456 AL-0.00 WI 20.0 MW  2.9 3
 SPEC HIDRBH N T152757 K 0.020 GD  125 VS 3.64 DE 2.79 Q0400.0 QA 0.70 Q1 0.00 3
 SPEC SDDRBH N MO 14.3 ST0.572 OM  3.0 f0 1.20 R1.1223 AL-0.00 WI 20.0 MW  3.5 3
 SPEC SDDRBH N T152758 K 0.020 GD  130 VS 3.64 DE 2.79 Q0400.0 QA 0.70 Q1 0.00 3
 SPEC SADRBH N MO 13.9 ST0.669 OM  2.6 f0 1.69 R0.7969 AL-0.00 WI 20.0 MW  3.2 3
 SPEC SADRBH N T1528 4 K 0.020 GD  137 VS 3.64 DE 2.79 Q0400.0 QA 0.70 Q1 0.00 3
 SPEC REDRBH N MO 14.0 ST126.1 OM  2.7 f0 8.81 R0.1529 AL-0.00 WI 20.0 MW  3.3 3
 SPEC REDRBH N T1528 6 K 0.020 GD  145 VS 3.64 DE 2.79 Q0400.0 QA 0.70 Q1 0.00 3
 SPEC MCDRBH N MO 13.8 ST 24.1 OM  2.5 f0 5.92 R0.2275 AL-0.00 WI 20.0 MW  3.2 3
 SPEC MCDRBH N T1528 6 K 0.020 GD  144 VS 3.64 DE 2.79 Q0400.0 QA 0.70 Q1 0.00 3
 SPEC NEDRBH N MO 13.5 ST  1.6 OM  2.2 f0 3.03 R0.4445 AL-0.00 WI 20.0 MW  3.0 3
 SPEC NEDRBH N T152813 K 0.020 GD  147 VS 3.64 DE 2.79 Q0400.0 QA 0.70 Q1 0.00 3
 SPEC PODRBH N MO 14.1 ST0.983 OM  2.8 f0 1.60 R0.8418 AL-0.00 WI 20.0 MW  3.4 3
 SPEC PODRBH N T152815 K 0.020 GD  149 VS 3.64 DE 2.79 Q0400.0 QA 0.70 Q1 0.00 3
 SPEC JIDRBH N MO 13.9 ST  1.0 OM  2.5 f0 2.01 R0.6700 AL-0.00 WI 20.0 MW  3.2 3
 SPEC JIDRBH N T152823 K 0.020 GD  160 VS 3.64 DE 2.79 Q0400.0 QA 0.70 Q1 0.00 3
 SPEC GRTKBH N MO 13.3 ST107.0 OM  1.9 f0 14.6 R0.0922 AL-0.00 WI 20.0 MW  2.8 3
 SPEC GRTKBH N T152831 K 0.020 GD  170 VS 3.64 DE 2.79 Q0400.0 QA 0.70 Q1 0.00 3
 LOCALITY: 9.7 Km al NNE de Nagua, Oceano Atlantico.                           3
 2020-12-02-1526-00S.MAN___129                                                 6
 OLDACT:ARG 20-12-02 16:45 OP:jmlc STATUS:               ID:20201202152600     3
 OLDACT:UP  20-12-02 17:04 OP:JMLC STATUS:               ID:20201202152600     3
 ACTION:UP  22-01-13 17:41 OP:jmlc STATUS:               ID:20201202152717 L   I
 OLDACT:UP  20-12-02 17:06 OP:JMLC STATUS:               ID:20201202152600     3
 STAT SP IPHASW D HRMM SECON CODA AMPLIT PERI AZIMU VELO AIN AR TRES W  DIS CAZ7
 NADR BZ IP       1527 19.44   27                        131   -0.2910 12.1 193 
 NADR BN IS       1527 22.51                             131    0.8810 12.1 193 
 NAG1 HZ IP       1527 19.23                             131   -0.5010 12.1 193 
 NAG1 HN IS       1527 22.43                             131    0.8010 12.1 193 
 NADR BN  IAML    1527 22.81     28696.7 0.35                          12.1 193 
 CADR BZ IP       1527 21.15   29                        112   -0.4810 25.6 333 
 CADR BN IS       1527 25.89                             112    0.9610 25.6 333 
 CADR BN  IAML    1527 26.04      5420.4 0.45                          25.6 333 
 SFDR BZ IP       1527 23.64   24                        102   -1.3910 47.6 246 
 SFDR BN  IAML    1527 31.84      4571.9 0.25                          47.6 246 
 SMDR BZ IP       1527 28.86   48                         70    0.3310 70.0 106 
 SMDR BN IS       1527 36.46                              70   -0.4810 70.0 106 
 SMDR BN  IAML    1527 40.68       773.3 0.40                          70.0 106 
 SODR BZ IP       1527 31.31   40                         70    0.5410 84.7 293 
 SODR BN IS       1527 41.80                              70    0.9610 84.7 293 
 SODR BN  IAML    1527 50.03       990.4 1.60                          84.7 293 
 SC01 BZ IP       1527 31.98                              70   -0.2710 94.4 268 
 SC01 BN IS       1527 43.78                              70    0.3810 94.4 268 
 SC01 BN  IAML    1527 45.65      1171.5 0.55                          94.4 268 
 ABDR BZ IP     C 1527 34.11   50                         70   -0.7010  110 230 
 ABDR BN  IAML    1527 45.93       645.7 0.35                           110 230 
 SDD  BZ IP       1527 34.18   45                         70   -0.5510  111 185 
 SDD  BN  IAML    1527 49.60       231.6 1.25                           111 185 
 LUDR BZ IP     C 1527 36.58   45                         70   -0.6210  127 292 
 LUDR BE ISg    D 1527 52.19                              95   -0.7910  127 292 
 BADR BZ IP       1527 35.79   53                         70   -1.9310  130 206 
 BADR BN  IAML    1527 53.34      1365.9 0.25                           130 206 
 MADR BZ IP       1527 38.68   55                         50    0.5210  134 275 
 MADR BN  IAML    1528  0.98      1217.2 0.35                           134 275 
 HIDR BZ IP       1527 40.59   68                         50    0.2510  152 129 
 HIDR BN  IAML    1528  1.93       640.2 0.20                           152 129 
 SDDR BZ IP       1527 40.97   55                         50   -0.7710  163 251 
 SDDR BN  IAML    1528  2.84       360.5 0.65                           163 251 
 SADR BZ IP       1527 44.69                              50    0.9910  179 142 
 SADR BN  IAML    1528 14.73       158.1 1.00                           179 142 
 MCDR BZ IP       1527 45.68   68                         50   -0.3510  197 284 
 MCDR BN  IAML    1528 19.19       369.1 0.35                           197 284 
 REDR BZ IP       1527 45.92                              50   -0.2110  198 264 
 REDR BN  IAML    1528 10.32      1158.6 0.20                           198 264 
 NEDR BZ IP       1527 47.36                              50    0.5710  204 238 
 NEDR BN  IAML    1528 17.86       131.2 0.40                           204 238 
 PODR BZ IP       1527 49.09   68                         50    1.3910  210 227 
 PODR BN  IAML    1528 18.92       282.5 0.85                           210 227 
 JIDR BZ IP       1527 52.82   68                         50    1.7010  238 244 
 JIDR BN  IAML    1528 32.86       109.2 0.30                           238 244 
 GRTK BZ IP       1527 53.42   77                         50   -0.9410  265 329 
 GRTK BN  IAML    1529  0.30       215.6 0.10                           265 329 
                                                                                
 2020 12 2 1916 54.30L  18.063 -71.340 14.1  DOM  5 0.6 2.2LDOM 2.2CDOM 2.2WDOM1
 SPEC AVERAGE  MO 12.4 ST 16.3 OM  5.0 f0 16.0 R0.0890 AL 0.00 WI 20.0 MW  2.2 3
 SPEC SD       MO  0.0 ST0.000 OM  3.1 f00.000 R0.0000 AL      WI      MW  0.0 3
 GAP=283        1.43      13.4    10.1 16.6 -0.4808E+02  0.1230E+03 -0.1535E+03E
 SPEC PODRBH N MO 12.4 ST 16.3 OM  1.9 f0 16.0 R0.0890 AL-0.00 WI 20.0 MW  2.2 3
 SPEC PODRBH N T191658 K 0.020 GD 19.1 VS 3.85 DE 2.88 Q0400.0 QA 0.70 Q1 0.00 3
 LOCALITY: 7.2 Km al SO de Polo, Barahona.                                     3
 2020-12-02-1916-00S.MAN___129                                                 6
 OLDACT:ARG 20-12-02 22:37 OP:AMMR STATUS:               ID:20201202191600     3
 OLDACT:UP  20-12-02 22:41 OP:AMMR STATUS:               ID:20201202191600     3
 ACTION:UP  22-01-13 17:41 OP:jmlc STATUS:               ID:20201202191654 L   I
 OLDACT:UP  21-11-21 11:22 OP:CGRS STATUS:               ID:20201202191600     3
 OLDACT:UP  20-12-02 22:41 OP:AMMR STATUS:               ID:20201202191600     3
 STAT SP IPHASW D HRMM SECON CODA AMPLIT PERI AZIMU VELO AIN AR TRES W  DIS CAZ7
 PODR BZ EPg    C 1916 57.22   23                        138   -0.3010 12.9  28 
 PODR BE ESg      1917  0.12                             138    0.1810 12.9  28 
 PODR BE  IAML    1917  0.20       316.1 0.20                          12.9  28 
 PODR BN  IAML    1917  4.02      1362.2 0.30                          12.9  28 
 NEDR BN ESg      1917  7.85                              97   -0.3710 48.4 344 
 NEDR BN  IAML    1917  9.75       274.5 0.30                          48.4 344 
 JIDR BE ESg      1917 14.98                              93    0.5010 72.2 311 
 JIDR BN  IAML    1917 21.46       182.9 0.35                          72.2 311 
 SDDR BN ESg      1917 23.08                              92    0.8210  102   3 
 SDDR BN  IAML    1917 24.17        73.9 0.30                           102   3 
 REDR BE ESg      1917 31.46                              91   -0.8410  140 344 
 REDR BN  IAML    1917 34.10        31.8 0.30                           140 344 
                                                                                
 2020 12 3 0009 49.80L  18.004 -71.246 15.0  DOM  3 0.2 2.5LDOM 2.5CDOM 2.6WDOM1
 SPEC AVERAGE  MO 12.9 ST 15.4 OM  7.3 f0 10.7 R0.1359 AL 0.00 WI 20.0 MW  2.6 3
 SPEC SD       MO  0.0 ST0.000 OM  5.0 f00.000 R0.0000 AL      WI      MW  0.0 3
 GAP=322        0.55       5.3     3.9  2.1  0.1687E+01  0.9527E+00 -0.9931E-01E
 SPEC PODRBH N MO 12.9 ST 15.4 OM  2.3 f0 10.7 R0.1359 AL-0.00 WI 20.0 MW  2.6 3
 SPEC PODRBH N T 0 955 K 0.020 GD 23.7 VS 3.93 DE 2.92 Q0400.0 QA 0.70 Q1 0.00 3
 LOCALITY: 8.3 Km al ONO de Paraiso, Barahona.                                 3
 2020-12-03-0009-00S.MAN___129                                                 6
 OLDACT:UP  20-12-03 01:11 OP:AMMR STATUS:               ID:20201203000900     3
 OLDACT:ARG 20-12-03 01:06 OP:njm  STATUS:               ID:20201203000900     3
 OLDACT:UP  20-12-03 01:12 OP:AMMR STATUS:               ID:20201203000900     3
 OLDACT:UP  20-12-03 01:12 OP:AMMR STATUS:               ID:20201203000900     3
 ACTION:UP  22-01-13 17:41 OP:jmlc STATUS:               ID:20201203000949 L   I
 OLDACT:UP  21-11-17 14:11 OP:CGRS STATUS:               ID:20201203000900     3
 OLDACT:UP  20-12-03 01:55 OP:AMMR STATUS:               ID:20201203000900     3
 STAT SP IPHASW D HRMM SECON CODA AMPLIT PERI AZIMU VELO AIN AR TRES W  DIS CAZ7
 PODR BZ IP     C  0 9 53.42   21                        129   -0.3210 18.4 348 
 PODR BN  IAML     0 9 56.67      3641.5 0.30                          18.4 348 
 PODR BE IS     D  0 9 56.85                             129    0.1810 18.4 348 
 JIDR BZ IP     C  010  3.30   33                         93    0.1010 84.1 310 
 JIDR BE IS     C  010 13.08                              93   -0.0610 84.1 310 
 JIDR BN  IAML     010 22.29       153.3 0.35                          84.1 310 
 REDR BZ IP     D  010 12.45   32                         55    0.2210  149 341 
 REDR BE IS     C  010 28.72                              55   -0.1310  149 341 
 REDR BE  IAML     010 33.88        28.5 0.25                           149 341 
                                                                                
 2020 12 3 0017 34.80L  18.720 -70.774  4.0  DOM  4 0.8 2.3LDOM 2.3CDOM 2.0WDOM1
 SPEC AVERAGE  MO 12.1 ST0.633 OM  4.8 f0 5.39 R0.2704 AL 0.00 WI 20.0 MW  2.0 3
 SPEC SD       MO  0.1 ST0.511 OM  3.7 f0 2.24 R0.1125 AL      WI      MW  0.1 3
 GAP=114        2.04       6.3     6.3 39.8  0.1730E+02  0.1818E+03  0.1468E+03E
 SPEC PODRBH N MO 12.2 ST0.122 OM  1.3 f0 3.15 R0.3829 AL-0.00 WI 20.0 MW  2.1 3
 SPEC PODRBH N T 01757 K 0.020 GD 81.5 VS 3.26 DE 2.63 Q0400.0 QA 0.70 Q1 0.00 3
 SPEC REDRBH N MO 12.0 ST  1.1 OM  1.0 f0 7.64 R0.1579 AL-0.00 WI 20.0 MW  2.0 3
 SPEC REDRBH N T 018 7 K 0.020 GD  107 VS 3.26 DE 2.63 Q0400.0 QA 0.70 Q1 0.00 3
 LOCALITY: 7.7 Km al ESE de El Guayabal. Azua.                                 3
 2020-12-03-0017-00S.MAN___129                                                 6
 OLDACT:UP  20-12-03 01:29 OP:AMMR STATUS:               ID:20201203001700     3
 OLDACT:ARG 20-12-03 01:07 OP:njm  STATUS:               ID:20201203001700     3
 OLDACT:UP  20-12-03 01:31 OP:AMMR STATUS:               ID:20201203001700     3
 OLDACT:UP  20-12-03 01:31 OP:AMMR STATUS:               ID:20201203001700     3
 ACTION:UP  22-01-13 17:41 OP:jmlc STATUS:               ID:20201203001734 L   I
 OLDACT:UP  21-11-21 11:24 OP:CGRS STATUS:               ID:20201203001700     3
 OLDACT:UP  21-11-21 11:24 OP:CGRS STATUS:               ID:20201203001700     3
 OLDACT:UP  20-12-03 01:58 OP:AMMR STATUS:               ID:20201203001700     3
 STAT SP IPHASW D HRMM SECON CODA AMPLIT PERI AZIMU VELO AIN AR TRES W  DIS CAZ7
 ABDR BZ IP     D  017 37.30   12                        110   -0.6910 18.5  57 
 ABDR BE IS     C  017 40.59                             110    0.2410 18.5  57 
 ABDR BN  IAML     017 41.63       861.9 0.30                          18.5  57 
 BADR BZ IP     C  017 43.42   21                         95   -0.4910 56.3 129 
 BADR BE IS     C  017 51.72                              95    1.0610 56.3 129 
 BADR BN  IAML     017 53.65       559.1 0.35                          56.3 129 
 PODR BZ IP     D  017 47.11   32                         94   -0.8610 81.4 221 
 PODR BE ISg    D  017 58.00                              94    0.2810 81.4 221 
 PODR BN  IAML     018  2.96       121.6 0.25                          81.4 221 
 REDR BZ IP     C  017 52.66   30                         92   -0.7910  115 302 
 REDR BE IS     C  018  8.50                              92    1.2610  115 302 
 REDR BN  IAML     018 14.78        48.7 0.25                           115 302 
                                                                                
 2020 12 3 0030 59.40L  18.699 -70.572 23.3  DOM  3 0.3 2.4LDOM 2.4CDOM 2.4WDOM1
 SPEC AVERAGE  MO 12.7 ST0.228 OM  6.0 f0 3.63 R0.4536 AL 0.00 WI 20.0 MW  2.4 3
 SPEC SD       MO  0.0 ST0.000 OM  4.8 f00.000 R0.0000 AL      WI      MW  0.0 3
 GAP=257        0.92       4.3    11.4  5.5 -0.2339E+02  0.4877E+02 -0.6147E+01E
 SPEC PODRBH N MO 12.7 ST0.228 OM  1.2 f0 3.63 R0.4536 AL-0.00 WI 20.0 MW  2.4 3
 SPEC PODRBH N T 03124 K 0.020 GD 98.2 VS 4.45 DE 3.36 Q0400.0 QA 0.70 Q1 0.00 3
 LOCALITY: 13.6 Km al Oeste de Rancho Arriba, San Jose de Ocoa.                3
 2020-12-03-0030-00S.MAN___129                                                 6
 OLDACT:ARG 20-12-03 01:08 OP:njm  STATUS:               ID:20201203003000     3
 OLDACT:UP  20-12-03 01:44 OP:AMMR STATUS:               ID:20201203003000     3
 OLDACT:UP  20-12-03 01:44 OP:AMMR STATUS:               ID:20201203003000     3
 ACTION:UP  22-01-13 17:41 OP:jmlc STATUS:               ID:20201203003059 L   I
 OLDACT:UP  20-12-03 02:01 OP:AMMR STATUS:               ID:20201203003000     3
 STAT SP IPHASW D HRMM SECON CODA AMPLIT PERI AZIMU VELO AIN AR TRES W  DIS CAZ7
 ABDR BZ IP     D  031  4.12   14                        149    0.0810 13.8 335 
 ABDR BE IS     C  031  7.42                             149   -0.0410 13.8 335 
 ABDR BN  IAML     031  8.50       796.8 0.30                          13.8 335 
 PODR BZ IP     C  031 13.94   37                         90   -0.5610 95.4 232 
 PODR BE IS     C  031 25.97                              90    0.3210 95.4 232 
 PODR BN  IAML     031 29.84       124.2 0.30                          95.4 232 
 REDR BZ IP     C  031 19.95   31                         62    0.4810  135 298 
 REDR BE IS     D  031 34.03                              62   -0.2810  135 298 
                                                                                
