 2020 11 7 0600 38.70L  18.525 -68.945136.5  DOM  5 0.8 2.5LDOM 3.0CDOM 2.6WDOM1
 SPEC AVERAGE  MO 13.0 ST 21.0 OM  2.7 f0 10.7 R0.2052 AL 0.00 WI 20.0 MW  2.6 3
 SPEC SD       MO  0.0 ST 19.8 OM  1.5 f0 5.33 R0.1025 AL      WI      MW  0.0 3
 GAP=110        2.03      14.1    10.9 16.6  0.1511E+02  0.7809E+02  0.3324E+01E
 SPEC SMDRBH N MO 12.9 ST  1.2 OM  1.2 f0 5.34 R0.3076 AL-0.00 WI 20.0 MW  2.5 3
 SPEC SMDRBH N T 6 113 K 0.020 GD  162 VS 4.44 DE 3.40 Q0400.0 QA 0.70 Q1 0.00 3
 SPEC BADRBH N MO 13.0 ST 40.7 OM  1.2 f0 16.0 R0.1027 AL-0.00 WI 20.0 MW  2.6 3
 SPEC BADRBH N T 6 122 K 0.020 GD  202 VS 4.44 DE 3.40 Q0400.0 QA 0.70 Q1 0.00 3
 LOCALITY: 11.2 Km al NNE de La Romana. La Romana.                             3
 2020-11-07-0600-00S.MAN___111                                                 6
 OLDACT:UP  20-11-07 10:46 OP:CGRS STATUS:               ID:20201107060000     3
 OLDACT:UP  20-11-07 10:45 OP:CGRS STATUS:               ID:20201107060000     3
 OLDACT:ARG 20-11-07 10:21 OP:njm  STATUS:               ID:20201107060000     3
 OLDACT:UP  20-11-07 10:49 OP:CGRS STATUS:               ID:20201107060000     3
 OLDACT:UP  20-11-07 10:48 OP:CGRS STATUS:               ID:20201107060000     3
 ACTION:UP  22-01-07 19:21 OP:jmlc STATUS:               ID:20201107060038 L   I
 OLDACT:UP  20-11-07 10:58 OP:CGRS STATUS:               ID:20201107060000     3
 STAT SP IPHASW D HRMM SECON CODA AMPLIT PERI AZIMU VELO AIN AR TRES W  DIS CAZ7
 HIDR BZ IP     C  6 0 55.74   39                        169   -0.6310 25.3  73 
 HIDR BE IS     C  6 1  8.30                             169   -1.1310 25.3  73 
 HIDR BN  IAML     6 1  9.78        61.4 0.30                          25.3  73 
 SADR BZ IP     D  6 0 56.49   41                        162   -0.3210 40.8 155 
 SADR BE IS     D  6 1  9.73                             162   -0.4710 40.8 155 
 SADR BN  IAML     6 1 10.20        71.4 1.30                          40.8 155 
 PCDR BZ IP     C  6 0 58.11   41                        155    0.4810 59.5  91 
 PCDR BE IS     D  6 1 13.28                             155    1.6610 59.5  91 
 PCDR BN  IAML     6 1 49.56        99.9 2.65                          59.5  91 
 SMDR BZ IP     C  6 0 58.59   39                        145   -0.7410 88.4 343 
 SMDR BE IS     C  6 1 14.95                             145    0.3610 88.4 343 
 SMDR BN  IAML     6 1 24.65        99.7 0.70                          88.4 343 
 BADR BZ IP     C  6 1  4.91   50                        129    0.4110  150 265 
 BADR BE IS     C  6 1 23.94                             129    0.3710  150 265 
 BADR BN  IAML     6 1 29.79        40.4 1.10                           150 265 
                                                                                
 2020 11 7 0743 22.80L  18.806 -70.329116.0  DOM  4 0.7 1.7LDOM 2.5CDOM 1.8WDOM1
 SPEC AVERAGE  MO 11.8 ST0.439 OM  0.7 f0 8.51 R0.2006 AL 0.17 WI 10.7 MW  1.8 3
 SPEC SD       MO  0.3 ST0.229 OM  0.6 f0 1.47 R0.0399 AL      WI      MW  0.2 3
 GAP=175        1.81      12.5    12.9 15.1  0.2782E+02  0.6611E+02 -0.2473E+02E
 SPEC SFDRBH N MO 12.4 ST0.542 OM  0.8 f0 6.01 R0.2746 AL 0.65 WI  8.1 MW  2.2 3
 SPEC SFDRBH N T 74351 K 0.020 GD  127 VS 4.46 DE 3.40 Q0400.0 QA 0.70 Q1 1.00 3
 SPEC REDRBH E MO 11.6 ST0.218 OM -0.2 f0 8.34 R0.1979 AL 0.95 WI 13.0 MW  1.7 3
 SPEC REDRBH E T 744 4 K 0.020 GD  192 VS 4.46 DE 3.40 Q0400.0 QA 0.70 Q1 1.00 3
 SPEC BADRBH N MO 11.9 ST0.839 OM  0.3 f0 10.3 R0.1602 AL-0.11 WI  6.3 MW  1.9 3
 SPEC BADRBH N T 74350 K 0.020 GD  124 VS 4.46 DE 3.40 Q0400.0 QA 0.70 Q1 1.00 3
 SPEC ABDRBH E MO 11.6 ST0.330 OM -0.0 f0 9.61 R0.1717 AL-0.10 WI 15.1 MW  1.7 3
 SPEC ABDRBH E T 74346 K 0.020 GD  120 VS 4.46 DE 3.40 Q0400.0 QA 0.70 Q1 1.00 3
 SPEC ABDRBH N MO 11.7 ST0.267 OM  0.1 f0 8.30 R0.1988 AL-0.56 WI 10.9 MW  1.7 3
 SPEC ABDRBH N T 74348 K 0.020 GD  120 VS 4.46 DE 3.40 Q0400.0 QA 0.70 Q1 1.00 3
 LOCALITY: 12.8 Km al SSO de Maimon. Monseor Nouel.                           3
 2020-11-07-0743-00S.MAN___111                                                 6
 OLDACT:ARG 20-11-07 10:23 OP:njm  STATUS:               ID:20201107074300     3
 OLDACT:UP  20-11-07 10:53 OP:CGRS STATUS:               ID:20201107074300     3
 ACTION:UP  22-01-07 19:21 OP:jmlc STATUS:               ID:20201107074322 L   I
 OLDACT:UP  21-12-20 15:14 OP:AMMR STATUS:               ID:20201107074300     3
 OLDACT:UP  20-11-07 10:53 OP:CGRS STATUS:               ID:20201107074300     3
 STAT SP IPHASW D HRMM SECON CODA AMPLIT PERI AZIMU VELO AIN AR TRES W  DIS CAZ7
 ABDR BZ IP     C  743 37.85   23                        164   -0.8510 31.3 271 
 ABDR BE IS     C  743 49.38                             164   -1.0910 31.3 271 
 ABDR BN  IAML     743 53.31        17.1 0.95                          31.3 271 
 BADR BZ IP     C  743 39.61   23                        157    0.6510 45.2 184 
 BADR BE IS     D  743 51.45                             157    0.5310 45.2 184 
 SFDR BZ IP     C  743 39.28   29                        153    0.0210 54.1  10 
 SFDR BE IS     D  743 51.87                             153    0.4310 54.1  10 
 REDR BZ IP     C  743 46.89   36                        122   -0.5610  154 290 
 REDR BE IS     D  744  6.56                             122    0.8810  154 290 
 REDR BN  IAML     744  8.61         7.3 0.90                           154 290 
                                                                                
 2020 11 7 1648  1.50L  17.977 -71.162 26.0  DOM  4 0.6 2.4LDOM 2.1CDOM 1.9WDOM1
 SPEC AVERAGE  MO 11.9 ST0.407 OM  2.1 f0 5.77 R0.2052 AL 1.15 WI 10.9 MW  1.9 3
 SPEC SD       MO  0.0 ST0.000 OM  0.7 f00.000 R0.0000 AL      WI      MW  0.0 3
 GAP=330        1.62      12.8    25.4  9.3  0.1370E+03  0.1570E+03  0.4305E+02E
 SPEC PODRBH N MO 11.9 ST0.407 OM  1.4 f0 5.77 R0.2052 AL 1.15 WI 10.9 MW  1.9 3
 SPEC PODRBH N T164812 K 0.020 GD 35.7 VS 3.20 DE 2.60 Q0400.0 QA 0.70 Q1 1.00 3
 LOCALITY: 16.6 Km al ESE de Santa Cruz de Barahona, Mar Caribe.               3
 2020-11-07-1647-00S.MAN___111                                                 6
 OLDACT:UP  20-11-07 20:18 OP:CGRS STATUS:               ID:20201107164700     3
 OLDACT:UP  20-11-07 20:15 OP:CGRS STATUS:               ID:20201107164700     3
 OLDACT:UP  20-11-07 20:08 OP:CGRS STATUS:               ID:20201107164700     3
 OLDACT:ARG 20-11-07 20:00 OP:plst STATUS:               ID:20201107164700     3
 OLDACT:UP  20-11-08 11:18 OP:CGRS STATUS:               ID:20201107164700     3
 OLDACT:UP  20-11-08 11:17 OP:CGRS STATUS:               ID:20201107164700     3
 ACTION:UP  22-01-07 19:21 OP:jmlc STATUS:               ID:20201107164801 L   I
 OLDACT:UP  22-01-02 12:38 OP:AMMR STATUS:               ID:20201107164700     3
 OLDACT:UP  22-01-02 12:37 OP:AMMR STATUS:               ID:20201107164700     3
 OLDACT:UP  22-01-02 12:36 OP:AMMR STATUS:               ID:20201107164700     3
 OLDACT:UP  21-12-20 15:41 OP:AMMR STATUS:               ID:20201107164700     3
 OLDACT:UP  21-12-20 15:41 OP:AMMR STATUS:               ID:20201107164700     3
 OLDACT:UP  21-12-20 15:39 OP:AMMR STATUS:               ID:20201107164700     3
 OLDACT:UP  20-11-08 11:22 OP:CGRS STATUS:               ID:20201107164700     3
 STAT SP IPHASW D HRMM SECON CODA AMPLIT PERI AZIMU VELO AIN AR TRES W  DIS CAZ7
 PODR BZ EPg    C 1648  7.52   20                        134    0.2710 24.4 329 
 PODR BE ESg      1648 11.51                             134    0.0510 24.4 329 
 PODR BN  IAML    1648 15.46       477.9 0.40                          24.4 329 
 NEDR BZ IP       1648 11.25   20                        100   -0.9510 64.7 330 
 NEDR BN IS       1648 19.21                             100   -0.8810 64.7 330 
 JIDR BZ IP       1648 16.54                              62    0.4410 92.8 308 
 JIDR BE IS       1648 27.07                              62    0.2010 92.8 308 
 REDR BE ESg      1648 43.04                              92    0.8710  155 339 
                                                                                
 2020 11 7 1842  7.00L  18.404 -70.331 38.0  DOM 11 0.9 2.8LDOM 2.9CDOM 3.2WDOM1
 SPEC AVERAGE  MO 13.9 ST 26.9 OM  2.7 f0 5.12 R0.5076 AL 0.00 WI 20.0 MW  3.2 3
 SPEC SD       MO  0.2 ST 44.6 OM  0.5 f0 3.31 R0.3120 AL      WI      MW  0.1 3
 GAP=158        2.54       8.4     4.9  9.7  0.1598E+01 -0.9748E+01 -0.1149E+02E
 SPEC BADRBH N MO 14.0 ST124.7 OM  2.9 f0 11.0 R0.1514 AL-0.00 WI 20.0 MW  3.3 3
 SPEC BADRBH N T184216 K 0.020 GD 38.1 VS 4.50 DE 3.40 Q0400.0 QA 0.70 Q1 0.00 3
 SPEC ABDRBH N MO 13.6 ST  8.2 OM  2.3 f0 5.83 R0.2856 AL-0.00 WI 20.0 MW  3.0 3
 SPEC ABDRBH N T184222 K 0.020 GD 66.8 VS 4.50 DE 3.40 Q0400.0 QA 0.70 Q1 0.00 3
 SPEC SDDRBH N MO 14.1 ST0.706 OM  2.5 f0 1.79 R0.9302 AL-0.00 WI 20.0 MW  3.4 3
 SPEC SDDRBH N T184237 K 0.020 GD  125 VS 4.50 DE 3.40 Q0400.0 QA 0.70 Q1 0.00 3
 SPEC SMDRBH N MO 13.7 ST  1.3 OM  2.0 f0 3.01 R0.5532 AL-0.00 WI 20.0 MW  3.1 3
 SPEC SMDRBH N T184245 K 0.020 GD  159 VS 4.50 DE 3.40 Q0400.0 QA 0.70 Q1 0.00 3
 SPEC SADRBH N MO 13.8 ST0.427 OM  2.1 f0 1.86 R0.8952 AL-0.00 WI 20.0 MW  3.2 3
 SPEC SADRBH N T184248 K 0.020 GD  170 VS 4.50 DE 3.40 Q0400.0 QA 0.70 Q1 0.00 3
 SPEC REDRBH N MO 13.9 ST 26.2 OM  2.1 f0 7.23 R0.2303 AL-0.00 WI 20.0 MW  3.2 3
 SPEC REDRBH N T184248 K 0.020 GD  178 VS 4.50 DE 3.40 Q0400.0 QA 0.70 Q1 0.00 3
 LOCALITY: 13.6 Km al Norte de Bani. Peravia.                                  3
 2020-11-07-1841-00S.MAN___111                                                 6
 OLDACT:ARG 20-11-07 20:02 OP:plst STATUS:               ID:20201107184100     3
 OLDACT:UP  20-11-07 20:42 OP:CGRS STATUS:               ID:20201107184100     3
 OLDACT:UP  20-11-07 20:28 OP:CGRS STATUS:               ID:20201107184100     3
 ACTION:UP  22-01-07 19:21 OP:jmlc STATUS:               ID:20201107184207 L   I
 OLDACT:UP  21-12-20 15:45 OP:AMMR STATUS:               ID:20201107184100     3
 OLDACT:UP  20-11-07 20:47 OP:CGRS STATUS:               ID:20201107184100     3
 STAT SP IPHASW D HRMM SECON CODA AMPLIT PERI AZIMU VELO AIN AR TRES W  DIS CAZ7
 BADR BZ IP     C 1842 12.11   25                        174   -0.6410 3.24 258 
 BADR BN IS     C 1842 18.01                             174    0.9910 3.24 258 
 BADR BN  IAML    1842 19.39      3061.5 0.30                          3.24 258 
 ABDR BZ IP     C 1842 15.83   35                        113   -1.1810 54.9 325 
 ABDR BN IS     C 1842 24.42                             113   -0.0210 54.9 325 
 ABDR BN  IAML    1842 27.29       330.9 0.25                          54.9 325 
 PODR BZ IP     D 1842 21.99   36                         97   -0.8210  104 255 
 PODR BN IS     C 1842 35.62                              97    1.1110  104 255 
 PODR BN  IAML    1842 38.49       333.9 0.50                           104 255 
 SDDR BZ IP     C 1842 23.72   35                         95   -0.9110  120 302 
 SDDR BN IS     C 1842 38.50                              95    0.8210  120 302 
 SDDR BN  IAML    1842 40.03       173.4 0.60                           120 302 
 NEDR BZ IP     C 1842 23.48   41                         95   -1.2010  120 274 
 NEDR BN IS     C 1842 38.28                              95    0.5110  120 274 
 NEDR BN  IAML    1842 41.60        92.0 0.20                           120 274 
 SC01 BZ IP     C 1842 23.13   35                         95   -1.6010  121 340 
 SC01 BN IS     C 1842 38.63                              95    0.7710  121 340 
 SC01 BN  IAML    1842 43.81       131.8 0.65                           121 340 
 SMDR BZ IP     C 1842 27.71   42                         80   -1.2810  155  51 
 SMDR BN IS     C 1842 46.73                              80    1.4610  155  51 
 JIDR BZ IP     C 1842 30.53   54                         80    0.8210  161 274 
 JIDR BN  IAML    1842 59.49        43.9 2.90                           161 274 
 SADR BZ IP     C 1842 31.23   46                         80    0.9710  166  98 
 HIDR BZ IP     C 1842 30.53   40                         80   -0.5010  172  83 
 HIDR BN IS     C 1842 49.20                              80    0.3810  172  83 
 HIDR BN  IAML    1842 57.20       140.4 0.20                           172  83 
 REDR BZ IP     C 1842 30.88   50                         80   -0.4410  174 304 
 REDR BN IS     C 1842 50.07                              80    0.7410  174 304 
 REDR BN  IAML    1842 52.67       297.9 0.20                           174 304 
                                                                                
 2020 11 7 2002 56.80L  18.309 -68.763153.5  DOM 12 0.9 2.9LDOM 3.3CDOM 3.1WDOM1
 SPEC AVERAGE  MO 13.8 ST 30.6 OM  2.2 f0 6.03 R0.3410 AL 0.00 WI 20.0 MW  3.1 3
 SPEC SD       MO  0.4 ST 64.3 OM  0.5 f0 3.40 R0.1526 AL      WI      MW  0.3 3
 GAP= 86        2.52      18.4     6.6 12.6  0.5772E+02  0.8621E+01  0.6639E+02E
 SPEC SADRBH N MO 13.9 ST  2.5 OM  2.2 f0 3.23 R0.5063 AL-0.00 WI 20.0 MW  3.2 3
 SPEC SADRBH N T20 327 K 0.020 GD  154 VS 4.42 DE 3.40 Q0400.0 QA 0.70 Q1 0.00 3
 SPEC HIDRBH N MO 13.8 ST231.7 OM  2.1 f0 15.6 R0.1048 AL-0.00 WI 20.0 MW  3.1 3
 SPEC HIDRBH N T20 329 K 0.020 GD  156 VS 4.42 DE 3.40 Q0400.0 QA 0.70 Q1 0.00 3
 SPEC PCDRBH N MO 13.5 ST  1.4 OM  1.8 f0 3.52 R0.4646 AL-0.00 WI 20.0 MW  2.9 3
 SPEC PCDRBH N T20 331 K 0.020 GD  160 VS 4.42 DE 3.40 Q0400.0 QA 0.70 Q1 0.00 3
 SPEC SMDRBH N MO 14.3 ST  2.6 OM  2.5 f0 2.41 R0.6786 AL-0.00 WI 20.0 MW  3.5 3
 SPEC SMDRBH N T20 338 K 0.020 GD  193 VS 4.42 DE 3.40 Q0400.0 QA 0.70 Q1 0.00 3
 SPEC BADRBH N MO 14.2 ST 28.2 OM  2.4 f0 5.42 R0.3017 AL-0.00 WI 20.0 MW  3.4 3
 SPEC BADRBH N T20 346 K 0.020 GD  228 VS 4.42 DE 3.40 Q0400.0 QA 0.70 Q1 0.00 3
 SPEC AGPRBH N MO 13.7 ST  7.1 OM  1.8 f0 5.39 R0.3034 AL-0.00 WI 20.0 MW  3.0 3
 SPEC AGPRBH N T20 349 K 0.020 GD  233 VS 4.42 DE 3.40 Q0400.0 QA 0.70 Q1 0.00 3
 SPEC MLPRBH N MO 13.0 ST  1.5 OM  1.1 f0 5.45 R0.3001 AL-0.00 WI 20.0 MW  2.6 3
 SPEC MLPRBH N T20 348 K 0.020 GD  241 VS 4.42 DE 3.40 Q0400.0 QA 0.70 Q1 0.00 3
 SPEC ABDRBH N MO 13.6 ST 12.9 OM  1.7 f0 6.89 R0.2374 AL-0.00 WI 20.0 MW  3.0 3
 SPEC ABDRBH N T20 352 K 0.020 GD  255 VS 4.42 DE 3.40 Q0400.0 QA 0.70 Q1 0.00 3
 SPEC AOPRBH N MO 14.3 ST 14.4 OM  2.4 f0 4.14 R0.3950 AL-0.00 WI 20.0 MW  3.5 3
 SPEC AOPRBH N T20 352 K 0.020 GD  261 VS 4.42 DE 3.40 Q0400.0 QA 0.70 Q1 0.00 3
 SPEC CELPBH N MO 13.1 ST  6.2 OM  1.2 f0 7.67 R0.2132 AL-0.00 WI 20.0 MW  2.7 3
 SPEC CELPBH N T20 359 K 0.020 GD  279 VS 4.42 DE 3.40 Q0400.0 QA 0.70 Q1 0.00 3
 SPEC PODRBH N MO 14.0 ST 28.1 OM  2.0 f0 6.66 R0.2456 AL-0.00 WI 20.0 MW  3.3 3
 SPEC PODRBH N T20 4 4 K 0.020 GD  307 VS 4.42 DE 3.40 Q0400.0 QA 0.70 Q1 0.00 3
 LOCALITY: 16.3 Km al SO de San Rafael del Yuma. La Altagracia.                3
 2020-11-07-2002-00S.MAN___111                                                 6
 OLDACT:ARG 20-11-07 20:48 OP:plst STATUS:               ID:20201107200200     3
 OLDACT:UP  20-11-07 20:54 OP:CGRS STATUS:               ID:20201107200200     3
 OLDACT:UP  20-11-07 20:54 OP:CGRS STATUS:               ID:20201107200200     3
 OLDACT:UP  20-11-07 20:53 OP:CGRS STATUS:               ID:20201107200200     3
 ACTION:UP  22-01-07 19:21 OP:jmlc STATUS:               ID:20201107200256 L   I
 OLDACT:UP  20-11-07 20:56 OP:CGRS STATUS:               ID:20201107200200     3
 STAT SP IPHASW D HRMM SECON CODA AMPLIT PERI AZIMU VELO AIN AR TRES W  DIS CAZ7
 SADR BZ IP     C 20 3 14.79   38                        175   -1.4510 13.0 188 
 SADR BN IS     C 20 3 29.41                             175   -1.1910 13.0 188 
 SADR BN  IAML    20 3 34.11       185.7 0.75                          13.0 188 
 HIDR BN IS     C 20 3 30.53                             168   -0.6810 31.7   9 
 HIDR BN  IAML    20 3 31.10       275.4 0.10                          31.7   9 
 PCDR BZ IP     C 20 3 15.92   44                        162   -1.1110 46.2  61 
 PCDR BN IS     C 20 3 33.02                             162    1.0410 46.2  61 
 PCDR BN  IAML    20 3 35.00       101.3 1.40                          46.2  61 
 SMDR BZ IP     C 20 3 19.61   46                        140   -1.5010  117 338 
 SMDR BN IS     C 20 3 39.59                             140    0.5110  117 338 
 SMDR BN  IAML    20 3 44.76       199.0 0.35                           117 338 
 BADR BZ IP     C 20 3 25.24   55                        129   -0.3610  169 274 
 BADR BN IS     C 20 3 48.22                             129    1.3410  169 274 
 BADR BN  IAML    20 3 51.44       321.3 0.30                           169 274 
 AGPR BZ IP     C 20 3 27.00   52                        128    0.9410  176  84 
 AGPR BN  IAML    20 3 55.34        81.8 0.52                           176  84 
 CRPR BZ IP     D 20 3 25.69   66                        127   -0.8010  180 100 
 CRPR BN IS     C 20 3 49.90                             127    1.4610  180 100 
 CRPR BN  IAML    20 3 55.92        36.6 0.60                           180 100 
 MLPR BZ IP       20 3 26.52   60                        126   -0.4810  186 101 
 MLPR BN IS     C 20 3 49.90                             126    0.5710  186 101 
 MLPR BN  IAML    20 3 57.54        14.6 0.40                           186 101 
 ABDR BZ IP     C 20 3 29.40   51                        124    0.2310  204 286 
 ABDR BN IS     C 20 3 54.13                             124    1.0210  204 286 
 AOPR BZ IP     C 20 3 29.15   56                        122   -0.4910  212  89 
 AOPR BN IS     C 20 3 53.87                             122   -0.0510  212  89 
 AOPR BN  IAML    20 4  1.65       229.2 0.32                           212  89 
 CELP BN IP     C 20 3 32.64   55                        120    0.9610  233  96 
 CELP BN  IAML    20 4  6.14        17.8 0.28                           233  96 
 PODR BZ IP     C 20 3 35.46   56                        116    0.0610  267 267 
 PODR BN  IAML    20 4 11.46        88.6 0.25                           267 267 
                                                                                
