 2020  9 1 1639 19.4 L  19.724 -70.862 18.3  DOM 11 1.6 2.4LDOM 2.6CDOM 2.7WDOM1
 SPEC AVERAGE  MO 13.1 ST 13.1 OM  2.7 f0 5.41 R0.8039 AL 0.00 WI 20.0 MW  2.7 3
 SPEC SD       MO  0.6 ST 24.8 OM  0.8 f0 5.48 R1.0400 AL      WI      MW  0.4 3
 GAP= 94        4.36       7.0     6.6  8.7  0.3735E+01  0.8236E+01  0.6571E+01E
 LOCALITY: 3.3 Km al NNO de Guananico, Puerto Plata.                           3
 SPEC MADRBH N MO 13.1 ST0.507 OM  2.6 f0 2.47 R0.4794 AL-0.00 WI 20.0 MW  2.7 3
 SPEC MADRBH N T163931 K 0.020 GD 35.7 VS 3.20 DE 2.60 Q0400.0 QA 0.70 Q1 1.00 3
 SPEC SDDRBH N MO 12.3 ST0.624 OM  1.4 f0 4.79 R0.2472 AL-0.00 WI 20.0 MW  2.2 3
 SPEC SDDRBH N T163950 K 0.020 GD 95.6 VS 3.20 DE 2.60 Q0400.0 QA 0.70 Q1 1.00 3
 SPEC REDRBH N MO 12.8 ST 62.7 OM  1.8 f0 16.0 R0.0740 AL-0.00 WI 20.0 MW  2.5 3
 SPEC REDRBH N T163950 K 0.020 GD  102 VS 3.20 DE 2.60 Q0400.0 QA 0.70 Q1 1.00 3
 SPEC GRTKBH N MO 13.2 ST  1.4 OM  1.9 f0 3.36 R0.3524 AL-0.00 WI 20.0 MW  2.7 3
 SPEC GRTKBH N T164014 K 0.020 GD  200 VS 3.20 DE 2.60 Q0400.0 QA 0.70 Q1 1.00 3
 SPEC HIDRBH N MO 14.3 ST0.034 OM  2.9 f00.413 R2.8668 AL-0.00 WI 20.0 MW  3.5 3
 SPEC HIDRBH N T164039 K 0.020 GD  258 VS 3.20 DE 2.60 Q0400.0 QA 0.70 Q1 1.00 3
 2020-09-01-1638-00S.MAN___126                                                 6
 OLDACT:ARG 20-09-01 21:08 OP:jmlc STATUS:               ID:20200901163800     3
 ACTION:UP  22-06-23 12:36 OP:jmlc STATUS:               ID:20200901163919 L   I
 OLDACT:UP  20-09-01 23:35 OP:JMLC STATUS:               ID:20200901163800     3
 OLDACT:UP  20-09-01 21:23 OP:JMLC STATUS:               ID:20200901163800     3
 OLDACT:UP  20-09-01 21:18 OP:JMLC STATUS:               ID:20200901163800     3
 OLDACT:UP  20-09-01 21:17 OP:JMLC STATUS:               ID:20200901163800     3
 STAT SP IPHASW D HRMM SECON CODA AMPLIT PERI AZIMU VELO AIN AR TRES W  DIS CAZ7
 LUDR BZ EP       1639 25.48                             126    0.4310 21.0 333 
 LUDR BE ES       1639 28.85                             126   -0.4810 21.0 333 
 MADR BZ IP       1639 28.76   19                        114    2.1510 30.7 235 
 MADR BN  IAML    1639 41.68       412.9 0.50                          30.7 235 
 SODR BZ IP       1639 31.67                             103    1.6410 50.2  86 
 SODR BN IS       1639 36.26                             103   -1.8310 50.2  86 
 MCDR BZ EP       1639 36.18   29                         64    0.2010 85.3 283 
 MCDR BN IS       1639 46.11                              64   -2.4610 85.3 283 
 MCDR BN  IAML    1639 52.99        99.7 0.30                          85.3 283 
 SDDR BZ EPg    C 1639 38.70   25                         96    0.6210 93.8 209 
 SDDR BN IS       1639 51.78                              64    0.5810 93.8 209 
 SDDR BN  IAML    1639 52.50        29.7 0.50                          93.8 209 
 REDR BZ IP       1639 38.64   25                         64   -0.0610  101 241 
 REDR BN IS       1639 52.02                              64   -1.3310  101 241 
 REDR BN  IAML    1639 53.48       161.8 0.15                           101 241 
 BADR BZ EPg    C 1639 49.52   37                         93   -0.0710  156 160 
 BADR BN ESg    D 1640  9.15                              93   -3.3810  156 160 
 BADR BN  IAML    1640 35.14        61.1 0.30                           156 160 
 PODR BZ IP       1639 52.41   42                         46    2.4510  178 194 
 PODR BN  IAML    1640 41.44        49.5 1.50                           178 194 
 SMDR BZ EPg    D 1639 53.61                              93   -0.7210  182 105 
 SMDR BN IS       1640 13.65                              46    0.0810  182 105 
 SMDR BN  IAML    1640 30.09        64.6 0.95                           182 105 
 GRTK BZ IP       1639 54.47   32                         42    2.0610  200 352 
 GRTK BN IS       1640 15.61                              42   -1.8810  200 352 
 GRTK BN  IAML    1640 15.96       116.3 0.30                           200 352 
 HIDR BZ IP       1640  1.68   33                         42    2.0010  258 119 
 HIDR BN  IAML    1640 41.22        53.9 0.70                           258 119 
                                                                                
 2020  9 2 0752 59.3 L  19.628 -70.405 32.2  DOM 10 0.5 2.2LDOM 2.7CDOM 2.8WDOM1
 SPEC AVERAGE  MO 13.3 ST  5.9 OM  2.2 f0 5.24 R0.5035 AL 0.00 WI 20.0 MW  2.8 3
 SPEC SD       MO  0.4 ST  9.1 OM  0.8 f0 3.23 R0.3634 AL      WI      MW  0.3 3
 GAP=169        1.44       4.3     5.9  9.8  0.1297E+02  0.3814E+02  0.2951E+02E
 LOCALITY: 13.7 Km al Norte de Gaspar Hernandez. Oceano Atlantico.             3
 SPEC SODRBH N MO 13.9 ST0.214 OM  2.9 f0 1.36 R1.2107 AL-0.00 WI 20.0 MW  3.2 3
 SPEC SODRBH N T 753 9 K 0.020 GD 35.1 VS 4.45 DE 3.36 Q0400.0 QA 0.70 Q1 1.00 3
 SPEC MADRBH N MO 13.6 ST0.485 OM  2.2 f0 2.32 R0.7097 AL-0.00 WI 20.0 MW  3.0 3
 SPEC MADRBH N T 75322 K 0.020 GD 80.2 VS 4.45 DE 3.36 Q0400.0 QA 0.70 Q1 1.00 3
 SPEC SDDRBH N MO 12.8 ST0.429 OM  1.2 f0 4.18 R0.3939 AL-0.00 WI 20.0 MW  2.5 3
 SPEC SDDRBH N T 75334 K 0.020 GD  121 VS 4.45 DE 3.36 Q0400.0 QA 0.70 Q1 1.00 3
 SPEC BADRBH N MO 13.1 ST  8.4 OM  1.5 f0 8.54 R0.1928 AL-0.00 WI 20.0 MW  2.7 3
 SPEC BADRBH N T 75338 K 0.020 GD  139 VS 4.45 DE 3.36 Q0400.0 QA 0.70 Q1 1.00 3
 SPEC REDRBH N MO 13.4 ST 25.1 OM  1.7 f0 10.4 R0.1583 AL-0.00 WI 20.0 MW  2.8 3
 SPEC REDRBH N T 75340 K 0.020 GD  145 VS 4.45 DE 3.36 Q0400.0 QA 0.70 Q1 1.00 3
 SPEC NEDRBH N MO 12.8 ST0.646 OM  1.1 f0 4.63 R0.3556 AL-0.00 WI 20.0 MW  2.5 3
 SPEC NEDRBH N T 75346 K 0.020 GD  169 VS 4.45 DE 3.36 Q0400.0 QA 0.70 Q1 1.00 3
 2020-09-02-0752-00S.MAN___126                                                 6
 OLDACT:ARG 20-09-02 09:47 OP:cgrs STATUS:               ID:20200902075200     3
 ACTION:UP  22-06-23 12:36 OP:jmlc STATUS:               ID:20200902075259 L   I
 OLDACT:UP  20-09-02 09:59 OP:CGRS STATUS:               ID:20200902075200     3
 STAT SP IPHASW D HRMM SECON CODA AMPLIT PERI AZIMU VELO AIN AR TRES W  DIS CAZ7
 SODR BZ EPg    C  753  5.75   31                        150   -0.0710 13.9   9 
 SODR BN ESg    D  753 10.75                             150   -0.0410 13.9   9 
 SODR BN  IAML     753 22.63       320.2 0.90                          13.9   9 
 SC01 BZ EPg    C  753  9.16   35                        110    0.3010 40.5 237 
 SC01 BN  IAML     753 18.29        41.3 0.25                          40.5 237 
 LUDR BZ EPg    D  753 12.62   19                         95    0.3310 64.5 297 
 MADR BZ EPg    C  753 13.60   41                         94   -0.0210 73.5 265 
 MADR BN  IAML     753 33.71       139.9 0.60                          73.5 265 
 ABDR BZ EPg    C  753 17.65   33                         93    0.6810 93.3 195 
 ABDR BN ESg    C  753 30.85                              93    0.4310 93.3 195 
 ABDR BN  IAML     753 31.50        87.2 1.10                          93.3 195 
 SDDR BZ EPg    D  753 19.56   38                         92   -0.6010  117 233 
 SDDR BN ESg    D  753 36.09                              92    0.0610  117 233 
 SDDR BN  IAML     753 38.74        28.3 1.85                           117 233 
 MCDR BZ EPg    C  753 21.76   34                         91   -0.8010  134 283 
 MCDR BN ESg    C  753 40.22                              91   -0.0510  134 283 
 MCDR BN  IAML     754 23.00        69.7 1.20                           134 283 
 BADR BZ EPg    C  753 23.22   44                         91    0.2410  136 178 
 BADR BN ESg    C  753 39.74                              91   -1.2610  136 178 
 BADR BN  IAML     753 44.37        57.3 0.20                           136 178 
 REDR BZ EPg    C  753 23.65   37                         91   -0.0810  142 254 
 REDR BN ESg    D  753 42.19                              91   -0.1210  142 254 
 REDR BN  IAML     753 43.74       150.5 0.15                           142 254 
 NEDR BZ EPg    C  753 28.26   45                         91    1.1110  166 220 
 NEDR BN ESg    C  753 48.22                              91   -0.1110  166 220 
 NEDR BN  IAML     753 57.79        14.3 0.45                           166 220 
                                                                                
 2020  9 2 0808 29.2 L  19.122 -69.768 30.1  DOM 12 0.9 2.7LDOM 3.0CDOM 3.3WDOM1
 SPEC AVERAGE  MO 14.1 ST  5.3 OM  2.9 f0 3.38 R2.2724 AL 0.00 WI 20.0 MW  3.3 3
 SPEC SD       MO  0.8 ST  9.7 OM  0.9 f0 2.69 R3.8276 AL      WI      MW  0.5 3
 GAP= 93        2.29       6.0     4.4 19.1 -0.2272E+01 -0.1075E+02  0.6879E+02E
 LOCALITY: 8.8 Km al ESE de Arenoso, Duarte.                                   3
 SPEC SMDRBH N MO 14.2 ST0.575 OM  2.8 f0 1.61 R1.0342 AL-0.00 WI 20.0 MW  3.4 3
 SPEC SMDRBH N T 8 849 K 0.020 GD 70.5 VS 4.50 DE 3.40 Q0400.0 QA 0.70 Q1 1.00 3
 SPEC SDD BH N MO 13.4 ST  2.1 OM  2.0 f0 4.42 R0.3767 AL-0.00 WI 20.0 MW  2.9 3
 SPEC SDD BH N T 8 852 K 0.020 GD 80.4 VS 4.50 DE 3.40 Q0400.0 QA 0.70 Q1 1.00 3
 SPEC BADRBH N MO 13.6 ST 26.9 OM  2.1 f0 8.66 R0.1923 AL-0.00 WI 20.0 MW  3.0 3
 SPEC BADRBH N T 8 859 K 0.020 GD  106 VS 4.50 DE 3.40 Q0400.0 QA 0.70 Q1 1.00 3
 SPEC ABDRBH N MO 15.8 ST0.023 OM  4.3 f00.154 R 10.81 AL-0.00 WI 20.0 MW  4.5 3
 SPEC ABDRBH N T 8 859 K 0.020 GD  101 VS 4.50 DE 3.40 Q0400.0 QA 0.70 Q1 1.00 3
 SPEC SC01BH N MO 13.9 ST  1.4 OM  2.3 f0 2.73 R0.6099 AL-0.00 WI 20.0 MW  3.2 3
 SPEC SC01BH N T 8 9 2 K 0.020 GD  110 VS 4.50 DE 3.40 Q0400.0 QA 0.70 Q1 1.00 3
 SPEC SDDRBH N MO 13.5 ST0.650 OM  1.8 f0 2.73 R0.6099 AL-0.00 WI 20.0 MW  3.0 3
 SPEC SDDRBH N T 8 916 K 0.020 GD  163 VS 4.50 DE 3.40 Q0400.0 QA 0.70 Q1 1.00 3
 2020-09-02-0808-00S.MAN___126                                                 6
 OLDACT:ARG 20-09-02 10:03 OP:cgrs STATUS:               ID:20200902080800     3
 ACTION:UP  22-06-23 12:36 OP:jmlc STATUS:               ID:20200902080829 L   I
 OLDACT:UP  20-09-02 10:12 OP:CGRS STATUS:               ID:20200902080800     3
 OLDACT:UP  20-09-02 10:11 OP:CGRS STATUS:               ID:20200902080800     3
 OLDACT:UP  20-09-02 10:11 OP:CGRS STATUS:               ID:20200902080800     3
 STAT SP IPHASW D HRMM SECON CODA AMPLIT PERI AZIMU VELO AIN AR TRES W  DIS CAZ7
 NADR BZ EPg    C  8 8 36.93   46                        123    0.1110 27.2 340 
 NADR BN ESg    D  8 8 42.07                             123   -0.5810 27.2 340 
 NADR BN  IAML     8 8 43.13      2396.1 0.20                          27.2 340 
 NADR BE  IAML     8 8 43.81      1361.6 0.20                          27.2 340 
 SMDR BZ EPg       8 8 41.88   30                         90   -0.1710 63.8  73 
 SMDR BN ESg       8 8 51.33                              90   -0.5210 63.8  73 
 SMDR BN  IAML     8 8 52.93       444.6 0.70                          63.8  73 
 SDD  BZ EPg       8 8 44.37   30                         90    0.7210 74.6 192 
 SDD  BN ESg    D  8 8 54.35                              90   -0.3010 74.6 192 
 SDD  BN  IAML     8 8 56.60       126.8 0.25                          74.6 192 
 ABDR BZ EPg    C  8 8 47.43   35                         90    0.0810 96.7 249 
 BADR BZ EPg    C  8 8 48.64   45                         90    0.8610  102 218 
 BADR BN ESg    C  8 9  0.59                              90   -1.3410  102 218 
 BADR BN  IAML     8 9  4.21       322.1 0.15                           102 218 
 SC01 BZ EPg    C  8 8 49.36   44                         90    1.0110  106 289 
 SC01 BN  IAML     8 9  5.63       168.4 1.00                           106 289 
 HIDR BZ EPg       8 8 51.33   65                         90    0.1910  126 118 
 HIDR BE ESg    D  8 9  6.97                              90   -0.8810  126 118 
 HIDR BE  IAML     8 9  9.32       108.4 0.25                           126 118 
 LUDR BZ EPg    C  8 8 55.34   36                         90    0.4810  151 305 
 PCDR BZ EPg       8 8 57.90   65                         90    1.5510  161 114 
 PCDR BN  IAML     8 9 24.37        49.8 0.65                           161 114 
 SDDR BZ EPg    C  8 8 57.45   45                         90    1.0110  161 265 
 SDDR BN  IAML     8 9 23.79        56.6 0.45                           161 265 
 NEDR BZ EPg    C  8 8 59.70   56                         90   -0.5810  188 248 
 MCDR BZ EPg    C  8 9  2.79   55                         90   -1.6310  216 294 
 MCDR BN  IAML     8 9 50.55        82.3 1.35                           216 294 
                                                                                
 2020  9 2 1629 12.5 L  19.865 -71.848 36.7  DOM  7 0.7 2.5LDOM 2.8CDOM 2.5WDOM1
 SPEC AVERAGE  MO 12.8 ST 35.9 OM  2.8 f0 11.4 R0.1425 AL 0.00 WI 20.0 MW  2.5 3
 SPEC SD       MO  0.3 ST 26.1 OM  1.1 f0 3.93 R0.0639 AL      WI      MW  0.2 3
 GAP=215        1.68       4.2    21.2 11.1 -0.1913E+02  0.1071E+03  0.1119E+01E
 LOCALITY: 44.7 Km al Oeste de San Fernando de Montecristi. Oceano Atlantico.  3
 SPEC MCDRBH N MO 13.0 ST 43.0 OM  2.2 f0 13.6 R0.1015 AL-0.00 WI 20.0 MW  2.6 3
 SPEC MCDRBH N T162924 K 0.020 GD 41.9 VS 3.73 DE 2.83 Q0400.0 QA 0.70 Q1 1.00 3
 SPEC REDRBH N MO 13.1 ST 63.7 OM  2.0 f0 14.8 R0.0932 AL-0.00 WI 20.0 MW  2.7 3
 SPEC REDRBH N T162933 K 0.020 GD 76.3 VS 3.73 DE 2.83 Q0400.0 QA 0.70 Q1 1.00 3
 SPEC SDDRBH N MO 12.5 ST  1.0 OM  1.2 f0 5.93 R0.2327 AL-0.00 WI 20.0 MW  2.3 3
 SPEC SDDRBH N T162947 K 0.020 GD  119 VS 3.73 DE 2.83 Q0400.0 QA 0.70 Q1 1.00 3
 SPEC QMBUHH N MO 13.0 ST0.137 OM  1.4 f0 2.09 R0.6603 AL-0.00 WI 20.0 MW  2.6 3
 SPEC QMBUHH N T163034 K 0.020 GD  232 VS 3.73 DE 2.83 Q0400.0 QA 0.70 Q1 1.00 3
 2020-09-02-1628-00S.MAN___126                                                 6
 OLDACT:ARG 20-09-02 17:58 OP:AMMR STATUS:               ID:20200902162800     3
 ACTION:UP  22-06-23 12:36 OP:jmlc STATUS:               ID:20200902162912 L   I
 OLDACT:UP  20-09-02 19:40 OP:AMMR STATUS:               ID:20200902162800     3
 OLDACT:UP  20-09-02 18:06 OP:AMMR STATUS:               ID:20200902162800     3
 OLDACT:UP  20-09-02 18:05 OP:AMMR STATUS:               ID:20200902162800     3
 STAT SP IPHASW D HRMM SECON CODA AMPLIT PERI AZIMU VELO AIN AR TRES W  DIS CAZ7
 QMBU HZ EPg      1629 57.65                              90                    
 QMBU BN  IAML    1630 42.03        18.1 1.16                                   
 MCDR BZ EPg    C 1629 20.73   36                        145    0.6110 20.2  81 
 MCDR BE ESg    D 1629 25.76                             145   -0.1510 20.2  81 
 MCDR BE  IAML    1629 26.61       401.8 0.15                          20.2  81 
 MCDR BN  IAML    1629 27.04       497.6 0.10                          20.2  81 
 REDR BZ EPg    D 1629 26.81   47                        103    0.7110 66.9 167 
 REDR BN ESg    D 1629 35.26                             103   -1.1710 66.9 167 
 REDR BN  IAML    1629 36.03       318.8 0.15                          66.9 167 
 REDR BE  IAML    1629 37.34       181.5 0.30                          66.9 167 
 LUDR BE  IAML    1629 52.09       356.6 0.25                          93.7  88 
 SDDR BN ESg    C 1629 48.90                              95    0.4310  114 149 
 JIDR BN  IAML    1630  0.29        28.0 0.21                           152 180 
 JIDR BE  IAML    1630  1.88        34.0 0.29                           152 180 
 GRTK BE ESg      1630  9.28                              92   -0.4110  197  22 
 GRTK BN  IAML    1630 53.08        74.0 2.55                           197  22 
                                                                                
