 2020  1 2 0012  1.70L  17.886 -66.910 15.0  DOM  6 0.8 3.3LDOM 3.5CDOM 3.6WDOM1
 SPEC AVERAGE  MO 14.4 ST  5.0 OM  3.5 f0 2.13 R0.8800 AL 0.00 WI 20.0 MW  3.6 3
 SPEC SD       MO  0.2 ST  5.2 OM  0.8 f00.892 R0.3990 AL      WI      MW  0.2 3
 GAP=273        2.11      11.8     7.6 16.9 -0.5007E+02 -0.4078E+01  0.2900E+02E
 SPEC CRPRBH N MO 14.4 ST 15.7 OM  3.6 f0 3.69 R0.4191 AL-0.00 WI 20.0 MW  3.6 3
 SPEC CRPRBH N T 012 8 K 0.020 GD 27.6 VS 4.18 DE 3.13 Q0400.0 QA 0.70 Q1 0.00 3
 SPEC AOPRBH N MO 14.7 ST  6.4 OM  3.6 f0 2.16 R0.7160 AL-0.00 WI 20.0 MW  3.8 3
 SPEC AOPRBH N T 01214 K 0.020 GD 55.7 VS 4.18 DE 3.13 Q0400.0 QA 0.70 Q1 0.00 3
 SPEC AGPRBH N MO 14.7 ST  4.4 OM  3.5 f0 1.91 R0.8097 AL-0.00 WI 20.0 MW  3.8 3
 SPEC AGPRBH N T 01220 K 0.020 GD 69.6 VS 4.18 DE 3.13 Q0400.0 QA 0.70 Q1 0.00 3
 SPEC HIDRBH N MO 14.1 ST  2.9 OM  2.4 f0 2.69 R0.5749 AL-0.00 WI 20.0 MW  3.3 3
 SPEC HIDRBH N T 01254 K 0.020 GD  206 VS 4.18 DE 3.13 Q0400.0 QA 0.70 Q1 0.00 3
 SPEC MIDRHH N MO 14.2 ST0.463 OM  2.4 f0 1.36 R1.1372 AL-0.00 WI 20.0 MW  3.4 3
 SPEC MIDRHH N T 01310 K 0.020 GD  257 VS 4.18 DE 3.13 Q0400.0 QA 0.70 Q1 0.00 3
 SPEC HMDRBH N MO 14.4 ST0.275 OM  2.6 f00.953 R1.6229 AL-0.00 WI 20.0 MW  3.6 3
 SPEC HMDRBH N T 01314 K 0.020 GD  280 VS 4.18 DE 3.13 Q0400.0 QA 0.70 Q1 0.00 3
 LOCALITY: 34.1 Km al OSO de Ponce, Region de Puerto Rico.                     3
 2020-01-02-0011-00S.MAN___144                                                 6
 OLDACT:ARG 20-01-02 00:22 OP:nr   STATUS:               ID:20200102001100     3
 OLDACT:UP  20-01-02 00:38 OP:AMMR STATUS:               ID:20200102001100     3
 ACTION:UP  21-12-07 16:32 OP:JMLC STATUS:               ID:20200102001201 L   I
 OLDACT:UP  20-04-19 16:56 OP:JMLC STATUS:               ID:20200102001201 L   3
 STAT SP IPHASW D HRMM SECON CODA AMPLIT PERI AZIMU VELO AIN AR TRES W  DIS CAZ7
 CRPR BZ EPg    C  012  6.76   46                        118    0.6110 23.2 305 
 CRPR BE ESg    C  012  9.83                             118    0.4210 23.2 305 
 CRPR BN  IAML     012 11.73      7964.0 0.20                          23.2 305 
 AOPR BZ EPg    D  012 10.68   63                         98    0.0910 53.6  18 
 AOPR BE ESg    C  012 16.06                              98   -1.0710 53.6  18 
 AOPR BN  IAML     012 18.46      3521.3 0.30                          53.6  18 
 AGPR BZ EPg    C  012 13.23   63                         95    0.4810 68.0 342 
 AGPR BE ESg    D  012 21.52                              95    0.6310 68.0 342 
 AGPR BN  IAML     012 21.92      5089.4 0.30                          68.0 342 
 HIDR BZ EPg    C  012 34.20   85                         91    0.5210  206 293 
 HIDR BE ESg    C  012 56.02                              91   -1.2810  206 293 
 HIDR BN  IAML     013  9.95       191.4 0.60                           206 293 
 MIDR HZ EPg    C  012 41.42  109                         91    0.1210  257 299 
 MIDR HE ESg    C  013 11.83                              91    1.2610  257 299 
 MIDR BN  IAML     013 26.44        70.7 1.70                           257 299 
 HMDR BZ EPg    C  012 44.16   97                         91   -0.6410  280 291 
 HMDR BE ESg    C  013 15.52                              91   -1.1410  280 291 
 HMDR BN  IAML     013 24.40        70.9 1.00                           280 291 
                                                                                
 2020  1 2 0016 39.60L  17.921 -66.846 12.1  DOM  3 0.7 1.8LDOM 2.7CDOM 2.3WDOM1
 SPEC AVERAGE  MO 12.6 ST  1.5 OM  2.9 f0 6.30 R0.2233 AL 0.00 WI 20.0 MW  2.3 3
 SPEC SD       MO  0.1 ST0.392 OM  1.2 f00.859 R0.0318 AL      WI      MW  0.0 3
 GAP=279        1.78      11.5    11.2 33.6 -0.7123E+02 -0.2100E+03  0.4364E+02E
 SPEC CRPRBH N MO 12.5 ST  1.9 OM  1.8 f0 7.28 R0.1896 AL-0.00 WI 20.0 MW  2.3 3
 SPEC CRPRBH N T 01646 K 0.020 GD 30.0 VS 3.73 DE 2.83 Q0400.0 QA 0.70 Q1 0.00 3
 SPEC AOPRBH N MO 12.6 ST  1.7 OM  1.7 f0 6.44 R0.2143 AL-0.00 WI 20.0 MW  2.3 3
 SPEC AOPRBH N T 01651 K 0.020 GD 49.6 VS 3.73 DE 2.83 Q0400.0 QA 0.70 Q1 0.00 3
 SPEC AGPRBH N MO 12.6 ST0.974 OM  1.6 f0 5.19 R0.2659 AL-0.00 WI 20.0 MW  2.4 3
 SPEC AGPRBH N T 01657 K 0.020 GD 68.0 VS 3.73 DE 2.83 Q0400.0 QA 0.70 Q1 0.00 3
 LOCALITY: 26.5 Km al OSO de Ponce, Region de Puerto Rico.                     3
 2020-01-02-0016-00S.MAN___144                                                 6
 OLDACT:ARG 20-01-02 00:22 OP:nr   STATUS:               ID:20200102001600     3
 OLDACT:UP  20-01-02 00:47 OP:AMMR STATUS:               ID:20200102001600     3
 ACTION:UP  21-12-07 16:32 OP:JMLC STATUS:               ID:20200102001639 L   I
 STAT SP IPHASW D HRMM SECON CODA AMPLIT PERI AZIMU VELO AIN AR TRES W  DIS CAZ7
 CRPR BZ EPg    C  016 44.81   28                        114    0.4010 27.4 290 
 CRPR BE ESg    C  016 47.79                             114   -0.2010 27.4 290 
 CRPR BN  IAML     016 49.82       208.3 0.20                          27.4 290 
 AOPR BZ EPg    C  016 48.37   48                        104    0.7910 48.1  12 
 AOPR BE ESg    C  016 53.09                             104   -0.4210 48.1  12 
 AOPR BN  IAML     016 57.21        67.8 0.30                          48.1  12 
 AGPR BZ EPg    C  016 49.30   40                        100   -1.2310 66.9 335 
 AGPR BE ESg    C  016 59.31                             100    0.6610 66.9 335 
 AGPR BN  IAML     017  0.68        54.2 0.50                          66.9 335 
                                                                                
 2020  1 2 0025 48.00L  19.178 -67.534 19.9  DOM  5 0.4 2.3LDOM 3.3CDOM 2.8WDOM1
 SPEC AVERAGE  MO 13.2 ST  2.9 OM  2.2 f0 4.80 R0.3626 AL 0.00 WI 20.0 MW  2.8 3
 SPEC SD       MO  0.3 ST  2.9 OM  0.7 f0 1.44 R0.0977 AL      WI      MW  0.2 3
 GAP=236        1.14      10.9     4.7 72.6  0.3899E+02 -0.5974E+02 -0.4808E+03E
 LOCALITY: 160.4 Km al Este de Miches, Oceano Atlantico.                       3
 SPEC AGPRBH N MO 13.3 ST  8.4 OM  1.9 f0 7.27 R0.2204 AL-0.00 WI 20.0 MW  2.8 3
 SPEC AGPRBH N T 02611 K 0.020 GD 92.4 VS 4.33 DE 3.26 Q0400.0 QA 0.70 Q1 0.00 3
 SPEC AOPRBH N MO 13.5 ST  3.3 OM  2.0 f0 4.48 R0.3576 AL-0.00 WI 20.0 MW  3.0 3
 SPEC AOPRBH N T 02620 K 0.020 GD  124 VS 4.33 DE 3.26 Q0400.0 QA 0.70 Q1 0.00 3
 SPEC CRPRBH N MO 13.5 ST  1.2 OM  1.9 f0 3.34 R0.4797 AL-0.00 WI 20.0 MW  2.9 3
 SPEC CRPRBH N T 02624 K 0.020 GD  139 VS 4.33 DE 3.26 Q0400.0 QA 0.70 Q1 0.00 3
 SPEC MIDRHH N MO 12.9 ST  1.2 OM  1.2 f0 5.41 R0.2961 AL-0.00 WI 20.0 MW  2.5 3
 SPEC MIDRHH N T 02630 K 0.020 GD  162 VS 4.33 DE 3.26 Q0400.0 QA 0.70 Q1 0.00 3
 SPEC HMDRBH N MO 12.9 ST0.400 OM  1.2 f0 3.49 R0.4591 AL-0.00 WI 20.0 MW  2.6 3
 SPEC HMDRBH N T 02640 K 0.020 GD  199 VS 4.33 DE 3.26 Q0400.0 QA 0.70 Q1 0.00 3
 2020-01-02-0025-00S.MAN___144                                                 6
 OLDACT:ARG 20-01-02 00:50 OP:nr   STATUS:               ID:20200102002500     3
 OLDACT:UP  20-01-02 02:17 OP:AMMR STATUS:               ID:20200102002500     3
 OLDACT:UP  20-01-02 01:33 OP:AMMR STATUS:               ID:20200102002500     3
 OLDACT:UP  20-01-02 01:06 OP:AMMR STATUS:               ID:20200102002500     3
 OLDACT:UP  20-01-02 00:55 OP:AMMR STATUS:               ID:20200102002500     3
 OLDACT:UP  20-01-02 00:55 OP:AMMR STATUS:               ID:20200102002500     3
 ACTION:UP  21-12-07 16:32 OP:JMLC STATUS:               ID:20200102002548 L   I
 OLDACT:UP  20-04-19 16:56 OP:JMLC STATUS:               ID:20200102002548 L   3
 STAT SP IPHASW D HRMM SECON CODA AMPLIT PERI AZIMU VELO AIN AR TRES W  DIS CAZ7
 AGPR BZ EPg    C  026  2.69   42                         98    0.2710 90.2 150 
 AGPR BE ESg    C  026 12.96                              98   -0.1210 90.2 150 
 AGPR BN  IAML     026 13.31       172.6 0.20                          90.2 150 
 AOPR BZ EPg    C  026  7.82   74                         95    0.3910  123 138 
 AOPR BE ESg    C  026 22.05                              95    0.2410  123 138 
 AOPR BN  IAML     026 28.45        75.8 0.25                           123 138 
 CRPR BZ EPg    C  026  8.80   54                         94   -0.8110  138 160 
 CRPR BE ESg    C  026 25.62                              94    0.0310  138 160 
 CRPR BN  IAML     026 29.25        77.2 0.30                           138 160 
 MIDR HZ EPg    C  026 12.36   56                         94   -0.7410  161 263 
 MIDR HE ESg    C  026 32.08                              94    0.4110  161 263 
 MIDR BN  IAML     026 35.41        23.2 0.42                           161 263 
 HMDR BZ EPg    D  026 19.31   74                         93    0.4010  199 258 
 HMDR BE ESg    C  026 41.70                              93   -0.0710  199 258 
 HMDR BN  IAML     026 43.35        16.7 1.10                           199 258 
                                                                                
 2020  1 2 0043 20.30L  17.946 -66.826  0.1  DOM  3 0.1 1.9LDOM 2.9CDOM 2.2WDOM1
 SPEC AVERAGE  MO 12.3 ST  1.7 OM  2.5 f0 6.68 R0.1794 AL 0.00 WI 20.0 MW  2.2 3
 SPEC SD       MO  0.1 ST0.441 OM  0.8 f00.767 R0.0191 AL      WI      MW  0.1 3
 GAP=274        0.37       2.6     2.5255.8 -0.4221E+01  0.1628E+03  0.1552E+03E
 SPEC CRPRBH N MO 12.2 ST  2.0 OM  1.8 f0 7.76 R0.1526 AL-0.00 WI 20.0 MW  2.1 3
 SPEC CRPRBH N T 04326 K 0.020 GD 28.6 VS 3.20 DE 2.60 Q0400.0 QA 0.70 Q1 0.00 3
 SPEC AOPRBH N MO 12.5 ST  2.0 OM  1.9 f0 6.23 R0.1900 AL-0.00 WI 20.0 MW  2.3 3
 SPEC AOPRBH N T 04331 K 0.020 GD 44.9 VS 3.20 DE 2.60 Q0400.0 QA 0.70 Q1 0.00 3
 SPEC AGPRBH N MO 12.3 ST  1.1 OM  1.5 f0 6.05 R0.1957 AL-0.00 WI 20.0 MW  2.1 3
 SPEC AGPRBH N T 04337 K 0.020 GD 65.3 VS 3.20 DE 2.60 Q0400.0 QA 0.70 Q1 0.00 3
 LOCALITY: 23.6 Km al OSO de Ponce, Region de Puerto Rico.                     3
 2020-01-02-0043-00S.MAN___144                                                 6
 OLDACT:ARG 20-01-02 00:51 OP:nr   STATUS:               ID:20200102004300     3
 OLDACT:UP  20-01-02 01:26 OP:AMMR STATUS:               ID:20200102004300     3
 ACTION:UP  21-12-07 16:32 OP:JMLC STATUS:               ID:20200102004320 L   I
 OLDACT:UP  20-04-19 16:56 OP:JMLC STATUS:               ID:20200102004320 L   3
 STAT SP IPHASW D HRMM SECON CODA AMPLIT PERI AZIMU VELO AIN AR TRES W  DIS CAZ7
 CRPR BZ EPg    C  043 25.05   42                         90    0.0910 28.6 283 
 CRPR BE ESg    C  043 28.27                              90   -0.1010 28.6 283 
 CRPR BN  IAML     043 29.50       150.2 0.20                          28.6 283 
 AOPR BZ IPn    C  043 27.78   58                                      44.9  10 
 AOPR BE ESg    C  043 32.89                              91   -0.0610 44.9  10 
 AOPR BN  IAML     043 34.32       176.8 0.20                          44.9  10 
 AGPR BZ EPg       043 30.84   34                         90   -0.0310 65.3 333 
 AGPR BE ESg    C  043 38.75                              90    0.0910 65.3 333 
 AGPR BN  IAML     043 56.28        53.0 1.70                          65.3 333 
                                                                                
 2020  1 2 0059 52.00L  17.911 -66.801 20.2  DOM  5 0.7 2.4LDOM 3.3CDOM 2.8WDOM1
 SPEC AVERAGE  MO 13.3 ST  8.2 OM  2.3 f0 6.09 R0.3395 AL 0.00 WI 20.0 MW  2.8 3
 SPEC SD       MO  0.3 ST  6.7 OM  0.8 f0 2.08 R0.2143 AL      WI      MW  0.2 3
 GAP=283        1.72      10.0     7.9 16.3 -0.4484E+02  0.7068E+01 -0.1949E+02E
 SPEC CRPRBH N MO 13.5 ST 15.6 OM  2.4 f0 8.14 R0.2005 AL-0.00 WI 20.0 MW  2.9 3
 SPEC CRPRBH N T 05960 K 0.020 GD 38.1 VS 4.41 DE 3.32 Q0400.0 QA 0.70 Q1 0.00 3
 SPEC AOPRBH N MO 13.7 ST 15.8 OM  2.5 f0 6.81 R0.2396 AL-0.00 WI 20.0 MW  3.1 3
 SPEC AOPRBH N T 1 0 4 K 0.020 GD 52.5 VS 4.41 DE 3.32 Q0400.0 QA 0.70 Q1 0.00 3
 SPEC AGPRBH N MO 13.3 ST  8.3 OM  2.0 f0 7.23 R0.2257 AL-0.00 WI 20.0 MW  2.8 3
 SPEC AGPRBH N T 1 010 K 0.020 GD 72.9 VS 4.41 DE 3.32 Q0400.0 QA 0.70 Q1 0.00 3
 SPEC MIDRHH N MO 12.7 ST  1.2 OM  0.8 f0 6.14 R0.2657 AL-0.00 WI 20.0 MW  2.4 3
 SPEC MIDRHH N T 1 059 K 0.020 GD  266 VS 4.41 DE 3.32 Q0400.0 QA 0.70 Q1 0.00 3
 SPEC HMDRBH N MO 13.2 ST0.169 OM  1.3 f0 2.13 R0.7661 AL-0.00 WI 20.0 MW  2.8 3
 SPEC HMDRBH N T 1 1 6 K 0.020 GD  289 VS 4.41 DE 3.32 Q0400.0 QA 0.70 Q1 0.00 3
 LOCALITY: 27.9 Km al OSO de Ponce, Region de Puerto Rico.                     3
 2020-01-02-0058-00S.MAN___144                                                 6
 OLDACT:ARG 20-01-02 01:19 OP:nr   STATUS:               ID:20200102005800     3
 OLDACT:UP  20-01-02 01:40 OP:AMMR STATUS:               ID:20200102005800     3
 ACTION:UP  21-12-07 16:32 OP:JMLC STATUS:               ID:20200102005952 L   I
 STAT SP IPHASW D HRMM SECON CODA AMPLIT PERI AZIMU VELO AIN AR TRES W  DIS CAZ7
 CRPR BZ EPg    C  059 57.88   42                        114   -0.1010 32.3 289 
 CRPR BE ESg    C  1 0  1.98                             114   -0.4310 32.3 289 
 CRPR BN  IAML     1 0  2.23       626.9 0.20                          32.3 289 
 AOPR BZ EPg    C  1 0  0.58   62                        100    0.3210 48.5   6 
 AOPR BE ESg    C  1 0  6.05                             100   -0.3210 48.5   6 
 AOPR BN  IAML     1 0  7.05       686.8 0.20                          48.5   6 
 AGPR BZ EPg    C  1 0  3.63                              91    0.2710 70.0 332 
 AGPR BE ESg    C  1 0 11.66                              91   -0.1210 70.0 332 
 AGPR BN  IAML     1 0 15.81       130.0 0.70                          70.0 332 
 MIDR HZ EPg    C  1 0 33.05   70                         90    1.2310  266 297 
 MIDR HE ESg    C  1 1  1.38                              90    0.0810  266 297 
 MIDR BN  IAML     1 1  9.06        18.3 3.30                           266 297 
 HMDR BZ EPg    C  1 0 33.91   78                         90   -1.4210  289 290 
 HMDR BE ESg    C  1 1  7.88                              90    0.4910  289 290 
 HMDR BN  IAML     1 1 19.40         9.0 1.15                           289 290 
                                                                                
 2020  1 2 0137 20.10L  18.137 -70.404 31.7  DOM  5 0.5 1.6LDOM 2.9CDOM 2.6WDOM1
 SPEC AVERAGE  MO 13.0 ST  3.3 OM  2.0 f0 6.91 R0.3533 AL 0.00 WI 20.0 MW  2.6 3
 SPEC SD       MO  0.3 ST  2.0 OM  0.7 f0 3.40 R0.2549 AL      WI      MW  0.2 3
 GAP=216        1.44       9.5     4.5454.9 -0.2022E+02 -0.1215E+04  0.2384E+04E
 SPEC PODRBH N MO 13.2 ST  4.5 OM  1.7 f0 6.65 R0.2504 AL-0.00 WI 20.0 MW  2.7 3
 SPEC PODRBH N T 13743 K 0.020 GD 98.2 VS 4.50 DE 3.40 Q0400.0 QA 0.70 Q1 0.00 3
 SPEC HMDRBH N MO 12.9 ST  3.1 OM  1.3 f0 7.20 R0.2313 AL-0.00 WI 20.0 MW  2.6 3
 SPEC HMDRBH N T 13752 K 0.020 GD  133 VS 4.50 DE 3.40 Q0400.0 QA 0.70 Q1 0.00 3
 SPEC SDDRBH N MO 13.4 ST0.249 OM  1.8 f0 2.11 R0.7891 AL-0.00 WI 20.0 MW  2.9 3
 SPEC SDDRBH N T 13751 K 0.020 GD  135 VS 4.50 DE 3.40 Q0400.0 QA 0.70 Q1 0.00 3
 SPEC MIDRHH N MO 12.6 ST  5.4 OM  0.8 f0 11.7 R0.1423 AL-0.00 WI 20.0 MW  2.3 3
 SPEC MIDRHH N T 13760 K 0.020 GD  173 VS 4.50 DE 3.40 Q0400.0 QA 0.70 Q1 0.00 3
 LOCALITY: 11.7 Km al Sur de Matanzas, Mar Caribe.                             3
 2020-01-02-0137-00S.MAN___144                                                 6
 OLDACT:ARG 20-01-02 01:43 OP:nr   STATUS:               ID:20200102013700     3
 OLDACT:UP  20-01-02 01:51 OP:AMMR STATUS:               ID:20200102013700     3
 OLDACT:UP  20-01-02 01:51 OP:AMMR STATUS:               ID:20200102013700     3
 ACTION:UP  21-12-07 16:32 OP:JMLC STATUS:               ID:20200102013720 L   I
 OLDACT:UP  20-04-19 16:56 OP:JMLC STATUS:               ID:20200102013720 L   3
 STAT SP IPHASW D HRMM SECON CODA AMPLIT PERI AZIMU VELO AIN AR TRES W  DIS CAZ7
 ABDR BZ EPg    D  137 32.45   33                         91   -0.3310 78.4 343 
 ABDR BE ESg    C  137 41.95                              91   -0.2410 78.4 343 
 ABDR BN  IAML     137 55.63         0.3 0.50                          78.4 343 
 PODR BZ EPg    C  137 34.26   45                         91   -0.2010 92.9 272 
 PODR BE ESg    C  137 45.29                              91    0.1610 92.9 272 
 PODR BN  IAML     137 49.57        63.5 0.20                          92.9 272 
 HMDR BZ EPg    C  137 38.82   49                         90   -0.1010  130  56 
 HMDR BE ESg    C  137 53.59                              90    0.7010  130  56 
 HMDR BN  IAML     137 54.94        46.9 0.20                           130  56 
 SDDR BZ EPg    C  137 40.29   38                         90    1.0710  132 315 
 SDDR BE ESg    C  137 53.18                              90   -0.2310  132 315 
 SDDR BN  IAML     137 55.86        37.1 0.25                           132 315 
 MIDR HZ EPg    C  137 42.98   42                         90   -1.0010  171  57 
 MIDR HE ESg    C  138  1.84                              90    0.1610  171  57 
 MIDR BN  IAML     138  2.77        18.3 0.78                           171  57 
                                                                                
 2020  1 2 0337 54.00L  17.807 -67.024 31.8  DOM  5 0.7 2.1LDOM 3.0CDOM 3.0WDOM1
 SPEC AVERAGE  MO 13.5 ST  4.5 OM  2.8 f0 5.92 R0.6620 AL 0.00 WI 20.0 MW  3.0 3
 SPEC SD       MO  0.6 ST  2.9 OM  0.7 f0 3.87 R0.6885 AL      WI      MW  0.4 3
 GAP=268        1.78      13.7    10.0  9.2 -0.4230E+02  0.2270E+02 -0.2030E+01E
 SPEC MLPRBH N MO 12.8 ST  7.1 OM  1.7 f0 10.8 R0.1542 AL-0.00 WI 20.0 MW  2.5 3
 SPEC MLPRBH N T 338 1 K 0.020 GD 36.6 VS 4.50 DE 3.40 Q0400.0 QA 0.70 Q1 0.00 3
 SPEC CRPRBH N MO 13.1 ST  7.0 OM  2.0 f0 8.33 R0.1999 AL-0.00 WI 20.0 MW  2.7 3
 SPEC CRPRBH N T 338 2 K 0.020 GD 39.3 VS 4.50 DE 3.40 Q0400.0 QA 0.70 Q1 0.00 3
 SPEC AOPRBH N MO 13.9 ST  3.5 OM  2.5 f0 3.65 R0.4562 AL-0.00 WI 20.0 MW  3.2 3
 SPEC AOPRBH N T 338 9 K 0.020 GD 73.4 VS 4.50 DE 3.40 Q0400.0 QA 0.70 Q1 0.00 3
 SPEC AGPRBH N MO 14.3 ST0.147 OM  2.9 f00.906 R1.8377 AL-0.00 WI 20.0 MW  3.5 3
 SPEC AGPRBH N T 33813 K 0.020 GD 80.5 VS 4.50 DE 3.40 Q0400.0 QA 0.70 Q1 0.00 3
 LOCALITY: 45.3 Km al SSE de Mayaguez, Region de Puerto Rico.                  3
 2020-01-02-0337-00S.MAN___144                                                 6
 OLDACT:ARG 20-01-02 03:49 OP:nr   STATUS:               ID:20200102033700     3
 OLDACT:UP  20-01-02 03:54 OP:AMMR STATUS:               ID:20200102033700     3
 ACTION:UP  21-12-07 16:32 OP:JMLC STATUS:               ID:20200102033754 L   I
 OLDACT:UP  20-04-19 16:56 OP:JMLC STATUS:               ID:20200102033754 L   3
 STAT SP IPHASW D HRMM SECON CODA AMPLIT PERI AZIMU VELO AIN AR TRES W  DIS CAZ7
 MLPR BZ EPg    C  337 59.80   29                        143    0.2710 18.1 353 
 MLPR BE ESg    C  338  3.02                             143   -0.6010 18.1 353 
 MLPR BN  IAML     338  4.37       189.6 0.20                          18.1 353 
 CRPR BZ EPg    C  338  1.00   40                        135    1.0510 23.1 343 
 CRPR BE ESg    C  338  4.26                             135   -0.0910 23.1 343 
 CRPR BN  IAML     338 10.79       172.3 0.25                          23.1 343 
 AOPR BZ EPg    C  338  3.75   56                         92   -1.2010 66.2  26 
 AOPR BN  IAML     338 12.16       201.6 0.25                          66.2  26 
 AGPR BZ EPg    C  338  6.86   42                         92    0.9710 73.9 353 
 AGPR BE ESg    C  338 14.87                              92    0.1910 73.9 353 
 AGPR BN  IAML     338 17.00        73.7 0.75                          73.9 353 
 HMDR BZ EPg    C  338 30.29   92                         90   -0.2110  272 294 
 HMDR BE ESg    C  338 57.11                              90   -0.3910  272 294 
 HMDR BN  IAML     339  3.41        10.9 1.35                           272 294 
                                                                                
