 2020  4 1 0052 56.40L  18.645 -71.969 35.0  DOM  4 0.6 1.8LDOM 2.3CDOM 2.1WDOM1
 SPEC AVERAGE  MO 12.2 ST0.265 OM  1.1 f0 5.51 R0.3022 AL 0.00 WI 20.0 MW  2.1 3
 SPEC SD       MO  0.0 ST0.000 OM  0.0 f00.000 R0.0000 AL      WI      MW  0.0 3
 GAP=238        1.53       5.7    12.8 13.0  0.2327E+02 -0.7726E+02 -0.3794E+02E
 SPEC JIDRBH N MO 12.2 ST0.265 OM  1.1 f0 5.51 R0.3022 AL-0.00 WI 20.0 MW  2.1 3
 SPEC JIDRBH N T 053 5 K 0.020 GD 40.7 VS 4.50 DE 3.40 Q0400.0 QA 0.70 Q1 0.00 3
 LOCALITY: 22.1 Km al NO de Jimani, Region Haiti.                              3
 2020-04-01-0052-00S.MAN___126                                                 6
 OLDACT:ARG 20-04-01 02:36 OP:jrdn STATUS:               ID:20200401005200     3
 OLDACT:UP  20-04-01 02:38 OP:JMLC STATUS:               ID:20200401005200     3
 OLDACT:UP  20-04-01 02:38 OP:JMLC STATUS:               ID:20200401005200     3
 OLDACT:UP  20-04-01 02:38 OP:JMLC STATUS:               ID:20200401005200     3
 ACTION:UP  22-03-16 16:59 OP:JMLC STATUS:               ID:20200401005256 L   I
 OLDACT:UP  22-01-09 00:54 OP:CGRS STATUS:               ID:20200401005200     3
 OLDACT:UP  21-02-15 23:38 OP:AMMR STATUS:               ID:20200401005200     3
 OLDACT:UP  21-02-15 23:36 OP:AMMR STATUS:               ID:20200401005200     3
 OLDACT:UP  21-02-15 23:35 OP:AMMR STATUS:               ID:20200401005200     3
 OLDACT:UP  21-02-15 23:31 OP:AMMR STATUS:               ID:20200401005200     3
 OLDACT:UP  21-02-15 23:28 OP:AMMR STATUS:               ID:20200401005200     3
 OLDACT:UP  21-02-15 23:28 OP:AMMR STATUS:               ID:20200401005200     3
 OLDACT:UP  21-02-15 23:27 OP:AMMR STATUS:               ID:20200401005200     3
 OLDACT:UP  21-02-15 23:27 OP:AMMR STATUS:               ID:20200401005200     3
 OLDACT:UP  21-02-15 23:26 OP:AMMR STATUS:               ID:20200401005200     3
 OLDACT:UP  21-02-15 22:38 OP:AMMR STATUS:               ID:20200401005200     3
 OLDACT:UP  21-02-15 22:11 OP:AMMR STATUS:               ID:20200401005200     3
 OLDACT:UP  21-02-15 22:10 OP:AMMR STATUS:               ID:20200401005200     3
 OLDACT:UP  21-02-15 22:10 OP:AMMR STATUS:               ID:20200401005200     3
 OLDACT:UP  21-02-15 22:09 OP:AMMR STATUS:               ID:20200401005200     3
 OLDACT:UP  20-04-01 02:39 OP:JMLC STATUS:               ID:20200401005200     3
 STAT SP IPHASW D HRMM SECON CODA AMPLIT PERI AZIMU VELO AIN AR TRES W  DIS CAZ7
 JIDR BZ EPg    C  053  2.00   15                        143   -0.4310 20.7 144 
 JIDR BN ESg    C  053  7.09                             143    0.1810 20.7 144 
 JIDR BN  IAML     053  7.90       393.7 0.30                          20.7 144 
 REDR BZ EPg    C  053  7.98   31                         98   -0.5610 75.3  22 
 REDR BN ESg       053 18.55                              98    1.0210 75.3  22 
 REDR BN  IAML     053 27.92         7.1 0.25                          75.3  22 
 SDDR BE ESg    C  053 17.85                              97   -0.7710 80.5  63 
 PODR BZ EPg    C  053 10.45   31                         95    0.0210 89.9 126 
 PODR BN ESg    C  053 21.37                              95    0.5410 89.9 126 
 PODR BN  IAML     053 21.87        37.8 0.30                          89.9 126 
                                                                                
 2020  4 1 0204 42.90L  17.638 -68.448 22.5  DOM  6 0.9 2.5LDOM 2.9CDOM 2.4WDOM1
 SPEC AVERAGE  MO 12.8 ST 20.3 OM  2.3 f0 15.5 R0.1072 AL 0.00 WI 20.0 MW  2.4 3
 SPEC SD       MO  0.0 ST0.000 OM  1.1 f00.000 R0.0000 AL      WI      MW  0.0 3
 GAP=246        2.37      26.6    10.6 85.4  0.2224E+03  0.3897E+03  0.1561E+04E
 SPEC HIDRBH N MO 12.8 ST 20.3 OM  1.2 f0 15.5 R0.1072 AL-0.00 WI 20.0 MW  2.4 3
 SPEC HIDRBH N T 2 512 K 0.020 GD  111 VS 4.49 DE 3.40 Q0400.0 QA 0.70 Q1 0.00 3
 LOCALITY: 46.1 Km al SE de Mano Juan Isla Saona, Mar Caribe.                  3
 2020-04-01-0204-00S.MAN___126                                                 6
 OLDACT:UP  20-04-01 02:48 OP:JMLC STATUS:               ID:20200401020400     3
 OLDACT:UP  20-04-01 02:47 OP:JMLC STATUS:               ID:20200401020400     3
 OLDACT:UP  20-04-01 02:46 OP:JMLC STATUS:               ID:20200401020400     3
 OLDACT:ARG 20-04-01 02:40 OP:jrdn STATUS:               ID:20200401020400     3
 OLDACT:UP  20-04-01 02:50 OP:JMLC STATUS:               ID:20200401020400     3
 OLDACT:UP  20-04-01 02:50 OP:JMLC STATUS:               ID:20200401020400     3
 ACTION:UP  22-03-16 16:59 OP:JMLC STATUS:               ID:20200401020442 L   I
 OLDACT:UP  22-01-09 00:55 OP:CGRS STATUS:               ID:20200401020400     3
 OLDACT:UP  21-02-15 23:47 OP:AMMR STATUS:               ID:20200401020400     3
 OLDACT:UP  21-02-15 23:45 OP:AMMR STATUS:               ID:20200401020400     3
 OLDACT:UP  21-02-15 23:43 OP:AMMR STATUS:               ID:20200401020400     3
 OLDACT:UP  21-02-15 23:40 OP:AMMR STATUS:               ID:20200401020400     3
 OLDACT:UP  20-04-01 02:50 OP:JMLC STATUS:               ID:20200401020400     3
 STAT SP IPHASW D HRMM SECON CODA AMPLIT PERI AZIMU VELO AIN AR TRES W  DIS CAZ7
 HIDR BZ EPg    C  2 5  0.83   31                         92    0.8410  109 345 
 HIDR BN ESg    C  2 5 14.03                              92    1.4010  109 345 
 HIDR BN  IAML     2 5 15.75       261.9 0.25                           109 345 
 MLPR BN ESg       2 5 25.24                              91    1.4710  153  76 
 MLPR BN  IAML     2 5 33.38        19.1 0.28                           153  76 
 HMDR BZ EPg    C  2 5  7.10   48                         91   -0.4410  161 322 
 HMDR BN ESg    C  2 5 24.72                              91   -1.0610  161 322 
 HMDR BN  IAML     2 5 25.78        47.8 0.25                           161 322 
 AGPR BN ESg    C  2 5 27.01                              91   -0.7410  169  57 
 AGPR BN  IAML     2 5 30.99        55.8 0.32                           169  57 
 SMDR BN ISg    C  2 5 34.93                              91   -0.3610  199 337 
 SMDR BN  IAML     2 5 37.47       271.8 0.30                           199 337 
 CELP BZ IP     C  2 5 10.98   45                         59   -0.5710  204  76 
 CELP BN ISg       2 5 36.14                              91   -0.5510  204  76 
 CELP BN  IAML     2 5 39.19        41.4 0.28                           204  76 
                                                                                
 2020  4 1 0230  9.30L  19.621 -70.547  9.2  DOM  6 0.6 2.4LDOM 2.8CDOM        1
 GAP=139        1.58       5.3     3.6 16.3 -0.4043E+01 -0.9215E+01  0.6290E+02E
 LOCALITY: 21.3 Km al Sur de Sosua. Puerto Plata.                              3
 2020-04-01-0230-00S.MAN___126                                                 6
 OLDACT:UP  20-04-01 03:02 OP:JMLC STATUS:               ID:20200401023001D    3
 OLDACT:UP  20-04-01 03:00 OP:JMLC STATUS:               ID:20200401023001D    3
 OLDACT:DUP 20-04-01 02:56 OP:JMLC STATUS:               ID:20200401023001D    3
 OLDACT:ARG 20-04-01 02:51 OP:jrdn STATUS:               ID:20200401023000     3
 OLDACT:UP  20-04-01 03:03 OP:JMLC STATUS:               ID:20200401023001D    3
 OLDACT:UP  20-04-01 03:03 OP:JMLC STATUS:               ID:20200401023001D    3
 ACTION:UP  22-03-16 16:59 OP:JMLC STATUS:               ID:20200401023009 L   I
 OLDACT:UP  22-01-09 01:18 OP:CGRS STATUS:               ID:20200401023001D    3
 OLDACT:UP  21-02-16 00:09 OP:AMMR STATUS:               ID:20200401023001D    3
 OLDACT:UP  21-02-16 00:08 OP:AMMR STATUS:               ID:20200401023001D    3
 OLDACT:UP  21-02-16 00:07 OP:AMMR STATUS:               ID:20200401023001D    3
 OLDACT:UP  21-02-16 00:07 OP:AMMR STATUS:               ID:20200401023001D    3
 OLDACT:UP  21-02-16 00:05 OP:AMMR STATUS:               ID:20200401023001D    3
 OLDACT:UP  21-02-16 00:05 OP:AMMR STATUS:               ID:20200401023001D    3
 OLDACT:UP  21-02-16 00:04 OP:AMMR STATUS:               ID:20200401023001D    3
 OLDACT:UP  21-02-16 00:04 OP:AMMR STATUS:               ID:20200401023001D    3
 OLDACT:UP  21-02-16 00:03 OP:AMMR STATUS:               ID:20200401023001D    3
 OLDACT:UP  21-02-16 00:03 OP:AMMR STATUS:               ID:20200401023001D    3
 OLDACT:UP  21-02-16 00:01 OP:AMMR STATUS:               ID:20200401023001D    3
 OLDACT:UP  21-02-16 00:00 OP:AMMR STATUS:               ID:20200401023001D    3
 OLDACT:UP  21-02-15 23:59 OP:AMMR STATUS:               ID:20200401023001D    3
 OLDACT:UP  21-02-15 23:59 OP:AMMR STATUS:               ID:20200401023001D    3
 OLDACT:UP  21-02-15 23:58 OP:AMMR STATUS:               ID:20200401023001D    3
 OLDACT:UP  21-02-15 23:58 OP:AMMR STATUS:               ID:20200401023001D    3
 OLDACT:UP  21-02-15 23:57 OP:AMMR STATUS:               ID:20200401023001D    3
 OLDACT:UP  21-02-15 23:57 OP:AMMR STATUS:               ID:20200401023001D    3
 OLDACT:UP  21-02-15 23:56 OP:AMMR STATUS:               ID:20200401023001D    3
 OLDACT:UP  21-02-15 23:55 OP:AMMR STATUS:               ID:20200401023001D    3
 OLDACT:UP  21-02-15 23:55 OP:AMMR STATUS:               ID:20200401023001D    3
 OLDACT:UP  21-02-15 23:55 OP:AMMR STATUS:               ID:20200401023001D    3
 OLDACT:UP  21-02-15 23:54 OP:AMMR STATUS:               ID:20200401023001D    3
 OLDACT:UP  21-02-15 23:50 OP:AMMR STATUS:               ID:20200401023001D    3
 OLDACT:UP  20-04-01 03:03 OP:JMLC STATUS:               ID:20200401023001D    3
 STAT SP IPHASW D HRMM SECON CODA AMPLIT PERI AZIMU VELO AIN AR TRES W  DIS CAZ7
 SODR BZ EPg    C  230 12.33   27                        122    0.1510 14.9 348 
 SODR BE ESg       230 14.47                             122    0.2010 14.9 348 
 SC01 BN ESg       230 17.26                             108   -0.5510 28.6 222 
 SC01 BN  IAML     230 25.64       370.2 0.30                          28.6 222 
 SDDR BZ EPg       230 26.77   43                         95    0.3310  106 228 
 SDDR BN ESg    C  230 38.75                              95   -0.3410  106 228 
 SDDR BN  IAML     230 44.32       124.2 0.25                           106 228 
 REDR BZ EPg    C  230 29.11   41                         94   -0.8010  127 253 
 REDR BN ESg    C  230 45.19                              94    0.0710  127 253 
 REDR BN  IAML     230 46.32       122.8 0.30                           127 253 
 HMDR BZ EPg       230 33.34   47                         94   -0.8010  153 127 
 HMDR BN ESg       230 53.06                              94    0.5710  153 127 
 HMDR BN  IAML     230 53.44        31.0 0.30                           153 127 
 JIDR BN ESg    C  231  2.70                              93    1.1710  186 228 
 JIDR BN  IAML     231  4.85        99.0 0.30                           186 228 
                                                                                
 2020  4 1 0231  1.30L  17.948 -66.943 12.3  DOM  7 0.5 2.5LDOM 2.9CDOM 2.6WDOM1
 SPEC AVERAGE  MO 13.0 ST 13.9 OM  2.4 f0 7.46 R0.2556 AL 0.00 WI 20.0 MW  2.6 3
 SPEC SD       MO  0.2 ST 21.4 OM  0.6 f0 4.00 R0.1641 AL      WI      MW  0.2 3
 GAP=205        1.23       5.6     2.5  7.4  0.5164E+01 -0.7759E+01 -0.1795E+02E
 SPEC MLPRBH N MO 13.0 ST 61.5 OM  2.6 f0 15.4 R0.0899 AL-0.00 WI 20.0 MW  2.6 3
 SPEC MLPRBH N T 231 4 K 0.020 GD 16.4 VS 3.74 DE 2.83 Q0400.0 QA 0.70 Q1 0.00 3
 SPEC PRSNBH N MO 13.5 ST  6.2 OM  2.7 f0 4.98 R0.2779 AL-0.00 WI 20.0 MW  2.9 3
 SPEC PRSNBH N T 231 9 K 0.020 GD 38.6 VS 3.74 DE 2.83 Q0400.0 QA 0.70 Q1 0.00 3
 SPEC CELPBH N MO 12.7 ST  4.1 OM  1.9 f0 7.75 R0.1786 AL-0.00 WI 20.0 MW  2.4 3
 SPEC CELPBH N T 23112 K 0.020 GD 43.2 VS 3.74 DE 2.83 Q0400.0 QA 0.70 Q1 0.00 3
 SPEC AGPRBH N MO 13.1 ST  7.1 OM  2.1 f0 7.10 R0.1949 AL-0.00 WI 20.0 MW  2.7 3
 SPEC AGPRBH N T 23117 K 0.020 GD 61.6 VS 3.74 DE 2.83 Q0400.0 QA 0.70 Q1 0.00 3
 SPEC HIDRBH N MO 12.8 ST  4.3 OM  1.4 f0 7.26 R0.1906 AL-0.00 WI 20.0 MW  2.5 3
 SPEC HIDRBH N T 23154 K 0.020 GD  175 VS 3.74 DE 2.83 Q0400.0 QA 0.70 Q1 0.00 3
 SPEC HMDRBH N MO 13.0 ST0.226 OM  1.5 f0 2.30 R0.6017 AL-0.00 WI 20.0 MW  2.6 3
 SPEC HMDRBH N T 23218 K 0.020 GD  228 VS 3.74 DE 2.83 Q0400.0 QA 0.70 Q1 0.00 3
 LOCALITY: 35.0 Km al SE de Mayaguez. Region de Puerto Rico.                   3
 2020-04-01-0230-00S.MAN___126                                                 6
 OLDACT:ARG 20-04-01 02:51 OP:jrdn STATUS:               ID:20200401023000     3
 OLDACT:UP  20-04-01 03:04 OP:JMLC STATUS:               ID:20200401023000     3
 OLDACT:UP  20-04-01 02:56 OP:JMLC STATUS:               ID:20200401023000     3
 ACTION:UP  22-03-16 16:59 OP:JMLC STATUS:               ID:20200401023101 L   I
 OLDACT:UP  20-04-01 03:04 OP:JMLC STATUS:               ID:20200401023000     3
 STAT SP IPHASW D HRMM SECON CODA AMPLIT PERI AZIMU VELO AIN AR TRES W  DIS CAZ7
 MLPR BZ EPg    C  231  3.82   17                        135   -0.0810 10.9 282 
 MLPR BN ESg    C  231  5.95                             135    0.0910 10.9 282 
 MLPR BN  IAML     231  6.29      3551.7 0.12                          10.9 282 
 PRSN BZ EPg    C  231  7.27   29                         94   -0.2010 36.6 324 
 PRSN BN ESg    C  231 11.18                              94   -0.9010 36.6 324 
 PRSN BN  IAML     231 15.16      1668.6 0.28                          36.6 324 
 CELP BZ EPg    D  231  8.24   40                         92    0.0410 41.4  70 
 CELP BN ESg    C  231 13.84                              92    0.5010 41.4  70 
 CELP BN  IAML     231 13.98       226.0 0.32                          41.4  70 
 AGPR BZ EPg    C  231 11.15   44                         91    0.0710 60.4 343 
 AGPR BN ESg       231 18.78                              91    0.4410 60.4 343 
 AGPR BN  IAML     231 19.00       178.9 0.32                          60.4 343 
 SJG  BZ EPg    D  231 14.76   60                         90   -0.2110 85.9  78 
 SJG  BN ESg    C  231 24.93                              90   -0.1810 85.9  78 
 HIDR BZ EPg    C  231 32.33   69                         90    0.0410  200 291 
 HIDR BN ESg    C  231 56.24                              90    0.9810  200 291 
 HIDR BN  IAML     231 59.74        35.2 0.65                           200 291 
 HMDR BZ EPg    D  231 42.85   70                         90   -0.5810  274 290 
 HMDR BN  IAML     232 33.19        15.1 3.45                           274 290 
                                                                                
 2020  4 1 0252  4.90L  18.364 -69.081124.0  DOM 10 0.8 2.9LDOM 3.1CDOM 3.1WDOM1
 SPEC AVERAGE  MO 13.8 ST 17.7 OM  2.3 f0 6.88 R1.8275 AL 0.00 WI 20.0 MW  3.1 3
 SPEC SD       MO  0.7 ST 20.8 OM  0.8 f0 5.81 R2.6753 AL      WI      MW  0.5 3
 GAP=178        2.03      12.6     6.3 11.5 -0.6395E+00  0.1326E+02  0.4676E+02E
 SPEC HIDRBH N MO 14.3 ST0.012 OM  2.7 f00.392 R4.2003 AL-0.00 WI 20.0 MW  3.5 3
 SPEC HIDRBH N T 25233 K 0.020 GD  132 VS 4.45 DE 3.40 Q0400.0 QA 0.70 Q1 0.00 3
 SPEC HMDRBH N MO 12.9 ST 34.5 OM  1.3 f0 16.0 R0.1029 AL-0.00 WI 20.0 MW  2.6 3
 SPEC HMDRBH N T 25233 K 0.020 GD  136 VS 4.45 DE 3.40 Q0400.0 QA 0.70 Q1 0.00 3
 SPEC SMDRBH N MO 13.3 ST  1.2 OM  1.6 f0 3.91 R0.4211 AL-0.00 WI 20.0 MW  2.8 3
 SPEC SMDRBH N T 25239 K 0.020 GD  161 VS 4.45 DE 3.40 Q0400.0 QA 0.70 Q1 0.00 3
 SPEC BADRBH N MO 13.8 ST 22.7 OM  2.0 f0 7.37 R0.2234 AL-0.00 WI 20.0 MW  3.1 3
 SPEC BADRBH N T 25246 K 0.020 GD  183 VS 4.45 DE 3.40 Q0400.0 QA 0.70 Q1 0.00 3
 SPEC AGPRBH N MO 15.3 ST0.020 OM  3.4 f00.221 R7.4502 AL-0.00 WI 20.0 MW  4.1 3
 SPEC AGPRBH N T 25259 K 0.020 GD  243 VS 4.45 DE 3.40 Q0400.0 QA 0.70 Q1 0.00 3
 SPEC PODRBH N MO 13.5 ST  6.6 OM  1.6 f0 5.88 R0.2800 AL-0.00 WI 20.0 MW  3.0 3
 SPEC PODRBH N T 253 2 K 0.020 GD  264 VS 4.45 DE 3.40 Q0400.0 QA 0.70 Q1 0.00 3
 SPEC REDRBH N MO 13.3 ST 58.8 OM  1.3 f0 14.4 R0.1143 AL-0.00 WI 20.0 MW  2.8 3
 SPEC REDRBH N T 25313 K 0.020 GD  319 VS 4.45 DE 3.40 Q0400.0 QA 0.70 Q1 0.00 3
 LOCALITY: 7.2 Km al ONO de Isla Catalina. Mar Caribe.                         3
 2020-04-01-0252-00S.MAN___126                                                 6
 OLDACT:ARG 20-04-01 03:05 OP:jrdn STATUS:               ID:20200401025200     3
 OLDACT:UP  20-04-01 03:10 OP:JMLC STATUS:               ID:20200401025200     3
 OLDACT:UP  20-04-01 03:10 OP:JMLC STATUS:               ID:20200401025200     3
 ACTION:UP  22-03-16 16:59 OP:JMLC STATUS:               ID:20200401025204 L   I
 OLDACT:UP  21-02-16 00:21 OP:AMMR STATUS:               ID:20200401025200     3
 OLDACT:UP  21-02-16 00:20 OP:AMMR STATUS:               ID:20200401025200     3
 OLDACT:UP  21-02-16 00:18 OP:AMMR STATUS:               ID:20200401025200     3
 OLDACT:UP  20-04-01 03:11 OP:JMLC STATUS:               ID:20200401025200     3
 STAT SP IPHASW D HRMM SECON CODA AMPLIT PERI AZIMU VELO AIN AR TRES W  DIS CAZ7
 HIDR BZ EPg    C  252 21.19   33                        158   -0.6610 46.1  57 
 HIDR BN ESg    C  252 34.78                             158    0.4010 46.1  57 
 HIDR BN  IAML     252 37.38       295.3 0.25                          46.1  57 
 HMDR BZ EPg    C  252 21.03   43                        154   -1.3810 56.6 326 
 HMDR BN ESg    C  252 34.65                             154   -0.7010 56.6 326 
 HMDR BN  IAML     252 35.78        49.2 0.70                          56.6 326 
 SDD  BN ESg    D  252 39.69                             141    0.8410 89.1 277 
 SMDR BZ EPg    C  252 26.77   37                        137    1.2910  103 354 
 SMDR BN ESg    C  252 40.90                             137    0.2110  103 354 
 NAVI BZ EPg    C  252 27.12   34                        133    0.1610  120 304 
 NAVI BE ESg    C  252 42.27                             133   -1.0010  120 304 
 NAVI BN  IAML     252 43.57      1263.2 0.20                           120 304 
 BADR BZ IP     C  252 28.13   46                        129   -0.2810  135 272 
 BADR BN ISg    D  252 45.95                             129    0.1610  135 272 
 BADR BN  IAML     252 50.16       159.3 0.20                           135 272 
 AGPR BZ EPg    C  252 36.28   64                        116    0.6610  209  86 
 AGPR BN  IAML     253  3.41        64.4 2.12                           209  86 
 SC01 BN ESg    C  252 59.34                             116    0.7910  210 304 
 PODR BZ EPg    C  252 38.40   56                        113   -0.1110  234 265 
 PODR BN ESg    C  253  4.01                             113    0.6510  234 265 
 PODR BN  IAML     253  8.50        40.5 0.45                           234 265 
 REDR BZ EPg    C  252 43.84   55                        107   -1.2310  294 290 
 REDR BN ESg    C  253 15.00                             107    0.2210  294 290 
 REDR BN  IAML     253 19.25        27.0 0.15                           294 290 
                                                                                
