 2020  8 1 1608 49.3 L  20.139 -70.745 10.0  DOM  8 0.9 2.3LDOM 3.3CDOM 2.7WDOM1
 LOCALITY: 35.6 Km al NE de Luperon. Oceano Atlantico.                         3
 SPEC AVERAGE  MO 13.1 ST  4.5 OM  2.0 f0 4.79 R1.2311 AL 0.00 WI 20.0 MW  2.7 3
 SPEC SD       MO  0.5 ST  5.5 OM  0.5 f0 3.73 R1.4518 AL      WI      MW  0.3 3
 GAP=136        2.42       6.3     6.0 12.7  0.9715E+01 -0.2278E+02 -0.4950E+02E
 SPEC REDRBH N MO 12.8 ST 12.3 OM  1.7 f0 9.50 R0.1316 AL-0.00 WI 20.0 MW  2.5 3
 SPEC REDRBH N T16 926 K 0.020 GD  117 VS 3.38 DE 2.67 Q0400.0 QA 0.70 Q1 1.00 3
 SPEC SDDRBH N MO 13.8 ST0.008 OM  2.7 f00.381 R3.2824 AL-0.00 WI 20.0 MW  3.1 3
 SPEC SDDRBH N T16 927 K 0.020 GD  118 VS 3.38 DE 2.67 Q0400.0 QA 0.70 Q1 1.00 3
 SPEC GRTKBH N MO 12.7 ST  1.1 OM  1.6 f0 4.48 R0.2792 AL-0.00 WI 20.0 MW  2.4 3
 SPEC GRTKBH N T16 930 K 0.020 GD  125 VS 3.38 DE 2.67 Q0400.0 QA 0.70 Q1 1.00 3
 2020-08-01-1608-00S.MAN___114                                                 6
 OLDACT:ARG 20-08-01 17:10 OP:plst STATUS:               ID:20200801160800     3
 ACTION:UPD 20-09-29 11:31 OP:jmlc STATUS:               ID:20200801160800     I
 OLDACT:UP  20-08-01 17:14 OP:CGRS STATUS:               ID:20200801160800     3
 OLDACT:UP  20-08-01 17:14 OP:CGRS STATUS:               ID:20200801160800     3
 STAT SP IPHASW D HRMM SECON CODA AMPLIT PERI AZIMU VELO AIN AR TRES W  DIS CAZ7
 LUDR BZ IP     C 16 8 54.60   62                        100   -0.4110 34.8 219 
 LUDR BE IS     C 16 8 59.54                             100    0.3110 34.8 219 
 SODR BN IS     C 16 9  1.29                              97   -1.1110 46.3 158 
 SODR BN  IAML    16 9 35.24       156.0 1.90                          46.3 158 
 SC01 BN IS     C 16 9 13.27                              95    1.7810 78.8 179 
 SC01 BN  IAML    16 9 16.65        61.5 1.55                          78.8 179 
 CADR BN IS     C 16 9 17.50                              70    0.3110 99.2 122 
 CADR BN  IAML    16 9 28.00       200.6 1.40                          99.2 122 
 MCDR BZ IP     C 16 9  5.52   61                         93    0.1810 99.2 254 
 MCDR BN IS     C 16 9 17.50                              93    0.3010 99.2 254 
 MCDR BN  IAML    16 9 19.03        89.0 2.75                          99.2 254 
 REDR BZ IP     C 16 9  9.89   88                         70   -1.4210  138 227 
 REDR BN IS     C 16 9 27.59                              70   -0.0110  138 227 
 REDR BN  IAML    16 9 30.21        87.8 0.15                           138 227 
 SDDR BZ IP     C 16 9 10.10   57                         70   -1.5110  140 204 
 SDDR BN IS     C 16 9 28.77                              70    0.6510  140 204 
 SDDR BN  IAML    16 9 34.17        26.0 0.40                           140 204 
 GRTK BZ IP     C 16 9 14.68   58                         50    1.0210  157 345 
 GRTK BN IS     C 16 9 31.59                              50   -0.0910  157 345 
 GRTK BN  IAML    16 9 46.84       107.8 2.15                           157 345 
                                                                                
 2020  8 1 1726 21.9 L  17.839 -68.510 98.4  DOM  7 0.9 2.4LDOM 3.4CDOM 2.6WDOM1
 LOCALITY: 39.8 Km al SE de Mano Juan Isla Saona, Mar Caribe.                  3
 SPEC AVERAGE  MO 13.0 ST  2.7 OM  1.3 f0 6.80 R0.3484 AL 0.00 WI 20.0 MW  2.6 3
 SPEC SD       MO  0.5 ST  2.2 OM  0.5 f0 4.23 R0.1782 AL      WI      MW  0.3 3
 GAP=252        2.36      27.9    13.8 29.1  0.3151E+03  0.2060E+03  0.5440E+03E
 SPEC SMDRBH N MO 13.3 ST0.628 OM  1.5 f0 3.17 R0.5229 AL-0.00 WI 20.0 MW  2.8 3
 SPEC SMDRBH N T1727 7 K 0.020 GD  201 VS 4.48 DE 3.40 Q0400.0 QA 0.70 Q1 1.00 3
 SPEC AGPRBH N MO 13.2 ST  5.9 OM  1.4 f0 7.37 R0.2249 AL-0.00 WI 20.0 MW  2.7 3
 SPEC AGPRBH N T1727 2 K 0.020 GD  191 VS 4.48 DE 3.40 Q0400.0 QA 0.70 Q1 1.00 3
 SPEC MLPRBH N MO 12.2 ST  3.5 OM  0.4 f0 13.5 R0.1228 AL-0.00 WI 20.0 MW  2.1 3
 SPEC MLPRBH N T1727 1 K 0.020 GD  184 VS 4.48 DE 3.40 Q0400.0 QA 0.70 Q1 1.00 3
 SPEC PCDRBH N MO 13.4 ST0.773 OM  1.8 f0 3.17 R0.5229 AL-0.00 WI 20.0 MW  2.9 3
 SPEC PCDRBH N T172648 K 0.020 GD  124 VS 4.48 DE 3.40 Q0400.0 QA 0.70 Q1 1.00 3
 2020-08-01-1726-00S.MAN___114                                                 6
 OLDACT:ARG 20-08-01 19:55 OP:plst STATUS:               ID:20200801172600     3
 ACTION:UPD 20-09-29 11:31 OP:jmlc STATUS:               ID:20200801172600     I
 OLDACT:UP  20-08-01 20:00 OP:CGRS STATUS:               ID:20200801172600     3
 OLDACT:UP  20-08-01 20:00 OP:CGRS STATUS:               ID:20200801172600     3
 OLDACT:UP  20-08-01 20:00 OP:CGRS STATUS:               ID:20200801172600     3
 OLDACT:UP  20-08-01 19:58 OP:CGRS STATUS:               ID:20200801172600     3
 STAT SP IPHASW D HRMM SECON CODA AMPLIT PERI AZIMU VELO AIN AR TRES W  DIS CAZ7
 PCDR BZ IP     C 1726 38.43   60                        138    0.2810 75.9  10 
 PCDR BN IS     D 1726 49.70                             138   -0.4610 75.9  10 
 PCDR BN  IAML    1726 52.72       113.0 2.45                          75.9  10 
 PRSN BN IS     C 1727  3.05                             116    0.6310  150  74 
 PRSN BN  IAML    1727  4.11        62.9 0.28                           150  74 
 MLPR BZ IP     C 1726 46.36   72                        115    0.5910  156  84 
 MLPR BN IS     C 1727  3.41                             115   -0.0210  156  84 
 MLPR BN  IAML    1727 18.13         7.0 2.44                           156  84 
 AGPR BZ IP     C 1726 47.20   62                        114    0.5810  164  65 
 AGPR BN IS     C 1727  3.76                             114   -1.1410  164  65 
 AGPR BN  IAML    1727  5.94        75.8 1.76                           164  65 
 SMDR BZ IP     C 1726 45.79   52                        112   -2.1210  176 336 
 SMDR BN IS     C 1727  8.69                             112    1.5410  176 336 
 SMDR BN  IAML    1727 29.64        58.6 0.80                           176 336 
 AOPR BZ IP     C 1726 49.84   64                        109   -0.1410  194  73 
 AOPR BN IS     C 1727 11.15                             109    0.4110  194  73 
 AOPR BN  IAML    1727 13.17        61.1 0.28                           194  73 
 CELP BZ IP     C 1726 51.72   63                        107    0.3910  206  82 
 CELP BN IS     C 1727 12.56                             107   -0.5510  206  82 
 CELP BN  IAML    1727 18.74         7.5 0.44                           206  82 
                                                                                
 2020  8 1 1853  9.3 L  19.605 -69.704 21.6  DOM  6 0.8 2.1LDOM 3.3CDOM 2.9WDOM1
 SPEC AVERAGE  MO 13.4 ST 11.4 OM  1.8 f0 7.42 R1.8671 AL 0.00 WI 20.0 MW  2.9 3
 SPEC SD       MO  0.8 ST 15.1 OM  1.1 f0 6.49 R2.3794 AL      WI      MW  0.5 3
 GAP=197        1.95       9.9     5.6  6.1  0.2187E+02  0.1370E+02  0.1030E+02E
 LOCALITY: 21.5 Km al Este de Cabrera. Oceano Atlantico.                       3
 SPEC SMDRBH N MO 14.6 ST0.012 OM  3.3 f00.307 R5.2306 AL-0.00 WI 20.0 MW  3.7 3
 SPEC SMDRBH N T185327 K 0.020 GD 67.9 VS 4.34 DE 3.27 Q0400.0 QA 0.70 Q1 1.00 3
 SPEC PODRBH N MO 12.8 ST  1.4 OM  1.0 f0 5.94 R0.2703 AL-0.00 WI 20.0 MW  2.5 3
 SPEC PODRBH N T1854 4 K 0.020 GD  231 VS 4.34 DE 3.27 Q0400.0 QA 0.70 Q1 1.00 3
 SPEC REDRBH N MO 12.9 ST 32.8 OM  1.1 f0 16.0 R0.1004 AL-0.00 WI 20.0 MW  2.5 3
 SPEC REDRBH N T1854 0 K 0.020 GD  214 VS 4.34 DE 3.27 Q0400.0 QA 0.70 Q1 1.00 3
 2020-08-01-1853-00S.MAN___114                                                 6
 OLDACT:UP  20-08-01 20:13 OP:CGRS STATUS:               ID:20200801185300     3
 OLDACT:UP  20-08-01 20:11 OP:CGRS STATUS:               ID:20200801185300     3
 OLDACT:ARG 20-08-01 20:07 OP:plst STATUS:               ID:20200801185300     3
 ACTION:UPD 20-09-29 11:31 OP:jmlc STATUS:               ID:20200801185300     I
 OLDACT:UP  20-08-01 20:19 OP:CGRS STATUS:               ID:20200801185300     3
 OLDACT:UP  20-08-01 20:18 OP:CGRS STATUS:               ID:20200801185300     3
 OLDACT:UP  20-08-01 20:18 OP:CGRS STATUS:               ID:20200801185300     3
 OLDACT:UP  20-08-01 20:15 OP:CGRS STATUS:               ID:20200801185300     3
 STAT SP IPHASW D HRMM SECON CODA AMPLIT PERI AZIMU VELO AIN AR TRES W  DIS CAZ7
 CADR BN IS     C 1853 19.02                             128    0.5410 25.6 286 
 CADR BN  IAML    1853 19.20       263.3 0.50                          25.6 286 
 NADR BN IS     C 1853 19.37                             121   -0.4910 31.9 210 
 NADR BN  IAML    1853 21.77       138.6 1.00                          31.9 210 
 SMDR BZ IP     C 1853 19.37   54                        104   -0.5910 64.4 123 
 SMDR BN IS     C 1853 28.66                             104    0.8410 64.4 123 
 SMDR BN  IAML    1853 49.89        74.0 0.85                          64.4 123 
 SDDR BN IS     C 1853 54.60                              55    0.2910  180 248 
 SDDR BN  IAML    1854  2.47        16.6 2.45                           180 248 
 REDR BZ IP     C 1853 37.69   68                         55   -1.5310  213 261 
 REDR BN IS     C 1854  2.00                              55    0.6610  213 261 
 REDR BN  IAML    1854  2.38        14.3 0.80                           213 261 
 PODR BN IS     C 1854  5.52                              55    0.2710  230 226 
 PODR BN  IAML    1854 37.44        43.6 1.80                           230 226 
                                                                                
 2020  8 1 2101 49.7 L  20.428 -70.727 65.8  DOM  7 0.4 2.6LDOM 3.3CDOM 4.2WDOM1
 SPEC AVERAGE  MO 15.4 ST0.019 OM  3.8 f00.200 R8.4178 AL 0.00 WI 20.0 MW  4.2 3
 SPEC SD       MO  0.1 ST0.003 OM  0.0 f00.021 R0.8839 AL      WI      MW  0.1 3
 GAP=147        0.95       3.5     4.3 12.2  0.5281E+01 -0.2305E+02 -0.2011E+02E
 LOCALITY: 64.5 Km al NNE de Luperon. Oceano Atlantico.                        3
 SPEC SODRBH N MO 15.3 ST0.021 OM  3.8 f00.221 R7.5339 AL-0.00 WI 20.0 MW  4.2 3
 SPEC SODRBH N T21 211 K 0.020 GD  100 VS 4.50 DE 3.40 Q0400.0 QA 0.70 Q1 1.00 3
 SPEC GRTKBH N MO 15.5 ST0.016 OM  3.8 f00.179 R9.3017 AL-0.00 WI 20.0 MW  4.3 3
 SPEC GRTKBH N T21 221 K 0.020 GD  143 VS 4.50 DE 3.40 Q0400.0 QA 0.70 Q1 1.00 3
 2020-08-01-2102-00S.MAN___114                                                 6
 OLDACT:UP  20-08-02 00:08 OP:CGRS STATUS:               ID:20200801210200     3
 OLDACT:UP  20-08-02 00:05 OP:CGRS STATUS:               ID:20200801210200     3
 OLDACT:UP  20-08-02 00:04 OP:CGRS STATUS:               ID:20200801210200     3
 OLDACT:ARG 20-08-01 23:54 OP:plst STATUS:               ID:20200801210200     3
 ACTION:UPD 20-09-29 11:31 OP:jmlc STATUS:               ID:20200801210200     I
 OLDACT:UP  20-08-02 00:09 OP:CGRS STATUS:               ID:20200801210200     3
 OLDACT:UP  20-08-02 00:09 OP:CGRS STATUS:               ID:20200801210200     3
 OLDACT:UP  20-08-02 00:08 OP:CGRS STATUS:               ID:20200801210200     3
 STAT SP IPHASW D HRMM SECON CODA AMPLIT PERI AZIMU VELO AIN AR TRES W  DIS CAZ7
 LUDR BE IS     C 21 2 11.62                             130    0.2310 63.8 202 
 SODR BZ IP     C 21 2  2.82   55                        124   -0.5610 76.4 168 
 SODR BN IS     C 21 2 13.39                             124   -0.1210 76.4 168 
 SODR BN  IAML    21 2 32.49       158.8 2.10                          76.4 168 
 MADR BN IS     C 21 2 19.02                             115    0.5710  103 202 
 MADR BN  IAML    21 2 44.27        92.8 0.30                           103 202 
 MCDR BN IS     C 21 2 20.08                             112   -0.4310  114 239 
 MCDR BN  IAML    21 2 55.18        78.1 1.05                           114 239 
 CADR BN IS       21 2 21.14                             111   -0.1310  118 136 
 CADR BN  IAML    21 2 46.59       264.1 1.45                           118 136 
 GRTK BE IS     C 21 2 23.25                             109    0.1310  127 341 
 GRTK BN  IAML    21 2 54.68       101.3 2.50                           127 341 
 SMDR BZ IP     C 21 2 18.32   63                         99    0.3010  205 128 
 SMDR BN  IAML    21 3 21.69        68.6 2.00                           205 128 
                                                                                
 2020  8 1 2213 12.4 L  19.857 -71.311110.5  DOM  6 0.9 2.6LDOM 3.4CDOM 2.8WDOM1
 SPEC AVERAGE  MO 13.2 ST 12.7 OM  1.5 f0 7.21 R0.3002 AL 0.00 WI 20.0 MW  2.8 3
 SPEC SD       MO  0.1 ST 12.2 OM  0.1 f0 3.26 R0.1642 AL      WI      MW  0.1 3
 GAP=182        2.35      17.5    11.6 22.4 -0.2193E+02 -0.6604E+02  0.2039E+03E
 LOCALITY: 19.2 Km al NE de Villa Vasquez. Oceano Atlantico.                   3
 SPEC BADRBH N MO 13.3 ST 29.4 OM  1.5 f0 11.1 R0.1490 AL-0.00 WI 20.0 MW  2.8 3
 SPEC BADRBH N T2214 0 K 0.020 GD  219 VS 4.47 DE 3.40 Q0400.0 QA 0.70 Q1 1.00 3
 SPEC REDRBH N MO 13.3 ST  8.5 OM  1.7 f0 7.41 R0.2232 AL-0.00 WI 20.0 MW  2.8 3
 SPEC REDRBH N T221345 K 0.020 GD  134 VS 4.47 DE 3.40 Q0400.0 QA 0.70 Q1 1.00 3
 SPEC SDDRBH N MO 13.1 ST0.350 OM  1.4 f0 3.13 R0.5284 AL-0.00 WI 20.0 MW  2.7 3
 SPEC SDDRBH N T221343 K 0.020 GD  147 VS 4.47 DE 3.40 Q0400.0 QA 0.70 Q1 1.00 3
 2020-08-01-2213-00S.MAN___114                                                 6
 OLDACT:UP  20-08-02 00:15 OP:CGRS STATUS:               ID:20200801221300     3
 OLDACT:UP  20-08-02 00:15 OP:CGRS STATUS:               ID:20200801221300     3
 OLDACT:ARG 20-08-01 23:56 OP:plst STATUS:               ID:20200801221300     3
 ACTION:UPD 20-09-29 11:31 OP:jmlc STATUS:               ID:20200801221300     I
 OLDACT:UP  20-08-02 00:19 OP:CGRS STATUS:               ID:20200801221300     3
 OLDACT:UP  20-08-02 00:18 OP:CGRS STATUS:               ID:20200801221300     3
 OLDACT:UP  20-08-02 00:18 OP:CGRS STATUS:               ID:20200801221300     3
 OLDACT:UP  20-08-02 00:18 OP:CGRS STATUS:               ID:20200801221300     3
 OLDACT:UP  20-08-02 00:17 OP:CGRS STATUS:               ID:20200801221300     3
 STAT SP IPHASW D HRMM SECON CODA AMPLIT PERI AZIMU VELO AIN AR TRES W  DIS CAZ7
 MCDR BE IS       2213 38.04                             160   -0.5510 36.4 276 
 MCDR BN  IAML    2214 18.17        75.5 1.40                          36.4 276 
 REDR BZ IP     D 2213 31.56   65                        142    1.7410 76.2 213 
 REDR BN  IAML    2213 48.93        97.1 0.20                          76.2 213 
 SODR BE IS     C 2213 43.68                             142    0.9310 77.8  98 
 SODR BN  IAML    2213 47.58       110.3 3.00                          77.8  98 
 SDDR BZ IP     C 2213 30.29   68                        135   -1.1410 97.1 179 
 SDDR BN IS     C 2213 45.09                             135   -0.4410 97.1 179 
 SDDR BN  IAML    2214 10.76        23.3 2.85                          97.1 179 
 CADR BN IS     C 2213 52.49                             122   -0.6610  145  98 
 CADR BN  IAML    2214 22.04       407.1 1.55                           145  98 
 BADR BZ IP     C 2213 40.16   72                        114   -0.4210  190 148 
 BADR BN IS     C 2214  2.00                             114    0.5510  190 148 
 BADR BN  IAML    2214  9.57        64.0 0.90                           190 148 
                                                                                
 2020  8 2 0459 20.5 L  19.123 -70.989 13.3  DOM  7 0.8 2.0LDOM 3.3CDOM 3.0WDOM1
 SPEC AVERAGE  MO 13.6 ST  5.7 OM  2.7 f0 5.12 R5.5480 AL 0.00 WI 20.0 MW  3.0 3
 SPEC SD       MO  0.8 ST  8.1 OM  1.0 f0 6.99 R4.1611 AL      WI      MW  0.6 3
 GAP=182        2.01       7.6     6.5 19.2 -0.2769E+02 -0.8754E+01 -0.2087E+02E
 LOCALITY: 24.7 Km al SSO de San Jose de las Matas. Santiago.                  3
 SPEC SDDRBH N MO 13.7 ST0.001 OM  2.9 f00.221 R6.3620 AL-0.00 WI 20.0 MW  3.1 3
 SPEC SDDRBH N T 45929 K 0.020 GD 37.8 VS 3.80 DE 2.86 Q0400.0 QA 0.70 Q1 1.00 3
 SPEC SC01BH N MO 14.6 ST0.002 OM  3.7 f00.138 R 10.19 AL-0.00 WI 20.0 MW  3.7 3
 SPEC SC01BH N T 45930 K 0.020 GD 45.4 VS 3.80 DE 2.86 Q0400.0 QA 0.70 Q1 1.00 3
 SPEC REDRBH N MO 12.5 ST 17.2 OM  1.4 f0 15.0 R0.0937 AL-0.00 WI 20.0 MW  2.3 3
 SPEC REDRBH N T 45942 K 0.020 GD 77.9 VS 3.80 DE 2.86 Q0400.0 QA 0.70 Q1 1.00 3
 2020-08-02-0459-00S.MAN___114                                                 6
 OLDACT:ARG 20-08-02 10:26 OP:plst STATUS:               ID:20200802045900     3
 ACTION:UPD 20-09-29 11:31 OP:jmlc STATUS:               ID:20200802045900     I
 OLDACT:UP  20-08-02 10:41 OP:CGRS STATUS:               ID:20200802045900     3
 OLDACT:UP  20-08-02 10:41 OP:CGRS STATUS:               ID:20200802045900     3
 OLDACT:UP  20-08-02 10:40 OP:CGRS STATUS:               ID:20200802045900     3
 STAT SP IPHASW D HRMM SECON CODA AMPLIT PERI AZIMU VELO AIN AR TRES W  DIS CAZ7
 SDDR BN IS     C  459 30.65                             102   -0.4210 35.4 244 
 SDDR BN  IAML     459 38.55        18.9 1.35                          35.4 244 
 SC01 BN IS     C  459 32.41                              96   -0.7010 43.4  39 
 SC01 BN  IAML     459 51.14        51.9 2.75                          43.4  39 
 MADR BN IS     C  459 35.99                              94    1.0510 50.5 346 
 MADR BN  IAML     459 37.24        66.7 2.25                          50.5 346 
 REDR BZ IP     C  459 33.50   58                         92    0.6810 76.8 283 
 REDR BN  IAML     459 47.76        75.9 0.15                          76.8 283 
 LUDR BE IS     C  459 43.33                              91   -0.8010 85.3   3 
 CADR BN IS        459 55.66                              55    0.9310  126  61 
 CADR BN  IAML     5 0  2.69       275.5 0.75                           126  61 
 GRTK BZ IP     C  459 56.71   56                         55   -0.7510  265 357 
 GRTK BN  IAML     5 0 51.81        48.3 2.35                           265 357 
                                                                                
