 2020  1 1 1020 25.40L  17.327 -68.674 56.2  DOM  6 0.4 2.5LDOM 3.5CDOM 3.1WDOM1
 SPEC AVERAGE  MO 13.7 ST  1.7 OM  2.4 f0 2.89 R0.7209 AL 0.00 WI 20.0 MW  3.1 3
 SPEC SD       MO  0.3 ST  2.4 OM  0.5 f0 1.49 R0.3105 AL      WI      MW  0.2 3
 GAP=248        1.00      12.5     6.2 60.4  0.4976E+02  0.1950E+03  0.5972E+03E
 SPEC PCDRHN N MO 14.2 ST0.360 OM  2.5 f0 1.36 R1.2243 AL-0.00 WI 20.0 MW  3.4 3
 SPEC PCDRHN N T102058 K 0.020 GD  146 VS 4.50 DE 3.40 Q0400.0 QA 0.70 Q1 0.00 3
 SPEC HIDRBH N MO 13.6 ST  6.6 OM  1.9 f0 5.63 R0.2957 AL-0.00 WI 20.0 MW  3.0 3
 SPEC HIDRBH N T102059 K 0.020 GD  150 VS 4.50 DE 3.40 Q0400.0 QA 0.70 Q1 0.00 3
 SPEC HMDRBH N MO 13.8 ST0.490 OM  2.0 f0 2.04 R0.8162 AL-0.00 WI 20.0 MW  3.1 3
 SPEC HMDRBH N T1021 6 K 0.020 GD  186 VS 4.50 DE 3.40 Q0400.0 QA 0.70 Q1 0.00 3
 SPEC CRPRBH N MO 13.3 ST0.599 OM  1.5 f0 3.17 R0.5252 AL-0.00 WI 20.0 MW  2.8 3
 SPEC CRPRBH N T1021 8 K 0.020 GD  192 VS 4.50 DE 3.40 Q0400.0 QA 0.70 Q1 0.00 3
 SPEC MIDRHH N MO 13.8 ST0.682 OM  2.0 f0 2.24 R0.7433 AL-0.00 WI 20.0 MW  3.1 3
 SPEC MIDRHH N T1021 9 K 0.020 GD  196 VS 4.50 DE 3.40 Q0400.0 QA 0.70 Q1 0.00 3
 LOCALITY: 88.5 Km al Sur de Mano Juan Isla Saona, Mar Caribe.                 3
 2020-01-01-1019-00S.MAN___144                                                 6
 OLDACT:ARG 20-01-01 12:07 OP:AMMR STATUS:               ID:20200101101900     3
 OLDACT:UP  20-01-01 12:52 OP:AMMR STATUS:               ID:20200101101900     3
 ACTION:UP  21-12-07 16:32 OP:JMLC STATUS:               ID:20200101102025 L   I
 OLDACT:UP  20-04-19 16:56 OP:JMLC STATUS:               ID:20200101102025 L   3
 STAT SP IPHASW D HRMM SECON CODA AMPLIT PERI AZIMU VELO AIN AR TRES W  DIS CAZ7
 PCDR HZ EPg      1020 45.53                             102    0.4310  135  13 
 PCDR HE ESg      1020 59.93                             102    0.2310  135  13 
 PCDR HN  IAML    1021  7.72       140.6 0.70                           135  13 
 HIDR BZ EPg      1020 45.25   68                        102   -0.4510  140 358 
 HIDR BE  IAML    1021  0.33        82.4 0.25                           140 358 
 HIDR BN  IAML    1021  3.72       117.6 0.20                           140 358 
 HIDR HN  IAML    1021  3.79       117.6 0.20                           140 358 
 HMDR BZ EPg    C 1020 50.58   77                         97    0.2810  178 335 
 HMDR BN  IAML    1020 51.30        56.1 0.25                           178 335 
 HMDR BE ESg      1021  8.27                              97   -0.4710  178 335 
 HMDR HN  IAML    1021  9.65        48.0 0.40                           178 335 
 HMDR BE  IAML    1021 10.00        41.4 0.55                           178 335 
 SDD  BE ESg      1021  9.47                              97   -0.0310  182 314 
 SDD  HN  IAML    1021 29.77        11.8 0.85                           182 314 
 CRPR BZ EPg      1020 50.56                              97   -0.4310  184  66 
 CRPR HN  IAML    1021 29.44        34.9 2.70                           184  66 
 MIDR HZ EPg      1020 51.94   77                         97    0.5510  188 348 
 MIDR HN  IAML    1021 10.49        47.2 0.60                           188 348 
 MIDR HN ESg      1021 10.52                              97   -0.1210  188 348 
 MIDR HE  IAML    1021 10.99        72.9 1.16                           188 348 
                                                                                
 2020  1 1 1046 15.70L  17.889 -66.843 15.5  DOM  7 0.3 2.9LDOM 3.3CDOM 3.3WDOM1
 SPEC AVERAGE  MO 14.0 ST  6.1 OM  3.4 f0 3.69 R1.0848 AL 0.00 WI 20.0 MW  3.3 3
 SPEC SD       MO  0.3 ST  4.9 OM  0.8 f0 2.14 R0.6467 AL      WI      MW  0.2 3
 GAP=219        0.80       3.6     3.1  8.1 -0.1523E+01 -0.1583E+02 -0.1277E+01E
 SPEC MLPRBH N MO 13.3 ST 14.5 OM  2.6 f0 7.89 R0.1852 AL-0.00 WI 20.0 MW  2.8 3
 SPEC MLPRBH N T104621 K 0.020 GD 27.8 VS 3.95 DE 2.94 Q0400.0 QA 0.70 Q1 0.00 3
 SPEC CRPRBH N MO 13.8 ST  8.1 OM  3.0 f0 4.51 R0.3241 AL-0.00 WI 20.0 MW  3.1 3
 SPEC CRPRBH N T104623 K 0.020 GD 33.1 VS 3.95 DE 2.94 Q0400.0 QA 0.70 Q1 0.00 3
 SPEC PRSNBH N MO 13.9 ST  9.9 OM  2.9 f0 4.50 R0.3248 AL-0.00 WI 20.0 MW  3.2 3
 SPEC PRSNBH N T104628 K 0.020 GD 50.9 VS 3.95 DE 2.94 Q0400.0 QA 0.70 Q1 0.00 3
 SPEC AOPRBH N MO 14.0 ST  5.0 OM  3.0 f0 3.27 R0.4469 AL-0.00 WI 20.0 MW  3.3 3
 SPEC AOPRBH N T104628 K 0.020 GD 53.8 VS 3.95 DE 2.94 Q0400.0 QA 0.70 Q1 0.00 3
 SPEC AGPRBH N MO 14.1 ST  2.6 OM  3.0 f0 2.39 R0.6115 AL-0.00 WI 20.0 MW  3.4 3
 SPEC AGPRBH N T104634 K 0.020 GD 72.0 VS 3.95 DE 2.94 Q0400.0 QA 0.70 Q1 0.00 3
 SPEC HMDRBH N MO 14.6 ST0.033 OM  2.9 f00.379 R3.8562 AL-0.00 WI 20.0 MW  3.7 3
 SPEC HMDRBH N T104735 K 0.020 GD  286 VS 3.95 DE 2.94 Q0400.0 QA 0.70 Q1 0.00 3
 LOCALITY: 27.8 Km al OSO de Ponce, Region de Puerto Rico.                     3
 2020-01-01-1045-00S.MAN___144                                                 6
 OLDACT:ARG 20-01-01 12:07 OP:AMMR STATUS:               ID:20200101104500     3
 OLDACT:UP  20-01-01 12:57 OP:AMMR STATUS:               ID:20200101104500     3
 ACTION:UP  21-12-07 16:32 OP:JMLC STATUS:               ID:20200101104615 L   I
 OLDACT:UP  20-04-19 16:56 OP:JMLC STATUS:               ID:20200101104615 L   3
 STAT SP IPHASW D HRMM SECON CODA AMPLIT PERI AZIMU VELO AIN AR TRES W  DIS CAZ7
 PRSN BZ EPg    C 1046 23.67   52                        101                    
 PRSN BN  IAML    1046 32.54      1884.8 0.35                                   
 PRSN BE  IAML    1046 33.48      2089.5 0.25                                   
 MLPR BZ EP       1046 19.91   51                        120   -0.2410 23.1 293 
 MLPR BN ES     C 1046 23.11                             120   -0.3110 23.1 293 
 MLPR BN  IAML    1046 24.66      1599.3 0.30                          23.1 293 
 MLPR BE  IAML    1046 25.20       837.2 0.35                          23.1 293 
 CRPR BZ EP       1046 21.15   55                        113    0.1810 29.2 297 
 CRPR BE ES     C 1046 25.38                             113    0.5210 29.2 297 
 CRPR BE  IAML    1046 25.56      2072.5 0.35                          29.2 297 
 CRPR BN  IAML    1046 27.98      2371.6 0.30                          29.2 297 
 AOPR BZ EPg      1046 24.05   69                         99   -0.2010 51.5  10 
 AOPR BN ESg    C 1046 30.32                              99   -0.2510 51.5  10 
 AOPR BN  IAML    1046 30.69      1454.0 0.25                          51.5  10 
 AOPR BE  IAML    1046 30.71      2554.8 0.20                          51.5  10 
 AGPR BZ EPg    C 1046 26.99   56                         95   -0.0710 70.3 336 
 AGPR BN ESg      1046 35.76                              95    0.3110 70.3 336 
 AGPR BE  IAML    1046 41.16       519.8 0.30                          70.3 336 
 AGPR BN  IAML    1046 42.13       544.9 0.45                          70.3 336 
 SJG  BZ EPg    D 1046 28.49   77                         95    0.3410 77.4  71 
 HMDR BZ EPg      1046 59.49   97                         91   -0.2810  286 291 
 HMDR BN  IAML    1047 47.66        18.2 0.65                           286 291 
                                                                                
 2020  1 1 1248 26.90L  19.216 -67.500 17.7  DOM 12 0.9 3.2LDOM 3.2CDOM 3.5WDOM1
 SPEC AVERAGE  MO 14.3 ST 61.8 OM  3.0 f0 3.82 R0.6687 AL 0.00 WI 20.0 MW  3.5 3
 SPEC SD       MO  0.4 ST 54.1 OM  0.5 f0 1.70 R0.4693 AL      WI      MW  0.2 3
 GAP=218        2.35      14.0     7.6101.5  0.8342E+02 -0.1968E+03 -0.8904E+03E
 SPEC AGPRBH N MO 14.2 ST 23.2 OM  2.8 f0 5.08 R0.3183 AL-0.00 WI 20.0 MW  3.4 3
 SPEC AGPRBH N T124850 K 0.020 GD 93.9 VS 4.37 DE 3.29 Q0400.0 QA 0.70 Q1 0.00 3
 SPEC PRSNBH N MO 14.2 ST 36.7 OM  2.7 f0 5.90 R0.2741 AL-0.00 WI 20.0 MW  3.4 3
 SPEC PRSNBH N T124857 K 0.020 GD  119 VS 4.37 DE 3.29 Q0400.0 QA 0.70 Q1 0.00 3
 SPEC PCDRHN N MO 14.7 ST  1.3 OM  3.2 f0 1.30 R1.2438 AL-0.00 WI 20.0 MW  3.8 3
 SPEC PCDRHN N T124856 K 0.020 GD  122 VS 4.37 DE 3.29 Q0400.0 QA 0.70 Q1 0.00 3
 SPEC AOPRBH N MO 14.2 ST 21.0 OM  2.6 f0 5.20 R0.3109 AL-0.00 WI 20.0 MW  3.4 3
 SPEC AOPRBH N T1249 1 K 0.020 GD  125 VS 4.37 DE 3.29 Q0400.0 QA 0.70 Q1 0.00 3
 SPEC CRPRBH N MO 14.6 ST  3.4 OM  3.0 f0 1.99 R0.8125 AL-0.00 WI 20.0 MW  3.7 3
 SPEC CRPRBH N T1249 4 K 0.020 GD  142 VS 4.37 DE 3.29 Q0400.0 QA 0.70 Q1 0.00 3
 SPEC HIDRBH N MO 14.0 ST 19.9 OM  2.4 f0 5.66 R0.2857 AL-0.00 WI 20.0 MW  3.3 3
 SPEC HIDRBH N T1249 2 K 0.020 GD  146 VS 4.37 DE 3.29 Q0400.0 QA 0.70 Q1 0.00 3
 SPEC MLPRBH N MO 13.8 ST  1.9 OM  2.2 f0 2.99 R0.5408 AL-0.00 WI 20.0 MW  3.2 3
 SPEC MLPRBH N T1249 5 K 0.020 GD  147 VS 4.37 DE 3.29 Q0400.0 QA 0.70 Q1 0.00 3
 SPEC MIDRHH N MO 13.9 ST  3.1 OM  2.2 f0 3.41 R0.4742 AL-0.00 WI 20.0 MW  3.2 3
 SPEC MIDRHH N T124910 K 0.020 GD  165 VS 4.37 DE 3.29 Q0400.0 QA 0.70 Q1 0.00 3
 SPEC SMDRBH N MO 14.7 ST0.389 OM  3.0 f00.899 R1.7986 AL-0.00 WI 20.0 MW  3.8 3
 SPEC SMDRBH N T124914 K 0.020 GD  178 VS 4.37 DE 3.29 Q0400.0 QA 0.70 Q1 0.00 3
 SPEC HMDRBH N MO 14.2 ST  1.7 OM  2.4 f0 2.21 R0.7316 AL-0.00 WI 20.0 MW  3.4 3
 SPEC HMDRBH N T124919 K 0.020 GD  204 VS 4.37 DE 3.29 Q0400.0 QA 0.70 Q1 0.00 3
 SPEC NAVIBH N MO 14.8 ST542.3 OM  2.9 f0 9.47 R0.1707 AL-0.00 WI 20.0 MW  3.8 3
 SPEC NAVIBH N T124941 K 0.020 GD  268 VS 4.37 DE 3.29 Q0400.0 QA 0.70 Q1 0.00 3
 LOCALITY: 164.9 Km al Este de Miches, Oceano Atlantico.                       3
 2020-01-01-1247-00S.MAN___144                                                 6
 OLDACT:ARG 20-01-01 13:24 OP:AMMR STATUS:               ID:20200101124700     3
 OLDACT:UP  20-01-01 13:31 OP:AMMR STATUS:               ID:20200101124700     3
 ACTION:UP  21-12-07 16:32 OP:JMLC STATUS:               ID:20200101124826 L   I
 OLDACT:UP  20-04-19 16:56 OP:JMLC STATUS:               ID:20200101124826 L   3
 STAT SP IPHASW D HRMM SECON CODA AMPLIT PERI AZIMU VELO AIN AR TRES W  DIS CAZ7
 PRSN BZ EPg      1248 45.04   45                         97                    
 PRSN BN  IAML    1249  3.39      1422.9 0.30                                   
 PRSN BE  IAML    1249  4.16      1021.3 0.30                                   
 AGPR BZ EPg    C 1248 41.66   38                         95    0.1010 92.2 153 
 AGPR BN ESg    D 1248 52.34                              95   -0.0910 92.2 153 
 AGPR BE ESg    D 1248 52.41                              95   -0.0210 92.2 153 
 AGPR BE  IAML    1248 52.56      1567.6 0.30                          92.2 153 
 AGPR BN  IAML    1248 52.64      1011.0 0.25                          92.2 153 
 PCDR HZ EPg      1248 44.24   43                         94   -1.6810  121 230 
 PCDR BN  IAML    1248 59.44       464.0 0.24                           121 230 
 AOPR BZ EPg    D 1248 47.23   66                         94    0.8110  124 141 
 AOPR BN  IAML    1249  8.67       555.8 0.30                           124 141 
 AOPR BE  IAML    1249 11.20       878.6 0.45                           124 141 
 CRPR BZ EPg      1248 47.94   53                         93   -0.9510  141 162 
 CRPR BE ESg    C 1249  5.87                              93    0.6910  141 162 
 CRPR BE  IAML    1249  6.08       841.6 0.45                           141 162 
 CRPR BN ESg    D 1249  6.12                              93    0.9410  141 162 
 CRPR BN  IAML    1249  7.22       703.9 0.45                           141 162 
 HIDR BZ EPg      1248 47.95   51                         93   -1.6610  145 242 
 HIDR BE  IAML    1249  7.95       434.1 0.30                           145 242 
 HIDR BN  IAML    1249  7.95       388.2 0.60                           145 242 
 MLPR BZ EPg      1248 48.55   52                         93   -1.1510  146 161 
 MLPR BE ESg    D 1249  7.03                              93    0.4310  146 161 
 MLPR BE  IAML    1249  7.28       146.0 0.45                           146 161 
 MLPR BN  IAML    1249  8.46       269.3 0.30                           146 161 
 MIDR HN ESg    C 1249 12.39                              92    0.7910  165 261 
 MIDR HE  IAML    1249 12.87       120.2 1.08                           165 261 
 MIDR HN  IAML    1249 15.07       197.9 0.66                           165 261 
 MIDR BN  IAML    1249 15.09       197.9 0.66                           165 261 
 SMDR BZ EPg    D 1248 55.29   64                         92    0.8110  178 273 
 SMDR BE ESg    C 1249 16.25                              92    1.3410  178 273 
 SMDR BE  IAML    1249 19.25       120.0 0.30                           178 273 
 SMDR BN  IAML    1249 26.53       166.0 0.55                           178 273 
 SJG  BZ EPg      1248 56.14   49                         92    0.1210  188 130 
 HMDR BZ EPg    D 1248 58.78   68                         92    0.3410  204 257 
 HMDR BN ESg    D 1249 21.24                              92   -0.5510  204 257 
 HMDR BE  IAML    1249 23.18       113.2 0.30                           204 257 
 HMDR BN  IAML    1249 25.89       156.6 0.45                           204 257 
 NAVI BZ EPg      1249  7.88   62                         91   -0.2510  268 264 
 NAVI BE  IAML    1249 43.43       798.9 0.20                           268 264 
 NAVI BN  IAML    1249 47.15      1344.5 0.20                           268 264 
                                                                                
 2020  1 1 1311 14.70L  19.193 -67.535  4.2  DOM  9 0.7 2.8LDOM 3.0CDOM 2.9WDOM1
 SPEC AVERAGE  MO 13.4 ST 17.7 OM  2.6 f0 6.17 R0.2797 AL 0.00 WI 20.0 MW  2.9 3
 SPEC SD       MO  0.3 ST 24.2 OM  0.5 f0 3.69 R0.1124 AL      WI      MW  0.2 3
 GAP=215        1.90      13.0     6.5288.0  0.6252E+02 -0.4850E+03 -0.2440E+04E
 SPEC AGPRBH N MO 13.5 ST 36.3 OM  2.4 f0 8.53 R0.1583 AL-0.00 WI 20.0 MW  3.0 3
 SPEC AGPRBH N T131139 K 0.020 GD 91.8 VS 3.65 DE 2.79 Q0400.0 QA 0.70 Q1 0.00 3
 SPEC PCDRHN N MO 13.7 ST  2.1 OM  2.5 f0 2.91 R0.4641 AL-0.00 WI 20.0 MW  3.1 3
 SPEC PCDRHN N T131145 K 0.020 GD  108 VS 3.65 DE 2.79 Q0400.0 QA 0.70 Q1 0.00 3
 SPEC AOPRBH N MO 13.7 ST  7.3 OM  2.5 f0 4.34 R0.3112 AL-0.00 WI 20.0 MW  3.1 3
 SPEC AOPRBH N T131148 K 0.020 GD  111 VS 3.65 DE 2.79 Q0400.0 QA 0.70 Q1 0.00 3
 SPEC CRPRBH N MO 13.6 ST  4.7 OM  2.4 f0 3.96 R0.3410 AL-0.00 WI 20.0 MW  3.0 3
 SPEC CRPRBH N T131152 K 0.020 GD  118 VS 3.65 DE 2.79 Q0400.0 QA 0.70 Q1 0.00 3
 SPEC HIDRBH N MO 13.1 ST 70.0 OM  1.9 f0 14.3 R0.0944 AL-0.00 WI 20.0 MW  2.7 3
 SPEC HIDRBH N T131151 K 0.020 GD  118 VS 3.65 DE 2.79 Q0400.0 QA 0.70 Q1 0.00 3
 SPEC MLPRBH N MO 12.9 ST  1.4 OM  1.7 f0 4.47 R0.3021 AL-0.00 WI 20.0 MW  2.6 3
 SPEC MLPRBH N T131154 K 0.020 GD  120 VS 3.65 DE 2.79 Q0400.0 QA 0.70 Q1 0.00 3
 SPEC MIDRHH N MO 13.1 ST  2.1 OM  1.8 f0 4.71 R0.2867 AL-0.00 WI 20.0 MW  2.6 3
 SPEC MIDRHH N T131159 K 0.020 GD  126 VS 3.65 DE 2.79 Q0400.0 QA 0.70 Q1 0.00 3
 LOCALITY: 160.6 Km al Este de Miches, Oceano Atlantico.                       3
 2020-01-01-1310-00S.MAN___144                                                 6
 OLDACT:ARG 20-01-01 13:24 OP:AMMR STATUS:               ID:20200101131000     3
 OLDACT:UP  20-01-01 13:38 OP:AMMR STATUS:               ID:20200101131000     3
 ACTION:UP  21-12-07 16:32 OP:JMLC STATUS:               ID:20200101131114 L   I
 OLDACT:UP  21-11-25 22:35 OP:AMMR STATUS:               ID:20200101131114 L   3
 OLDACT:UP  21-05-04 19:56 OP:AMMR STATUS:               ID:20200101131114 L   3
 OLDACT:UP  20-04-19 16:56 OP:JMLC STATUS:               ID:20200101131114 L   3
 STAT SP IPHASW D HRMM SECON CODA AMPLIT PERI AZIMU VELO AIN AR TRES W  DIS CAZ7
 AGPR BZ EPg      1311 30.22   33                         93    0.6710 91.7 151 
 AGPR BE ESg    D 1311 40.78                              93    0.2710 91.7 151 
 AGPR BE  IAML    1311 41.06       583.0 0.20                          91.7 151 
 AGPR BN  IAML    1311 41.10       576.0 0.15                          91.7 151 
 PCDR HZ EPg      1311 32.63   36                         92   -0.9310  117 230 
 PCDR BN  IAML    1311 46.77       206.9 0.28                           117 230 
 AOPR BZ EPg      1311 35.55   44                         92    0.6710  125 139 
 AOPR BE ESg      1311 49.99                              92    0.2210  125 139 
 AOPR BN  IAML    1311 53.64       218.2 0.40                           125 139 
 AOPR BE  IAML    1311 53.80       503.6 0.35                           125 139 
 CRPR BZ EPg      1311 36.43   47                         92   -0.8210  140 160 
 CRPR BN ESg    D 1311 54.46                              92    0.5510  140 160 
 CRPR BN  IAML    1311 56.16       257.8 0.55                           140 160 
 CRPR BE  IAML    1311 57.00       254.2 0.25                           140 160 
 HIDR BZ EPg      1311 36.31   51                         92   -1.1810  141 242 
 HIDR BE  IAML    1311 56.78       179.6 0.30                           141 242 
 HIDR BN  IAML    1311 57.27       175.4 0.25                           141 242 
 MLPR BZ EPg      1311 37.35   42                         92   -0.7910  145 159 
 MLPR BE ESg    D 1311 55.50                              92    0.0510  145 159 
 MLPR BN  IAML    1311 56.80        95.8 0.30                           145 159 
 MLPR BE  IAML    1311 56.84        67.5 0.20                           145 159 
 MIDR HZ EPg      1311 40.51   59                         92   -0.2210  161 262 
 MIDR HN ESg    C 1312  1.00                              92    1.0410  161 262 
 MIDR HN  IAML    1312  2.62        72.0 0.40                           161 262 
 MIDR BN  IAML    1312  2.64        72.0 0.40                           161 262 
 MIDR HE  IAML    1312  5.32        60.0 0.36                           161 262 
 SMDR BZ EPg    D 1311 43.73   51                         91    0.9010  174 274 
 SMDR BE  IAML    1312  7.39       116.3 0.40                           174 274 
 SMDR BN  IAML    1312 11.55        80.6 0.40                           174 274 
 SJG  BZ EPg      1311 44.79   53                         91   -0.4310  189 129 
                                                                                
