 2020  8 1 0044 45.4 L  19.897 -70.548106.8  DOM  8 0.8 2.6LDOM 3.1CDOM 4.5WDOM1
 SPEC AVERAGE  MO 15.8 ST0.125 OM  4.2 f00.272 R6.0805 AL 0.00 WI 20.0 MW  4.5 3
 SPEC SD       MO  0.0 ST0.000 OM  0.0 f00.000 R0.0000 AL      WI      MW  0.0 3
 GAP=130        2.24      11.8    10.6 14.3 -0.2116E+02  0.4799E+02 -0.4160E+02E
 LOCALITY: 19.1 Km al NE de Puerto Plata. Oceano Atlantico.                    3
 SPEC CADRBH N MO 15.8 ST0.125 OM  4.2 f00.272 R6.0805 AL-0.00 WI 20.0 MW  4.5 3
 SPEC CADRBH N T 04512 K 0.020 GD  126 VS 4.47 DE 3.40 Q0400.0 QA 0.70 Q1 1.00 3
 2020-08-01-0045-00S.MAN___114                                                 6
 OLDACT:UP  20-08-01 14:50 OP:CGRS STATUS:               ID:20200801004500     3
 OLDACT:ARG 20-08-01 13:59 OP:PLST STATUS:               ID:20200801004500     3
 ACTION:UPD 20-09-29 11:31 OP:jmlc STATUS:               ID:20200801004500     I
 OLDACT:UP  20-08-01 14:53 OP:CGRS STATUS:               ID:20200801004500     3
 OLDACT:UP  20-08-01 14:53 OP:CGRS STATUS:               ID:20200801004500     3
 OLDACT:UP  20-08-01 14:53 OP:CGRS STATUS:               ID:20200801004500     3
 OLDACT:UP  20-08-01 14:52 OP:CGRS STATUS:               ID:20200801004500     3
 STAT SP IPHASW D HRMM SECON CODA AMPLIT PERI AZIMU VELO AIN AR TRES W  DIS CAZ7
 SODR BN IS     C  045  9.16                             171   -0.6710 16.2 191 
 SODR BN  IAML     045 54.94       175.9 1.95                          16.2 191 
 LUDR BE IS     C  045 11.62                             156    0.2510 42.4 270 
 SC01 BZ IP     C  045  2.82   49                        150    1.7810 55.3 200 
 SC01 BN IS     C  045 13.03                             150    0.4210 55.3 200 
 SC01 BN  IAML     045 34.00        81.9 4.35                          55.3 200 
 CADR BN IS     C  045 13.74                             144   -0.3010 68.6 112 
 CADR BN  IAML     045 14.19       351.3 0.75                          68.6 112 
 MCDR BN IS     C  045 21.84                             128    0.9810  116 270 
 MCDR BN  IAML     045 25.74       144.6 2.30                           116 270 
 SDDR BZ IP     C  045  7.40   68                        125    0.4310  128 218 
 SDDR BN IS     C  045 21.84                             125   -1.1010  128 218 
 SDDR BN  IAML     045 43.56        28.9 2.55                           128 218 
 REDR BZ IP     C  045  8.10   67                        122    0.0110  139 241 
 REDR BN  IAML     045 23.75        17.4 0.15                           139 241 
 REDR BN IS     C  045 23.95                             122   -0.9310  139 241 
 GRTK BZ IP     C  045 12.33   23                        113   -0.8610  189 341 
 GRTK BN  IAML     046 11.06       111.1 1.95                           189 341 
                                                                                
 2020  8 1 0431 41.3 L  20.460 -69.525 31.1  DOM  9 0.8 2.8LDOM 3.8CDOM 3.7WDOM1
 SPEC AVERAGE  MO 14.6 ST 18.7 OM  2.8 f0 5.74 R4.7245 AL 0.00 WI 20.0 MW  3.7 3
 SPEC SD       MO  1.2 ST 18.7 OM  1.3 f0 5.56 R4.5772 AL      WI      MW  0.8 3
 GAP=206        2.21       9.2     8.2 39.1  0.4198E+02  0.1379E+03  0.1138E+03E
 LOCALITY: 99.5 Km al NNE de Cabrera. Oceano Atlantico.                        3
 SPEC NADRBH N MO 15.8 ST0.037 OM  4.2 f00.179 R9.3017 AL-0.00 WI 20.0 MW  4.5 3
 SPEC NADRBH N T 43210 K 0.020 GD  130 VS 4.50 DE 3.40 Q0400.0 QA 0.70 Q1 1.00 3
 SPEC REDRBH N MO 13.4 ST 37.4 OM  1.5 f0 11.3 R0.1473 AL-0.00 WI 20.0 MW  2.9 3
 SPEC REDRBH N T 43241 K 0.020 GD  264 VS 4.50 DE 3.40 Q0400.0 QA 0.70 Q1 1.00 3
 2020-08-01-0432-00S.MAN___114                                                 6
 OLDACT:UP  20-08-01 15:06 OP:CGRS STATUS:               ID:20200801043200     3
 OLDACT:UP  20-08-01 15:05 OP:CGRS STATUS:               ID:20200801043200     3
 OLDACT:UP  20-08-01 15:02 OP:CGRS STATUS:               ID:20200801043200     3
 OLDACT:ARG 20-08-01 14:04 OP:PLST STATUS:               ID:20200801043200     3
 ACTION:UPD 20-09-29 11:31 OP:jmlc STATUS:               ID:20200801043200     I
 OLDACT:UP  20-08-01 15:07 OP:CGRS STATUS:               ID:20200801043200     3
 OLDACT:UP  20-08-01 15:07 OP:CGRS STATUS:               ID:20200801043200     3
 OLDACT:UP  20-08-01 15:07 OP:CGRS STATUS:               ID:20200801043200     3
 OLDACT:UP  20-08-01 15:06 OP:CGRS STATUS:               ID:20200801043200     3
 STAT SP IPHASW D HRMM SECON CODA AMPLIT PERI AZIMU VELO AIN AR TRES W  DIS CAZ7
 NADR BN IS     C  432 12.33                              62    0.0510  127 196 
 NADR BN  IAML     432 12.86       158.0 0.55                           127 196 
 SMDR BN IS     C  432 12.68                              62   -1.1310  134 165 
 SMDR BN  IAML     432 15.73       100.2 0.95                           134 165 
 LUDR BE IS     C  432 20.78                              62    0.9910  162 247 
 SC01 BN IS     C  432 22.19                              62    0.6110  170 228 
 SC01 BN  IAML     432 51.74        83.9 3.60                           170 228 
 MADR BN IS     C  432 25.36                              62   -1.0410  192 239 
 MADR BN  IAML     432 51.74        98.8 3.10                           192 239 
 GRTK BN IS        432 28.18                              62   -0.6310  204 305 
 GRTK BN  IAML     433  8.03       144.3 2.40                           204 305 
 SDDR BZ IP     C  432 14.48   96                         62    0.4110  247 229 
 SDDR BN IS     C  432 36.99                              62   -1.3110  247 229 
 SDDR BN  IAML     433 17.87        24.8 4.50                           247 229 
 PCDR BZ IP     C  432 14.70   84                         62    0.7410  247 151 
 PCDR BN IS     C  432 38.40                              62    0.3010  247 151 
 PCDR BN  IAML     432 46.88       114.8 2.05                           247 151 
 REDR BN IS     C  432 42.75                              62    1.0110  263 240 
 REDR BN  IAML     432 46.80        52.5 0.20                           263 240 
                                                                                
 2020  8 1 0552 29.3 L  19.678 -70.349 10.0  DOM  7 0.6 2.2LDOM 2.8CDOM 2.5WDOM1
 SPEC AVERAGE  MO 12.8 ST  2.6 OM  1.8 f0 6.17 R1.1832 AL 0.00 WI 20.0 MW  2.5 3
 SPEC SD       MO  1.4 ST  3.6 OM  1.3 f0 6.99 R1.2368 AL      WI      MW  0.9 3
 GAP=146        1.69       6.1     4.2 11.6  0.6724E+01 -0.7796E+01 -0.3975E+02E
 SPEC NADRBH N MO 11.8 ST  7.7 OM  1.1 f0 16.0 R0.0740 AL-0.00 WI 20.0 MW  1.8 3
 SPEC NADRBH N T 55245 K 0.020 GD 62.9 VS 3.20 DE 2.60 Q0400.0 QA 0.70 Q1 1.00 3
 SPEC SDDRBH N MO 11.8 ST0.015 OM  0.8 f0 2.09 R0.5665 AL-0.00 WI 20.0 MW  1.8 3
 SPEC SDDRBH N T 553 4 K 0.020 GD  111 VS 3.20 DE 2.60 Q0400.0 QA 0.70 Q1 1.00 3
 SPEC GRTKBH N MO 14.7 ST0.094 OM  3.6 f00.407 R2.9091 AL-0.00 WI 20.0 MW  3.8 3
 SPEC GRTKBH N T 55325 K 0.020 GD  147 VS 3.20 DE 2.60 Q0400.0 QA 0.70 Q1 1.00 3
 LOCALITY: 9.4 Km al NO de Gaspar Hernandez. Espaillat.                        3
 2020-08-01-0552-00S.MAN___114                                                 6
 OLDACT:UP  20-08-01 16:08 OP:CGRS STATUS:               ID:20200801055200     3
 OLDACT:UP  20-08-01 15:33 OP:CGRS STATUS:               ID:20200801055200     3
 OLDACT:UP  20-08-01 15:28 OP:CGRS STATUS:               ID:20200801055200     3
 OLDACT:UP  20-08-01 15:21 OP:CGRS STATUS:               ID:20200801055200     3
 OLDACT:UP  20-08-01 15:20 OP:CGRS STATUS:               ID:20200801055200     3
 OLDACT:ARG 20-08-01 14:07 OP:PLST STATUS:               ID:20200801055200     3
 ACTION:UPD 20-09-29 11:31 OP:jmlc STATUS:               ID:20200801055200     I
 OLDACT:UP  20-08-01 16:09 OP:CGRS STATUS:               ID:20200801055200     3
 STAT SP IPHASW D HRMM SECON CODA AMPLIT PERI AZIMU VELO AIN AR TRES W  DIS CAZ7
 SODR BN IS     C  552 36.28                              90   -0.1210 25.2 289 
 SODR BN  IAML     552 37.48       195.4 1.30                          25.2 289 
 NADR BN IS     C  552 46.85                              90   -0.1410 62.9 125 
 NADR BN  IAML     553 23.92       204.3 1.85                          62.9 125 
 LUDR BZ IP     C  552 39.10   26                         90   -1.1310 67.6 291 
 MADR BN IS     C  552 51.78                              90    0.0110 79.9 261 
 MADR BN  IAML     553  4.18       124.0 3.05                          79.9 261 
 SDDR BN IS     C  553  5.52                              90    0.9910  125 232 
 SDDR BN  IAML     553 11.14        33.4 3.10                           125 232 
 REDR BZ IP     C  552 53.19   55                         70   -0.0410  149 253 
 REDR BN IS     C  553 10.45                              70   -0.4710  149 253 
 REDR BN  IAML     553 48.88        30.3 3.00                           149 253 
 GRTK BN IS     C  553 27.01                              50    0.9210  219 338 
 GRTK BN  IAML     553 36.79       119.3 2.70                           219 338 
                                                                                
 2020  8 1 0606 54.5 L  20.170 -70.497 98.0  DOM  8 0.6 2.3LDOM 3.2CDOM 3.3WDOM1
 LOCALITY: 39.8 Km al SE de Mano Juan Isla Saona. Mar Caribe.                  3
 SPEC AVERAGE  MO 14.0 ST0.011 OM  3.1 f00.618 R4.7954 AL 0.00 WI 20.0 MW  3.3 3
 SPEC SD       MO  1.2 ST0.003 OM  1.3 f00.729 R2.5880 AL      WI      MW  0.8 3
 GAP=238        1.50       7.0     4.3  6.3  0.1056E+02 -0.5378E+00 -0.9530E+01E
 SPEC SODRBH N MO 14.4 ST0.011 OM  3.8 f00.247 R4.7935 AL-0.00 WI 20.0 MW  3.6 3
 SPEC SODRBH N T 6 7 6 K 0.020 GD 47.0 VS 3.20 DE 2.60 Q0400.0 QA 0.70 Q1 1.00 3
 SPEC MADRBH N MO 14.7 ST0.009 OM  3.8 f00.189 R6.2646 AL-0.00 WI 20.0 MW  3.8 3
 SPEC MADRBH N T 6 717 K 0.020 GD 92.2 VS 3.20 DE 2.60 Q0400.0 QA 0.70 Q1 1.00 3
 SPEC MCDRBH N MO 14.9 ST0.008 OM  3.9 f00.158 R7.4937 AL-0.00 WI 20.0 MW  3.9 3
 SPEC MCDRBH N T 6 728 K 0.020 GD  111 VS 3.20 DE 2.60 Q0400.0 QA 0.70 Q1 1.00 3
 SPEC SDDRBH N MO 11.9 ST0.016 OM  0.9 f0 1.88 R0.6298 AL-0.00 WI 20.0 MW  1.9 3
 SPEC SDDRBH N T 6 736 K 0.020 GD  124 VS 3.20 DE 2.60 Q0400.0 QA 0.70 Q1 1.00 3
 2020-08-01-0607-00S.MAN___114                                                 6
 OLDACT:UP  20-08-01 16:03 OP:CGRS STATUS:               ID:20200801060700     3
 OLDACT:UP  20-08-01 16:01 OP:CGRS STATUS:               ID:20200801060700     3
 OLDACT:UP  20-08-01 16:01 OP:CGRS STATUS:               ID:20200801060700     3
 OLDACT:UP  20-08-01 16:00 OP:CGRS STATUS:               ID:20200801060700     3
 OLDACT:UP  20-08-01 15:59 OP:CGRS STATUS:               ID:20200801060700     3
 OLDACT:ARG 20-08-01 14:08 OP:PLST STATUS:               ID:20200801060700     3
 ACTION:UPD 20-09-29 11:31 OP:jmlc STATUS:               ID:20200801060700     I
 OLDACT:UP  20-08-01 17:01 OP:CGRS STATUS:               ID:20200801060700     3
 OLDACT:UP  20-08-01 16:24 OP:CGRS STATUS:               ID:20200801060700     3
 OLDACT:UP  20-08-01 16:04 OP:CGRS STATUS:               ID:20200801060700     3
 OLDACT:UP  20-08-01 16:03 OP:CGRS STATUS:               ID:20200801060700     3
 OLDACT:UP  20-08-01 16:03 OP:CGRS STATUS:               ID:20200801060700     3
 STAT SP IPHASW D HRMM SECON CODA AMPLIT PERI AZIMU VELO AIN AR TRES W  DIS CAZ7
 SODR BN IS     C  6 7  7.75                              91    0.0810 47.0 190 
 SODR BN  IAML     6 7 48.43       181.2 2.80                          47.0 190 
 LUDR BZ IP     C  6 7  2.82   57                         91   -0.8110 56.7 237 
 LUDR BE IS     C  6 7 10.57                              91    0.1710 56.7 237 
 CADR BN IS     C  6 7 16.91                              90   -0.2110 80.7 134 
 CADR BN  IAML     6 7 21.09       473.4 0.05                          80.7 134 
 SC01 BN IS     C  6 7 19.37                              90    0.8310 85.7 196 
 SC01 BN  IAML     6 7 23.85        58.5 2.55                          85.7 196 
 MADR BZ IP     C  6 7  9.16   38                         90   -0.1910 92.2 224 
 MADR BN IS     C  6 7 19.37                              90   -0.9810 92.2 224 
 MADR BN  IAML     6 8  1.19       120.4 3.10                          92.2 224 
 MCDR BE IS     C  6 7 30.29                              90    0.6810  125 256 
 MCDR BN  IAML     6 7 47.82       114.6 4.70                           125 256 
 SDDR BZ IP     C  6 7 19.73   71                         50    0.4410  156 212 
 SDDR BN IS     C  6 7 37.69                              50    0.0410  156 212 
 SDDR BN  IAML     6 7 43.64        24.4 2.35                           156 212 
 REDR BZ IP     C  6 7 20.43   65                         50    0.5610  160 232 
 REDR BN IS     C  6 7 38.04                              50   -0.6210  160 232 
 REDR BN  IAML     6 7 41.97        33.2 3.20                           160 232 
                                                                                
 2020  8 1 1526  6.4 L  20.210 -70.735 10.0  DOM 14 0.9 2.9LDOM 3.5CDOM 3.3WDOM1
 LOCALITY: 42.6 Km al NE de Luperon. Oceano Atlantico.                         3
 SPEC AVERAGE  MO 14.0 ST 26.0 OM  2.8 f0 3.58 R0.7285 AL 0.00 WI 20.0 MW  3.3 3
 SPEC SD       MO  0.3 ST 57.8 OM  0.4 f0 3.47 R0.5321 AL      WI      MW  0.2 3
 GAP=142        2.45       5.1     4.8  7.8  0.3251E+01  0.1483E+01 -0.1121E+02E
 SPEC SODRBH N MO 14.7 ST0.249 OM  3.8 f00.662 R1.9953 AL-0.00 WI 20.0 MW  3.7 3
 SPEC SODRBH N T152619 K 0.020 GD 54.1 VS 3.57 DE 2.76 Q0400.0 QA 0.70 Q1 1.00 3
 SPEC MADRBH N MO 14.0 ST  2.1 OM  3.0 f0 2.16 R0.6115 AL-0.00 WI 20.0 MW  3.3 3
 SPEC MADRBH N T152628 K 0.020 GD 81.5 VS 3.57 DE 2.76 Q0400.0 QA 0.70 Q1 1.00 3
 SPEC SC01BH N MO 13.8 ST  1.0 OM  2.7 f0 2.09 R0.6320 AL-0.00 WI 20.0 MW  3.1 3
 SPEC SC01BH N T152630 K 0.020 GD 87.1 VS 3.57 DE 2.76 Q0400.0 QA 0.70 Q1 1.00 3
 SPEC MCDRBH N MO 13.6 ST 54.5 OM  2.5 f0 8.78 R0.1504 AL-0.00 WI 20.0 MW  3.0 3
 SPEC MCDRBH N T152634 K 0.020 GD  101 VS 3.57 DE 2.76 Q0400.0 QA 0.70 Q1 1.00 3
 SPEC NADRBH N MO 14.4 ST  2.5 OM  3.2 f0 1.77 R0.7463 AL-0.00 WI 20.0 MW  3.5 3
 SPEC NADRBH N T152641 K 0.020 GD  114 VS 3.57 DE 2.76 Q0400.0 QA 0.70 Q1 1.00 3
 SPEC REDRBH N MO 13.8 ST192.8 OM  2.6 f0 11.7 R0.1129 AL-0.00 WI 20.0 MW  3.1 3
 SPEC REDRBH N T152643 K 0.020 GD  120 VS 3.57 DE 2.76 Q0400.0 QA 0.70 Q1 1.00 3
 SPEC SDDRBH N MO 13.9 ST0.438 OM  2.7 f0 1.42 R0.9302 AL-0.00 WI 20.0 MW  3.2 3
 SPEC SDDRBH N T152644 K 0.020 GD  121 VS 3.57 DE 2.76 Q0400.0 QA 0.70 Q1 1.00 3
 SPEC GRTKBH N MO 13.8 ST  2.7 OM  2.6 f0 2.81 R0.4701 AL-0.00 WI 20.0 MW  3.1 3
 SPEC GRTKBH N T152645 K 0.020 GD  122 VS 3.57 DE 2.76 Q0400.0 QA 0.70 Q1 1.00 3
 SPEC BADRBH N MO 13.7 ST  3.5 OM  2.4 f0 3.39 R0.3896 AL-0.00 WI 20.0 MW  3.1 3
 SPEC BADRBH N T1527 3 K 0.020 GD  142 VS 3.57 DE 2.76 Q0400.0 QA 0.70 Q1 1.00 3
 SPEC PODRBH N MO 14.3 ST0.456 OM  3.0 f0 1.06 R1.2461 AL-0.00 WI 20.0 MW  3.5 3
 SPEC PODRBH N T152711 K 0.020 GD  152 VS 3.57 DE 2.76 Q0400.0 QA 0.70 Q1 1.00 3
 2020-08-01-1525-00S.MAN___114                                                 6
 OLDACT:ARG 20-08-01 16:53 OP:plst STATUS:               ID:20200801152500     3
 OLDACT:UP  20-08-01 17:01 OP:CGRS STATUS:               ID:20200801152500     3
 OLDACT:UP  20-08-01 17:00 OP:CGRS STATUS:               ID:20200801152500     3
 ACTION:UPD 20-09-29 11:31 OP:jmlc STATUS:               ID:20200801152500     I
 OLDACT:UP  20-08-01 17:02 OP:CGRS STATUS:               ID:20200801152500     3
 OLDACT:UP  20-08-01 17:01 OP:CGRS STATUS:               ID:20200801152500     3
 OLDACT:UP  20-08-01 17:01 OP:CGRS STATUS:               ID:20200801152500     3
 STAT SP IPHASW D HRMM SECON CODA AMPLIT PERI AZIMU VELO AIN AR TRES W  DIS CAZ7
 LUDR BZ IP     C 1526 12.00   69                        103   -1.3410 41.8 213 
 LUDR BE IS     C 1526 19.13                             103    0.6810 41.8 213 
 SODR BZ IP     C 1526 14.68   70                        100   -0.4710 53.3 162 
 SODR BN IS     C 1526 21.37                             100   -0.2310 53.3 162 
 SODR BN  IAML    1526 36.77       739.2 0.85                          53.3 162 
 MADR BN IS     C 1526 30.18                              70    0.9810 81.0 208 
 MADR BN  IAML    1526 34.03       611.1 0.40                          81.0 208 
 SC01 BZ IP     C 1526 19.56   70                         70   -0.8210 86.6 179 
 SC01 BN IS     C 1526 31.94                              70    1.2410 86.6 179 
 SC01 BN  IAML    1526 33.12       396.0 0.50                          86.6 179 
 MCDR BN  IAML    1526 39.44       435.6 0.15                           103 250 
 CADR BN  IAML    1526 56.96       287.7 0.90                           103 126 
 MCDR BZ IP     C 1526 21.72   88                         70   -1.0710  103 250 
 MCDR BN IS     C 1526 35.79                              70    0.8810  103 250 
 CADR BN IS     C 1526 35.11                              70    0.2010  103 126 
 LODA EZ IP     C 1526 27.71   58                         70    1.4710  125 234 
 LODA EN IS     C 1526 41.10                              70    0.1910  125 234 
 LODA BN  IAML    1526 46.10      2273.2 0.38                           125 234 
 NADR BZ IP     C 1526 28.77   62                         70    1.5210  132 136 
 NADR BN IS     C 1526 42.50                              70   -0.1710  132 136 
 NADR BN  IAML    1526 47.10       487.5 0.40                           132 136 
 REDR BZ IP     C 1526 27.86  110                         50   -1.1010  145 225 
 REDR BN IS       1526 44.73                              50   -0.9010  145 225 
 REDR BN  IAML    1526 47.80      1006.9 0.15                           145 225 
 SDDR BZ IP     D 1526 27.77   83                         50   -1.5910  148 203 
 SDDR BN IS     C 1526 46.03                              50   -0.3010  148 203 
 SDDR BN  IAML    1526 52.23       247.2 0.40                           148 203 
 GRTK BZ IP     C 1526 30.42   76                         50    0.8810  150 344 
 GRTK BN IS     C 1526 46.70                              50    0.0610  150 344 
 GRTK BN  IAML    1526 52.25       360.5 0.20                           150 344 
 ABDR BZ IP     C 1526 29.47   85                         50   -1.0010  155 176 
 ABDR BE IS     C 1526 48.14                              50   -0.1310  155 176 
 ABDR BN  IAML    1526 57.39         0.4 0.70                           155 176 
 BADR BZ IP     C 1526 36.52   89                         50    0.1210  204 169 
 BADR BN  IAML    1527  9.61       175.7 0.80                           204 169 
 PODR BZ IP     C 1526 40.98   86                         50    0.9110  233 194 
 PODR BN  IAML    1527 16.27       235.1 0.65                           233 194 
                                                                                
