 2020 11 1 1548  3.70L  19.204 -68.859 11.4  DOM 14 0.8 2.5LDOM 3.0CDOM 2.7WDOM1
 SPEC AVERAGE  MO 13.2 ST  1.8 OM  2.4 f0 3.32 R1.3731 AL 0.00 WI 20.0 MW  2.7 3
 SPEC SD       MO  0.8 ST  2.6 OM  0.8 f0 1.84 R2.1189 AL      WI      MW  0.6 3
 GAP=183        2.24       7.6     5.4 34.8  0.2433E+02 -0.1208E+03 -0.8660E+02E
 SPEC SMDRBH N MO 12.6 ST  1.1 OM  2.1 f0 4.63 R0.2557 AL-0.00 WI 20.0 MW  2.4 3
 SPEC SMDRBH N T154814 K 0.020 GD 37.7 VS 3.20 DE 2.60 Q0400.0 QA 0.70 Q1 0.00 3
 SPEC HMDRBH N MO 12.5 ST  1.1 OM  1.7 f0 5.11 R0.2317 AL-0.00 WI 20.0 MW  2.3 3
 SPEC HMDRBH N T154822 K 0.020 GD 72.6 VS 3.20 DE 2.60 Q0400.0 QA 0.70 Q1 0.00 3
 SPEC PCDRBH N MO 14.5 ST0.018 OM  3.6 f00.273 R4.3370 AL-0.00 WI 20.0 MW  3.6 3
 SPEC PCDRBH N T154830 K 0.020 GD 92.2 VS 3.20 DE 2.60 Q0400.0 QA 0.70 Q1 0.00 3
 SPEC SADRBH N MO 13.5 ST  0.2 OM  2.5 f0 1.37 R 0.864 AL-0.00 WI 20.0 MW  2.9 3
 SPEC SADRBH N T154836 K 0.020 GD10.30 VS 3.20 DE 2.60 Q0400.0 QA 0.70 Q1      3
 SPEC ABDRBH N MO 15.5 ST  0.0 OM  4.4 f00.091 R  13.0 AL-0.00 WI 20.0 MW  4.3 3
 SPEC ABDRBH N T154855 K 0.020 GD13.60 VS 3.20 DE 2.60 Q0400.0 QA 0.70 Q1      3
 SPEC SC01BH N MO 15.0 ST0.014 OM  3.8 f00.179 R6.6145 AL-0.00 WI 20.0 MW  3.9 3
 SPEC SC01BH N T154858 K 0.020 GD  160 VS 3.20 DE 2.60 Q0400.0 QA 0.70 Q1 0.00 3
 SPEC AGPRBH N MO 13.2 ST0.863 OM  2.0 f0 2.82 R0.4199 AL-0.00 WI 20.0 MW  2.7 3
 SPEC AGPRBH N T154858 K 0.020 GD  162 VS 3.20 DE 2.60 Q0400.0 QA 0.70 Q1 0.00 3
 SPEC CRPRBH N MO 12.8 ST0.715 OM  1.6 f0 3.49 R0.3393 AL-0.00 WI 20.0 MW  2.5 3
 SPEC CRPRBH N T1549 3 K 0.020 GD  178 VS 3.20 DE 2.60 Q0400.0 QA 0.70 Q1 0.00 3
 SPEC MLPRBH N MO 12.2 ST0.257 OM  1.0 f0 3.91 R0.3028 AL-0.00 WI 20.0 MW  2.1 3
 SPEC MLPRBH N T1549 5 K 0.020 GD  181 VS 3.20 DE 2.60 Q0400.0 QA 0.70 Q1 0.00 3
 SPEC SDDRBH N MO 13.1 ST0.182 OM  1.9 f0 1.71 R0.6924 AL-0.00 WI 20.0 MW  2.7 3
 SPEC SDDRBH N T154910 K 0.020 GD  194 VS 3.20 DE 2.60 Q0400.0 QA 0.70 Q1 0.00 3
 SPEC CELPBH N MO 12.7 ST0.334 OM  1.4 f0 3.03 R0.3908 AL-0.00 WI 20.0 MW  2.4 3
 SPEC CELPBH N T154914 K 0.020 GD  201 VS 3.20 DE 2.60 Q0400.0 QA 0.70 Q1 0.00 3
 SPEC REDRBH N MO 13.0 ST 13.3 OM  1.7 f0 8.03 R0.1474 AL-0.00 WI 20.0 MW  2.6 3
 SPEC REDRBH N T154929 K 0.020 GD  217 VS 3.20 DE 2.60 Q0400.0 QA 0.70 Q1 0.00 3
 LOCALITY: 31.7 Km al NE de Miches, Oceano Atlantico.                          3
 2020-11-01-1547-00S.MAN___117                                                 6
 OLDACT:ARG 20-11-01 16:03 OP:jmlc STATUS:               ID:20201101154700     3
 OLDACT:UP  20-11-01 16:14 OP:JMLC STATUS:               ID:20201101154700     3
 ACTION:UP  22-01-07 19:21 OP:jmlc STATUS:               ID:20201101154803 L   I
 OLDACT:UP  21-12-14 19:09 OP:AMMR STATUS:               ID:20201101154700     3
 OLDACT:UP  20-11-01 16:15 OP:JMLC STATUS:               ID:20201101154700     3
 STAT SP IPHASW D HRMM SECON CODA AMPLIT PERI AZIMU VELO AIN AR TRES W  DIS CAZ7
 SMDR BZ EPg    C 1548  9.91   30                        108    0.1010 35.9 285 
 SMDR BN ESg      1548 15.42                             108    1.1210 35.9 285 
 SMDR BN  IAML    1548 21.85       297.0 0.45                          35.9 285 
 HGY1 HN ESg      1548 23.46                              99   -0.0410 69.5 167 
 HGY1 BN  IAML    1548 24.51       160.9 0.21                          69.5 167 
 HMDR BZ EPg    C 1548 15.38   30                         99   -0.0810 71.7 230 
 HMDR BN ESg    C 1548 24.16                              99    0.0210 71.7 230 
 HMDR BN  IAML    1548 26.63        62.2 0.25                          71.7 230 
 PCDR BZ EPg      1548 18.69   30                         97    0.0710 91.5 147 
 PCDR BN  IAML    1548 35.25       136.6 1.55                          91.5 147 
 SC01 BN  IAML    1549  7.07        72.1 1.45                           198 277 
 AGPR BN  IAML    1549  9.35        67.4 0.40                           201 114 
 PRSN BZ EPg      1548 38.67   47                         93    0.8110  211 121 
 PRSN BN  IAML    1549 13.42       102.8 0.24                           211 121 
 CRPR BZ EPg    C 1548 39.89   58                         93   -0.8410  229 125 
 LUDR BZ EPg      1548 40.32                              93   -0.9810  233 289 
 LUDR BE ESg      1549  9.28                              93    0.1810  233 289 
 MLPR BZ EPg      1548 41.71   54                         93   -0.0310  235 125 
 AOPR BZ EPg    C 1548 41.61   59                         93   -1.1110  241 113 
 AOPR BN ESg      1549 13.50                              93    1.9310  241 113 
 AOPR BN  IAML    1549 19.40        69.0 0.32                           241 113 
 SDDR BN  IAML    1549 18.22        31.6 3.30                           257 265 
 CELP BZ EPg    C 1548 46.21   56                         92   -1.3510  271 117 
 CELP BN ESg      1549 20.20                              92    0.2210  271 117 
 CELP BN  IAML    1549 23.82        16.2 0.44                           271 117 
 REDR BN  IAML    1549 31.29        49.6 0.15                           299 272 
                                                                                
 2020 11 1 1631 40.10L  19.029 -70.180 25.7  DOM  5 0.4 2.3LDOM 2.2CDOM 1.7WDOM1
 SPEC AVERAGE  MO 11.7 ST0.347 OM  3.0 f0 7.22 R0.1840 AL 0.00 WI 20.0 MW  1.7 3
 SPEC SD       MO  0.0 ST0.000 OM  2.4 f00.000 R0.0000 AL      WI      MW  0.0 3
 GAP=160        1.16       4.8     3.2 12.7 -0.1126E+01 -0.8021E+01 -0.1836E+00E
 SPEC HMDRBH N MO 11.7 ST0.347 OM  0.6 f0 7.22 R0.1840 AL-0.00 WI 20.0 MW  1.7 3
 SPEC HMDRBH N T1632 7 K 0.020 GD 92.0 VS 3.59 DE 2.77 Q0400.0 QA 0.70 Q1 0.00 3
 LOCALITY: 11.9 Km al SO de Cotui, Sanchez Ramirez.                            3
 2020-11-01-1631-00S.MAN___117                                                 6
 OLDACT:ARG 20-11-01 18:33 OP:CGRS STATUS:               ID:20201101163100     3
 OLDACT:UP  20-11-01 18:42 OP:CGRS STATUS:               ID:20201101163100     3
 ACTION:UP  22-01-07 19:21 OP:jmlc STATUS:               ID:20201101163140 L   I
 OLDACT:UP  22-01-07 18:37 OP:NJM  STATUS:               ID:20201101163100     3
 OLDACT:UP  22-01-07 18:36 OP:NJM  STATUS:               ID:20201101163100     3
 OLDACT:UP  21-12-14 19:14 OP:AMMR STATUS:               ID:20201101163100     3
 OLDACT:UP  21-12-14 19:13 OP:AMMR STATUS:               ID:20201101163100     3
 OLDACT:UP  21-12-14 19:12 OP:AMMR STATUS:               ID:20201101163100     3
 OLDACT:UP  20-11-01 18:42 OP:CGRS STATUS:               ID:20201101163100     3
 STAT SP IPHASW D HRMM SECON CODA AMPLIT PERI AZIMU VELO AIN AR TRES W  DIS CAZ7
 NAVI BN EPg    C 1631 44.94   12                        142   -0.1210 17.8 116 
 NAVI BN  IAML    1631 47.01      2310.0 0.45                          17.8 116 
 ABDR BZ IP       1631 50.20   23                        108    0.7810 52.8 243 
 ABDR BN ESg    D 1631 56.07                             108   -0.2110 52.8 243 
 ABDR BN  IAML    1631 59.19        34.8 1.55                          52.8 243 
 BADR BZ IP       1631 51.09   23                         98   -0.8710 72.4 195 
 BADR BN ESg    C 1632  1.01                              98    0.3210 72.4 195 
 SC01 BZ IP       1631 51.79                              97   -0.1110 72.5 307 
 HMDR BZ IP       1631 54.26   36                         94    0.1210 88.3 107 
 HMDR BN IS       1632  4.57                              94    0.0810 88.3 107 
                                                                                
 2020 11 1 1840 49.90L  17.933 -71.521  3.1  DOM  6 0.5 2.2LDOM 2.6CDOM 2.4WDOM1
 SPEC AVERAGE  MO 12.7 ST  3.4 OM  3.0 f0 6.93 R0.3570 AL 0.00 WI 20.0 MW  2.4 3
 SPEC SD       MO  0.6 ST  4.0 OM  1.3 f0 6.41 R0.2028 AL      WI      MW  0.4 3
 GAP=263        1.35       8.5     4.6 55.2  0.2101E+02  0.1195E+03  0.2379E+03E
 SPEC PODRBH N MO 13.2 ST0.760 OM  2.7 f0 2.60 R0.4568 AL-0.00 WI 20.0 MW  2.8 3
 SPEC PODRBH N T184058 K 0.020 GD 36.3 VS 3.21 DE 2.61 Q0400.0 QA 0.70 Q1 0.00 3
 SPEC NEDRBH N MO 13.0 ST0.309 OM  2.3 f0 2.20 R0.5399 AL-0.00 WI 20.0 MW  2.6 3
 SPEC NEDRBH N T1841 4 K 0.020 GD 61.3 VS 3.21 DE 2.61 Q0400.0 QA 0.70 Q1 0.00 3
 SPEC ABDRBH N MO 11.9 ST  9.0 OM  0.9 f0 16.0 R0.0742 AL-0.00 WI 20.0 MW  1.9 3
 SPEC ABDRBH N T184126 K 0.020 GD  116 VS 3.21 DE 2.61 Q0400.0 QA 0.70 Q1 0.00 3
 LOCALITY: 14.2 Km al Este de Cabo Rojo. Pedernales.                           3
 2020-11-01-1840-00S.MAN___117                                                 6
 OLDACT:ARG 20-11-01 18:48 OP:cgrs STATUS:               ID:20201101184000     3
 OLDACT:UP  20-11-01 18:54 OP:CGRS STATUS:               ID:20201101184000     3
 ACTION:UP  22-01-07 19:21 OP:jmlc STATUS:               ID:20201101184049 L   I
 OLDACT:UP  21-12-14 19:15 OP:AMMR STATUS:               ID:20201101184000     3
 OLDACT:UP  20-11-01 18:54 OP:CGRS STATUS:               ID:20201101184000     3
 STAT SP IPHASW D HRMM SECON CODA AMPLIT PERI AZIMU VELO AIN AR TRES W  DIS CAZ7
 PODR BZ EPg    C 1840 55.48   25                         97   -0.2910 36.2  44 
 PODR BN ESg    D 1841  0.29                              97    0.1610 36.2  44 
 PODR BN  IAML    1841  3.57       583.8 0.30                          36.2  44 
 NEDR BZ EPg    C 1840 59.30   27                         93   -0.4610 61.2   5 
 NEDR BN ESg    D 1841  6.12                              93   -0.9610 61.2   5 
 NEDR BN  IAML    1841  7.80       183.3 0.55                          61.2   5 
 JIDR BZ EPg    C 1841  1.27   25                         93   -0.1210 71.3 331 
 JIDR BN ESg    D 1841 10.84                              93    0.9310 71.3 331 
 JIDR BN  IAML    1841 10.96        53.0 0.85                          71.3 331 
 SDDR BZ EPg    C 1841  9.38   39                         92    0.3910  118  12 
 BADR BZ EPg    C 1841 11.22                              92   -0.1410  133  67 
 BADR BN ESg    D 1841 27.81                              92    0.5510  133  67 
 ABDR BZ EPg    C 1841 11.42   42                         93   -0.3610  136  44 
 ABDR BN ESg    D 1841 28.30                              93    0.3010  136  44 
 ABDR BN  IAML    1841 33.10        39.9 4.15                           136  44 
                                                                                
 2020 11 1 2049 40.10L  18.815 -69.510 95.2  DOM 18 0.8 3.1LDOM 3.3CDOM 3.5WDOM1
 SPEC AVERAGE  MO 14.3 ST 56.9 OM  2.7 f0 4.56 R1.3567 AL 0.00 WI 20.0 MW  3.5 3
 SPEC SD       MO  0.6 ST159.7 OM  0.7 f0 3.81 R2.8950 AL      WI      MW  0.4 3
 GAP=111        2.30       9.6     4.2 11.1  0.9506E+01 -0.1100E+01 -0.3196E+01E
 SPEC SMDRBH N MO 14.7 ST  3.4 OM  3.1 f0 1.98 R0.8372 AL-0.00 WI 20.0 MW  3.7 3
 SPEC SMDRBH N T2050 4 K 0.020 GD  113 VS 4.48 DE 3.40 Q0400.0 QA 0.70 Q1 0.00 3
 SPEC BADRBH N MO 14.1 ST128.2 OM  2.5 f0 9.81 R0.1690 AL-0.00 WI 20.0 MW  3.4 3
 SPEC BADRBH N T205010 K 0.020 GD  138 VS 4.48 DE 3.40 Q0400.0 QA 0.70 Q1 0.00 3
 SPEC SADRBH N MO 15.0 ST0.336 OM  3.3 f00.728 R2.2769 AL-0.00 WI 20.0 MW  3.9 3
 SPEC SADRBH N T2050 9 K 0.020 GD  140 VS 4.48 DE 3.40 Q0400.0 QA 0.70 Q1 0.00 3
 SPEC ABDRBH N MO 14.2 ST 19.6 OM  2.5 f0 5.09 R0.3257 AL-0.00 WI 20.0 MW  3.4 3
 SPEC ABDRBH N T205014 K 0.020 GD  151 VS 4.48 DE 3.40 Q0400.0 QA 0.70 Q1 0.00 3
 SPEC PCDRBH N MO 14.4 ST0.902 OM  2.7 f0 1.55 R1.0694 AL-0.00 WI 20.0 MW  3.5 3
 SPEC PCDRBH N T205014 K 0.020 GD  156 VS 4.48 DE 3.40 Q0400.0 QA 0.70 Q1 0.00 3
 SPEC SC01BH N MO 14.1 ST 14.9 OM  2.4 f0 4.80 R0.3453 AL-0.00 WI 20.0 MW  3.4 3
 SPEC SC01BH N T205019 K 0.020 GD  173 VS 4.48 DE 3.40 Q0400.0 QA 0.70 Q1 0.00 3
 SPEC SDDRBH N MO 14.2 ST0.908 OM  2.4 f0 1.77 R0.9365 AL-0.00 WI 20.0 MW  3.4 3
 SPEC SDDRBH N T205028 K 0.020 GD  210 VS 4.48 DE 3.40 Q0400.0 QA 0.70 Q1 0.00 3
 SPEC PODRBH N MO 14.0 ST  4.9 OM  2.1 f0 3.85 R0.4305 AL-0.00 WI 20.0 MW  3.2 3
 SPEC PODRBH N T205028 K 0.020 GD  221 VS 4.48 DE 3.40 Q0400.0 QA 0.70 Q1 0.00 3
 SPEC REDRBH N MO 14.2 ST643.2 OM  2.3 f0 16.0 R0.1036 AL-0.00 WI 20.0 MW  3.4 3
 SPEC REDRBH N T205037 K 0.020 GD  254 VS 4.48 DE 3.40 Q0400.0 QA 0.70 Q1 0.00 3
 SPEC JIDRBH N MO 16.0 ST0.027 OM  4.1 f00.138 R 12.01 AL-0.00 WI 20.0 MW  4.6 3
 SPEC JIDRBH N T205039 K 0.020 GD  267 VS 4.48 DE 3.40 Q0400.0 QA 0.70 Q1 0.00 3
 SPEC AGPRBH N MO 13.8 ST  6.5 OM  1.9 f0 4.60 R0.3603 AL-0.00 WI 20.0 MW  3.2 3
 SPEC AGPRBH N T205039 K 0.020 GD  273 VS 4.48 DE 3.40 Q0400.0 QA 0.70 Q1 0.00 3
 SPEC PRSNBH N MO 14.0 ST  6.6 OM  2.1 f0 3.96 R0.4186 AL-0.00 WI 20.0 MW  3.3 3
 SPEC PRSNBH N T205041 K 0.020 GD  275 VS 4.48 DE 3.40 Q0400.0 QA 0.70 Q1 0.00 3
 SPEC CRPRBH N MO 13.6 ST  5.1 OM  1.6 f0 5.23 R0.3169 AL-0.00 WI 20.0 MW  3.0 3
 SPEC CRPRBH N T205046 K 0.020 GD  287 VS 4.48 DE 3.40 Q0400.0 QA 0.70 Q1 0.00 3
 SPEC AOPRBH N MO 14.3 ST 15.8 OM  2.3 f0 4.35 R0.3811 AL-0.00 WI 20.0 MW  3.5 3
 SPEC AOPRBH N T205048 K 0.020 GD  310 VS 4.48 DE 3.40 Q0400.0 QA 0.70 Q1 0.00 3
 SPEC CELPBH N MO 13.5 ST  3.0 OM  1.5 f0 4.51 R0.3675 AL-0.00 WI 20.0 MW  3.0 3
 SPEC CELPBH N T205055 K 0.020 GD  334 VS 4.48 DE 3.40 Q0400.0 QA 0.70 Q1 0.00 3
 LOCALITY: 15.0 Km al ENE de Bayaguana. Monte Plata.                           3
 2020-11-01-2049-00S.MAN___117                                                 6
 OLDACT:ARG 20-11-01 20:57 OP:cgr  STATUS:               ID:20201101204900     3
 OLDACT:UP  20-11-01 21:08 OP:CGRS STATUS:               ID:20201101204900     3
 OLDACT:UP  20-11-01 21:08 OP:CGRS STATUS:               ID:20201101204900     3
 ACTION:UP  22-01-07 19:21 OP:jmlc STATUS:               ID:20201101204940 L   I
 STAT SP IPHASW D HRMM SECON CODA AMPLIT PERI AZIMU VELO AIN AR TRES W  DIS CAZ7
 SMDR BZ EPg    C 2049 55.26   36                        143    0.2210 62.5  33 
 SMDR BN ESg    C 2050  6.19                             143    0.1310 62.5  33 
 SMDR BN  IAML    2050  9.54       804.4 0.25                          62.5  33 
 BADR BZ EPg    C 2049 57.58   43                        128   -0.7810  101 243 
 BADR BN ESg    D 2050 11.99                             128    0.1610  101 243 
 BADR BN  IAML    2050 16.51       484.4 0.20                           101 243 
 SADR BZ EPg    C 2049 58.40   50                        127   -0.0610  104 132 
 SADR BN ESg    C 2050 11.38                             127   -0.6310  104 132 
 SADR BN  IAML    2050 18.53       193.1 1.05                           104 132 
 ABDR BZ EPg    C 2049 59.33   35                        124   -0.8610  118 270 
 ABDR BN ESg    D 2050 15.67                             124    0.6510  118 270 
 ABDR BN  IAML    2050 17.39       513.6 0.20                           118 270 
 PCDR BZ EPg    D 2049 59.04   46                        121   -1.3910  124 105 
 PCDR BN ESg    D 2050 15.85                             121    0.4110  124 105 
 PCDR BN  IAML    2050 16.55       257.0 0.75                           124 105 
 SC01 BZ EPg    C 2050  3.17   46                        116    0.5310  145 298 
 SC01 BN  IAML    2050 24.64       272.3 0.25                           145 298 
 SDDR BZ EPg    C 2050  8.15   51                        109    0.7510  188 276 
 SDDR BN  IAML    2050 34.10       203.0 0.55                           188 276 
 PODR BZ EPg    D 2050  8.28   60                        107   -0.5910  200 249 
 PODR BN  IAML    2050 38.66       101.7 0.70                           200 249 
 NEDR BZ EPg    D 2050  8.58   53                        106   -1.1610  210 260 
 NEDR BN ESg    C 2050 31.98                             106    0.3410  210 260 
 NEDR BN  IAML    2050 39.00        40.9 1.05                           210 260 
 REDR BZ EPg    C 2050 12.26   66                        103   -0.5710  236 283 
 REDR BN ESg    D 2050 38.65                             103    1.6310  236 283 
 REDR BN  IAML    2050 42.22       262.8 0.15                           236 283 
 JIDR BZ EPg      2050 14.45   64                        102    0.1410  250 262 
 JIDR BN  IAML    2051 27.02        70.5 1.50                           250 262 
 AGPR BZ EPg    C 2050 14.21   53                        101   -0.8410  256  98 
 AGPR BN  IAML    2050 53.90        82.2 1.04                           256  98 
 PRSN BZ EPg    C 2050 15.42   64                        101    0.1210  258 104 
 PRSN BN  IAML    2050 52.17       146.5 0.24                           258 104 
 CRPR BZ EPg    C 2050 18.42   78                        100    1.6510  271 109 
 CRPR BN  IAML    2051 15.17        51.9 3.56                           271 109 
 AOPR BZ EPg      2050 19.58   72                         99   -0.0610  296 100 
 AOPR BN  IAML    2050 59.53       134.0 0.24                           296 100 
 CELP BZ EPg    C 2050 23.45   72                         97    0.9010  321 104 
 CELP BN  IAML    2051  2.90        33.9 0.28                           321 104 
 GRTK BZ EPg      2050 23.56   65                         96   -1.6110  343 331 
 GRTK BN  IAML    2051 26.03        86.5 2.45                           343 331 
 SJG  BZ EPg    C 2050 28.50   80                         96    0.9310  363 102 
                                                                                
