 2020 10 2 2357 35.30L  18.667 -70.221 61.1  DOM  7 0.9 2.7LDOM 3.0CDOM 3.0WDOM1
 SPEC AVERAGE  MO 13.6 ST  5.1 OM  3.0 f0 8.01 R4.1449 AL 0.00 WI 20.0 MW  3.0 3
 SPEC SD       MO  1.5 ST  5.4 OM  1.9 f0 5.65 R5.6628 AL      WI      MW  1.0 3
 GAP=125        2.27      12.6     6.3 17.7 -0.4715E+01  0.2344E+02  0.3426E+02E
 SPEC NAVIBH N MO 15.8 ST0.014 OM  4.4 f00.137 R 12.15 AL-0.00 WI 20.0 MW  4.5 3
 SPEC NAVIBH N T235750 K 0.020 GD 72.1 VS 4.50 DE 3.40 Q0400.0 QA 0.70 Q1 0.00 3
 SPEC HMDRBH N MO 12.3 ST  2.7 OM  0.8 f0 10.8 R0.1542 AL-0.00 WI 20.0 MW  2.2 3
 SPEC HMDRBH N T235760 K 0.020 GD  108 VS 4.50 DE 3.40 Q0400.0 QA 0.70 Q1 0.00 3
 SPEC REDRBH N MO 12.8 ST 12.6 OM  1.0 f0 13.1 R0.1271 AL-0.00 WI 20.0 MW  2.5 3
 SPEC REDRBH N T235816 K 0.020 GD  180 VS 4.50 DE 3.40 Q0400.0 QA 0.70 Q1 0.00 3
 LOCALITY: 5.0 Km al Oeste de Villa Altagracia. San Cristobal.                 3
 2020-10-02-2357-00S.MAN___126                                                 6
 OLDACT:ARG 20-10-03 00:07 OP:plst STATUS:               ID:20201002235700     3
 OLDACT:UP  20-10-03 00:35 OP:AMMR STATUS:               ID:20201002235700     3
 OLDACT:UP  20-10-03 00:35 OP:AMMR STATUS:               ID:20201002235700     3
 OLDACT:UP  20-10-03 00:35 OP:AMMR STATUS:               ID:20201002235700     3
 OLDACT:UP  20-10-03 00:34 OP:AMMR STATUS:               ID:20201002235700     3
 OLDACT:UP  20-10-03 00:33 OP:AMMR STATUS:               ID:20201002235700     3
 OLDACT:UP  20-10-03 00:33 OP:AMMR STATUS:               ID:20201002235700     3
 ACTION:UP  22-01-06 16:15 OP:jmlc STATUS:               ID:20201002235735 L   I
 OLDACT:UP  21-11-12 21:11 OP:AMMR STATUS:               ID:20201002235700     3
 OLDACT:UP  20-10-03 00:37 OP:AMMR STATUS:               ID:20201002235700     3
 STAT SP IPHASW D HRMM SECON CODA AMPLIT PERI AZIMU VELO AIN AR TRES W  DIS CAZ7
 BADR BZ IP     C 2357 45.44   66                        148    0.4910 33.2 206 
 NAVI BZ IP     C 2357 45.09   27                        144   -0.1510 38.2  32 
 NAVI BE IS     C 2357 52.07                             144   -0.5510 38.2  32 
 NAVI BN  IAML    2357 56.02      1128.0 0.25                          38.2  32 
 NADR BN  IAML    2357 59.10       170.1 1.45                          85.2  27 
 NADR BN IS     C 2357 59.53                             118   -0.5310 85.2  27 
 HMDR BZ IP     C 2357 50.02   46                        117   -0.0110 89.6  81 
 HMDR BN IS     C 2358  1.64                             117    0.6810 89.6  81 
 MIDR HZ IP     C 2357 52.84   48                        107   -1.5110  128  74 
 MIDR HN IS     C 2358  7.98                             107   -0.5010  128  74 
 MIDR BN  IAML    2358 22.40        44.6 2.94                           128  74 
 SMDR BN IS     C 2358 10.45                             107    1.8810  129  57 
 REDR BZ IP     C 2357 58.83   54                        101   -0.4910  170 294 
 REDR BN IS     C 2358 17.83                             101    0.7010  170 294 
                                                                                
 2020 10 3 0025 13.60L  19.102 -69.527  0.7  DOM 18 0.9 2.9LDOM 2.9CDOM 2.8WDOM1
 SPEC AVERAGE  MO 13.3 ST101.6 OM  2.6 f0 7.51 R0.2621 AL 0.00 WI 20.0 MW  2.8 3
 SPEC SD       MO  0.3 ST253.7 OM  0.4 f0 5.30 R0.1750 AL      WI      MW  0.2 3
 GAP= 94        2.60       4.3     3.1  8.0  0.4851E+01  0.3286E+01 -0.5287E+01E
 SPEC HMDRBH N MO 12.9 ST  2.9 OM  2.4 f0 5.03 R0.2354 AL-0.00 WI 20.0 MW  2.6 3
 SPEC HMDRBH N T 02523 K 0.020 GD 38.0 VS 3.20 DE 2.60 Q0400.0 QA 0.70 Q1 0.00 3
 SPEC SMDRBH N MO 12.7 ST  2.0 OM  2.1 f0 5.45 R0.2172 AL-0.00 WI 20.0 MW  2.4 3
 SPEC SMDRBH N T 02525 K 0.020 GD 41.3 VS 3.20 DE 2.60 Q0400.0 QA 0.70 Q1 0.00 3
 SPEC NADRBH N MO 13.5 ST 28.0 OM  2.9 f0 6.95 R0.1704 AL-0.00 WI 20.0 MW  2.9 3
 SPEC NADRBH N T 02523 K 0.020 GD 44.4 VS 3.20 DE 2.60 Q0400.0 QA 0.70 Q1 0.00 3
 SPEC MIDRHH N MO 12.9 ST 79.8 OM  2.2 f0 16.0 R0.0740 AL-0.00 WI 20.0 MW  2.5 3
 SPEC MIDRHH N T 02528 K 0.020 GD 52.0 VS 3.20 DE 2.60 Q0400.0 QA 0.70 Q1 0.00 3
 SPEC NAVIBH N MO 14.0 ST999.9 OM  3.3 f0 16.0 R0.0740 AL-0.00 WI 20.0 MW  3.3 3
 SPEC NAVIBH N T 02528 K 0.020 GD 55.0 VS 3.20 DE 2.60 Q0400.0 QA 0.70 Q1 0.00 3
 SPEC SDD BH N MO 12.9 ST  1.6 OM  2.0 f0 4.37 R0.2709 AL-0.00 WI 20.0 MW  2.5 3
 SPEC SDD BH N T 02535 K 0.020 GD 81.9 VS 3.20 DE 2.60 Q0400.0 QA 0.70 Q1 0.00 3
 SPEC HIDRBH N MO 13.2 ST155.8 OM  2.2 f0 16.0 R0.0740 AL-0.00 WI 20.0 MW  2.7 3
 SPEC HIDRBH N T 02540 K 0.020 GD  101 VS 3.20 DE 2.60 Q0400.0 QA 0.70 Q1 0.00 3
 SPEC BADRBH N MO 13.3 ST 26.6 OM  2.3 f0 8.05 R0.1471 AL-0.00 WI 20.0 MW  2.8 3
 SPEC BADRBH N T 02545 K 0.020 GD  108 VS 3.20 DE 2.60 Q0400.0 QA 0.70 Q1 0.00 3
 SPEC SC01BH N MO 13.5 ST  3.6 OM  2.5 f0 3.48 R0.3402 AL-0.00 WI 20.0 MW  3.0 3
 SPEC SC01BH N T 02549 K 0.020 GD  114 VS 3.20 DE 2.60 Q0400.0 QA 0.70 Q1 0.00 3
 SPEC SODRBH N MO 13.4 ST0.737 OM  2.4 f0 2.21 R0.5357 AL-0.00 WI 20.0 MW  2.9 3
 SPEC SODRBH N T 02550 K 0.020 GD  114 VS 3.20 DE 2.60 Q0400.0 QA 0.70 Q1 0.00 3
 SPEC PCDRBH N MO 13.3 ST0.905 OM  2.3 f0 2.54 R0.4661 AL-0.00 WI 20.0 MW  2.8 3
 SPEC PCDRBH N T 02550 K 0.020 GD  117 VS 3.20 DE 2.60 Q0400.0 QA 0.70 Q1 0.00 3
 SPEC MADRBH N MO 13.6 ST  4.0 OM  2.5 f0 3.43 R0.3452 AL-0.00 WI 20.0 MW  3.0 3
 SPEC MADRBH N T 02559 K 0.020 GD  131 VS 3.20 DE 2.60 Q0400.0 QA 0.70 Q1 0.00 3
 SPEC SDDRBH N MO 13.3 ST0.334 OM  2.2 f0 1.87 R0.6332 AL-0.00 WI 20.0 MW  2.8 3
 SPEC SDDRBH N T 026 1 K 0.020 GD  136 VS 3.20 DE 2.60 Q0400.0 QA 0.70 Q1 0.00 3
 SPEC REDRBH N MO 13.2 ST115.9 OM  2.1 f0 13.7 R0.0864 AL-0.00 WI 20.0 MW  2.8 3
 SPEC REDRBH N T 02610 K 0.020 GD  151 VS 3.20 DE 2.60 Q0400.0 QA 0.70 Q1 0.00 3
 LOCALITY: 15.4 Km al ONO de Sabana de la Mar. Bahia de Samana.                3
 2020-10-03-0025-00S.MAN___126                                                 6
 OLDACT:UP  20-10-03 00:58 OP:AMMR STATUS:               ID:20201003002500     3
 OLDACT:ARG 20-10-03 00:45 OP:plst STATUS:               ID:20201003002500     3
 OLDACT:UP  20-10-03 00:58 OP:AMMR STATUS:               ID:20201003002500     3
 OLDACT:UP  20-10-03 00:58 OP:AMMR STATUS:               ID:20201003002500     3
 ACTION:UP  22-01-06 16:15 OP:jmlc STATUS:               ID:20201003002513 L   I
 OLDACT:UP  20-10-03 00:59 OP:AMMR STATUS:               ID:20201003002500     3
 STAT SP IPHASW D HRMM SECON CODA AMPLIT PERI AZIMU VELO AIN AR TRES W  DIS CAZ7
 HMDR BZ IP     C  025 21.37   38                         92    1.6310 38.0 156 
 HMDR BN IS     C  025 25.28                              92    0.9910 38.0 156 
 HMDR BN  IAML     025 28.96       926.3 0.25                          38.0 156 
 SMDR BZ IP     C  025 19.73                              91   -0.5310 41.3  60 
 SMDR BN IS     C  025 26.53                              91    1.3410 41.3  60 
 SMDR BN  IAML     025 28.25       227.8 0.20                          41.3  60 
 NADR BZ IP     C  025 20.81   39                         91    0.0410 44.4 309 
 NADR BN IS     C  025 25.20                              91   -0.8810 44.4 309 
 NADR BN  IAML     025 29.57      1442.9 0.35                          44.4 309 
 MIDR HZ IP     C  025 22.19   36                         91    0.2010 52.0 105 
 MIDR HN IS     C  025 29.51                              91    1.3210 52.0 105 
 MIDR BN  IAML     025 30.61       954.1 0.16                          52.0 105 
 NAVI BZ IP     C  025 22.60   43                         91    0.1210 55.0 253 
 NAVI BN IS     C  025 29.94                              91    0.8910 55.0 253 
 NAVI BN  IAML     025 31.74      5125.7 0.25                          55.0 253 
 CADR BN IS     C  025 33.99                              91   -0.9710 76.1 325 
 CADR BN  IAML     025 34.89      1077.0 0.60                          76.1 325 
 SDD  BZ IP     C  025 26.77   38                         91   -0.0410 81.9 210 
 SDD  BN  IAML     025 39.97       169.1 0.40                          81.9 210 
 HIDR BZ IP     C  025 29.11   37                         90   -1.0410  103 123 
 HIDR BN IS     C  025 41.62                              90   -0.7710  103 123 
 HIDR BN  IAML     025 44.64       650.7 0.20                           103 123 
 BADR BZ IP     C  025 32.41   42                         91   -0.1410  117 229 
 BADR BN IS     C  025 46.85                              91    0.2810  117 229 
 BADR BN  IAML     025 47.92       440.4 0.60                           117 229 
 ABDR BZ IP     C  025 32.05   42                         92   -0.9410  120 255 
 ABDR BN IS     C  025 47.55                              92    0.2110  120 255 
 ABDR BN  IAML     025 47.68       277.1 0.50                           120 255 
 SADR BZ IP     C  025 33.70                              90   -0.5410  128 142 
 SADR BN IS     C  025 48.96                              90   -0.5510  128 142 
 SC01 BZ IP     C  025 33.63                              90   -1.1410  131 286 
 SC01 BN IS     C  025 50.87                              90    0.4410  131 286 
 SC01 BN  IAML     025 51.94       301.7 0.25                           131 286 
 SODR BN IS     C  025 51.78                              90    1.2410  132 303 
 SODR BN  IAML     025 53.98       164.5 1.40                           132 303 
 PCDR BZ IP     C  025 34.33   47                         70   -1.3610  137 118 
 PCDR BN IS        025 51.76                              70   -0.2710  137 118 
 PCDR BN  IAML     026  0.01       187.8 2.60                           137 118 
 LUDR BZ IP     C  025 42.62   47                         50    2.1710  173 301 
 LUDR BE IS     C  026  0.59                              50    0.2810  173 301 
 MADR BN IS        026  1.29                              50    1.0010  173 287 
 MADR BN  IAML     026  4.76       396.1 0.25                           173 287 
 SDDR BZ IP     C  025 41.57                              50   -0.5010  186 266 
 SDDR BN  IAML     026  7.74        56.4 0.45                           186 266 
 REDR BZ IP     C  025 45.77   60                         50   -1.7110  229 275 
 REDR BN IS     C  026 11.78                              50   -0.7710  229 275 
 REDR BN  IAML     026 14.10       268.7 0.20                           229 275 
                                                                                
 2020 10 3 0100 50.80L  17.835 -69.335 16.3  DOM  6 0.5 2.4LDOM 2.6CDOM 2.1WDOM1
 SPEC AVERAGE  MO 12.2 ST  3.7 OM  3.5 f0 11.6 R0.1289 AL 0.85 WI 10.9 MW  2.1 3
 SPEC SD       MO  0.0 ST0.000 OM  2.6 f00.000 R0.0000 AL      WI      MW  0.0 3
 GAP=265        1.23       9.0     4.2  6.5  0.1465E+02  0.1163E+01  0.2425E+02E
 SPEC HIDRBH N MO 12.2 ST  3.7 OM  0.9 f0 11.6 R0.1289 AL 0.85 WI 10.9 MW  2.1 3
 SPEC HIDRBH N T 1 118 K 0.020 GD  107 VS 4.04 DE 3.02 Q0400.0 QA 0.70 Q1 1.00 3
 LOCALITY: 66.4 Km al SSE de Guayacanes. Mar Caribe.                           3
 2020-10-03-0101-00S.MAN___126                                                 6
 OLDACT:ARG 20-10-03 12:30 OP:plst STATUS:               ID:20201003010100     3
 OLDACT:UP  20-10-03 13:11 OP:AMMR STATUS:               ID:20201003010100     3
 OLDACT:UP  20-10-03 13:11 OP:AMMR STATUS:               ID:20201003010100     3
 OLDACT:UP  20-10-03 13:07 OP:AMMR STATUS:               ID:20201003010100     3
 ACTION:UP  22-01-06 16:15 OP:jmlc STATUS:               ID:20201003010050 L   I
 OLDACT:UP  21-11-15 19:19 OP:AMMR STATUS:               ID:20201003010100     3
 OLDACT:UP  21-11-15 19:18 OP:AMMR STATUS:               ID:20201003010100     3
 OLDACT:UP  21-11-15 19:16 OP:AMMR STATUS:               ID:20201003010100     3
 OLDACT:UP  20-10-03 13:40 OP:AMMR STATUS:               ID:20201003010100     3
 STAT SP IPHASW D HRMM SECON CODA AMPLIT PERI AZIMU VELO AIN AR TRES W  DIS CAZ7
 SDD  BN IS     C  1 1 16.56                              94    0.0010 93.0 318 
 HIDR BZ IP     C  1 1  8.45                              93    0.8010  106  38 
 HIDR BE IS     C  1 1 20.08                              93   -0.0010  106  38 
 HIDR BN  IAML     1 1 21.23        62.2 0.20                           106  38 
 HMDR BZ IP     C  1 1  7.40   30                         93   -0.1510  106 357 
 HMDR BN IS     C  1 1 19.72                              93   -0.2010  106 357 
 HMDR BN  IAML     1 1 20.96        12.8 0.25                           106 357 
 PCDR BZ IP     C  1 1 10.22   34                         55   -0.0310  126  53 
 PCDR BN IS     C  1 1 24.66                              55    0.0610  126  53 
 PCDR BN  IAML     1 1 31.43        86.2 1.50                           126  53 
 MIDR HZ IP     C  1 1  9.86   26                         55   -0.9810  131  13 
 MIDR BN  IAML     1 1 57.03        49.6 2.78                           131  13 
 NAVI BN IS     C  1 1 29.24                              55    0.5110  144 330 
 NAVI BN  IAML     1 1 32.06       870.9 0.10                           144 330 
                                                                                
 2020 10 3 0342 51.80L  18.738 -67.247 20.8  DOM  7 0.8 2.4LDOM 3.1CDOM 2.6WDOM1
 SPEC AVERAGE  MO 13.0 ST0.819 OM  2.6 f0 4.27 R0.4150 AL 0.00 WI 20.0 MW  2.6 3
 SPEC SD       MO  0.5 ST  1.7 OM  1.3 f0 4.41 R0.2042 AL      WI      MW  0.3 3
 GAP=202        1.89      12.0     6.1 15.5  0.4307E+02 -0.2244E+01 -0.9642E+02E
 SPEC PRSNBH N MO 13.5 ST  4.8 OM  2.2 f0 5.39 R0.3014 AL-0.00 WI 20.0 MW  2.9 3
 SPEC PRSNBH N T 343 8 K 0.020 GD 64.9 VS 4.39 DE 3.31 Q0400.0 QA 0.70 Q1 0.00 3
 SPEC MLPRBH N MO 12.7 ST  1.1 OM  1.3 f0 5.93 R0.2739 AL-0.00 WI 20.0 MW  2.4 3
 SPEC MLPRBH N T 34314 K 0.020 GD 90.2 VS 4.39 DE 3.31 Q0400.0 QA 0.70 Q1 0.00 3
 SPEC PCDRBH N MO 13.3 ST0.437 OM  1.7 f0 2.86 R0.5679 AL-0.00 WI 20.0 MW  2.8 3
 SPEC PCDRBH N T 34321 K 0.020 GD  123 VS 4.39 DE 3.31 Q0400.0 QA 0.70 Q1 0.00 3
 SPEC HMDRBH N MO 13.1 ST0.888 OM  1.3 f0 4.03 R0.4031 AL-0.00 WI 20.0 MW  2.7 3
 SPEC HMDRBH N T 34344 K 0.020 GD  225 VS 4.39 DE 3.31 Q0400.0 QA 0.70 Q1 0.00 3
 LOCALITY: 62.9 Km al Norte de Mayaguez. Region de Puerto Rico.                3
 2020-10-03-0342-00S.MAN___126                                                 6
 OLDACT:ARG 20-10-03 12:35 OP:plst STATUS:               ID:20201003034200     3
 OLDACT:UP  20-10-03 13:40 OP:AMMR STATUS:               ID:20201003034200     3
 OLDACT:UP  20-10-03 13:40 OP:AMMR STATUS:               ID:20201003034200     3
 OLDACT:UP  20-10-03 13:40 OP:AMMR STATUS:               ID:20201003034200     3
 ACTION:UP  22-01-06 16:15 OP:jmlc STATUS:               ID:20201003034251 L   I
 OLDACT:UP  21-11-15 19:14 OP:AMMR STATUS:               ID:20201003034200     3
 OLDACT:UP  20-10-03 13:45 OP:AMMR STATUS:               ID:20201003034200     3
 STAT SP IPHASW D HRMM SECON CODA AMPLIT PERI AZIMU VELO AIN AR TRES W  DIS CAZ7
 PRSN BZ IP     C  343  1.57   36                        107                    
 PRSN BN IS     C  343 10.06                             107                    
 PRSN BN  IAML     343 13.82       384.8 0.28                                   
 MLPR BZ IP     C  343  5.65   38                         75   -0.1310 87.8 166 
 MLPR BN IS     C  343 16.48                              75    0.3810 87.8 166 
 MLPR BN  IAML     343 18.46        40.0 0.20                          87.8 166 
 PCDR BZ IP        343  9.08   41                         59   -1.3410  122 258 
 PCDR BN IS     C  343 23.48                              59   -0.6910  122 258 
 PCDR BN  IAML     343 32.60       185.3 2.35                           122 258 
 SJG  BZ IP     C  343 11.91   45                         59   -0.1410  135 121 
 SJG  BN IS     C  343 27.05                              59    0.0410  135 121 
 HIDR BZ IP     C  343 15.03                              59    0.4510  156 264 
 HIDR BN IS     C  343 32.29                              59    0.8810  156 264 
 HIDR BN  IAML     343 54.50        64.6 2.95                           156 264 
 MIDR HZ IP     C  343 18.55   51                         59   -0.5110  192 278 
 MIDR HN IS   3 C  343 41.80                              59    2.59 2  192 278 
 MIDR BN  IAML     344 24.19        44.8 3.74                           192 278 
 SMDR BE IS   4 C  343 42.86                              59   -0.97 0  213 287 
 HMDR BZ IP     C  343 24.54   65                         59    1.3110  225 272 
 HMDR BN IS     C  343 46.03                              59   -0.4210  225 272 
                                                                                
