 2020  6 4 0120 35.10L  17.382 -70.083 15.0  DOM  8 4.7 2.9LDOM 3.1CDOM 3.0WDOM1
 SPEC AVERAGE  MO 13.6 ST211.4 OM  2.4 f0 9.96 R0.2206 AL 0.00 WI 20.0 MW  3.0 3
 SPEC SD       MO  0.6 ST394.4 OM  0.8 f0 4.57 R0.1277 AL      WI      MW  0.4 3
 GAP=238       12.32     209.1    42.4999.9 -0.5782E+04 -0.6532E+06  0.4714E+07E
 SPEC LADRBH N MO 13.4 ST  4.8 OM  1.6 f0 5.91 R0.2792 AL-0.00 WI 20.0 MW  2.9 3
 SPEC LADRBH N T 12119 K 0.020 GD  190 VS 4.46 DE 3.40 Q0400.0 QA 0.70 Q1 0.00 3
 SPEC HMDRBH N MO 12.9 ST 20.4 OM  1.2 f0 13.4 R0.1231 AL-0.00 WI 20.0 MW  2.6 3
 SPEC HMDRBH N T 12118 K 0.020 GD  172 VS 4.46 DE 3.40 Q0400.0 QA 0.70 Q1 0.00 3
 SPEC HIDRBH N MO 13.4 ST 30.6 OM  1.6 f0 10.8 R0.1528 AL-0.00 WI 20.0 MW  2.9 3
 SPEC HIDRBH N T 12120 K 0.020 GD  197 VS 4.46 DE 3.40 Q0400.0 QA 0.70 Q1 0.00 3
 SPEC NAVIBH N MO 14.6 ST999.9 OM  2.9 f0 16.0 R0.1031 AL-0.00 WI 20.0 MW  3.7 3
 SPEC NAVIBH N T 12125 K 0.020 GD  175 VS 4.46 DE 3.40 Q0400.0 QA 0.70 Q1 0.00 3
 SPEC SMDRBH N MO 13.5 ST  1.5 OM  1.6 f0 3.71 R0.4448 AL-0.00 WI 20.0 MW  2.9 3
 SPEC SMDRBH N T 12126 K 0.020 GD  231 VS 4.46 DE 3.40 Q0400.0 QA 0.70 Q1 0.00 3
 LOCALITY: 11.7 Km al SSO de San Pedro de Macoris, Mar Caribe.                 3
 2020-06-04-0120-00S.MAN___126                                                 6
 OLDACT:ARG 20-06-04 02:20 OP:AMMR STATUS:               ID:20200604012000     3
 ACTION:UP  22-01-18 18:54 OP:JMLC STATUS:               ID:20200604012035 L   I
 STAT SP IPHASW D HRMM SECON CODA AMPLIT PERI AZIMU VELO AIN AR TRES W  DIS CAZ7
 BADR BE  IAML     121 37.02        71.8 0.40                           116 345 
 HMDR BZ EPg    D  121  8.31   54                         91    6.3910  172  25 
 HMDR BE ESg       121 20.05                              91   -1.7210  172  25 
 HMDR BE  IAML     121 20.33        36.6 0.20                           172  25 
 HMDR BN  IAML     121 20.43        41.8 1.15                           172  25 
 NAVI BE ESg    C  121 27.13                              91    4.7510  175   2 
 NAVI BE  IAML     121 28.33      1037.2 0.25                           175   2 
 NAVI BN  IAML     121 28.81      1601.6 0.20                           175   2 
 LADR BE ESg    C  121 20.68                              91   -5.6310  190 293 
 LADR BN  IAML     121 22.08        61.4 0.65                           190 293 
 LADR BE  IAML     121 24.11        59.3 1.00                           190 293 
 HIDR BZ EPg       121  9.72   35                         91    4.0610  197  47 
 HIDR BN ESg    C  121 22.29                              91   -5.9810  197  47 
 HIDR BE  IAML     121 24.03       151.9 0.25                           197  47 
 HIDR BN  IAML     121 24.34       286.8 0.20                           197  47 
 PCDR BZ EPg       121 11.86   67                         91    2.8310  219  55 
 PCDR BE ESg       121 27.71                              91   -6.4310  219  55 
 PCDR BN  IAML     121 29.78       100.1 1.35                           219  55 
 NADR BE  IAML     121 36.18        76.9 0.24                           220   6 
 SMDR BZ EPg       121 12.56   42                         91    1.7410  231  24 
 SMDR BN  IAML     121 30.92        53.0 0.55                           231  24 
 SMDR BE  IAML     121 32.54        62.2 0.45                           231  24 
                                                                                
 2020  6 4 0517  6.20L  18.986 -67.612  0.0  DOM  5 0.5 2.1LDOM 3.0CDOM 2.5WDOM1
 SPEC AVERAGE  MO 12.8 ST  3.3 OM  1.9 f0 6.49 R0.3284 AL 0.00 WI 20.0 MW  2.5 3
 SPEC SD       MO  0.2 ST  4.5 OM  0.6 f0 3.40 R0.1619 AL      WI      MW  0.1 3
 GAP=200        1.42      12.5     4.3 12.0 -0.1927E+01  0.4443E+01 -0.1154E+03E
 SPEC PCDRBH N MO 13.2 ST0.341 OM  1.7 f0 2.86 R0.5679 AL-0.00 WI 20.0 MW  2.7 3
 SPEC PCDRBH N T 51732 K 0.020 GD 96.5 VS 4.39 DE 3.31 Q0400.0 QA 0.70 Q1 0.00 3
 SPEC HIDRBH N MO 12.8 ST 11.0 OM  1.3 f0 11.8 R0.1377 AL-0.00 WI 20.0 MW  2.5 3
 SPEC HIDRBH N T 51738 K 0.020 GD  111 VS 4.39 DE 3.31 Q0400.0 QA 0.70 Q1 0.00 3
 SPEC SMDRBH N MO 12.8 ST0.507 OM  1.2 f0 4.34 R0.3743 AL-0.00 WI 20.0 MW  2.5 3
 SPEC SMDRBH N T 51754 K 0.020 GD  130 VS 4.39 DE 3.31 Q0400.0 QA 0.70 Q1 0.00 3
 SPEC HMDRBH N MO 12.6 ST  1.4 OM  1.0 f0 6.95 R0.2337 AL-0.00 WI 20.0 MW  2.3 3
 SPEC HMDRBH N T 51757 K 0.020 GD  137 VS 4.39 DE 3.31 Q0400.0 QA 0.70 Q1 0.00 3
 SPEC LADRBH N MO 13.7 ST  0.5 OM  1.9 f0 2.09 R 0.777 AL-0.00 WI 20.0 MW  3.1 3
 SPEC LADRBH N T 518 3 K 0.020 GD21.00 VS 4.39 DE 3.31 Q0400.0 QA 0.70 Q1      3
 LOCALITY: 91.4 Km al ENE de Punta Cana, Canal de la Mona.                     3
 2020-06-04-0516-00S.MAN___126                                                 6
 OLDACT:ARG 20-06-04 09:36 OP:AMMR STATUS:               ID:20200604051600     3
 OLDACT:UP  20-06-04 09:44 OP:AMMR STATUS:               ID:20200604051600     3
 OLDACT:UP  20-06-04 09:41 OP:AMMR STATUS:               ID:20200604051600     3
 OLDACT:UP  20-06-04 09:40 OP:AMMR STATUS:               ID:20200604051600     3
 ACTION:UP  22-01-18 18:54 OP:JMLC STATUS:               ID:20200604051706 L   I
 OLDACT:UP  20-06-04 09:44 OP:AMMR STATUS:               ID:20200604051600     3
 STAT SP IPHASW D HRMM SECON CODA AMPLIT PERI AZIMU VELO AIN AR TRES W  DIS CAZ7
 PCDR BZ EPg       517 22.56   30                         90    0.7510 96.5 237 
 PCDR BN ESg       517 34.05                              90    0.7210 96.5 237 
 PCDR BE  IAML     517 35.85        14.6 0.23                          96.5 237 
 HIDR BZ EPg       517 25.88   37                         90   -0.4010  124 250 
 HIDR BE ESg       517 40.19                              90   -0.9210  124 250 
 HIDR BN  IAML     517 43.59        49.7 0.20                           124 250 
 HIDR BE  IAML     517 43.86        52.7 0.25                           124 250 
 SMDR BZ IP        517 33.13                              50    0.4910  169 282 
 SMDR BE IS        517 52.28                              50    0.1110  169 282 
 SMDR BN  IAML     517 58.16        62.8 1.15                           169 282 
 SMDR BE  IAML     517 58.96        62.7 1.25                           169 282 
 SJG  BZ EPg       517 35.25                              90   -0.3810  182 122 
 HMDR BZ EPg       517 36.52   70                         90    0.0110  188 264 
 HMDR BN ESg       517 58.53                              90   -0.3810  188 264 
 HMDR BE  IAML     518  4.16         6.5 0.15                           188 264 
                                                                                
 2020  6 4 0753 56.10L  16.910 -68.869 26.5  DOM  6 4.8 2.8LDOM 3.2CDOM 2.9WDOM1
 SPEC AVERAGE  MO 13.4 ST180.4 OM  1.8 f0 10.0 R0.2389 AL 0.00 WI 20.0 MW  2.9 3
 SPEC SD       MO  0.5 ST367.0 OM  0.6 f0 5.00 R0.1665 AL      WI      MW  0.4 3
 GAP=276       12.43     180.3    86.7999.9  0.6409E+04  0.3793E+06  0.1280E+07E
 SPEC PCDRBH N MO 13.6 ST0.853 OM  1.8 f0 2.86 R0.5796 AL-0.00 WI 20.0 MW  3.0 3
 SPEC PCDRBH N T 75436 K 0.020 GD  186 VS 4.48 DE 3.40 Q0400.0 QA 0.70 Q1 0.00 3
 SPEC HIDRBH N MO 13.2 ST 59.0 OM  1.4 f0 15.9 R0.1043 AL-0.00 WI 20.0 MW  2.7 3
 SPEC HIDRBH N T 75438 K 0.020 GD  188 VS 4.48 DE 3.40 Q0400.0 QA 0.70 Q1 0.00 3
 SPEC HMDRBH N MO 12.8 ST 11.6 OM  1.0 f0 12.0 R0.1381 AL-0.00 WI 20.0 MW  2.5 3
 SPEC HMDRBH N T 75449 K 0.020 GD  216 VS 4.48 DE 3.40 Q0400.0 QA 0.70 Q1 0.00 3
 SPEC LADRBH N MO 13.3 ST  9.5 OM  1.3 f0 7.76 R0.2136 AL-0.00 WI 20.0 MW  2.8 3
 SPEC LADRBH N T 75453 K 0.020 GD  330 VS 4.48 DE 3.40 Q0400.0 QA 0.70 Q1 0.00 3
 SPEC SMDRBH N MO 13.0 ST  1.9 OM  1.1 f0 5.63 R0.2944 AL-0.00 WI 20.0 MW  2.6 3
 SPEC SMDRBH N T 75456 K 0.020 GD  267 VS 4.48 DE 3.40 Q0400.0 QA 0.70 Q1 0.00 3
 SPEC NAVIBH N MO 14.5 ST999.9 OM  2.6 f0 16.0 R0.1036 AL-0.00 WI 20.0 MW  3.6 3
 SPEC NAVIBH N T 755 4 K 0.020 GD  259 VS 4.48 DE 3.40 Q0400.0 QA 0.70 Q1 0.00 3
 LOCALITY: 60.8 Km al ESE de Mano Juan Isla Saona, Mar Caribe.                 3
 2020-06-04-0753-00S.MAN___126                                                 6
 OLDACT:ARG 20-06-04 09:42 OP:AMMR STATUS:               ID:20200604075300     3
 OLDACT:UP  20-06-04 09:48 OP:AMMR STATUS:               ID:20200604075300     3
 ACTION:UP  22-01-18 18:54 OP:JMLC STATUS:               ID:20200604075356 L   I
 STAT SP IPHASW D HRMM SECON CODA AMPLIT PERI AZIMU VELO AIN AR TRES W  DIS CAZ7
 PCDR BZ EPg       754 26.46   46                         92    2.8310  185  16 
 PCDR BN ESg    D  754 38.09                              92   -5.9410  185  16 
 PCDR BE  IAML     754 39.12        62.7 1.35                           185  16 
 PCDR BN  IAML     755  0.31       130.0 1.35                           185  16 
 HIDR BZ EPg    C  754 27.53   48                         91    3.6210  187   5 
 HIDR BN ESg       754 40.19                              91   -4.3110  187   5 
 HIDR BN  IAML     754 41.19        80.7 0.25                           187   5 
 HIDR BE  IAML     754 43.30        83.0 0.25                           187   5 
 HMDR BZ EPg       754 33.92   61                         91    6.0510  215 345 
 HMDR BE ESg       754 51.27                              91   -0.1310  215 345 
 HMDR BE  IAML     754 52.82         9.2 0.10                           215 345 
 HMDR BN  IAML     755 34.47        27.6 3.05                           215 345 
 NAVI BE ESg       755  6.46                              91    4.4610  258 332 
 NAVI BE  IAML     755 11.05       290.4 0.10                           258 332 
 NAVI BN  IAML     755 11.81       603.9 0.20                           258 332 
 SMDR BZ EPg       754 36.87                              91    1.8810  266 353 
 SMDR BN  IAML     755  3.84        68.1 0.85                           266 353 
 LADR BZ EPg       754 35.49   52                         91   -8.4510  329 293 
 LADR BN  IAML     754 59.39        39.4 0.45                           329 293 
 LADR BE  IAML     755  0.16        27.4 0.25                           329 293 
                                                                                
 2020  6 4 0907 15.30L  19.441 -70.130 12.1  DOM  5 0.9 2.0LDOM 3.0CDOM 2.3WDOM1
 SPEC AVERAGE  MO 12.6 ST  3.7 OM  2.5 f0 8.52 R0.1681 AL 0.00 WI 20.0 MW  2.3 3
 SPEC SD       MO  0.2 ST0.332 OM  1.1 f0 1.68 R0.0331 AL      WI      MW  0.1 3
 GAP=196        2.27      10.5     7.5 33.2  0.6902E+00  0.1114E+03 -0.5896E+02E
 SPEC NADRBH N MO 12.8 ST  3.4 OM  2.1 f0 6.84 R0.2012 AL-0.00 WI 20.0 MW  2.5 3
 SPEC NADRBH N T 9 723 K 0.020 GD 32.7 VS 3.72 DE 2.82 Q0400.0 QA 0.70 Q1 0.00 3
 SPEC REDRBH N MO 12.4 ST  4.0 OM  1.0 f0 10.2 R0.1349 AL-0.00 WI 20.0 MW  2.2 3
 SPEC REDRBH N T 9 8 2 K 0.020 GD  148 VS 3.72 DE 2.82 Q0400.0 QA 0.70 Q1 0.00 3
 LOCALITY: 20.6 Km al NE de San Francisco de Macoris, Duarte.                  3
 2020-06-04-0906-00S.MAN___126                                                 6
 OLDACT:UP  20-06-04 09:55 OP:AMMR STATUS:               ID:20200604090600     3
 OLDACT:UP  20-06-04 09:55 OP:AMMR STATUS:               ID:20200604090600     3
 OLDACT:ARG 20-06-04 09:50 OP:AMMR STATUS:               ID:20200604090600     3
 OLDACT:UP  20-06-04 10:05 OP:AMMR STATUS:               ID:20200604090600     3
 ACTION:UP  22-01-18 18:54 OP:JMLC STATUS:               ID:20200604090715 L   I
 STAT SP IPHASW D HRMM SECON CODA AMPLIT PERI AZIMU VELO AIN AR TRES W  DIS CAZ7
 NADR BZ EPg    C  9 7 19.93   28                        112   -0.6210 30.4 108 
 NADR BN ESg       9 7 24.65                             112    0.2010 30.4 108 
 NADR BE  IAML     9 7 26.08       246.0 0.15                          30.4 108 
 NADR BN  IAML     9 7 27.97       286.5 0.30                          30.4 108 
 NAVI BN ESg    C  9 7 31.83                             103    0.8610 54.5 169 
 NAVI BE  IAML     9 7 33.21       689.4 0.15                          54.5 169 
 NAVI BN  IAML     9 7 33.36       831.5 0.20                          54.5 169 
 SMDR BN ESg       9 7 44.97                              97    1.3110  100  99 
 SMDR BN  IAML     9 8  6.94        72.6 1.00                           100  99 
 HMDR BZ EPg       9 7 31.23   59                         97   -1.4210  107 132 
 HMDR BN ESg       9 7 44.83                              97   -0.6910  107 132 
 HMDR BE  IAML     9 7 47.93         8.1 0.41                           107 132 
 HMDR BN  IAML     9 8 29.28        20.3 1.95                           107 132 
 REDR BZ EPg       9 7 42.50   60                         94    0.3610  166 264 
 REDR BE  IAML     9 8  6.96         9.5 0.55                           166 264 
 REDR BN  IAML     9 8 10.92        12.9 1.20                           166 264 
                                                                                
 2020  6 4 0925 27.10L  16.986 -69.009 45.3  DOM  4 7.7 2.6LDOM 3.3CDOM 2.6WDOM1
 SPEC AVERAGE  MO 13.0 ST0.597 OM  1.8 f0 3.98 R0.4292 AL 0.00 WI 20.0 MW  2.6 3
 SPEC SD       MO  0.4 ST0.145 OM  0.7 f0 1.18 R0.1171 AL      WI      MW  0.2 3
 GAP=271       19.37     216.0   123.3999.9 -0.3162E+04  0.2649E+06  0.6145E+06E
 SPEC PCDRBH N MO 12.9 ST0.377 OM  1.2 f0 3.52 R0.4478 AL-0.00 WI 20.0 MW  2.5 3
 SPEC PCDRBH N T 92559 K 0.020 GD  187 VS 4.26 DE 3.20 Q0400.0 QA 0.70 Q1 0.00 3
 SPEC SMDRBH N MO 12.9 ST0.569 OM  1.1 f0 3.91 R0.4031 AL-0.00 WI 20.0 MW  2.6 3
 SPEC SMDRBH N T 92621 K 0.020 GD  259 VS 4.26 DE 3.20 Q0400.0 QA 0.70 Q1 0.00 3
 SPEC HMDRBH N MO 12.5 ST0.769 OM  0.8 f0 5.86 R0.2690 AL-0.00 WI 20.0 MW  2.3 3
 SPEC HMDRBH N T 92623 K 0.020 GD  207 VS 4.26 DE 3.20 Q0400.0 QA 0.70 Q1 0.00 3
 SPEC LADRBH N MO 13.5 ST0.672 OM  1.6 f0 2.64 R0.5970 AL-0.00 WI 20.0 MW  3.0 3
 SPEC LADRBH N T 92630 K 0.020 GD  315 VS 4.26 DE 3.20 Q0400.0 QA 0.70 Q1 0.00 3
 LOCALITY: 73.5 Km al ENE de Punta Cana, Canal de la Mona.                     3
 2020-06-04-0924-00S.MAN___126                                                 6
 OLDACT:ARG 20-06-04 09:56 OP:AMMR STATUS:               ID:20200604092400     3
 OLDACT:UP  20-06-04 10:05 OP:AMMR STATUS:               ID:20200604092400     3
 OLDACT:UP  20-06-04 10:05 OP:AMMR STATUS:               ID:20200604092400     3
 ACTION:UP  22-01-18 18:54 OP:JMLC STATUS:               ID:20200604092527 L   I
 STAT SP IPHASW D HRMM SECON CODA AMPLIT PERI AZIMU VELO AIN AR TRES W  DIS CAZ7
 PCDR BZ EPg       925 52.30   45                         93   -0.0110  182  21 
 PCDR BN ESg       926  1.17                              93   -9.8010  182  21 
 PCDR BN  IAML     926 29.27       111.3 1.45                           182  21 
 HMDR BZ EPg       926  5.89   66                         93   10.9010  203 349 
 HMDR BN ESg       926 24.89                              93    9.2710  203 349 
 HMDR BE  IAML     926 31.98         7.9 0.18                           203 349 
 HMDR BN  IAML     927  9.69        31.0 2.50                           203 349 
 SMDR BN ESg       926 23.14                              92   -3.5410  256 356 
 SMDR BN  IAML     927  8.39        81.1 2.05                           256 356 
 LADR BN ESg       926 31.88                              91   -6.8110  312 292 
 LADR BN  IAML     927  1.23        40.6 2.85                           312 292 
                                                                                
