 2020  8 4 2151 41.9 L  19.606 -70.127 15.0  DOM 15 0.9 2.6LDOM 2.8CDOM 3.1WDOM1
 LOCALITY: 15.9 Km al Este de Gaspar Hernandez. Espaillat.                     3
 SPEC AVERAGE  MO 13.7 ST 11.5 OM  2.4 f0 4.23 R0.6338 AL 0.00 WI 20.0 MW  3.1 3
 SPEC SD       MO  0.2 ST 17.8 OM  0.4 f0 3.28 R0.5626 AL      WI      MW  0.2 3
 GAP=136        2.55       4.8     3.9  6.2  0.5949E+01  0.1177E+01 -0.3248E+01E
 SPEC SFDRBH N MO 13.9 ST  1.5 OM  3.0 f0 2.41 R0.6018 AL-0.00 WI 20.0 MW  3.2 3
 SPEC SFDRBH N T215152 K 0.020 GD 40.4 VS 3.92 DE 2.92 Q0400.0 QA 0.70 Q1 1.00 3
 SPEC NADRBH N MO 13.8 ST  3.9 OM  2.9 f0 3.51 R0.4132 AL-0.00 WI 20.0 MW  3.1 3
 SPEC NADRBH N T215151 K 0.020 GD 42.6 VS 3.92 DE 2.92 Q0400.0 QA 0.70 Q1 1.00 3
 SPEC SODRBH N MO 14.0 ST0.264 OM  3.0 f0 1.24 R1.1697 AL-0.00 WI 20.0 MW  3.3 3
 SPEC SODRBH N T215155 K 0.020 GD 52.1 VS 3.92 DE 2.92 Q0400.0 QA 0.70 Q1 1.00 3
 SPEC SC01BH N MO 13.6 ST0.798 OM  2.5 f0 2.41 R0.6018 AL-0.00 WI 20.0 MW  3.0 3
 SPEC SC01BH N T215159 K 0.020 GD 67.8 VS 3.92 DE 2.92 Q0400.0 QA 0.70 Q1 1.00 3
 SPEC SMDRBH N MO 14.2 ST0.060 OM  2.9 f00.643 R2.2557 AL-0.00 WI 20.0 MW  3.4 3
 SPEC SMDRBH N T2152 9 K 0.020 GD  106 VS 3.92 DE 2.92 Q0400.0 QA 0.70 Q1 1.00 3
 SPEC BADRBH N MO 13.8 ST 24.3 OM  2.4 f0 6.43 R0.2256 AL-0.00 WI 20.0 MW  3.1 3
 SPEC BADRBH N T215217 K 0.020 GD  136 VS 3.92 DE 2.92 Q0400.0 QA 0.70 Q1 1.00 3
 SPEC SDDRBH N MO 13.5 ST0.357 OM  2.1 f0 1.96 R0.7400 AL-0.00 WI 20.0 MW  3.0 3
 SPEC SDDRBH N T215216 K 0.020 GD  141 VS 3.92 DE 2.92 Q0400.0 QA 0.70 Q1 1.00 3
 SPEC MCDRBH N MO 13.5 ST  7.6 OM  2.0 f0 5.59 R0.2595 AL-0.00 WI 20.0 MW  2.9 3
 SPEC MCDRBH N T215222 K 0.020 GD  163 VS 3.92 DE 2.92 Q0400.0 QA 0.70 Q1 1.00 3
 SPEC REDRBH N MO 13.6 ST 40.4 OM  2.1 f0 8.93 R0.1624 AL-0.00 WI 20.0 MW  3.0 3
 SPEC REDRBH N T215223 K 0.020 GD  169 VS 3.92 DE 2.92 Q0400.0 QA 0.70 Q1 1.00 3
 SPEC HIDRBH N MO 13.3 ST 55.4 OM  1.8 f0 12.1 R0.1199 AL-0.00 WI 20.0 MW  2.8 3
 SPEC HIDRBH N T215228 K 0.020 GD  186 VS 3.92 DE 2.92 Q0400.0 QA 0.70 Q1 1.00 3
 SPEC GRTKBH N MO 13.5 ST0.818 OM  1.9 f0 2.54 R0.5710 AL-0.00 WI 20.0 MW  3.0 3
 SPEC GRTKBH N T215237 K 0.020 GD  236 VS 3.92 DE 2.92 Q0400.0 QA 0.70 Q1 1.00 3
 SPEC AOPRBH N MO 13.7 ST  2.2 OM  1.9 f0 2.99 R0.4851 AL-0.00 WI 20.0 MW  3.1 3
 SPEC AOPRBH N T215329 K 0.020 GD  382 VS 3.92 DE 2.92 Q0400.0 QA 0.70 Q1 1.00 3
 2020-08-04-2150-00S.MAN___120                                                 6
 OLDACT:ARG 20-08-04 22:14 OP:jmlc STATUS:               ID:20200804215000     3
 ACTION:UPD 20-09-29 11:31 OP:jmlc STATUS:               ID:20200804215000     I
 OLDACT:UP  20-08-04 22:26 OP:JMLC STATUS:               ID:20200804215000     3
 STAT SP IPHASW D HRMM SECON CODA AMPLIT PERI AZIMU VELO AIN AR TRES W  DIS CAZ7
 SFDR BZ IP       2151 47.97   18                        106   -0.3310 37.4 199 
 SFDR BN IS       2151 53.63                             106    0.5710 37.4 199 
 SFDR BN  IAML    2151 56.38       584.7 0.30                          37.4 199 
 NADR BZ IP       2151 48.45   26                        104   -0.2110 39.8 134 
 NADR BN IS       2151 52.59                             104   -1.0810 39.8 134 
 NADR BN  IAML    2152 10.21       689.5 0.55                          39.8 134 
 SODR BZ IP       2151 51.85   34                         99    1.7110 49.8 289 
 SODR BN IS       2151 56.71                              99    0.4610 49.8 289 
 SODR BN  IAML    2152  6.99       499.0 0.65                          49.8 289 
 SC01 BZ IP       2151 52.59   30                         96   -0.0110 66.1 253 
 SC01 BN IS       2152  0.89                              96    0.3610 66.1 253 
 SC01 BN  IAML    2152 11.36       223.0 0.60                          66.1 253 
 LUDR BZ IP       2151 56.59   39                         93    0.0610 92.2 290 
 LUDR BE IS       2152  7.93                              93    0.5510 92.2 290 
 ABDR BZ IP       2151 56.87   35                         93   -1.3710  102 211 
 ABDR BE IS       2152 10.63                              93    0.2910  102 211 
 ABDR BN  IAML    2152 39.48         0.3 0.50                           102 211 
 SMDR BZ IP       2151 58.33   51                         93   -0.0910  105 109 
 SMDR BN IS       2152 11.43                              93    0.7810  105 109 
 SMDR BN  IAML    2152 12.98       107.0 1.25                           105 109 
 BADR BZ IP       2152  1.76   27                         55   -1.0410  136 190 
 BADR BN IS       2152 19.37                              55    1.0910  136 190 
 BADR BN  IAML    2152 21.67       430.8 0.15                           136 190 
 SDDR BZ IP       2152  1.42   55                         55   -1.9010  141 241 
 SDDR BN IS       2152 18.42                              55   -0.7710  141 241 
 SDDR BN  IAML    2152 20.47        63.6 1.10                           141 241 
 MCDR BZ IP       2152  4.70   34                         55   -1.4110  163 281 
 MCDR BN IS       2152 24.42                              55    0.3810  163 281 
 MCDR BN  IAML    2152 26.35       195.5 0.50                           163 281 
 REDR BZ IP       2152  5.31   34                         55   -1.6010  169 258 
 REDR BN IS       2152 25.30                              55   -0.1310  169 258 
 REDR BN  IAML    2152 28.33       377.8 0.20                           169 258 
 HIDR BZ IP       2152  8.22   51                         55   -0.7310  186 127 
 HIDR BN IS       2152 29.76                              55    0.7810  186 127 
 HIDR BN  IAML    2152 34.41       222.6 0.25                           186 127 
 PODR BZ IP       2152 11.39   49                         55    0.5010  200 218 
 PODR BN IS       2152 34.04                              55    1.6910  200 218 
 PODR BN  IAML    2152 41.86       127.1 0.45                           200 218 
 GRTK BZ IP       2152 15.46   63                         55    0.3910  236 334 
 GRTK BN IS       2152 39.40                              55   -0.2210  236 334 
 GRTK BN  IAML    2152 42.33        61.7 0.85                           236 334 
 AOPR BZ IP       2152 34.52                              55    1.2710  382 111 
 AOPR BN  IAML    2153 40.02        32.4 1.60                           382 111 
                                                                                
 2020  8 4 2323 50.5 L  18.694 -71.711 14.0  DOM  6 0.9 2.5LDOM 2.5CDOM 2.8WDOM1
 LOCALITY: 3.0 Km al SO de Hondo Valle. Elias Pina.                            3
 SPEC AVERAGE  MO 13.3 ST 22.8 OM  2.3 f0 6.26 R0.3825 AL 0.00 WI 20.0 MW  2.8 3
 SPEC SD       MO  0.2 ST 36.9 OM  0.2 f0 5.53 R0.1797 AL      WI      MW  0.1 3
 GAP=219        2.28       5.6    11.2  9.1  0.3728E+02  0.3310E+01 -0.9579E+01E
 SPEC NEDRBH N MO 13.3 ST0.627 OM  2.5 f0 2.71 R0.5311 AL-0.00 WI 20.0 MW  2.8 3
 SPEC NEDRBH N T232359 K 0.020 GD 37.8 VS 3.89 DE 2.90 Q0400.0 QA 0.70 Q1 1.00 3
 SPEC SDDRBH N MO 13.2 ST0.470 OM  2.2 f0 2.71 R0.5311 AL-0.00 WI 20.0 MW  2.7 3
 SPEC SDDRBH N T2324 4 K 0.020 GD 56.5 VS 3.89 DE 2.90 Q0400.0 QA 0.70 Q1 1.00 3
 SPEC REDRBH N MO 13.2 ST 86.7 OM  2.1 f0 15.8 R0.0911 AL-0.00 WI 20.0 MW  2.7 3
 SPEC REDRBH N T2324 8 K 0.020 GD 66.2 VS 3.89 DE 2.90 Q0400.0 QA 0.70 Q1 1.00 3
 SPEC PODRBH N MO 13.6 ST  3.5 OM  2.5 f0 3.82 R0.3768 AL-0.00 WI 20.0 MW  3.0 3
 SPEC PODRBH N T2324 8 K 0.020 GD 75.5 VS 3.89 DE 2.90 Q0400.0 QA 0.70 Q1 1.00 3
 2020-08-04-2323-00S.MAN___120                                                 6
 OLDACT:ARG 20-08-05 00:37 OP:jmlc STATUS:               ID:20200804232300     3
 ACTION:UPD 20-09-29 11:31 OP:jmlc STATUS:               ID:20200804232300     I
 OLDACT:UP  20-08-05 00:41 OP:JMLC STATUS:               ID:20200804232300     3
 OLDACT:UP  20-08-05 00:40 OP:JMLC STATUS:               ID:20200804232300     3
 STAT SP IPHASW D HRMM SECON CODA AMPLIT PERI AZIMU VELO AIN AR TRES W  DIS CAZ7
 NEDR BZ IP       2323 57.82   14                        107    1.3110 34.7 132 
 NEDR BN IS       2324  0.96                             107    0.0010 34.7 132 
 NEDR BN  IAML    2324  2.86       384.8 0.25                          34.7 132 
 SDDR BZ IP       2323 58.42   31                         98   -1.0710 54.5  54 
 SDDR BN IS       2324  5.64                              98   -0.4910 54.5  54 
 SDDR BN  IAML    2324 10.57       136.1 0.75                          54.5  54 
 REDR BZ IP       2324  1.16   24                         95    0.1610 64.5   1 
 REDR BN IS       2324 10.05                              95    1.2910 64.5   1 
 REDR BN  IAML    2324 11.40       418.4 0.20                          64.5   1 
 PODR BZ IP       2324  2.50   26                         94    0.0110 74.0 142 
 PODR BN IS       2324 10.45                              94   -0.9010 74.0 142 
 PODR BN  IAML    2324 10.50       346.4 0.25                          74.0 142 
 MCDR BZ IP       2324 10.24   50                         55   -0.7110  133   2 
 MCDR BN IS       2324 25.57                              55   -0.5010  133   2 
 MCDR BN  IAML    2324 32.92       105.0 0.65                           133   2 
 BADR BZ IP       2324 12.15   30                         55   -0.5810  146 103 
 BADR BN IS       2324 30.65                              55    1.4810  146 103 
 BADR BN  IAML    2324 34.03       133.6 0.45                           146 103 
                                                                                
 2020  8 5 0557 18.2 L  19.261 -68.762 10.0  DOM 15 0.9 2.4LDOM 2.7CDOM 2.4WDOM1
 LOCALITY: 43.2 Km al NE de Miches. Oceano Atlantico.                          3
 SPEC AVERAGE  MO 12.6 ST  4.6 OM  1.6 f0 6.18 R0.5851 AL 0.00 WI 20.0 MW  2.4 3
 SPEC SD       MO  0.7 ST  8.4 OM  0.7 f0 4.60 R1.0174 AL      WI      MW  0.5 3
 GAP=188        2.33      10.7     7.4 13.3  0.6280E+02 -0.6769E+02 -0.9915E+02E
 SPEC SMDRBH N MO 12.4 ST0.329 OM  1.8 f0 3.66 R0.3235 AL-0.00 WI 20.0 MW  2.2 3
 SPEC SMDRBH N T 55728 K 0.020 GD 45.0 VS 3.20 DE 2.60 Q0400.0 QA 0.70 Q1 1.00 3
 SPEC PCDRBH N MO 12.4 ST0.313 OM  1.5 f0 3.57 R0.3317 AL-0.00 WI 20.0 MW  2.2 3
 SPEC PCDRBH N T 55743 K 0.020 GD 91.9 VS 3.20 DE 2.60 Q0400.0 QA 0.70 Q1 1.00 3
 SPEC NADRBH N MO 12.9 ST  4.5 OM  1.9 f0 6.06 R0.1954 AL-0.00 WI 20.0 MW  2.5 3
 SPEC NADRBH N T 55749 K 0.020 GD  107 VS 3.20 DE 2.60 Q0400.0 QA 0.70 Q1 1.00 3
 SPEC BADRBH N MO 14.3 ST0.021 OM  3.2 f00.343 R3.4519 AL-0.00 WI 20.0 MW  3.5 3
 SPEC BADRBH N T 558 8 K 0.020 GD  139 VS 3.20 DE 2.60 Q0400.0 QA 0.70 Q1 1.00 3
 SPEC AGPRBH N MO 12.6 ST0.542 OM  1.5 f0 3.73 R0.3174 AL-0.00 WI 20.0 MW  2.3 3
 SPEC AGPRBH N T 558 6 K 0.020 GD  139 VS 3.20 DE 2.60 Q0400.0 QA 0.70 Q1 1.00 3
 SPEC PRSNBH N MO 12.4 ST 27.7 OM  1.3 f0 16.0 R0.0740 AL-0.00 WI 20.0 MW  2.2 3
 SPEC PRSNBH N T 55815 K 0.020 GD  143 VS 3.20 DE 2.60 Q0400.0 QA 0.70 Q1 1.00 3
 SPEC MLPRBH N MO 11.7 ST0.197 OM  0.6 f0 5.16 R0.2295 AL-0.00 WI 20.0 MW  1.8 3
 SPEC MLPRBH N T 55822 K 0.020 GD  151 VS 3.20 DE 2.60 Q0400.0 QA 0.70 Q1 1.00 3
 SPEC AOPRBH N MO 12.8 ST  2.0 OM  1.7 f0 4.81 R0.2462 AL-0.00 WI 20.0 MW  2.5 3
 SPEC AOPRBH N T 55823 K 0.020 GD  153 VS 3.20 DE 2.60 Q0400.0 QA 0.70 Q1 1.00 3
 SPEC REDRBH N MO 12.1 ST  6.1 OM  0.9 f0 12.3 R0.0963 AL-0.00 WI 20.0 MW  2.0 3
 SPEC REDRBH N T 55844 K 0.020 GD  175 VS 3.20 DE 2.60 Q0400.0 QA 0.70 Q1 1.00 3
 2020-08-05-0556-00S.MAN___120                                                 6
 OLDACT:ARG 20-08-05 06:00 OP:jmlc STATUS:               ID:20200805055600     3
 ACTION:UPD 20-09-29 11:31 OP:jmlc STATUS:               ID:20200805055600     I
 OLDACT:UP  20-08-05 06:20 OP:JMLC STATUS:               ID:20200805055600     3
 OLDACT:UP  20-08-05 06:20 OP:JMLC STATUS:               ID:20200805055600     3
 STAT SP IPHASW D HRMM SECON CODA AMPLIT PERI AZIMU VELO AIN AR TRES W  DIS CAZ7
 SMDR BZ IP        557 25.63   31                         93    0.2110 44.9 274 
 SMDR BN IS        557 29.81                              93   -0.9710 44.9 274 
 SMDR BN  IAML     557 40.41        86.8 0.40                          44.9 274 
 HIDR BZ IP        557 29.77   30                         92   -0.3810 74.2 176 
 HIDR BN IS        557 38.37                              92   -0.6510 74.2 176 
 HIDR BN  IAML     557 39.92       213.5 0.25                          74.2 176 
 PCDR BZ IP        557 32.58   27                         91   -0.4210 91.9 154 
 PCDR BN IS        557 45.36                              91    1.3910 91.9 154 
 PCDR BN  IAML     558  3.11        88.9 2.35                          91.9 154 
 NADR BZ IP        557 36.63   25                         91   -0.1610  115 275 
 NADR BN  IAML     557 55.96       109.3 1.80                           115 275 
 BADR BZ IP        557 47.04   12                         50   -0.5010  194 241 
 BADR BN  IAML     558 20.69        49.8 1.70                           194 241 
 AGPR BZ IP        557 48.19   47                         50    0.5910  195 116 
 AGPR BN IS        558  7.89                              50   -1.4810  195 116 
 AGPR BN  IAML     558 43.81        62.9 2.56                           195 116 
 PRSN BZ IP        557 49.18                              50    0.2110  206 124 
 PRSN BN  IAML     558 20.60        59.4 0.24                           206 124 
 MLPR BZ IP        557 52.86   56                         50    0.8010  231 128 
 MLPR BN  IAML     558 34.08         8.8 2.68                           231 128 
 AOPR BZ IP        557 52.54   49                         50   -0.0210  235 115 
 AOPR BN  IAML     558 28.04        41.0 0.24                           235 115 
 LUDR BZ IP        557 52.24                              50   -0.9910  240 287 
 MADR BZ IP        557 55.99                              50    1.7810  248 278 
 MADR BN  IAML     558 48.98        57.7 2.30                           248 278 
 CELP BZ IP        557 55.73                              50   -0.6410  265 119 
 CELP BN  IAML     558 35.51         7.3 0.28                           265 119 
 SDDR BZ IP        557 56.05                              50   -0.6510  268 264 
 NEDR BZ IP        558  1.63                              50    1.2510  298 254 
 NEDR BN  IAML     558 56.87        31.7 4.55                           298 254 
 REDR BZ IP        558  2.46   25                         50    0.6310  309 271 
 REDR BN  IAML     559 29.36        12.8 3.35                           309 271 
                                                                                
