 2020  4 2 0336  4.90L  17.951 -66.960 12.1  DOM  6 0.5 2.7LDOM 2.8CDOM 2.8WDOM1
 SPEC AVERAGE  MO 13.3 ST  6.8 OM  2.8 f0 5.28 R0.5374 AL 0.00 WI 20.0 MW  2.8 3
 SPEC SD       MO  0.3 ST  6.8 OM  0.6 f0 2.50 R0.6737 AL      WI      MW  0.2 3
 GAP=212        1.27       5.8     2.8  6.7  0.2322E+01 -0.4004E+01 -0.1666E+02E
 SPEC MLPRBH N MO 13.4 ST  8.2 OM  3.0 f0 5.94 R0.2323 AL-0.00 WI 20.0 MW  2.9 3
 SPEC MLPRBH N T 336 7 K 0.020 GD 15.2 VS 3.73 DE 2.83 Q0400.0 QA 0.70 Q1 0.00 3
 SPEC PRSNBH N MO 13.3 ST 21.0 OM  2.5 f0 8.83 R0.1563 AL-0.00 WI 20.0 MW  2.8 3
 SPEC PRSNBH N T 33613 K 0.020 GD 37.4 VS 3.73 DE 2.83 Q0400.0 QA 0.70 Q1 0.00 3
 SPEC CELPBH N MO 13.0 ST  4.6 OM  2.2 f0 6.32 R0.2184 AL-0.00 WI 20.0 MW  2.6 3
 SPEC CELPBH N T 33616 K 0.020 GD 44.6 VS 3.73 DE 2.83 Q0400.0 QA 0.70 Q1 0.00 3
 SPEC AGPRBH N MO 13.6 ST  4.0 OM  2.6 f0 3.99 R0.3459 AL-0.00 WI 20.0 MW  3.0 3
 SPEC AGPRBH N T 33620 K 0.020 GD 60.8 VS 3.73 DE 2.83 Q0400.0 QA 0.70 Q1 0.00 3
 SPEC HIDRBH N MO 12.9 ST  2.9 OM  1.5 f0 5.93 R0.2327 AL-0.00 WI 20.0 MW  2.6 3
 SPEC HIDRBH N T 33658 K 0.020 GD  171 VS 3.73 DE 2.83 Q0400.0 QA 0.70 Q1 0.00 3
 SPEC HMDRBH N MO 13.8 ST0.035 OM  2.3 f00.677 R2.0386 AL-0.00 WI 20.0 MW  3.2 3
 SPEC HMDRBH N T 33716 K 0.020 GD  221 VS 3.73 DE 2.83 Q0400.0 QA 0.70 Q1 0.00 3
 LOCALITY: 33.7 Km al SE de Mayaguez, Region de Puerto Rico.                   3
 2020-04-02-0336-00S.MAN___123                                                 6
 OLDACT:ARG 20-04-02 03:47 OP:nr   STATUS:               ID:20200402033600     3
 OLDACT:UP  20-04-02 03:56 OP:AMMR STATUS:               ID:20200402033600     3
 ACTION:UP  22-03-16 16:59 OP:JMLC STATUS:               ID:20200402033604 L   I
 OLDACT:UP  20-04-02 03:56 OP:AMMR STATUS:               ID:20200402033600     3
 STAT SP IPHASW D HRMM SECON CODA AMPLIT PERI AZIMU VELO AIN AR TRES W  DIS CAZ7
 MLPR BZ EPg    D  336  7.24   21                        140   -0.1310 9.13 283 
 MLPR BE ESg    C  336  8.83                             140   -0.3510 9.13 283 
 MLPR BN  IAML     336  9.29      6910.5 0.28                          9.13 283 
 PRSN BZ EPg    C  336 11.06   25                         93    0.1110 35.4 327 
 PRSN BE ESg    C  336 15.04                              93   -0.3710 35.4 327 
 PRSN BN  IAML     336 19.02      1257.9 0.24                          35.4 327 
 CELP BZ EPg    D  336 11.96   30                         91   -0.1410 42.9  71 
 CELP BE ESg    C  336 17.75                              91    0.3310 42.9  71 
 CELP BN  IAML     336 17.99       516.1 0.44                          42.9  71 
 AGPR BZ EPg    C  336 14.83   30                         90    0.2110 59.6 345 
 AGPR BE ESg    C  336 21.65                              90   -0.1510 59.6 345 
 AGPR BN  IAML     336 22.67       645.5 0.28                          59.6 345 
 HIDR BZ EPg    D  336 35.19   70                         90   -0.5010  199 291 
 HIDR BE ESg    C  336 59.82                              90    1.3610  199 291 
 HIDR BN  IAML     337 13.54        43.1 0.25                           199 291 
 HMDR BZ EPg    C  336 46.78   82                         90   -0.0510  272 290 
 HMDR BE ESg    C  337 17.55                              90   -0.3010  272 290 
 HMDR BN  IAML     337 27.78        16.3 0.55                           272 290 
                                                                                
 2020  4 2 0404 48.30L  17.909 -67.022 18.5  DOM  6 0.8 2.7LDOM 2.8CDOM 2.8WDOM1
 SPEC AVERAGE  MO 13.4 ST 12.3 OM  2.6 f0 6.78 R0.2602 AL 0.00 WI 20.0 MW  2.8 3
 SPEC SD       MO  0.3 ST  8.4 OM  0.8 f0 1.95 R0.1259 AL      WI      MW  0.2 3
 GAP=223        2.13       9.6     5.1  9.5  0.3536E+01  0.1414E+02  0.4954E+01E
 SPEC MLPRBH N MO 13.7 ST 26.2 OM  3.0 f0 7.78 R0.1964 AL-0.00 WI 20.0 MW  3.0 3
 SPEC MLPRBH N T 4 452 K 0.020 GD 19.8 VS 4.13 DE 3.09 Q0400.0 QA 0.70 Q1 0.00 3
 SPEC PRSNBH N MO 13.6 ST 17.5 OM  2.6 f0 7.26 R0.2105 AL-0.00 WI 20.0 MW  3.0 3
 SPEC PRSNBH N T 4 458 K 0.020 GD 40.9 VS 4.13 DE 3.09 Q0400.0 QA 0.70 Q1 0.00 3
 SPEC CELPBH N MO 13.1 ST 11.8 OM  2.0 f0 9.21 R0.1659 AL-0.00 WI 20.0 MW  2.7 3
 SPEC CELPBH N T 4 5 1 K 0.020 GD 53.9 VS 4.13 DE 3.09 Q0400.0 QA 0.70 Q1 0.00 3
 SPEC AGPRBH N MO 13.6 ST 13.1 OM  2.4 f0 6.58 R0.2322 AL-0.00 WI 20.0 MW  3.0 3
 SPEC AGPRBH N T 4 5 4 K 0.020 GD 65.4 VS 4.13 DE 3.09 Q0400.0 QA 0.70 Q1 0.00 3
 SPEC HIDRBH N MO 13.0 ST  4.7 OM  1.4 f0 7.00 R0.2183 AL-0.00 WI 20.0 MW  2.6 3
 SPEC HIDRBH N T 4 537 K 0.020 GD  194 VS 4.13 DE 3.09 Q0400.0 QA 0.70 Q1 0.00 3
 SPEC HMDRBH N MO 13.2 ST0.434 OM  1.4 f0 2.84 R0.5381 AL-0.00 WI 20.0 MW  2.7 3
 SPEC HMDRBH N T 4 558 K 0.020 GD  268 VS 4.13 DE 3.09 Q0400.0 QA 0.70 Q1 0.00 3
 LOCALITY: 34.8 Km al SSE de Mayaguez, Region de Puerto Rico.                  3
 2020-04-02-0404-00S.MAN___123                                                 6
 OLDACT:ARG 20-04-02 04:10 OP:nr   STATUS:               ID:20200402040400     3
 OLDACT:UP  20-04-02 04:12 OP:AMMR STATUS:               ID:20200402040400     3
 ACTION:UP  22-03-16 16:59 OP:JMLC STATUS:               ID:20200402040448 L   I
 OLDACT:UP  20-04-02 04:13 OP:AMMR STATUS:               ID:20200402040400     3
 STAT SP IPHASW D HRMM SECON CODA AMPLIT PERI AZIMU VELO AIN AR TRES W  DIS CAZ7
 MLPR BZ EPg    C  4 4 51.59   20                        158    0.1410 7.05 340 
 MLPR BE ESg    C  4 4 53.57                             158   -0.1810 7.05 340 
 MLPR BN  IAML     4 4 54.03      6542.3 0.28                          7.05 340 
 PRSN BZ EPg    C  4 4 55.49   30                        113    0.7210 36.5 339 
 PRSN BE ESg    C  4 5  0.04                             113    0.5010 36.5 339 
 PRSN BN  IAML     4 5  3.82      1701.7 0.24                          36.5 339 
 CELP BZ EPg    D  4 4 56.51   36                        105   -0.3010 50.6  69 
 CELP BE ESg    C  4 5  2.53                             105   -0.5610 50.6  69 
 CELP BN  IAML     4 5  2.67       502.6 0.24                          50.6  69 
 AGPR BZ EPg    C  4 4 59.28   36                        101    0.6810 62.7 351 
 AGPR BE ESg    C  4 5  5.75                             101   -0.4510 62.7 351 
 AGPR BN  IAML     4 5  7.19       742.5 0.24                          62.7 351 
 HIDR BZ EPg    C  4 5 18.06   60                         92   -0.4110  194 293 
 HIDR BE ESg    C  4 5 38.99                              92   -1.7810  194 293 
 HIDR BN  IAML     4 5 48.59        34.2 0.30                           194 293 
 HMDR BZ EPg    C  4 5 31.16   60                         92    1.5810  268 292 
 HMDR BE ESg    C  4 6  0.18                              92    0.0710  268 292 
 HMDR BN  IAML     4 6 13.65        13.2 0.80                           268 292 
                                                                                
 2020  4 2 0427 57.70L  17.825 -66.887 22.9  DOM  6 0.4 3.3LDOM 2.8CDOM 2.9WDOM1
 SPEC AVERAGE  MO 13.4 ST 17.5 OM  2.4 f0 7.82 R0.2402 AL 0.00 WI 20.0 MW  2.9 3
 SPEC SD       MO  0.2 ST 12.7 OM  0.6 f0 2.69 R0.0903 AL      WI      MW  0.1 3
 GAP=242        1.02       5.6     2.8  6.6 -0.1284E+01  0.5457E+01  0.7284E+01E
 SPEC MLPRBH N MO 13.4 ST 35.1 OM  2.4 f0 11.2 R0.1470 AL-0.00 WI 20.0 MW  2.9 3
 SPEC MLPRBH N T 428 5 K 0.020 GD 32.5 VS 4.45 DE 3.36 Q0400.0 QA 0.70 Q1 0.00 3
 SPEC CELPBH N MO 13.2 ST 20.9 OM  2.0 f0 11.2 R0.1470 AL-0.00 WI 20.0 MW  2.7 3
 SPEC CELPBH N T 428 9 K 0.020 GD 48.7 VS 4.45 DE 3.36 Q0400.0 QA 0.70 Q1 0.00 3
 SPEC PRSNBH N MO 13.7 ST 31.6 OM  2.5 f0 8.35 R0.1972 AL-0.00 WI 20.0 MW  3.1 3
 SPEC PRSNBH N T 42810 K 0.020 GD 56.2 VS 4.45 DE 3.36 Q0400.0 QA 0.70 Q1 0.00 3
 SPEC AGPRBH N MO 13.7 ST 10.1 OM  2.3 f0 5.96 R0.2763 AL-0.00 WI 20.0 MW  3.1 3
 SPEC AGPRBH N T 42817 K 0.020 GD 78.6 VS 4.45 DE 3.36 Q0400.0 QA 0.70 Q1 0.00 3
 SPEC HIDRBH N MO 13.4 ST  6.0 OM  1.6 f0 6.16 R0.2673 AL-0.00 WI 20.0 MW  2.9 3
 SPEC HIDRBH N T 42851 K 0.020 GD  212 VS 4.45 DE 3.36 Q0400.0 QA 0.70 Q1 0.00 3
 SPEC HMDRBH N MO 13.2 ST  1.2 OM  1.3 f0 4.05 R0.4065 AL-0.00 WI 20.0 MW  2.8 3
 SPEC HMDRBH N T 42910 K 0.020 GD  284 VS 4.45 DE 3.36 Q0400.0 QA 0.70 Q1 0.00 3
 LOCALITY: 31.1 Km al OSO de Ponce, Region de Puerto Rico.                     3
 2020-04-02-0427-00S.MAN___123                                                 6
 OLDACT:ARG 20-04-02 04:33 OP:nr   STATUS:               ID:20200402042700     3
 OLDACT:UP  20-04-02 04:36 OP:AMMR STATUS:               ID:20200402042700     3
 ACTION:UP  22-03-16 16:59 OP:JMLC STATUS:               ID:20200402042757 L   I
 OLDACT:UP  20-04-02 04:36 OP:AMMR STATUS:               ID:20200402042700     3
 STAT SP IPHASW D HRMM SECON CODA AMPLIT PERI AZIMU VELO AIN AR TRES W  DIS CAZ7
 MLPR BZ EPg    C  428  3.04   12                        131    0.2610 23.1 314 
 MLPR BE ESg    C  428  6.68                             131    0.1510 23.1 314 
 MLPR BN  IAML     428  7.73      9344.4 0.32                          23.1 314 
 CELP BZ EPg    D  428  5.09   28                        111   -0.2110 43.0  50 
 CELP BE ESg    C  428 10.53                             111   -0.3910 43.0  50 
 CELP BN  IAML     428 11.45       437.4 0.16                          43.0  50 
 PRSN BZ EPg    C  428  6.96   36                        105    0.5210 51.3 328 
 PRSN BE ESg    C  428 12.28                             105   -0.6110 51.3 328 
 PRSN BN  IAML     428 17.24     17663.6 0.28                          51.3 328 
 AGPR BZ EPg    C  428 10.41   38                         97    0.5510 75.2 342 
 AGPR BE ESg    C  428 19.24                              97    0.3910 75.2 342 
 AGPR BN  IAML     428 20.37      1578.7 0.24                          75.2 342 
 HIDR BZ EPg    C  428 29.83   76                         91    0.2010  211 294 
 HIDR BE ESg    C  428 52.83                              91   -0.4210  211 294 
 HIDR BN  IAML     429  5.61        43.8 0.75                           211 294 
 HMDR BZ EPg    D  428 40.10   83                         91   -0.2110  284 292 
 HMDR BE ESg    C  429 11.62                              91   -0.2110  284 292 
 HMDR BN  IAML     429 24.33       146.2 0.30                           284 292 
                                                                                
 2020  4 2 0650 52.20L  19.871 -70.013 19.6  DOM 11 0.8 2.7LDOM 3.1CDOM 2.9WDOM1
 SPEC AVERAGE  MO 13.4 ST0.190 OM  3.2 f0 2.94 R3.1591 AL 0.00 WI 20.0 MW  2.9 3
 SPEC SD       MO  1.1 ST0.183 OM  1.8 f0 2.67 R2.8670 AL      WI      MW  0.7 3
 GAP=215        2.21       8.9     4.7 51.9  0.1943E+02 -0.4783E+02 -0.1161E+03E
 SPEC SFDRBH N MO 14.5 ST0.007 OM  3.2 f00.272 R6.0261 AL-0.00 WI 20.0 MW  3.6 3
 SPEC SFDRBH N T 651 9 K 0.020 GD 71.7 VS 4.43 DE 3.34 Q0400.0 QA 0.70 Q1 0.00 3
 SPEC HMDRBH N MO 12.3 ST0.372 OM  0.7 f0 5.61 R0.2922 AL-0.00 WI 20.0 MW  2.2 3
 SPEC HMDRBH N T 65128 K 0.020 GD  138 VS 4.43 DE 3.34 Q0400.0 QA 0.70 Q1 0.00 3
 SPEC SDDRBH N T 65135 K 0.020 GD  167 VS 4.43 DE 3.34 Q0400.0 QA 0.70 Q1 0.00 3
 SPEC BADRBH N MO 12.7 ST 21.1 OM  1.0 f0 16.0 R0.1024 AL-0.00 WI 20.0 MW  2.4 3
 SPEC BADRBH N T 65137 K 0.020 GD  169 VS 4.43 DE 3.34 Q0400.0 QA 0.70 Q1 0.00 3
 SPEC REDRBH N MO 12.9 ST  8.9 OM  1.1 f0 10.7 R0.1532 AL-0.00 WI 20.0 MW  2.5 3
 SPEC REDRBH N T 65140 K 0.020 GD  190 VS 4.43 DE 3.34 Q0400.0 QA 0.70 Q1 0.00 3
 SPEC HIDRBH N MO 12.6 ST  9.6 OM  0.8 f0 13.6 R0.1205 AL-0.00 WI 20.0 MW  2.3 3
 SPEC HIDRBH N T 65144 K 0.020 GD  199 VS 4.43 DE 3.34 Q0400.0 QA 0.70 Q1 0.00 3
 LOCALITY: 29.1 Km al NNO de Cabrera, Oceano Atlantico.                        3
 2020-04-02-0650-00S.MAN___123                                                 6
 OLDACT:ARG 20-04-02 10:23 OP:nr   STATUS:               ID:20200402065000     3
 OLDACT:UP  20-04-02 11:00 OP:AMMR STATUS:               ID:20200402065000     3
 OLDACT:UP  20-04-02 11:00 OP:AMMR STATUS:               ID:20200402065000     3
 ACTION:UP  22-03-16 16:59 OP:JMLC STATUS:               ID:20200402065052 L   I
 OLDACT:UP  22-01-09 03:26 OP:CGRS STATUS:               ID:20200402065000     3
 OLDACT:UP  21-02-16 11:20 OP:AMMR STATUS:               ID:20200402065000     3
 OLDACT:UP  21-02-16 11:19 OP:AMMR STATUS:               ID:20200402065000     3
 OLDACT:UP  20-04-02 11:01 OP:AMMR STATUS:               ID:20200402065000     3
 STAT SP IPHASW D HRMM SECON CODA AMPLIT PERI AZIMU VELO AIN AR TRES W  DIS CAZ7
 SFDR BZ EPg    C  651  2.78   42                        101   -0.7010 69.0 201 
 SFDR BN ESg    C  651 11.15                             101   -0.6510 69.0 201 
 SFDR BN  IAML     651 18.70       321.7 0.30                          69.0 201 
 SC01 BN ESg    C  651 17.85                              97    0.6810 89.6 237 
 SC01 BN  IAML     651 28.84       152.4 0.30                          89.6 237 
 LUDR BE ESg    C  651 20.78                              96    1.3210 98.4 272 
 NAVI BE ESg    C  651 19.26                              96   -0.9310  101 181 
 NAVI BN  IAML     651 20.65      1243.8 0.30                           101 181 
 SMDR BE ESg    C  651 22.79                              96    0.8610  108 127 
 SMDR BN  IAML     651 29.36       250.3 0.35                           108 127 
 HMDR BZ EPg    C  651 12.99   47                         94   -0.7410  137 151 
 HMDR BN ESg    C  651 29.91                              94    0.2610  137 151 
 HMDR BN  IAML     651 31.60        68.8 0.30                           137 151 
 SDDR BN ESg    C  651 37.22                              93   -0.1710  166 234 
 SDDR BN  IAML     651 39.61       130.4 0.30                           166 234 
 BADR BZ EPg    C  651 17.14   48                         93   -1.1710  167 193 
 BADR BN ESg    C  651 38.78                              93    1.1810  167 193 
 BADR BN  IAML     651 40.10       186.9 0.30                           167 193 
 REDR BZ EPg    C  651 20.59   56                         93   -1.0110  189 250 
 REDR BN ISg    D  651 42.99                              93   -0.3410  189 250 
 REDR BN  IAML     651 45.06        73.4 0.25                           189 250 
 HIDR BN ESg    C  651 46.03                              93    0.7310  197 136 
 HIDR BN  IAML     651 47.38        15.5 1.35                           197 136 
 PODR BN  IAML     651 55.19        25.3 2.30                           231 215 
 PODR BN ESg    C  651 55.19                              92    0.6610  231 215 
                                                                                
 2020  4 2 0657 44.70L  19.885 -70.213 16.7  DOM  9 0.7 2.6LDOM 3.1CDOM 2.5WDOM1
 SPEC AVERAGE  MO 12.8 ST  8.0 OM  4.3 f0 10.8 R0.1477 AL 0.00 WI 20.0 MW  2.5 3
 SPEC SD       MO  0.0 ST0.000 OM  3.2 f00.000 R0.0000 AL      WI      MW  0.0 3
 GAP=221        2.02       8.4     5.4 35.0  0.2468E+02 -0.1046E+03 -0.7144E+02E
 SPEC REDRBH N MO 12.8 ST  8.0 OM  1.1 f0 10.8 R0.1477 AL-0.00 WI 20.0 MW  2.5 3
 SPEC REDRBH N T 65829 K 0.020 GD  170 VS 4.31 DE 3.24 Q0400.0 QA 0.70 Q1 1.00 3
 LOCALITY: 27.1 Km al ENE de Cabarete, Oceano Atlantico.                       3
 2020-04-02-0657-00S.MAN___123                                                 6
 SPEC HMDRBH N T 65824 K 0.020 GD  149 VS 4.31 DE 3.24 Q0400.0 QA 0.70 Q1 0.00 3
 OLDACT:UP  20-04-02 11:09 OP:AMMR STATUS:               ID:20200402065700     3
 OLDACT:UP  20-04-02 11:07 OP:AMMR STATUS:               ID:20200402065700     3
 OLDACT:UP  20-04-02 11:06 OP:AMMR STATUS:               ID:20200402065700     3
 OLDACT:ARG 20-04-02 10:23 OP:nr   STATUS:               ID:20200402065700     3
 OLDACT:UP  20-04-02 11:09 OP:AMMR STATUS:               ID:20200402065700     3
 OLDACT:UP  20-04-02 11:12 OP:AMMR STATUS:               ID:20200402065700     3
 OLDACT:UP  20-04-02 11:12 OP:AMMR STATUS:               ID:20200402065700     3
 OLDACT:UP  21-02-16 11:24 OP:AMMR STATUS:               ID:20200402065700     3
 OLDACT:UP  21-02-16 11:22 OP:AMMR STATUS:               ID:20200402065700     3
 OLDACT:UP  20-04-02 11:12 OP:AMMR STATUS:               ID:20200402065700     3
 ACTION:UP  22-03-16 16:59 OP:JMLC STATUS:               ID:20200402065744 L   I
 OLDACT:UP  22-01-09 03:32 OP:CGRS STATUS:               ID:20200402065700     3
 OLDACT:UP  22-01-09 03:30 OP:CGRS STATUS:               ID:20200402065700     3
 OLDACT:UP  22-01-09 03:27 OP:CGRS STATUS:               ID:20200402065700     3
 OLDACT:UP  21-02-16 11:24 OP:AMMR STATUS:               ID:20200402065700     3
 STAT SP IPHASW D HRMM SECON CODA AMPLIT PERI AZIMU VELO AIN AR TRES W  DIS CAZ7
 SODR BE ISg    D  657 56.77                             106   -0.1110 40.8 249 
 SODR BN  IAML     658  6.92       153.4 0.35                          40.8 249 
 SFDR BZ EPg    C  657 55.30                              98   -0.2010 66.2 183 
 SFDR BN ESg       658  3.55                              98    0.1010 66.2 183 
 SFDR BN  IAML     658  4.72       452.1 0.30                          66.2 183 
 SC01 BN ESg    C  658  5.30                              96   -0.2110 74.0 227 
 SC01 BN  IAML     658 19.59       360.8 0.35                          74.0 227 
 LUDR BE ESg    C  658  6.93                              96    0.5210 77.5 271 
 NAVI BZ EPg    C  658  0.23                              94   -1.0410  104 169 
 NAVI BE ESg    C  658 13.27                              94   -0.2310  104 169 
 NAVI BN  IAML     658 17.80       569.6 0.25                           104 169 
 HMDR BZ EPg    C  658  8.57   41                         92    0.4510  150 144 
 HMDR BN ESg    C  658 26.46                              92    1.0510  150 144 
 HMDR BN  IAML     658 27.95        51.5 0.30                           150 144 
 BADR BZ EPg    C  658 10.45   53                         92   -0.0710  165 185 
 BADR BN ESg    C  658 29.47                              92   -0.1310  165 185 
 BADR BN  IAML     658 31.95       165.8 0.25                           165 185 
 REDR BZ EPg    C  658 12.07   50                         92    0.8410  170 247 
 REDR BN ESg    C  658 30.71                              92   -0.1210  170 247 
 REDR BN  IAML     658 33.15       102.5 0.30                           170 247 
 REDR BN E         658 42.86                                            170 247 
 HIDR BZ EPg    C  658 15.73   56                         91   -1.9310  213 132 
 HIDR BN ESg       658 43.09                              91    1.0710  213 132 
 HIDR BN  IAML     658 47.92        56.8 0.25                           213 132 
                                                                                
