 2020  6 4 1231 36.80L  17.793 -69.828 32.0  DOM 18 6.5 3.2LDOM 3.6CDOM 3.5WDOM1
 SPEC AVERAGE  MO 14.4 ST 25.8 OM  2.8 f0 4.01 R0.7536 AL 0.00 WI 20.0 MW  3.5 3
 SPEC SD       MO  0.4 ST 41.2 OM  0.4 f0 2.41 R0.8853 AL      WI      MW  0.3 3
 GAP=216       17.90      65.3    32.6999.9 -0.5458E+03 -0.5402E+04  0.6836E+05E
 SPEC SDD BH N MO 14.1 ST  5.2 OM  2.7 f0 3.45 R0.4826 AL-0.00 WI 20.0 MW  3.4 3
 SPEC SDD BH N T123153 K 0.020 GD 81.3 VS 4.50 DE 3.40 Q0400.0 QA 0.70 Q1 0.00 3
 SPEC LADRBH N MO 14.8 ST 31.3 OM  3.0 f0 3.66 R0.4549 AL-0.00 WI 20.0 MW  3.8 3
 SPEC LADRBH N T123156 K 0.020 GD  206 VS 4.50 DE 3.40 Q0400.0 QA 0.70 Q1 0.00 3
 SPEC BADRBH N MO 14.5 ST157.1 OM  3.0 f0 8.17 R0.2038 AL-0.00 WI 20.0 MW  3.6 3
 SPEC BADRBH N T1232 1 K 0.020 GD 93.2 VS 4.50 DE 3.40 Q0400.0 QA 0.70 Q1 0.00 3
 SPEC HMDRBH N MO 14.1 ST 42.6 OM  2.5 f0 7.05 R0.2362 AL-0.00 WI 20.0 MW  3.3 3
 SPEC HMDRBH N T123160 K 0.020 GD  124 VS 4.50 DE 3.40 Q0400.0 QA 0.70 Q1 0.00 3
 SPEC HIDRBH N MO 14.0 ST 71.1 OM  2.3 f0 9.15 R0.1820 AL-0.00 WI 20.0 MW  3.3 3
 SPEC HIDRBH N T123212 K 0.020 GD  150 VS 4.50 DE 3.40 Q0400.0 QA 0.70 Q1 0.00 3
 SPEC SMDRBH N MO 14.2 ST  3.2 OM  2.4 f0 2.83 R0.5883 AL-0.00 WI 20.0 MW  3.4 3
 SPEC SMDRBH N T123212 K 0.020 GD  181 VS 4.50 DE 3.40 Q0400.0 QA 0.70 Q1 0.00 3
 SPEC PCDRBH N MO 14.1 ST  2.2 OM  2.3 f0 2.71 R0.6144 AL-0.00 WI 20.0 MW  3.3 3
 SPEC PCDRBH N T123220 K 0.020 GD  175 VS 4.50 DE 3.40 Q0400.0 QA 0.70 Q1 0.00 3
 SPEC PODRBH N MO 14.2 ST  6.0 OM  2.5 f0 3.35 R0.4970 AL-0.00 WI 20.0 MW  3.4 3
 SPEC PODRBH N T123222 K 0.020 GD  162 VS 4.50 DE 3.40 Q0400.0 QA 0.70 Q1 0.00 3
 SPEC SC01BH N MO 14.3 ST 10.1 OM  2.5 f0 3.69 R0.4512 AL-0.00 WI 20.0 MW  3.5 3
 SPEC SC01BH N T123223 K 0.020 GD  206 VS 4.50 DE 3.40 Q0400.0 QA 0.70 Q1 0.00 3
 SPEC SDDRBH N MO 14.9 ST0.800 OM  3.1 f0 1.00 R1.6650 AL-0.00 WI 20.0 MW  3.9 3
 SPEC SDDRBH N T123226 K 0.020 GD  205 VS 4.50 DE 3.40 Q0400.0 QA 0.70 Q1 0.00 3
 SPEC NEDRBH N MO 14.0 ST  4.5 OM  2.2 f0 3.63 R0.4587 AL-0.00 WI 20.0 MW  3.3 3
 SPEC NEDRBH N T123229 K 0.020 GD  192 VS 4.50 DE 3.40 Q0400.0 QA 0.70 Q1 0.00 3
 SPEC MADRBH N MO 14.8 ST  9.7 OM  2.9 f0 2.54 R0.6555 AL-0.00 WI 20.0 MW  3.8 3
 SPEC MADRBH N T123233 K 0.020 GD  240 VS 4.50 DE 3.40 Q0400.0 QA 0.70 Q1 0.00 3
 SPEC JIDRBH N MO 15.3 ST0.164 OM  3.4 f00.451 R3.6918 AL-0.00 WI 20.0 MW  4.1 3
 SPEC JIDRBH N T123237 K 0.020 GD  230 VS 4.50 DE 3.40 Q0400.0 QA 0.70 Q1 0.00 3
 SPEC MCDRBH N MO 14.3 ST 17.3 OM  2.3 f0 4.52 R0.3684 AL-0.00 WI 20.0 MW  3.5 3
 SPEC MCDRBH N T123257 K 0.020 GD  303 VS 4.50 DE 3.40 Q0400.0 QA 0.70 Q1 0.00 3
 LOCALITY: 25.9 Km al SSO de Boca Chica, Mar Caribe.                           3
 2020-06-04-1231-00S.MAN___126                                                 6
 OLDACT:ARG 20-06-04 12:43 OP:plst STATUS:               ID:20200604123100     3
 OLDACT:UP  20-06-04 12:50 OP:AMMR STATUS:               ID:20200604123100     3
 OLDACT:UP  20-06-04 12:49 OP:AMMR STATUS:               ID:20200604123100     3
 ACTION:UP  22-01-18 18:54 OP:JMLC STATUS:               ID:20200604123136 L   I
 STAT SP IPHASW D HRMM SECON CODA AMPLIT PERI AZIMU VELO AIN AR TRES W  DIS CAZ7
 SDD  BZ EPg    C 1231 48.94   61                         92    0.1610 74.7 353 
 SDD  BN ESg    C 1231 54.90                              92   -2.7410 74.7 353 
 SDD  BN  IAML    1231 55.22      1074.5 0.30                          74.7 353 
 BADR BZ EPg    D 1231 53.20   80                         91    2.7310 87.5 320 
 BADR BN ESg    C 1232  2.91                              91    2.3210 87.5 320 
 BADR BN  IAML    1232  5.89      2391.5 0.20                          87.5 320 
 HMDR BZ EPg    C 1231 53.10  113                         91   -1.3210  120  23 
 HMDR BN ESg    C 1232  1.97                              91   -5.4810  120  23 
 HMDR BN  IAML    1232  2.27       982.1 0.30                           120  23 
 NAVI BZ EPg    C 1231 53.56   69                         91   -2.2410  131 351 
 NAVI BN  IAML    1232  6.21      9164.4 0.15                           131 351 
 ABDR BZ EPg    C 1231 58.36   63                         91    1.0810  141 323 
 ABDR BE ESg      1232 12.56                              91    0.1210  141 323 
 ABDR BN  IAML    1232 34.49         0.3 0.85                           141 323 
 HIDR BZ EPg    D 1232  0.04   52                         91    2.2510  147  53 
 HIDR BN ESg      1232 14.14                              91    0.8310  147  53 
 HIDR BN  IAML    1232 16.34       447.1 0.25                           147  53 
 PODR BZ EPg    C 1232  4.55   99                         91    5.0910  159 285 
 PODR BN ESg    C 1232 24.19                              91    7.9610  159 285 
 PODR BN  IAML    1232 36.89       157.4 0.25                           159 285 
 PCDR BZ EPg    C 1232  4.51   86                         90    3.5710  173  62 
 PCDR BN ESg    C 1232 21.69                              90    2.8910  173  62 
 PCDR BN  IAML    1232 26.69       213.4 0.55                           173  62 
 SMDR BZ EPg    C 1232  0.25   78                         90   -1.4610  179  22 
 SMDR BN ESg    C 1232 13.97                              90   -6.1710  179  22 
 SMDR BN  IAML    1232 16.44       216.8 0.35                           179  22 
 NEDR BN ESg    C 1232 30.53                              90    8.0610  190 294 
 NEDR BN  IAML    1232 32.81       158.5 0.30                           190 294 
 SDDR BZ EPg    D 1232  7.34   91                         90    2.6010  203 311 
 SDDR BN  IAML    1232 29.79       393.2 0.45                           203 311 
 SC01 BZ EPg    C 1232  6.10   69                         90    1.2110  204 332 
 SC01 BN ESg      1232 25.24                              90   -0.4310  204 332 
 SC01 BN  IAML    1232 31.17       334.0 0.40                           204 332 
 LADR BZ EPg    C 1231 51.21   76                         90   -13.610  204 278 
 LADR BN ESg    C 1231 58.03                              90   -27.610  204 278 
 LADR BN  IAML    1231 59.31      2579.6 0.45                           204 278 
 CADR BZ EPg    C 1232  5.17   59                         90   -0.1310  208 357 
 CADR BN ESg    C 1232 23.13                              90   -3.2510  208 357 
 CADR BN  IAML    1232 30.10       451.8 0.85                           208 357 
 JIDR BZ EPg    C 1232 13.20   87                         90    5.3910  228 290 
 JIDR BN ESg    C 1232 39.37                              90    8.6210  228 290 
 JIDR BN  IAML    1232 50.74        70.6 0.45                           228 290 
 MADR BZ EPg    C 1232 10.80   66                         90    1.7610  238 326 
 MADR BN ESg    C 1232 35.11                              90    2.2110  238 326 
 MADR BN  IAML    1232 37.89       454.6 0.50                           238 326 
 LUDR BZ EPg    C 1232 13.97   76                         90    2.0610  261 333 
 LUDR BE ESg    C 1232 38.85                              90    0.9710  261 333 
 MCDR BZ EPg    C 1232 19.54   85                         90    2.5510  302 321 
 MCDR BN  IAML    1233  1.68       122.7 0.30                           302 321 
                                                                                
 2020  6 4 1625 55.70L  19.042 -70.150  6.9  DOM  6 0.5 1.6LDOM 2.6CDOM 2.6WDOM1
 SPEC AVERAGE  MO 12.9 ST 36.4 OM  3.2 f0 9.37 R0.8449 AL 0.00 WI 20.0 MW  2.6 3
 SPEC SD       MO  0.9 ST 47.6 OM  1.4 f0 5.29 R0.6525 AL      WI      MW  0.6 3
 GAP=190        1.35       6.2     2.8 14.9  0.6964E+01  0.1056E+02 -0.2892E+02E
 SPEC LADRBH N MO 14.3 ST  0.0 OM  3.5 f00.221 R 0.357 AL-0.00 WI 20.0 MW  3.5 3
 SPEC LADRBH N T162614 K 0.020 GD73.20 VS 3.20 DE 2.60 Q0400.0 QA 0.70 Q1      3
 SPEC NAVIBH N MO 13.0 ST105.4 OM  2.8 f0 16.0 R0.0740 AL-0.00 WI 20.0 MW  2.6 3
 SPEC NAVIBH N T162557 K 0.020 GD 17.2 VS 3.20 DE 2.60 Q0400.0 QA 0.70 Q1 0.00 3
 SPEC REDRBH N MO 12.0 ST  3.8 OM  0.9 f0 11.6 R0.1021 AL-0.00 WI 20.0 MW  1.9 3
 SPEC REDRBH N T162640 K 0.020 GD  128 VS 3.20 DE 2.60 Q0400.0 QA 0.70 Q1 0.00 3
 SPEC SDD BH N MO 13.9 ST0.026 OM  3.1 f00.502 R2.3586 AL-0.00 WI 20.0 MW  3.2 3
 SPEC SDD BH N T162613 K 0.020 GD 68.9 VS 3.20 DE 2.60 Q0400.0 QA 0.70 Q1 0.00 3
 LOCALITY: 7.6 Km al SSO de Cotui, Sanchez Ramirez.                            3
 2020-06-04-1625-00S.MAN___126                                                 6
 OLDACT:UP  20-06-04 19:15 OP:AMMR STATUS:               ID:20200604162500     3
 OLDACT:UP  20-06-04 19:13 OP:AMMR STATUS:               ID:20200604162500     3
 OLDACT:UP  20-06-04 19:12 OP:AMMR STATUS:               ID:20200604162500     3
 OLDACT:UP  20-06-04 19:10 OP:AMMR STATUS:               ID:20200604162500     3
 OLDACT:UP  20-06-04 19:09 OP:AMMR STATUS:               ID:20200604162500     3
 OLDACT:ARG 20-06-04 19:02 OP:plst STATUS:               ID:20200604162500     3
 OLDACT:UP  20-06-04 19:21 OP:AMMR STATUS:               ID:20200604162500     3
 OLDACT:UP  20-06-04 19:19 OP:AMMR STATUS:               ID:20200604162500     3
 ACTION:UP  22-01-18 18:54 OP:JMLC STATUS:               ID:20200604162555 L   I
 OLDACT:UP  20-06-04 19:21 OP:AMMR STATUS:               ID:20200604162500     3
 STAT SP IPHASW D HRMM SECON CODA AMPLIT PERI AZIMU VELO AIN AR TRES W  DIS CAZ7
 NAVI BZ EPg    C 1625 58.57   18                        115    0.0810 15.8 125 
 NAVI BN IS       1626  0.33                             115   -0.2610 15.8 125 
 NAVI BN  IAML    1626  0.38      3839.9 0.15                          15.8 125 
 ABDR BZ IP       1626  4.36                             100   -0.5110 56.2 243 
 ABDR BE IS       1626 12.67                             100    0.9810 56.2 243 
 ABDR BN  IAML    1626 22.97         0.2 1.10                          56.2 243 
 SDD  BE ESg      1626 14.68                              96   -0.3410 68.6 159 
 SDD  BN  IAML    1626 25.33       116.0 2.40                          68.6 159 
 HMDR BZ EPg    C 1626 10.10   34                         95    0.5410 85.8 109 
 HMDR BN ESg    C 1626 19.96                              95    0.1210 85.8 109 
 HMDR BN  IAML    1626 35.78        26.3 1.30                          85.8 109 
 SDDR BZ EPg    C 1626 14.32   39                         94   -0.7710  120 267 
 SDDR BN  IAML    1626 48.82        14.2 2.85                           120 267 
 REDR BZ EPg    C 1626 22.78   41                         93    0.4410  165 279 
 REDR BN ESg    C 1626 41.80                              93   -0.2810  165 279 
 REDR BN  IAML    1626 45.38        14.0 0.95                           165 279 
                                                                                
 2020  6 4 1652 32.50L  18.116 -69.830100.9  DOM 14 6.2 2.7LDOM 3.4CDOM 3.1WDOM1
 SPEC AVERAGE  MO 13.7 ST109.6 OM  2.3 f0 6.57 R0.8000 AL 0.00 WI 20.0 MW  3.1 3
 SPEC SD       MO  0.8 ST283.0 OM  0.8 f0 5.19 R1.2870 AL      WI      MW  0.5 3
 GAP=194       16.82      91.8    42.3101.9 -0.1097E+04  0.4052E+03  0.2814E+04E
 SPEC LADRBH N MO 14.2 ST  5.2 OM  2.3 f0 3.34 R0.4963 AL-0.00 WI 20.0 MW  3.4 3
 SPEC LADRBH N T165256 K 0.020 GD  225 VS 4.48 DE 3.40 Q0400.0 QA 0.70 Q1 0.00 3
 SPEC HMDRBH N MO 13.1 ST 39.1 OM  1.5 f0 14.4 R0.1151 AL-0.00 WI 20.0 MW  2.7 3
 SPEC HMDRBH N T165257 K 0.020 GD  134 VS 4.48 DE 3.40 Q0400.0 QA 0.70 Q1 0.00 3
 SPEC NAVIBH N MO 15.0 ST999.9 OM  3.4 f0 11.8 R0.1405 AL-0.00 WI 20.0 MW  4.0 3
 SPEC NAVIBH N T165259 K 0.020 GD  138 VS 4.48 DE 3.40 Q0400.0 QA 0.70 Q1 0.00 3
 SPEC BADRBH N MO 14.0 ST 23.0 OM  2.4 f0 6.28 R0.2639 AL-0.00 WI 20.0 MW  3.3 3
 SPEC BADRBH N T1653 4 K 0.020 GD  119 VS 4.48 DE 3.40 Q0400.0 QA 0.70 Q1 0.00 3
 SPEC NADRBH N MO 14.9 ST  7.8 OM  3.2 f0 2.11 R0.7856 AL-0.00 WI 20.0 MW  3.9 3
 SPEC NADRBH N T1653 4 K 0.020 GD  170 VS 4.48 DE 3.40 Q0400.0 QA 0.70 Q1 0.00 3
 SPEC SMDRBH N MO 13.7 ST  1.0 OM  1.9 f0 2.86 R0.5796 AL-0.00 WI 20.0 MW  3.0 3
 SPEC SMDRBH N T1653 7 K 0.020 GD  177 VS 4.48 DE 3.40 Q0400.0 QA 0.70 Q1 0.00 3
 SPEC HIDRBH N MO 13.4 ST104.0 OM  1.7 f0 16.0 R0.1036 AL-0.00 WI 20.0 MW  2.9 3
 SPEC HIDRBH N T1653 7 K 0.020 GD  163 VS 4.48 DE 3.40 Q0400.0 QA 0.70 Q1 0.00 3
 SPEC ABDRBH N MO 12.2 ST0.000 OM  0.5 f00.347 R4.7769 AL-0.00 WI 20.0 MW  2.1 3
 SPEC ABDRBH N T1653 8 K 0.020 GD  152 VS 4.48 DE 3.40 Q0400.0 QA 0.70 Q1 0.00 3
 SPEC PCDRBH N MO 13.2 ST  1.2 OM  1.4 f0 4.34 R0.3819 AL-0.00 WI 20.0 MW  2.7 3
 SPEC PCDRBH N T165312 K 0.020 GD  188 VS 4.48 DE 3.40 Q0400.0 QA 0.70 Q1 0.00 3
 SPEC SDDRBH N MO 13.6 ST0.199 OM  1.8 f0 1.70 R0.9751 AL-0.00 WI 20.0 MW  3.0 3
 SPEC SDDRBH N T165322 K 0.020 GD  207 VS 4.48 DE 3.40 Q0400.0 QA 0.70 Q1 0.00 3
 SPEC REDRBH N MO 13.5 ST 24.1 OM  1.6 f0 9.13 R0.1816 AL-0.00 WI 20.0 MW  3.0 3
 SPEC REDRBH N T165329 K 0.020 GD  256 VS 4.48 DE 3.40 Q0400.0 QA 0.70 Q1 0.00 3
 LOCALITY: 5.1 Km al Este de San Antonio de Guerra, Santo Domingo.             3
 2020-06-04-1652-00S.MAN___126                                                 6
 OLDACT:ARG 20-06-04 19:22 OP:plst STATUS:               ID:20200604165200     3
 OLDACT:UP  20-06-04 19:30 OP:AMMR STATUS:               ID:20200604165200     3
 OLDACT:UP  20-06-04 19:30 OP:AMMR STATUS:               ID:20200604165200     3
 ACTION:UP  22-01-18 18:54 OP:JMLC STATUS:               ID:20200604165232 L   I
 STAT SP IPHASW D HRMM SECON CODA AMPLIT PERI AZIMU VELO AIN AR TRES W  DIS CAZ7
 SDD  BZ EPg    C 1652 48.96   48                        157    2.3710 39.5 346 
 SDD  BN ESg    C 1652 59.50                             157    2.4610 39.5 346 
 SDD  BN  IAML    1653 18.82        92.0 1.65                          39.5 346 
 BADR BZ EPg    C 1652 52.80   59                        144    4.6210 64.3 299 
 BADR BN  IAML    1653  9.60       492.9 0.20                          64.3 299 
 HMDR BZ EPg    C 1652 48.57  106                        135   -1.3610 88.2  32 
 HMDR BN ESg    C 1652 59.13                             135   -3.7110 88.2  32 
 HMDR BN  IAML    1652 59.48       116.7 0.15                          88.2  32 
 NAVI BZ EPg    C 1652 50.39   74                        132   -0.2010 95.6 347 
 NAVI BN ESg    C 1653  1.09                             132   -2.9110 95.6 347 
 NAVI BN  IAML    1653  2.04      8147.1 0.15                          95.6 347 
 ABDR BZ EPg    C 1652 54.23   54                        127    1.6710  114 313 
 ABDR BE ESg      1653 10.04                             127    2.6110  114 313 
 ABDR BN  IAML    1653 54.84         0.2 0.90                           114 313 
 HIDR BZ EPg    C 1652 53.19   71                        122   -0.4610  129  66 
 HIDR BN ESg    C 1653  8.82                             122   -0.5010  129  66 
 HIDR BN  IAML    1653 11.64       180.3 0.20                           129  66 
 NADR BZ EPg    C 1652 53.19   56                        120   -1.2710  137 359 
 NADR BN  IAML    1653 10.26       663.2 0.30                           137 359 
 SMDR BZ EPg    C 1652 53.97   54                        118   -1.4410  146  27 
 SMDR BN ESg    C 1653  8.91                             118   -3.4710  146  27 
 SMDR BN  IAML    1653 12.51        96.2 0.40                           146  27 
 PODR BZ EPg    C 1653  2.70   69                        117    6.3310  154 272 
 PODR BN ESg    C 1653 23.48                             117    9.4210  154 272 
 PODR BN  IAML    1653 38.70        69.4 2.05                           154 272 
 PCDR BZ EPg    C 1652 57.66   65                        116    0.8910  159  74 
 PCDR BN  IAML    1653 36.57       110.0 1.75                           159  74 
 SC01 BZ EPg    C 1652 59.88   67                        113    1.6010  173 327 
 SC01 BN  IAML    1653 23.22       107.1 0.25                           173 327 
 SDDR BZ EPg    C 1653  2.97   72                        112    3.7710  181 302 
 SDDR BN  IAML    1653 33.05        30.3 0.55                           181 302 
 LADR BN ESg    C 1652 58.20                             109   -24.610  202 268 
 LADR BN  IAML    1652 58.67       266.8 0.15                           202 268 
 REDR BZ EPg    C 1653  7.74   89                        106    2.4910  236 303 
 REDR BN ESg    C 1653 31.23                             106    1.7310  236 303 
 REDR BN  IAML    1653 41.00        42.5 0.25                           236 303 
                                                                                
 2020  6 5 0141 39.50L  17.399 -69.928 15.0  DOM  6 6.6 2.8LDOM 3.3CDOM 2.8WDOM1
 SPEC AVERAGE  MO 13.3 ST143.3 OM  2.1 f0 10.8 R0.2068 AL 0.00 WI 20.0 MW  2.8 3
 SPEC SD       MO  0.5 ST224.9 OM  0.8 f0 4.80 R0.1282 AL      WI      MW  0.3 3
 GAP=238       17.39     137.2    51.9999.9 -0.2810E+04 -0.8280E+05  0.5960E+06E
 SPEC SMDRBH N MO 13.1 ST0.824 OM  1.3 f0 3.91 R0.4211 AL-0.00 WI 20.0 MW  2.7 3
 SPEC SMDRBH N T 14229 K 0.020 GD  223 VS 4.45 DE 3.40 Q0400.0 QA 0.70 Q1 0.00 3
 SPEC HIDRBH N MO 13.1 ST 36.2 OM  1.3 f0 14.7 R0.1120 AL-0.00 WI 20.0 MW  2.7 3
 SPEC HIDRBH N T 14222 K 0.020 GD  184 VS 4.45 DE 3.40 Q0400.0 QA 0.70 Q1 0.00 3
 SPEC HMDRBH N MO 12.8 ST  4.2 OM  1.1 f0 8.68 R0.1897 AL-0.00 WI 20.0 MW  2.5 3
 SPEC HMDRBH N T 14222 K 0.020 GD  164 VS 4.45 DE 3.40 Q0400.0 QA 0.70 Q1 0.00 3
 SPEC NAVIBH N MO 14.1 ST532.1 OM  2.4 f0 15.8 R0.1042 AL-0.00 WI 20.0 MW  3.4 3
 SPEC NAVIBH N T 14231 K 0.020 GD  173 VS 4.45 DE 3.40 Q0400.0 QA 0.70 Q1 0.00 3
 LOCALITY: 15.0 Km al ONO de Isla Catalina, Mar Caribe.                        3
 2020-06-05-0141-00S.MAN___126                                                 6
 OLDACT:ARG 20-06-05 01:55 OP:plst STATUS:               ID:20200605014100     3
 OLDACT:UP  20-06-05 01:59 OP:AMMR STATUS:               ID:20200605014100     3
 OLDACT:UP  20-06-05 01:58 OP:AMMR STATUS:               ID:20200605014100     3
 ACTION:UP  22-01-18 18:54 OP:JMLC STATUS:               ID:20200605014139 L   I
 STAT SP IPHASW D HRMM SECON CODA AMPLIT PERI AZIMU VELO AIN AR TRES W  DIS CAZ7
 HMDR BZ EPg    C  142 12.07   76                         91    6.9810  164  21 
 HMDR BN ESg    C  142 23.78                              91   -0.2410  164  21 
 HMDR BN  IAML     142 24.65        30.5 1.10                           164  21 
 NAVI BZ EPg    C  142 17.50   52                         91   11.0710  173 357 
 NAVI BN ESg    C  142 32.99                              91    6.6410  173 357 
 NAVI BN  IAML     142 34.09       389.1 0.20                           173 357 
 HIDR BZ EPg    C  142 11.90   56                         91    3.8210  184  44 
 HIDR BN ESg    C  142 23.98                              91   -5.2610  184  44 
 HIDR BN  IAML     142 25.18       124.6 0.25                           184  44 
 LADR BN ESg       142 25.24                              91   -9.3310  204 290 
 LADR BN  IAML     142 33.54        50.2 0.95                           204 290 
 PCDR BN ESg    C  142 29.47                              91   -5.2810  205  53 
 PCDR BN  IAML     142 32.29       148.4 3.35                           205  53 
 SMDR BZ EPg    C  142 13.97   56                         91   -0.0510  223  20 
 SMDR BN ESg    C  142 31.23                              91   -8.3410  223  20 
 SMDR BN  IAML     143  2.30        64.1 1.10                           223  20 
                                                                                
