 2020 10 1 0228 47.00L  18.122 -68.473 96.2  DOM  5 0.3 2.6LDOM 2.9CDOM 2.7WDOM1
 SPEC AVERAGE  MO 13.2 ST 36.5 OM  1.5 f0 11.0 R0.2354 AL 0.00 WI 20.0 MW  2.7 3
 SPEC SD       MO  0.2 ST 44.6 OM  0.3 f0 4.91 R0.1946 AL      WI      MW  0.2 3
 GAP=271        0.81       6.9     6.5  6.1  0.1287E+02  0.8502E+01  0.1777E+01E
 SPEC PCDRBH N MO 13.3 ST0.504 OM  1.8 f0 2.90 R0.5716 AL-0.00 WI 20.0 MW  2.8 3
 SPEC PCDRBH N T 229 9 K 0.020 GD  105 VS 4.48 DE 3.40 Q0400.0 QA 0.70 Q1 0.00 3
 SPEC HIDRBH N MO 13.5 ST113.0 OM  1.9 f0 16.0 R0.1036 AL-0.00 WI 20.0 MW  2.9 3
 SPEC HIDRBH N T 22910 K 0.020 GD  112 VS 4.48 DE 3.40 Q0400.0 QA 0.70 Q1 0.00 3
 SPEC MIDRHH N MO 13.0 ST 14.7 OM  1.3 f0 11.7 R0.1417 AL-0.00 WI 20.0 MW  2.6 3
 SPEC MIDRHH N T 22919 K 0.020 GD  148 VS 4.48 DE 3.40 Q0400.0 QA 0.70 Q1 0.00 3
 SPEC HMDRBH N MO 12.9 ST 17.8 OM  1.2 f0 13.3 R0.1246 AL-0.00 WI 20.0 MW  2.5 3
 SPEC HMDRBH N T 22920 K 0.020 GD  154 VS 4.48 DE 3.40 Q0400.0 QA 0.70 Q1 0.00 3
 LOCALITY: 27.1 Km al Este de Mano Juan Isla Saona. Mar Caribe.                3
 2020-10-01-0228-00S.MAN___126                                                 6
 OLDACT:ARG 20-10-01 02:41 OP:njm  STATUS:               ID:20201001022800     3
 OLDACT:UP  20-10-01 03:48 OP:AMMR STATUS:               ID:20201001022800     3
 ACTION:UP  22-01-06 16:15 OP:jmlc STATUS:               ID:20201001022847 L   I
 STAT SP IPHASW D HRMM SECON CODA AMPLIT PERI AZIMU VELO AIN AR TRES W  DIS CAZ7
 SADR BZ IP     D  229  0.07   37                        159   -0.2310 33.3 284 
 SADR BE IS     D  229 10.53                             159    0.3710 33.3 284 
 SADR BN  IAML     229 11.73       269.9 0.45                          33.3 284 
 PCDR BZ IP     C  229  0.85   40                        153    0.0110 44.4  13 
 PCDR BE IS     D  229 11.33                             153    0.2210 44.4  13 
 PCDR BN  IAML     229 55.11       135.2 2.30                          44.4  13 
 HIDR BZ IP     C  229  1.43   35                        146   -0.2310 57.9 334 
 HIDR BE IS     D  229 11.90                             146   -0.6310 57.9 334 
 HIDR BN  IAML     229 13.22       427.3 0.25                          57.9 334 
 MIDR HZ IP     C  229  6.56   48                        125    0.2910  113 328 
 MIDR HE IS     C  229 20.86                             125    0.3010  113 328 
 MIDR BN  IAML     229 22.06        46.9 0.26                           113 328 
 HMDR BZ IP     D  229  7.13   51                        123    0.0310  121 308 
 HMDR BE IS     C  229 21.85                             123   -0.1410  121 308 
 HMDR BN  IAML     229 22.42        45.8 0.15                           121 308 
                                                                                
 2020 10 1 0401 52.70L  18.573 -68.994119.8  DOM 11 0.9 2.8LDOM 2.9CDOM 3.0WDOM1
 SPEC AVERAGE  MO 13.6 ST 97.5 OM  2.1 f0 7.93 R0.2936 AL 0.00 WI 20.0 MW  3.0 3
 SPEC SD       MO  0.4 ST227.6 OM  0.4 f0 4.63 R0.1657 AL      WI      MW  0.3 3
 GAP=111        2.37      12.1     9.2 12.9  0.1468E+02  0.3319E+02  0.4567E+01E
 SPEC HIDRBH N MO 13.5 ST124.2 OM  1.9 f0 16.0 R0.1031 AL-0.00 WI 20.0 MW  2.9 3
 SPEC HIDRBH N T 4 219 K 0.020 GD  123 VS 4.46 DE 3.40 Q0400.0 QA 0.70 Q1 0.00 3
 SPEC SADRBH N MO 13.8 ST  1.1 OM  2.2 f0 2.62 R0.6298 AL-0.00 WI 20.0 MW  3.2 3
 SPEC SADRBH N T 4 220 K 0.020 GD  129 VS 4.46 DE 3.40 Q0400.0 QA 0.70 Q1 0.00 3
 SPEC MIDRHH N MO 13.2 ST 64.7 OM  1.6 f0 16.0 R0.1031 AL-0.00 WI 20.0 MW  2.7 3
 SPEC MIDRHH N T 4 220 K 0.020 GD  128 VS 4.46 DE 3.40 Q0400.0 QA 0.70 Q1 0.00 3
 SPEC HMDRBH N MO 13.4 ST 18.0 OM  1.8 f0 8.95 R0.1844 AL-0.00 WI 20.0 MW  2.9 3
 SPEC HMDRBH N T 4 218 K 0.020 GD  128 VS 4.46 DE 3.40 Q0400.0 QA 0.70 Q1 0.00 3
 SPEC PCDRBH N MO 13.3 ST0.686 OM  1.7 f0 3.19 R0.5173 AL-0.00 WI 20.0 MW  2.8 3
 SPEC PCDRBH N T 4 222 K 0.020 GD  136 VS 4.46 DE 3.40 Q0400.0 QA 0.70 Q1 0.00 3
 SPEC SMDRBH N MO 13.7 ST  3.1 OM  2.0 f0 4.12 R0.4005 AL-0.00 WI 20.0 MW  3.1 3
 SPEC SMDRBH N T 4 225 K 0.020 GD  145 VS 4.46 DE 3.40 Q0400.0 QA 0.70 Q1 0.00 3
 SPEC SDD BH N MO 13.1 ST  2.5 OM  1.4 f0 5.93 R0.2783 AL-0.00 WI 20.0 MW  2.7 3
 SPEC SDD BH N T 4 225 K 0.020 GD  154 VS 4.46 DE 3.40 Q0400.0 QA 0.70 Q1 0.00 3
 SPEC NAVIBH N MO 14.7 ST808.4 OM  3.0 f0 11.6 R0.1423 AL-0.00 WI 20.0 MW  3.8 3
 SPEC NAVIBH N T 4 227 K 0.020 GD  167 VS 4.46 DE 3.40 Q0400.0 QA 0.70 Q1 0.00 3
 SPEC NADRBH N MO 14.1 ST 17.1 OM  2.4 f0 5.03 R0.3281 AL-0.00 WI 20.0 MW  3.4 3
 SPEC NADRBH N T 4 232 K 0.020 GD  173 VS 4.46 DE 3.40 Q0400.0 QA 0.70 Q1 0.00 3
 SPEC BADRBH N MO 13.6 ST 29.5 OM  1.8 f0 9.28 R0.1778 AL-0.00 WI 20.0 MW  3.0 3
 SPEC BADRBH N T 4 234 K 0.020 GD  188 VS 4.46 DE 3.40 Q0400.0 QA 0.70 Q1 0.00 3
 SPEC SC01BH N MO 13.6 ST  3.4 OM  1.7 f0 4.52 R0.3651 AL-0.00 WI 20.0 MW  3.0 3
 SPEC SC01BH N T 4 245 K 0.020 GD  238 VS 4.46 DE 3.40 Q0400.0 QA 0.70 Q1 0.00 3
 LOCALITY: 11.7 Km al Norte de La Romana. La Romana.                           3
 2020-10-01-0401-00S.MAN___126                                                 6
 OLDACT:ARG 20-10-01 05:32 OP:njm  STATUS:               ID:20201001040100     3
 OLDACT:UP  20-10-01 05:37 OP:AMMR STATUS:               ID:20201001040100     3
 ACTION:UP  22-01-06 16:15 OP:jmlc STATUS:               ID:20201001040152 L   I
 OLDACT:UP  20-10-01 05:38 OP:AMMR STATUS:               ID:20201001040100     3
 STAT SP IPHASW D HRMM SECON CODA AMPLIT PERI AZIMU VELO AIN AR TRES W  DIS CAZ7
 HIDR BZ IP     C  4 2  8.04   38                        165   -0.5010 29.5  86 
 HIDR BE IS     C  4 2 20.72                             165    0.4610 29.5  86 
 HIDR BN  IAML     4 2 21.19       414.3 0.25                          29.5  86 
 MIDR HZ IP     C  4 2  8.83   37                        157   -0.3110 45.8 353 
 MIDR HE IS     C  4 2 22.17                             157    0.8610 45.8 353 
 MIDR BN  IAML     4 2 22.41       109.1 0.20                          45.8 353 
 HMDR BZ IP     C  4 2  7.93   44                        157   -1.3410 47.2 300 
 HMDR BE IS     C  4 2 19.93                             157   -1.6110 47.2 300 
 HMDR BN  IAML     4 2 21.03       183.7 0.35                          47.2 300 
 SADR BZ IP     D  4 2  8.93   39                        156   -0.3110 47.9 152 
 SADR BE IS     C  4 2 21.58                             156    0.1010 47.9 152 
 SADR BN  IAML     4 2 24.61       137.7 1.00                          47.9 152 
 PCDR BZ IP     D  4 2 10.47   48                        149    0.3010 65.0  96 
 PCDR BN  IAML     4 2 30.71       134.0 2.00                          65.0  96 
 SMDR BZ IP     C  4 2 10.86   39                        143   -0.4110 81.9 346 
 SMDR BE IS     D  4 2 26.73                             143    1.7110 81.9 346 
 SMDR BN  IAML     4 2 30.75       125.9 0.20                          81.9 346 
 SDD  BZ IP     C  4 2 12.67   28                        137    0.1510 98.3 263 
 SDD  BE IS     C  4 2 27.08                             137   -0.1010 98.3 263 
 SDD  BN  IAML     4 2 40.58        64.2 1.45                          98.3 263 
 NAVI BZ IP     C  4 2 13.89   40                        132   -0.2810  117 292 
 NAVI BE IS     C  4 2 28.78                             132   -1.2910  117 292 
 NAVI BN  IAML     4 2 30.08      1883.6 0.15                           117 292 
 NADR BZ IP     D  4 2 14.46   53                        130   -0.3710  125 314 
 NADR BN  IAML     4 2 37.18       210.7 0.35                           125 314 
 BADR BZ IP     C  4 2 18.30   40                        125    1.4510  146 263 
 BADR BE IS     C  4 2 35.98                             125    1.2510  146 263 
 BADR BN  IAML     4 2 42.18        94.5 0.15                           146 263 
 SC01 BZ IP     C  4 2 23.11   44                        115    0.2410  206 298 
 SC01 BN  IAML     4 2 55.19        41.4 0.20                           206 298 
                                                                                
 2020 10 1 0646 52.20L  19.082 -66.969 29.4  DOM  8 0.8 2.4LDOM 3.1CDOM 2.5WDOM1
 SPEC AVERAGE  MO 12.8 ST  1.3 OM  1.5 f0 5.40 R0.3209 AL 0.00 WI 20.0 MW  2.5 3
 SPEC SD       MO  0.4 ST0.840 OM  0.5 f0 1.64 R0.1567 AL      WI      MW  0.3 3
 GAP=252        2.02      12.2    15.6 33.9  0.1230E+02  0.3389E+03 -0.2542E+03E
 SPEC AOPRBH N MO 13.2 ST  3.1 OM  1.8 f0 5.68 R0.2821 AL-0.00 WI 20.0 MW  2.7 3
 SPEC AOPRBH N T 64714 K 0.020 GD 89.4 VS 4.33 DE 3.26 Q0400.0 QA 0.70 Q1 0.00 3
 SPEC PRSNBH N MO 13.7 ST  1.2 OM  2.3 f0 2.80 R0.5722 AL-0.00 WI 20.0 MW  3.1 3
 SPEC PRSNBH N T 64716 K 0.020 GD 96.0 VS 4.33 DE 3.26 Q0400.0 QA 0.70 Q1 0.00 3
 SPEC CRPRBH N MO 13.1 ST  2.0 OM  1.6 f0 5.14 R0.3117 AL-0.00 WI 20.0 MW  2.7 3
 SPEC CRPRBH N T 64721 K 0.020 GD  123 VS 4.33 DE 3.26 Q0400.0 QA 0.70 Q1 0.00 3
 SPEC CELPBH N MO 12.6 ST  1.2 OM  1.1 f0 6.42 R0.2495 AL-0.00 WI 20.0 MW  2.4 3
 SPEC CELPBH N T 64722 K 0.020 GD  122 VS 4.33 DE 3.26 Q0400.0 QA 0.70 Q1 0.00 3
 SPEC MLPRBH N MO 12.5 ST0.855 OM  1.0 f0 6.11 R0.2622 AL-0.00 WI 20.0 MW  2.3 3
 SPEC MLPRBH N T 64721 K 0.020 GD  126 VS 4.33 DE 3.26 Q0400.0 QA 0.70 Q1 0.00 3
 SPEC PCDRBH N MO 13.0 ST0.228 OM  1.3 f0 2.86 R0.5602 AL-0.00 WI 20.0 MW  2.6 3
 SPEC PCDRBH N T 64730 K 0.020 GD  164 VS 4.33 DE 3.26 Q0400.0 QA 0.70 Q1 0.00 3
 SPEC MIDRHH N MO 12.6 ST  1.5 OM  0.8 f0 7.10 R0.2256 AL-0.00 WI 20.0 MW  2.3 3
 SPEC MIDRHH N T 64751 K 0.020 GD  220 VS 4.33 DE 3.26 Q0400.0 QA 0.70 Q1 0.00 3
 SPEC HMDRBH N MO 12.8 ST0.557 OM  0.9 f0 4.51 R0.3552 AL-0.00 WI 20.0 MW  2.4 3
 SPEC HMDRBH N T 648 2 K 0.020 GD  257 VS 4.33 DE 3.26 Q0400.0 QA 0.70 Q1 0.00 3
 LOCALITY: 215.4 Km al Este de Miches. Oceano Atlantico.                       3
 2020-10-01-0646-00S.MAN___126                                                 6
 OLDACT:ARG 20-10-01 10:01 OP:njm  STATUS:               ID:20201001064600     3
 OLDACT:UP  20-10-01 10:06 OP:AMMR STATUS:               ID:20201001064600     3
 ACTION:UP  22-01-06 16:15 OP:jmlc STATUS:               ID:20201001064652 L   I
 OLDACT:UP  21-11-12 20:14 OP:AMMR STATUS:               ID:20201001064600     3
 OLDACT:UP  21-11-12 20:13 OP:AMMR STATUS:               ID:20201001064600     3
 OLDACT:UP  20-10-01 10:06 OP:AMMR STATUS:               ID:20201001064600     3
 STAT SP IPHASW D HRMM SECON CODA AMPLIT PERI AZIMU VELO AIN AR TRES W  DIS CAZ7
 PRSN BZ IP        647  5.52   34                         68                    
 PRSN BE IS        647 17.85                              68                    
 PRSN BN  IAML     647 25.11       175.7 0.24                                   
 AOPR BZ IP        647  5.17   50                         62   -0.3410 84.4 164 
 AOPR BE IS        647 16.44                              62    1.0810 84.4 164 
 CELP BZ IP        647  9.39   42                         62   -0.3810  119 160 
 CELP BE IS        647 23.84                              62    1.0610  119 160 
 CRPR BZ IP        647  8.34   44                         62   -1.5110  120 186 
 CRPR BE IS        647 22.78                              62   -0.1510  120 186 
 MLPR BZ IP        647  9.75   41                         62   -0.5510  123 184 
 MLPR BE IS        647 23.48                              62   -0.2310  123 184 
 PCDR BZ IP        647 14.68   41                         62   -0.3910  162 247 
 MIDR HZ IP        647 22.78   56                         62    0.5510  219 267 
 MIDR BN  IAML     648 20.99        35.2 2.48                           219 267 
 HMDR BZ IP        647 27.71   55                         60    0.8710  256 263 
 HMDR BN  IAML     648  3.14        19.2 2.15                           256 263 
                                                                                
 2020 10 1 0929  8.90L  18.715 -69.723126.1  DOM 11 0.9 2.7LDOM 2.9CDOM 3.0WDOM1
 SPEC AVERAGE  MO 13.6 ST261.3 OM  2.5 f0 10.0 R0.2540 AL 0.00 WI 20.0 MW  3.0 3
 SPEC SD       MO  0.6 ST424.0 OM  0.8 f0 5.41 R0.1792 AL      WI      MW  0.4 3
 GAP= 96        2.37      12.4     6.9 12.4 -0.1800E+02  0.4296E+01  0.1529E+02E
 SPEC HMDRBH N MO 12.9 ST 33.2 OM  1.3 f0 16.0 R0.1029 AL-0.00 WI 20.0 MW  2.6 3
 SPEC HMDRBH N T 92935 K 0.020 GD  131 VS 4.45 DE 3.40 Q0400.0 QA 0.70 Q1 0.00 3
 SPEC NAVIBH N MO 14.5 ST995.4 OM  2.9 f0 14.5 R0.1136 AL-0.00 WI 20.0 MW  3.6 3
 SPEC NAVIBH N T 92936 K 0.020 GD  132 VS 4.45 DE 3.40 Q0400.0 QA 0.70 Q1 0.00 3
 SPEC BADRBH N MO 13.8 ST 15.9 OM  2.1 f0 6.52 R0.2525 AL-0.00 WI 20.0 MW  3.1 3
 SPEC BADRBH N T 92940 K 0.020 GD  147 VS 4.45 DE 3.40 Q0400.0 QA 0.70 Q1 0.00 3
 SPEC SADRBH N MO 13.3 ST0.573 OM  1.6 f0 3.01 R0.5470 AL-0.00 WI 20.0 MW  2.8 3
 SPEC SADRBH N T 92946 K 0.020 GD  170 VS 4.45 DE 3.40 Q0400.0 QA 0.70 Q1 0.00 3
 LOCALITY: 12.5 Km al SSO de Bayaguana. Monte Plata.                           3
 2020-10-01-0928-00S.MAN___126                                                 6
 OLDACT:UP  20-10-01 10:17 OP:AMMR STATUS:               ID:20201001092800     3
 OLDACT:ARG 20-10-01 10:03 OP:njm  STATUS:               ID:20201001092800     3
 OLDACT:UP  20-10-01 10:18 OP:AMMR STATUS:               ID:20201001092800     3
 ACTION:UP  22-01-06 16:15 OP:jmlc STATUS:               ID:20201001092908 L   I
 OLDACT:UP  21-11-12 20:15 OP:AMMR STATUS:               ID:20201001092800     3
 OLDACT:UP  20-10-01 10:18 OP:AMMR STATUS:               ID:20201001092800     3
 STAT SP IPHASW D HRMM SECON CODA AMPLIT PERI AZIMU VELO AIN AR TRES W  DIS CAZ7
 SDD  BZ IP     D  929 25.12   33                        163   -0.4710 34.7 216 
 SDD  BE IS     C  929 37.68                             163   -0.2710 34.7 216 
 HMDR BZ EP     D  929 24.45   44                        162   -1.2810 37.0  77 
 HMDR BZ IP     D  929 24.47                             161           37.0  77 
 HMDR BE IS     C  929 37.26                             162   -0.9310 37.0  77 
 HMDR BN  IAML     929 38.46        45.6 0.10                          37.0  77 
 NAVI BZ IP     C  929 25.01   31                        160   -0.9410 42.0 310 
 NAVI BE IS     D  929 38.02                             160   -0.5710 42.0 310 
 NAVI BN  IAML     929 40.00      1602.6 0.15                          42.0 310 
 BADR BZ IP     C  929 26.78   41                        147   -1.0210 75.9 243 
 BADR BE IS     D  929 42.08                             147    0.2810 75.9 243 
 BADR BN  IAML     929 45.88       272.3 0.20                          75.9 243 
 MIDR HZ IP     D  929 27.54   41                        146   -0.1710 76.9  67 
 MIDR HE IS     C  929 41.98                             146    0.3310 76.9  67 
 MIDR BN  IAML     929 44.76        67.6 0.18                          76.9  67 
 SMDR BZ IP     C  929 28.52   41                        143    0.2610 85.0  41 
 SMDR BE IS     D  929 44.30                             143    1.7010 85.0  41 
 SMDR BN  IAML     929 53.93        54.5 0.60                          85.0  41 
 ABDR BZ IP     C  929 28.43   35                        140   -1.0310 95.9 277 
 ABDR BE IS     D  929 44.78                             140    0.0910 95.9 277 
 SADR BZ IP     C  929 30.41   44                        134   -0.2010  115 120 
 SADR BE IS     C  929 47.73                             134    1.0310  115 120 
 SC01 BZ IP     D  929 33.00   38                        130    0.9010  132 307 
 SC01 BE IS   4 D  929 52.47                             130    3.20 0  132 307 
 SC01 BN  IAML     929 54.25        41.8 0.90                           132 307 
 PCDR BZ IP     D  929 33.43   51                        127    0.3010  143  99 
 PCDR BN  IAML     930  3.49       107.0 2.00                           143  99 
 PODR BZ IP     C  929 36.44   38                        121   -0.0210  175 250 
 PODR BE IS     C  929 58.86                             121    2.0010  175 250 
                                                                                
 2020 10 1 1319 30.80L  17.783 -67.904  7.5  DOM 11 0.7 2.1LDOM 2.7CDOM 2.6WDOM1
 SPEC AVERAGE  MO 12.9 ST  7.6 OM  2.0 f0 8.16 R1.4903 AL 0.00 WI 20.0 MW  2.6 3
 SPEC SD       MO  1.2 ST 13.8 OM  1.3 f0 5.44 R2.8718 AL      WI      MW  0.8 3
 GAP=200        1.96       9.7     4.1 11.6  0.1772E+02  0.2764E+02  0.4202E+02E
 SPEC MLPRBH N MO 11.4 ST0.614 OM  0.2 f0 11.6 R0.1247 AL-0.00 WI 20.0 MW  1.6 3
 SPEC MLPRBH N T131953 K 0.020 GD 93.7 VS 3.91 DE 2.91 Q0400.0 QA 0.70 Q1 0.00 3
 SPEC SADRBH N MO 13.1 ST0.476 OM  1.8 f0 3.04 R0.4759 AL-0.00 WI 20.0 MW  2.7 3
 SPEC SADRBH N T131956 K 0.020 GD  101 VS 3.91 DE 2.91 Q0400.0 QA 0.70 Q1 0.00 3
 SPEC HIDRBH N MO 12.8 ST 38.2 OM  1.5 f0 16.0 R0.0904 AL-0.00 WI 20.0 MW  2.5 3
 SPEC HIDRBH N T1320 3 K 0.020 GD  111 VS 3.91 DE 2.91 Q0400.0 QA 0.70 Q1 0.00 3
 SPEC MIDRHH N MO 12.6 ST  1.6 OM  1.2 f0 6.55 R0.2209 AL-0.00 WI 20.0 MW  2.3 3
 SPEC MIDRHH N T132012 K 0.020 GD  134 VS 3.91 DE 2.91 Q0400.0 QA 0.70 Q1 0.00 3
 SPEC HMDRBH N MO 12.3 ST  4.5 OM  0.9 f0 11.6 R0.1247 AL-0.00 WI 20.0 MW  2.1 3
 SPEC HMDRBH N T132019 K 0.020 GD  138 VS 3.91 DE 2.91 Q0400.0 QA 0.70 Q1 0.00 3
 SPEC NAVIBH N MO 15.5 ST0.026 OM  4.0 f00.183 R7.9055 AL-0.00 WI 20.0 MW  4.3 3
 SPEC NAVIBH N T132043 K 0.020 GD  160 VS 3.91 DE 2.91 Q0400.0 QA 0.70 Q1 0.00 3
 LOCALITY: 100.6 Km al SSE de Punta Cana. Canal de la Mona.                    3
 2020-10-01-1318-00S.MAN___126                                                 6
 OLDACT:ARG 20-10-01 14:35 OP:jmlc STATUS:               ID:20201001131800     3
 OLDACT:UP  20-10-01 14:49 OP:JMLC STATUS:               ID:20201001131800     3
 ACTION:UP  22-01-06 16:15 OP:jmlc STATUS:               ID:20201001131930 L   I
 OLDACT:UP  21-11-12 20:22 OP:AMMR STATUS:               ID:20201001131800     3
 OLDACT:UP  21-11-12 20:21 OP:AMMR STATUS:               ID:20201001131800     3
 OLDACT:UP  21-11-12 20:20 OP:AMMR STATUS:               ID:20201001131800     3
 OLDACT:UP  20-10-01 14:49 OP:JMLC STATUS:               ID:20201001131800     3
 STAT SP IPHASW D HRMM SECON CODA AMPLIT PERI AZIMU VELO AIN AR TRES W  DIS CAZ7
 CRPR BZ IP       1319 45.55   27                         70    0.2610 89.8  74 
 CRPR BN IS       1319 57.08                              70    1.0510 89.8  74 
 MLPR BZ IP       1319 45.94   37                         70    0.1110 93.4  77 
 MLPR BN IS       1319 55.48                              70   -1.5010 93.4  77 
 PCDR BZ IP       1319 46.87                              70    0.7410 95.3 328 
 PCDR BN IS       1319 57.49                              70   -0.0010 95.3 328 
 SADR BZ IP       1319 46.58   22                         70   -0.7310  103 296 
 HIDR BZ IP       1319 50.48   30                         70    0.0110  124 316 
 HIDR BN IS       1320  4.61                              70   -0.4410  124 316 
 AOPR BZ IP       1319 51.53   43                         50   -0.8710  137  63 
 AOPR BN IS       1320  9.06                              50    0.6610  137  63 
 MIDR HZ IP       1319 57.14   31                         50   -0.5610  180 318 
 MIDR BN  IAML    1320 17.95        26.4 0.38                           180 318 
 HMDR BZ IP       1319 59.38   38                         50    0.1510  192 306 
 HMDR BN  IAML    1320 22.03        15.0 2.00                           192 306 
 NAVI BZ IP       1320  8.75   37                         50    1.0810  259 300 
 BADR BZ IP       1320  8.15   30                         50   -0.7210  269 285 
 PODR BZ IP       1320 20.89                              49    0.7510  360 277 
                                                                                
