 2020 11 2 2357 40.50L  20.467 -70.983  0.0  DOM  6 0.5 2.4LDOM 2.7CDOM 2.7WDOM1
 SPEC AVERAGE  MO 13.1 ST  3.6 OM  2.1 f0 4.99 R0.5304 AL 0.00 WI 20.0 MW  2.7 3
 SPEC SD       MO  0.4 ST  4.7 OM  0.8 f0 2.93 R0.3675 AL      WI      MW  0.3 3
 GAP=288        1.28       7.7     4.8  6.0 -0.4752E+01 -0.5233E+01 -0.1520E+02E
 SPEC REDRBH N MO 13.2 ST 10.2 OM  1.6 f0 8.76 R0.1901 AL-0.00 WI 20.0 MW  2.7 3
 SPEC REDRBH N T235821 K 0.020 GD  123 VS 4.50 DE 3.40 Q0400.0 QA 0.70 Q1 1.00 3
 SPEC SDDRBH N MO 13.5 ST0.130 OM  1.9 f0 1.60 R1.0406 AL-0.00 WI 20.0 MW  3.0 3
 SPEC SDDRBH N T235826 K 0.020 GD  129 VS 4.50 DE 3.40 Q0400.0 QA 0.70 Q1 1.00 3
 SPEC HMDRBH N MO 12.6 ST0.384 OM  0.9 f0 4.62 R0.3604 AL-0.00 WI 20.0 MW  2.4 3
 SPEC HMDRBH N T235843 K 0.020 GD  158 VS 4.50 DE 3.40 Q0400.0 QA 0.70 Q1 1.00 3
 2020-11-02-2357-00S.MAN___111                                                 6
 OLDACT:ARG 20-11-06 10:18 OP:njm  STATUS:               ID:20201102235701d    3
 ACTION:UP  22-01-07 19:21 OP:jmlc STATUS:               ID:20201102235740 L   I
 OLDACT:UP  21-12-14 19:38 OP:AMMR STATUS:               ID:20201102235701d    3
 OLDACT:UP  21-12-14 19:37 OP:AMMR STATUS:               ID:20201102235701d    3
 OLDACT:UP  21-11-11 20:32 OP:AMMR STATUS:               ID:20201102235701d    3
 OLDACT:UP  21-11-11 20:32 OP:AMMR STATUS:               ID:20201102235701d    3
 OLDACT:UP  21-11-11 20:31 OP:AMMR STATUS:               ID:20201102235701d    3
 STAT SP IPHASW D HRMM SECON CODA AMPLIT PERI AZIMU VELO AIN AR TRES W  DIS CAZ7
 SFDR BN ESg      2358 23.48                              90    0.3510  152 149 
 REDR BZ EPg    C 2358  5.37   31                         90    0.3610  152 210 
 SFDR BE  IAML    2358 24.43        88.3 0.09                           152 149 
 REDR BN ESg      2358 22.84                              90   -0.2810  152 210 
 REDR BN  IAML    2358 26.79        57.4 0.25                           152 210 
 SDDR BZ EPg      2358  7.14   36                         90   -0.4410  168 191 
 SDDR BN ESg    C 2358 28.08                              90    0.4810  168 191 
 SDDR BN  IAML    2358 28.11        37.9 0.45                           168 191 
 ABDR BZ EPg      2358  9.75                              91   -0.9410  187 168 
 ABDR BN  IAML    2358 37.16        29.9 1.25                           187 168 
 JIDR BZ IP       2358 16.07                              50    0.7510  237 203 
 JIDR BE IS       2358 40.77                              50   -0.3010  237 203 
 JIDR BE  IAML    2358 47.92        26.2 0.12                           237 203 
 HMDR BZ IP       2358 17.22                              50    0.1510  251 138 
 HMDR BN IS       2358 43.98                              50   -0.1310  251 138 
                                                                                
 2020 11 3 0026  6.80L  19.702 -71.336182.4  DOM  5 0.6 2.4LDOM 2.9CDOM 2.6WDOM1
 SPEC AVERAGE  MO 12.9 ST  1.8 OM  1.8 f0 4.48 R0.4511 AL 0.00 WI 20.0 MW  2.6 3
 SPEC SD       MO  0.3 ST  2.3 OM  0.8 f0 1.92 R0.2039 AL      WI      MW  0.2 3
 GAP=147        1.45       7.4    11.0 14.7  0.2871E+02 -0.8249E+02 -0.3604E+02E
 SPEC REDRBH N MO 13.2 ST  5.0 OM  1.4 f0 6.95 R0.2369 AL-0.00 WI 20.0 MW  2.7 3
 SPEC REDRBH N T 02646 K 0.020 GD  192 VS 4.45 DE 3.40 Q0400.0 QA 0.70 Q1 0.00 3
 SPEC SDDRBH N MO 13.1 ST0.144 OM  1.3 f0 2.27 R0.7253 AL-0.00 WI 20.0 MW  2.7 3
 SPEC SDDRBH N T 02648 K 0.020 GD  199 VS 4.45 DE 3.40 Q0400.0 QA 0.70 Q1 0.00 3
 SPEC HMDRBH N MO 12.6 ST0.269 OM  0.6 f0 4.21 R0.3911 AL-0.00 WI 20.0 MW  2.3 3
 SPEC HMDRBH N T 027 8 K 0.020 GD  292 VS 4.45 DE 3.40 Q0400.0 QA 0.70 Q1 0.00 3
 LOCALITY: 7.7 Km al ENE de Guayubin, Montecristi.                             3
 2020-11-03-0026-00S.MAN___111                                                 6
 OLDACT:ARG 20-11-03 05:29 OP:cgrs STATUS:               ID:20201103002600     3
 OLDACT:UP  20-11-03 05:41 OP:CGRS STATUS:               ID:20201103002600     3
 ACTION:UP  22-01-07 19:21 OP:jmlc STATUS:               ID:20201103002606 L   I
 OLDACT:UP  21-12-20 13:57 OP:AMMR STATUS:               ID:20201103002600     3
 OLDACT:UP  21-12-20 13:54 OP:AMMR STATUS:               ID:20201103002600     3
 OLDACT:UP  21-12-20 13:53 OP:AMMR STATUS:               ID:20201103002600     3
 OLDACT:UP  21-12-20 13:53 OP:AMMR STATUS:               ID:20201103002600     3
 OLDACT:UP  20-11-03 05:41 OP:CGRS STATUS:               ID:20201103002600     3
 STAT SP IPHASW D HRMM SECON CODA AMPLIT PERI AZIMU VELO AIN AR TRES W  DIS CAZ7
 REDR BZ EPg       026 30.74   42                        161   -0.1010 60.8 219 
 REDR BN ESg    D  026 47.96                             161   -0.6810 60.8 219 
 SDDR BN ESg       026 51.08                             155    0.9910 80.1 177 
 ABDR BZ EPg       026 35.23   35                        144    0.6410  124 143 
 ABDR BE ESg       026 54.60                             144   -0.5810  124 143 
 GRTK BN ESg       027  5.52                             130    0.1010  201   6 
 HMDR BZ EPg       026 42.62                             126   -0.5010  229 116 
 HMDR BN ESg    C  027 10.15                             126    0.1310  229 116 
 HMDR BN  IAML     027 21.75        17.6 3.30                           229 116 
                                                                                
 2020 11 3 0441  1.80L  18.864 -70.353 86.8  DOM 14 0.8 2.6LDOM 3.0CDOM 2.9WDOM1
 SPEC AVERAGE  MO 13.5 ST 20.1 OM  2.0 f0 5.53 R0.4057 AL 0.00 WI 20.0 MW  2.9 3
 SPEC SD       MO  0.3 ST 48.8 OM  0.4 f0 3.70 R0.1938 AL      WI      MW  0.2 3
 GAP= 98        2.14       6.8     4.6 10.2  0.1108E+02 -0.1240E+02 -0.1208E+02E
 SPEC ABDRBH N MO 13.7 ST  6.6 OM  2.2 f0 5.27 R0.3152 AL-0.00 WI 20.0 MW  3.1 3
 SPEC ABDRBH N T 44121 K 0.020 GD 91.6 VS 4.49 DE 3.40 Q0400.0 QA 0.70 Q1 0.00 3
 SPEC BADRBH N MO 13.8 ST 17.3 OM  2.3 f0 6.52 R0.2548 AL-0.00 WI 20.0 MW  3.2 3
 SPEC BADRBH N T 44124 K 0.020 GD  100 VS 4.49 DE 3.40 Q0400.0 QA 0.70 Q1 0.00 3
 SPEC SC01BH N MO 13.6 ST  8.5 OM  2.0 f0 6.22 R0.2671 AL-0.00 WI 20.0 MW  3.0 3
 SPEC SC01BH N T 44127 K 0.020 GD  113 VS 4.49 DE 3.40 Q0400.0 QA 0.70 Q1 0.00 3
 SPEC SDDRBH N MO 13.6 ST0.412 OM  2.0 f0 2.16 R0.7691 AL-0.00 WI 20.0 MW  3.0 3
 SPEC SDDRBH N T 44130 K 0.020 GD  132 VS 4.49 DE 3.40 Q0400.0 QA 0.70 Q1 0.00 3
 SPEC MADRBH N MO 13.9 ST 10.2 OM  2.2 f0 5.28 R0.3146 AL-0.00 WI 20.0 MW  3.2 3
 SPEC MADRBH N T 44133 K 0.020 GD  140 VS 4.49 DE 3.40 Q0400.0 QA 0.70 Q1 0.00 3
 SPEC PODRBH N MO 13.7 ST0.926 OM  2.0 f0 2.70 R0.6153 AL-0.00 WI 20.0 MW  3.1 3
 SPEC PODRBH N T 44136 K 0.020 GD  152 VS 4.49 DE 3.40 Q0400.0 QA 0.70 Q1 0.00 3
 SPEC NEDRBH N MO 12.7 ST  1.7 OM  1.0 f0 7.19 R0.2311 AL-0.00 WI 20.0 MW  2.4 3
 SPEC NEDRBH N T 44134 K 0.020 GD  152 VS 4.49 DE 3.40 Q0400.0 QA 0.70 Q1 0.00 3
 SPEC SMDRBH N MO 13.5 ST  1.1 OM  1.8 f0 3.34 R0.4974 AL-0.00 WI 20.0 MW  2.9 3
 SPEC SMDRBH N T 44136 K 0.020 GD  157 VS 4.49 DE 3.40 Q0400.0 QA 0.70 Q1 0.00 3
 SPEC REDRBH N MO 13.6 ST173.5 OM  1.9 f0 16.0 R0.1038 AL-0.00 WI 20.0 MW  3.0 3
 SPEC REDRBH N T 44140 K 0.020 GD  172 VS 4.49 DE 3.40 Q0400.0 QA 0.70 Q1 0.00 3
 SPEC JIDRBH N MO 13.0 ST0.373 OM  1.2 f0 3.45 R0.4815 AL-0.00 WI 20.0 MW  2.6 3
 SPEC JIDRBH N T 44143 K 0.020 GD  185 VS 4.49 DE 3.40 Q0400.0 QA 0.70 Q1 0.00 3
 SPEC SADRBH N MO 13.4 ST0.494 OM  1.6 f0 2.71 R0.6130 AL-0.00 WI 20.0 MW  2.9 3
 SPEC SADRBH N T 44146 K 0.020 GD  201 VS 4.49 DE 3.40 Q0400.0 QA 0.70 Q1 0.00 3
 LOCALITY: 9.5 Km al OSO de Maimon. Monseor Nouel.                            3
 2020-11-03-0440-00S.MAN___111                                                 6
 OLDACT:ARG 20-11-03 05:07 OP:cgrs STATUS:               ID:20201103044000     3
 OLDACT:UP  20-11-03 05:14 OP:CGRS STATUS:               ID:20201103044000     3
 ACTION:UP  22-01-07 19:21 OP:jmlc STATUS:               ID:20201103044101 L   I
 STAT SP IPHASW D HRMM SECON CODA AMPLIT PERI AZIMU VELO AIN AR TRES W  DIS CAZ7
 ABDR BZ EPg    D  441 13.24   27                        160   -1.1210 29.4 259 
 ABDR BN ESg    D  441 23.03                             160   -0.6310 29.4 259 
 ABDR BN  IAML     441 24.23       221.0 0.25                          29.4 259 
 BADR BZ EPg    C  441 14.90   33                        146   -0.3810 51.5 181 
 BADR BN ESg    D  441 26.30                             146    1.0410 51.5 181 
 BADR BN  IAML     441 28.50       280.8 0.20                          51.5 181 
 SDD  BZ EPg    C  441 14.53   35                        139   -1.4910 63.8 134 
 SDD  BN ESg    D  441 25.63                             139   -0.9110 63.8 134 
 SDD  BN  IAML     441 25.93        53.6 1.00                          63.8 134 
 SC01 BZ EPg    C  441 17.23   42                        135    0.3910 73.8 328 
 SC01 BN ESg    C  441 28.95                             135    0.9810 73.8 328 
 SC01 BN  IAML     441 30.97       215.1 0.35                          73.8 328 
 SDDR BZ EPg    D  441 18.92   37                        125   -0.3110 99.6 278 
 SDDR BN ESg    D  441 32.37                             125    0.2410 99.6 278 
 SDDR BN  IAML     441 37.92        78.6 0.70                          99.6 278 
 MADR BZ EPg       441 19.77   47                        121   -0.4910  111 315 
 MADR BN ESg    D  441 34.64                             121    0.7210  111 315 
 MADR BN  IAML     441 37.34       201.8 0.40                           111 315 
 PODR BN  IAML     441 43.93        46.0 0.55                           125 232 
 NEDR BN  IAML     441 49.75        41.7 2.55                           125 250 
 PODR BZ EPg    C  441 21.69   50                        118   -0.2210  125 232 
 PODR BN ESg    D  441 38.30                             118    1.5110  125 232 
 NEDR BZ EPg    D  441 20.80   60                        117   -0.9210  125 250 
 NEDR BN ESg    D  441 36.40                             117   -0.0710  125 250 
 LUDR BZ EPg       441 21.63   41                        116   -0.6510  130 331 
 SMDR BZ EPg    C  441 21.85   39                        116   -0.5410  131  69 
 SMDR BN  IAML     441 41.34       101.2 0.25                           131  69 
 REDR BZ EPg    D  441 23.64   51                        112   -0.7610  149 288 
 REDR BN ESg    C  441 41.98                             112    0.8610  149 288 
 REDR BN  IAML     441 46.35       148.1 0.20                           149 288 
 JIDR BZ EPg    D  441 25.94   56                        109    0.0310  164 256 
 JIDR BN  IAML     442 19.82        26.0 2.10                           164 256 
 SADR BZ EPg    C  441 28.15   66                        106    0.1810  182 114 
 SADR BN ESg    D  441 48.02                             106    0.6810  182 114 
 SADR BN  IAML     442 25.07        99.7 1.40                           182 114 
 PCDR BZ EPg    C  441 32.24   55                        102    0.8910  212 100 
 PCDR BN ESg    C  441 54.20                             102    0.9810  212 100 
 PCDR BN  IAML     442 21.60        98.6 1.45                           212 100 
                                                                                
 2020 11 3 2244 12.30L  18.179 -71.762 30.7  DOM  4 0.2 1.7LDOM 2.3CDOM 2.3WDOM1
 SPEC AVERAGE  MO 12.6 ST  2.6 OM  3.4 f0 8.85 R0.1881 AL 0.00 WI 20.0 MW  2.3 3
 SPEC SD       MO  0.0 ST0.000 OM  2.0 f00.000 R0.0000 AL      WI      MW  0.0 3
 GAP=302        0.48       4.4     6.4  5.9  0.1333E+02 -0.2176E+02 -0.7824E+01E
 SPEC JIDRBH N MO 12.6 ST  2.6 OM  1.4 f0 8.85 R0.1881 AL-0.00 WI 20.0 MW  2.3 3
 SPEC JIDRBH N T224423 K 0.020 GD 47.4 VS 4.50 DE 3.40 Q0400.0 QA 0.70 Q1 0.00 3
 SPEC NEDRBH N T224425 K 0.020 GD 54.7 VS 4.50 DE 3.40 Q0400.0 QA 0.70 Q1 0.00 3
 SPEC REDRBH N MO 12.9 ST0.335 OM  1.3 f0 3.52 R0.4730 AL-0.00 WI 20.0 MW  2.5 3
 SPEC REDRBH N T224443 K 0.020 GD  124 VS 4.50 DE 3.40 Q0400.0 QA 0.70 Q1 0.00 3
 LOCALITY: 16.1 Km al Norte de Pedernales. Pedernales.                         3
 2020-11-03-2243-00S.MAN___111                                                 6
 OLDACT:ARG 20-11-03 22:50 OP:AMMR STATUS:               ID:20201103224300     3
 OLDACT:UP  20-11-03 22:54 OP:AMMR STATUS:               ID:20201103224300     3
 ACTION:UP  22-01-07 19:21 OP:jmlc STATUS:               ID:20201103224412 L   I
 OLDACT:UP  21-12-20 14:00 OP:AMMR STATUS:               ID:20201103224300     3
 OLDACT:UP  20-11-03 22:55 OP:AMMR STATUS:               ID:20201103224300     3
 STAT SP IPHASW D HRMM SECON CODA AMPLIT PERI AZIMU VELO AIN AR TRES W  DIS CAZ7
 JIDR BZ EPg      2244 19.30   17                        125   -0.2110 36.1 344 
 JIDR BE ESg      2244 24.96                             125    0.1210 36.1 344 
 JIDR BE  IAML    2244 25.30       129.3 0.55                          36.1 344 
 JIDR BN  IAML    2244 27.37        52.4 0.06                          36.1 344 
 NEDR BZ EPg      2244 20.67   25                        118    0.0010 45.8  43 
 NEDR BE  IAML    2244 27.54        69.5 0.30                          45.8  43 
 NEDR BN  IAML    2244 27.88        69.5 0.40                          45.8  43 
 PODR BN  IAML    2244 36.68        67.7 0.33                          50.8  92 
 REDR BZ EPg      2244 31.27   33                         96    0.2110  122   3 
 REDR BN ESg      2244 44.82                              96   -0.1210  122   3 
 REDR BE  IAML    2244 44.92         9.4 0.29                           122   3 
 REDR BN  IAML    2244 47.87        22.1 0.20                           122   3 
                                                                                
 2020 11 4 0152 28.50L  18.537 -71.255  0.4  DOM  3 0.2 2.0LDOM 2.0CDOM 2.0WDOM1
 SPEC AVERAGE  MO 12.1 ST  1.4 OM  3.2 f0 7.64 R0.1555 AL 0.00 WI 20.0 MW  2.0 3
 SPEC SD       MO  0.1 ST0.171 OM  1.7 f00.475 R0.0097 AL      WI      MW  0.1 3
 GAP=278        0.59      48.0     7.4866.9  0.3159E+03 -0.5409E+04 -0.4116E+05E
 SPEC NEDRBH N MO 12.2 ST  1.6 OM  1.9 f0 7.17 R0.1651 AL-0.00 WI 20.0 MW  2.1 3
 SPEC NEDRBH N T 15233 K 0.020 GD 23.3 VS 3.20 DE 2.60 Q0400.0 QA 0.70 Q1 0.00 3
 SPEC JIDRBH N MO 12.0 ST  1.3 OM  1.2 f0 8.12 R0.1458 AL-0.00 WI 20.0 MW  1.9 3
 SPEC JIDRBH N T 15244 K 0.020 GD 63.4 VS 3.20 DE 2.60 Q0400.0 QA 0.70 Q1 0.00 3
 LOCALITY: 10.6 Km al ENE de Galvan, Bahoruco.                                 3
 2020-11-04-0152-00S.MAN___111                                                 6
 OLDACT:ARG 20-11-04 02:22 OP:cgrs STATUS:               ID:20201104015200     3
 OLDACT:UP  20-11-04 02:43 OP:CGRS STATUS:               ID:20201104015200     3
 ACTION:UP  22-01-07 19:21 OP:jmlc STATUS:               ID:20201104015228 L   I
 OLDACT:UP  20-11-04 02:43 OP:CGRS STATUS:               ID:20201104015200     3
 STAT SP IPHASW D HRMM SECON CODA AMPLIT PERI AZIMU VELO AIN AR TRES W  DIS CAZ7
 NEDR BZ EPg       152 31.87   15                         91   -0.3610 23.3 255 
 NEDR BN  IAML     152 34.93       355.9 0.30                          23.3 255 
 NEDR BN ESg    D  152 34.94                              91   -0.0710 23.3 255 
 PODR BZ EPg       152 35.20   17                         93    0.0810 41.1 184 
 PODR BN  IAML     152 41.39       174.8 0.15                          41.1 184 
 JIDR BZ EPg    C  152 38.94   21                         90    0.2410 63.4 266 
 JIDR BN ESg    D  152 46.39                              90    0.1210 63.4 266 
                                                                                
 2020 11 4 0220 10.20L  18.948 -68.262 18.0  DOM 10 0.8 2.2LDOM 2.7CDOM 2.5WDOM1
 SPEC AVERAGE  MO 12.8 ST  1.7 OM  1.7 f0 5.80 R0.2883 AL 0.00 WI 20.0 MW  2.5 3
 SPEC SD       MO  0.6 ST  4.0 OM  0.7 f00.662 R0.0316 AL      WI      MW  0.4 3
 GAP=181        2.22      10.5     7.0 35.0  0.4430E+02 -0.1751E+03 -0.2606E+03E
 SPEC AGPRBH N MO 13.1 ST  1.6 OM  1.5 f0 5.00 R0.3308 AL-0.00 WI 20.0 MW  2.7 3
 SPEC AGPRBH N T 22047 K 0.020 GD  134 VS 4.47 DE 3.40 Q0400.0 QA 0.70 Q1 0.00 3
 SPEC CRPRBH N MO 12.8 ST  1.1 OM  1.1 f0 5.61 R0.2948 AL-0.00 WI 20.0 MW  2.5 3
 SPEC CRPRBH N T 22057 K 0.020 GD  162 VS 4.47 DE 3.40 Q0400.0 QA 0.70 Q1 0.00 3
 SPEC AOPRBH N MO 13.3 ST  4.4 OM  1.6 f0 5.90 R0.2803 AL-0.00 WI 20.0 MW  2.8 3
 SPEC AOPRBH N T 22055 K 0.020 GD  173 VS 4.47 DE 3.40 Q0400.0 QA 0.70 Q1 0.00 3
 SPEC MLPRBH N MO 12.2 ST0.545 OM  0.5 f0 6.91 R0.2393 AL-0.00 WI 20.0 MW  2.1 3
 SPEC MLPRBH N T 22055 K 0.020 GD  168 VS 4.47 DE 3.40 Q0400.0 QA 0.70 Q1 0.00 3
 SPEC NAVIBH N MO 14.6 ST999.0 OM  2.8 f0 16.0 R 0.103 AL-0.00 WI 20.0 MW  3.7 3
 SPEC NAVIBH N T 22057 K 0.020 GD21.40 VS 4.47 DE 3.40 Q0400.0 QA 0.70 Q1      3
 SPEC CELPBH N MO 12.6 ST0.691 OM  0.8 f0 5.58 R0.2964 AL-0.00 WI 20.0 MW  2.4 3
 SPEC CELPBH N T 221 3 K 0.020 GD  203 VS 4.47 DE 3.40 Q0400.0 QA 0.70 Q1 0.00 3
 LOCALITY: 86.0 Km al ENE de Miches. Oceano Atlantico.                         3
 2020-11-04-0219-00S.MAN___111                                                 6
 OLDACT:ARG 20-11-04 03:15 OP:cgrs STATUS:               ID:20201104021900     3
 OLDACT:UP  20-11-04 03:23 OP:CGRS STATUS:               ID:20201104021900     3
 ACTION:UP  22-01-07 19:21 OP:jmlc STATUS:               ID:20201104022010 L   I
 OLDACT:UP  21-12-20 14:23 OP:AMMR STATUS:               ID:20201104021900     3
 OLDACT:UP  21-12-20 14:22 OP:AMMR STATUS:               ID:20201104021900     3
 OLDACT:UP  21-12-20 14:20 OP:AMMR STATUS:               ID:20201104021900     3
 OLDACT:UP  21-12-20 14:12 OP:AMMR STATUS:               ID:20201104021900     3
 OLDACT:UP  20-11-04 03:24 OP:CGRS STATUS:               ID:20201104021900     3
 STAT SP IPHASW D HRMM SECON CODA AMPLIT PERI AZIMU VELO AIN AR TRES W  DIS CAZ7
 PCDR BZ EPg       220 18.27   19                        104   -0.2310 49.7 195 
 PCDR BN ESg    C  220 25.39                             104    0.7210 49.7 195 
 HGY1 HE EPg       220 19.44   18                        100   -0.8810 62.0 231 
 SADR BN ESg       220 37.68                              95   -0.0610 99.9 213 
 SMDR BZ EPg       220 25.79   27                         95   -0.9210  105 291 
 SMDR BN ESg       220 40.09                              95    1.1410  105 291 
 AGPR BZ EPg       220 31.23   37                         93    0.2810  133 113 
 PRSN BZ EPg    D  220 34.09   36                         93    1.5610  143 124 
 PRSN BN  IAML     221  2.84        48.5 0.28                           143 124 
 CRPR BZ EPg       220 34.40   42                         93   -1.0010  162 130 
 MLPR BZ EPg       220 35.11   43                         93   -1.2310  168 130 
 AOPR BZ EPg    C  220 37.44   48                         92    0.4210  173 112 
 AOPR BN ESg    D  220 57.36                              92    0.4810  173 112 
 AOPR BN  IAML     221  5.46        30.5 0.28                           173 112 
 CELP BZ EPg       220 41.28   42                         92   -0.2810  203 118 
                                                                                
