 2020  1 2 0558 25.40L  19.105 -67.602 11.2  DOM  7 0.8 3.0LDOM 3.5CDOM 3.1WDOM1
 SPEC AVERAGE  MO 13.7 ST  6.5 OM  2.9 f0 3.78 R0.3917 AL 0.00 WI 20.0 MW  3.1 3
 SPEC SD       MO  0.3 ST  4.9 OM  0.5 f0 1.00 R0.1276 AL      WI      MW  0.2 3
 GAP=228        2.12      14.9     6.1114.1  0.7016E+02 -0.1946E+03 -0.1039E+04E
 SPEC AGPRBH N MO 13.8 ST 13.3 OM  2.7 f0 4.91 R0.2766 AL-0.00 WI 20.0 MW  3.1 3
 SPEC AGPRBH N T 55848 K 0.020 GD 88.0 VS 3.67 DE 2.80 Q0400.0 QA 0.70 Q1 0.00 3
 SPEC AOPRBH N MO 14.0 ST 11.6 OM  2.8 f0 3.98 R0.3412 AL-0.00 WI 20.0 MW  3.3 3
 SPEC AOPRBH N T 55858 K 0.020 GD  114 VS 3.67 DE 2.80 Q0400.0 QA 0.70 Q1 0.00 3
 SPEC HIDRBH N MO 13.7 ST 11.3 OM  2.5 f0 4.91 R0.2766 AL-0.00 WI 20.0 MW  3.1 3
 SPEC HIDRBH N T 55859 K 0.020 GD  118 VS 3.67 DE 2.80 Q0400.0 QA 0.70 Q1 0.00 3
 SPEC CRPRBH N MO 14.1 ST  2.2 OM  2.9 f0 2.08 R0.6528 AL-0.00 WI 20.0 MW  3.4 3
 SPEC CRPRBH N T 559 1 K 0.020 GD  120 VS 3.67 DE 2.80 Q0400.0 QA 0.70 Q1 0.00 3
 SPEC MLPRBH N MO 13.4 ST  1.6 OM  2.1 f0 3.43 R0.3959 AL-0.00 WI 20.0 MW  2.8 3
 SPEC MLPRBH N T 559 3 K 0.020 GD  124 VS 3.67 DE 2.80 Q0400.0 QA 0.70 Q1 0.00 3
 SPEC MIDRHH N MO 13.4 ST  3.6 OM  2.1 f0 4.40 R0.3086 AL-0.00 WI 20.0 MW  2.9 3
 SPEC MIDRHH N T 559 8 K 0.020 GD  132 VS 3.67 DE 2.80 Q0400.0 QA 0.70 Q1 0.00 3
 SPEC HMDRBH N MO 13.6 ST  1.7 OM  2.3 f0 2.77 R0.4902 AL-0.00 WI 20.0 MW  3.0 3
 SPEC HMDRBH N T 55917 K 0.020 GD  154 VS 3.67 DE 2.80 Q0400.0 QA 0.70 Q1 0.00 3
 LOCALITY: 156.2 Km al Este de Miches, Oceano Atlantico.                       3
 2020-01-02-0558-00S.MAN___144                                                 6
 OLDACT:ARG 20-01-02 10:50 OP:nr   STATUS:               ID:20200102055800     3
 OLDACT:UP  20-01-02 11:06 OP:AMMR STATUS:               ID:20200102055800     3
 OLDACT:UP  20-01-02 11:06 OP:AMMR STATUS:               ID:20200102055800     3
 ACTION:UP  21-12-07 16:32 OP:JMLC STATUS:               ID:20200102055824 L   I
 OLDACT:UP  21-05-05 16:10 OP:JMLC STATUS:               ID:20200102055824 L   3
 OLDACT:UP  20-04-19 16:56 OP:JMLC STATUS:               ID:20200102055824 L   3
 STAT SP IPHASW D HRMM SECON CODA AMPLIT PERI AZIMU VELO AIN AR TRES W  DIS CAZ7
 AGPR BZ EPg    D  558 39.71   61                         97    0.1610 87.3 143 
 AGPR BE ESg    D  558 50.10                              97    0.0410 87.3 143 
 AGPR BN  IAML     558 50.53       833.4 0.25                          87.3 143 
 AOPR BZ EPg    D  558 44.84   90                         95   -0.3810  123 133 
 AOPR BE ESg    C  559  0.19                              95    0.2710  123 133 
 AOPR BN  IAML     559  4.54       514.1 0.25                           123 133 
 HIDR BZ EPg    C  558 45.42   89                         95   -1.0310  130 244 
 HIDR BE ESg    C  559  0.88                              95   -1.1910  130 244 
 HIDR BN  IAML     559  8.83       343.6 0.25                           130 244 
 CRPR BZ EPg    C  558 47.46   74                         95    0.5710  133 156 
 CRPR BE ESg    C  559  2.80                              95   -0.0310  133 156 
 CRPR BN  IAML     559  6.43       629.8 0.50                           133 156 
 MLPR BZ EPg    C  558 46.55   59                         95   -1.2510  139 155 
 MLPR BE ESg    C  559  5.29                              95    0.8710  139 155 
 MLPR BN  IAML     559  6.22       194.9 0.35                           139 155 
 MIDR HZ EPg    C  558 49.58   67                         94   -0.5210  153 265 
 MIDR HE ESg    C  559 10.05                              94    1.6410  153 265 
 MIDR BN  IAML     559 12.84       154.1 0.20                           153 265 
 HMDR BZ EPg    C  558 56.79   78                         93    0.6310  191 260 
 HMDR BE ESg    C  559 19.17                              93    0.2210  191 260 
 HMDR BN  IAML     559 23.69       133.4 0.35                           191 260 
                                                                                
 2020  1 2 0605 42.10L  18.890 -67.640  0.1  DOM 21 0.8 3.4LDOM 3.2CDOM 3.2WDOM1
 SPEC AVERAGE  MO 13.9 ST 12.7 OM  3.4 f0 3.36 R0.4234 AL 0.00 WI 20.0 MW  3.2 3
 SPEC SD       MO  0.2 ST 13.9 OM  0.4 f0 1.53 R0.1695 AL      WI      MW  0.1 3
 GAP=188        2.09       9.9     4.0 11.0  0.2628E+02 -0.1321E+02 -0.8255E+02E
 SPEC AGPRBH N MO 13.8 ST 39.9 OM  3.0 f0 6.15 R0.1925 AL-0.00 WI 20.0 MW  3.2 3
 SPEC AGPRBH N T 6 6 2 K 0.020 GD 72.6 VS 3.20 DE 2.60 Q0400.0 QA 0.70 Q1 0.00 3
 SPEC AOPRBH N MO 13.9 ST 27.5 OM  2.9 f0 5.18 R0.2286 AL-0.00 WI 20.0 MW  3.2 3
 SPEC AOPRBH N T 6 612 K 0.020 GD  105 VS 3.20 DE 2.60 Q0400.0 QA 0.70 Q1 0.00 3
 SPEC HIDRBH N MO 14.1 ST  8.7 OM  3.1 f0 3.00 R0.3947 AL-0.00 WI 20.0 MW  3.3 3
 SPEC HIDRBH N T 6 613 K 0.020 GD  108 VS 3.20 DE 2.60 Q0400.0 QA 0.70 Q1 0.00 3
 SPEC CRPRBH N MO 14.2 ST  6.5 OM  3.2 f0 2.53 R0.4680 AL-0.00 WI 20.0 MW  3.4 3
 SPEC CRPRBH N T 6 617 K 0.020 GD  106 VS 3.20 DE 2.60 Q0400.0 QA 0.70 Q1 0.00 3
 SPEC MLPRBH N MO 13.6 ST  2.3 OM  2.6 f0 2.80 R0.4229 AL-0.00 WI 20.0 MW  3.0 3
 SPEC MLPRBH N T 6 617 K 0.020 GD  109 VS 3.20 DE 2.60 Q0400.0 QA 0.70 Q1 0.00 3
 SPEC MIDRHH N MO 13.9 ST  2.7 OM  2.9 f0 2.27 R0.5216 AL-0.00 WI 20.0 MW  3.2 3
 SPEC MIDRHH N T 6 622 K 0.020 GD  122 VS 3.20 DE 2.60 Q0400.0 QA 0.70 Q1 0.00 3
 SPEC HMDRBH N MO 14.1 ST  1.3 OM  3.0 f0 1.61 R0.7354 AL-0.00 WI 20.0 MW  3.3 3
 SPEC HMDRBH N T 6 631 K 0.020 GD  135 VS 3.20 DE 2.60 Q0400.0 QA 0.70 Q1 0.00 3
 LOCALITY: 152.5 Km al Este de Miches, Oceano Atlantico.                       3
 2020-01-02-0605-00S.MAN___144                                                 6
 OLDACT:ARG 20-01-02 10:50 OP:nr   STATUS:               ID:20200102060500     3
 OLDACT:UP  20-01-02 11:16 OP:AMMR STATUS:               ID:20200102060500     3
 ACTION:UP  21-12-07 16:32 OP:JMLC STATUS:               ID:20200102060540 L   I
 OLDACT:UP  21-12-01 15:38 OP:JAAF STATUS:               ID:20200102060540 L   3
 OLDACT:UP  21-05-05 16:39 OP:JMLC STATUS:               ID:20200102060540 L   3
 OLDACT:UP  20-04-19 16:56 OP:JMLC STATUS:               ID:20200102060540 L   3
 STAT SP IPHASW D HRMM SECON CODA AMPLIT PERI AZIMU VELO AIN AR TRES W  DIS CAZ7
 PRSN BZ IP        6 5 57.13   41                         90                    
 AGPR BZ IP        6 5 53.90   28                         90    0.1110 72.6 130 
 AGPR BE IS        6 6  2.52                              90    0.0610 72.6 130 
 AGPR BN  IAML     6 6  4.79      2208.0 0.30                          72.6 130 
 PCDR HZ IP        6 5 56.42   44                         90    0.0610 88.6 242 
 PCDR HE IS        6 6  7.27                              90    0.3410 88.6 242 
 AOPR BZ EPg    C  6 5 59.40   63                         90   -0.5910  111 123 
 AOPR BE ESg    C  6 6 13.87                              90    0.6110  111 123 
 AOPR BN  IAML     6 6 26.55       842.7 0.15                           111 123 
 CRPR BZ IP        6 6  0.32   50                         90   -0.0910  114 149 
 CRPR BE IS        6 6 13.33                              90   -0.6610  114 149 
 CRPR BN  IAML     6 6 20.08      1276.4 0.60                           114 149 
 HIDR BZ EPg    D  6 5 59.80   66                         90   -1.3210  118 254 
 HIDR BE ESg    C  6 6 15.16                              90   -0.0610  118 254 
 HIDR BN  IAML     6 6 21.19      1088.6 0.25                           118 254 
 MLPR BZ IP        6 6  2.22                              90    0.8410  120 148 
 MLPR BE IS        6 6 16.22                              90    0.5610  120 148 
 MLPR BN  IAML     6 6 20.46       400.4 0.40                           120 148 
 MIDR HZ IP        6 6  5.99   59                         50    0.0610  149 274 
 MIDR HE IS        6 6 24.26                              50    0.6710  149 274 
 MIDR BN  IAML     6 6 27.35       704.9 0.56                           149 274 
 SMDR BZ IP        6 6  7.27   65                         50   -1.1410  169 285 
 SJG  BZ IP        6 6  8.57   55                         50   -1.1910  179 118 
 HMDR BZ IP        6 6  9.51                              50   -0.8110  184 267 
 HMDR BE ESg    C  6 6 33.36                              90   -0.3110  184 267 
 HMDR BN  IAML     6 6 38.16       493.8 0.35                           184 267 
 NADR BZ IP        6 6 16.85                              50   -0.2610  239 283 
 SDD  BZ EPg       6 6 20.18                              90   -1.4010  245 259 
 NAVI BZ IP        6 6 20.03                              50    1.2610  252 272 
 CADR BZ IP        6 6 20.02   70                         50    0.7010  257 290 
 CADR BN IS        6 6 47.08                              50    0.2010  257 290 
 SC01 BZ IP        6 6 28.48                              49    0.0810  330 281 
 LUDR BZ IP        6 6 33.29                              49    0.6210  365 288 
 SDDR BZ IP        6 6 36.52                              49    1.4310  385 272 
 REDR BZ IP        6 6 40.52                              49   -0.0810  430 276 
 MCDR BZ IP        6 6 40.42                              49   -0.9310  436 285 
 JIDR BZ IP        6 6 43.84                              49    1.2310  447 265 
                                                                                
 2020  1 2 0615 25.10L  19.138 -67.572  3.9  DOM  6 0.8 3.4LDOM 3.4CDOM 3.2WDOM1
 SPEC AVERAGE  MO 13.9 ST 13.6 OM  3.4 f0 3.58 R0.3545 AL 0.00 WI 20.0 MW  3.2 3
 SPEC SD       MO  0.2 ST 11.6 OM  0.6 f00.910 R0.0957 AL      WI      MW  0.1 3
 GAP=231        2.17      18.0     6.6369.2  0.9209E+02 -0.7615E+03 -0.4469E+04E
 SPEC AGPRBH N MO 14.0 ST 34.6 OM  3.1 f0 5.08 R0.2331 AL-0.00 WI 20.0 MW  3.3 3
 SPEC AGPRBH N T 61548 K 0.020 GD 88.6 VS 3.20 DE 2.60 Q0400.0 QA 0.70 Q1 0.00 3
 SPEC AOPRBH N MO 14.0 ST 20.0 OM  3.0 f0 4.24 R0.2792 AL-0.00 WI 20.0 MW  3.3 3
 SPEC AOPRBH N T 61557 K 0.020 GD  110 VS 3.20 DE 2.60 Q0400.0 QA 0.70 Q1 0.00 3
 SPEC HIDRBH N MO 14.1 ST 16.7 OM  3.1 f0 3.64 R0.3253 AL-0.00 WI 20.0 MW  3.4 3
 SPEC HIDRBH N T 616 0 K 0.020 GD  116 VS 3.20 DE 2.60 Q0400.0 QA 0.70 Q1 0.00 3
 SPEC MLPRBH N MO 13.6 ST  3.0 OM  2.6 f0 2.99 R0.3960 AL-0.00 WI 20.0 MW  3.0 3
 SPEC MLPRBH N T 616 3 K 0.020 GD  118 VS 3.20 DE 2.60 Q0400.0 QA 0.70 Q1 0.00 3
 SPEC MIDRHH N MO 13.7 ST  5.3 OM  2.7 f0 3.29 R0.3599 AL-0.00 WI 20.0 MW  3.1 3
 SPEC MIDRHH N T 616 9 K 0.020 GD  124 VS 3.20 DE 2.60 Q0400.0 QA 0.70 Q1 0.00 3
 SPEC HMDRBH N MO 13.9 ST  2.3 OM  2.8 f0 2.22 R0.5333 AL-0.00 WI 20.0 MW  3.2 3
 SPEC HMDRBH N T 61617 K 0.020 GD  139 VS 3.20 DE 2.60 Q0400.0 QA 0.70 Q1 0.00 3
 LOCALITY: 160.0 Km al Este de Miches, Oceano Atlantico.                       3
 2020-01-02-0612-00S.MAN___144                                                 6
 OLDACT:ARG 20-01-02 10:50 OP:nr   STATUS:               ID:20200102061200     3
 OLDACT:UP  20-01-02 11:26 OP:AMMR STATUS:               ID:20200102061200     3
 ACTION:UP  21-12-07 16:32 OP:JMLC STATUS:               ID:20200102061524 L   I
 OLDACT:UP  20-04-19 16:56 OP:JMLC STATUS:               ID:20200102061524 L   3
 STAT SP IPHASW D HRMM SECON CODA AMPLIT PERI AZIMU VELO AIN AR TRES W  DIS CAZ7
 AGPR BZ EPg    C  615 39.85   65                         93    0.4810 88.5 147 
 AGPR BZ E      C  615 39.85                                           88.5 147 
 AGPR BE ESg    D  615 50.39                              93    0.4510 88.5 147 
 AGPR BN  IAML     615 50.64      2460.1 0.45                          88.5 147 
 AOPR BZ EPg    C  615 44.93   77                         92    0.0110  123 135 
 AOPR BE ESg    C  615 58.89                              92   -0.7110  123 135 
 AOPR BN  IAML     616  7.11      1209.0 0.30                           123 135 
 HIDR BZ EPg    C  615 45.70   63                         92   -1.1310  135 244 
 HIDR BE ESg    C  616  2.04                              92   -0.8810  135 244 
 HIDR BN  IAML     616  2.49      1118.5 0.75                           135 244 
 MLPR BZ EPg    C  615 47.39   60                         92   -0.4110  141 157 
 MLPR BE ESg    C  616  5.33                              92    0.7210  141 157 
 MLPR BN  IAML     616  6.58       436.5 0.35                           141 157 
 MIDR HZ EPg    C  615 50.00   67                         91   -0.3310  156 264 
 MIDR HE ESg    C  616 10.98                              91    1.9710  156 264 
 MIDR BN  IAML     616 12.65       404.7 0.82                           156 264 
 HMDR BZ EPg    C  615 56.76   87                         91    0.3210  194 259 
 HMDR BE ESg    C  616 19.16                              91   -0.4910  194 259 
 HMDR BN  IAML     616 21.64       358.7 0.95                           194 259 
                                                                                
 2020  1 2 0620 49.30L  19.158 -67.558 17.8  DOM  7 0.9 2.3LDOM 3.2CDOM 2.6WDOM1
 SPEC AVERAGE  MO 13.0 ST  6.8 OM  2.1 f0 6.57 R0.2604 AL 0.00 WI 20.0 MW  2.6 3
 SPEC SD       MO  0.2 ST  9.0 OM  0.6 f0 2.42 R0.0797 AL      WI      MW  0.1 3
 GAP=233        2.52      17.8     7.7166.7  0.1006E+03 -0.2157E+03 -0.1695E+04E
 SPEC AGPRBH N MO 13.2 ST 26.3 OM  1.9 f0 10.9 R0.1395 AL-0.00 WI 20.0 MW  2.8 3
 SPEC AGPRBH N T 62112 K 0.020 GD 91.4 VS 4.11 DE 3.08 Q0400.0 QA 0.70 Q1 0.00 3
 SPEC HIDRBH N MO 13.0 ST  7.9 OM  1.5 f0 8.63 R0.1762 AL-0.00 WI 20.0 MW  2.6 3
 SPEC HIDRBH N T 62123 K 0.020 GD  138 VS 4.11 DE 3.08 Q0400.0 QA 0.70 Q1 0.00 3
 SPEC CRPRBH N MO 13.4 ST  2.6 OM  1.9 f0 4.37 R0.3480 AL-0.00 WI 20.0 MW  2.9 3
 SPEC CRPRBH N T 62125 K 0.020 GD  138 VS 4.11 DE 3.08 Q0400.0 QA 0.70 Q1 0.00 3
 SPEC MLPRBH N MO 12.8 ST0.879 OM  1.3 f0 4.79 R0.3175 AL-0.00 WI 20.0 MW  2.5 3
 SPEC MLPRBH N T 62127 K 0.020 GD  143 VS 4.11 DE 3.08 Q0400.0 QA 0.70 Q1 0.00 3
 SPEC MIDRHH N MO 12.9 ST  2.1 OM  1.3 f0 6.14 R0.2477 AL-0.00 WI 20.0 MW  2.5 3
 SPEC MIDRHH N T 62132 K 0.020 GD  158 VS 4.11 DE 3.08 Q0400.0 QA 0.70 Q1 0.00 3
 SPEC HMDRBH N MO 12.9 ST  1.0 OM  1.3 f0 4.56 R0.3335 AL-0.00 WI 20.0 MW  2.6 3
 SPEC HMDRBH N T 62142 K 0.020 GD  196 VS 4.11 DE 3.08 Q0400.0 QA 0.70 Q1 0.00 3
 LOCALITY: 157.9 Km al Este de Miches, Oceano Atlantico.                       3
 2020-01-02-0620-00S.MAN___144                                                 6
 OLDACT:ARG 20-01-02 10:50 OP:nr   STATUS:               ID:20200102062000     3
 OLDACT:UP  20-01-02 11:36 OP:AMMR STATUS:               ID:20200102062000     3
 ACTION:UP  21-12-07 16:32 OP:JMLC STATUS:               ID:20200102062049 L   I
 OLDACT:UP  20-04-19 16:56 OP:JMLC STATUS:               ID:20200102062049 L   3
 STAT SP IPHASW D HRMM SECON CODA AMPLIT PERI AZIMU VELO AIN AR TRES W  DIS CAZ7
 AGPR BZ EPg    C  621  3.64   47                         96    0.0310 89.6 148 
 AGPR BE ESg    C  621 13.77                              96   -0.4210 89.6 148 
 AGPR BN  IAML     621 14.47       163.0 0.20                          89.6 148 
 AOPR BZ EPg    C  621  8.44   64                         94   -0.3110  124 137 
 AOPR BE ESg    C  621 23.83                              94    0.7010  124 137 
 AOPR BN  IAML     621 30.18        81.4 0.35                           124 137 
 CRPR BE ESg    C  621 26.64                              93    0.0610  137 159 
 HIDR BN  IAML     621 31.66        62.9 0.20                           137 243 
 CRPR BZ EPg    C  621 11.20   49                         93    0.4710  137 159 
 CRPR BN  IAML     621 30.17        86.3 0.60                           137 159 
 HIDR BZ EPg    C  621  8.98   54                         93   -1.8010  137 243 
 HIDR BE ESg    C  621 25.06                              93   -1.6110  137 243 
 MLPR BZ EPg    C  621 10.89   50                         93   -0.6810  142 158 
 MLPR BE ESg    C  621 28.82                              93    0.7910  142 158 
 MLPR BN  IAML     621 30.00        33.5 0.40                           142 158 
 MIDR HZ EPg    D  621 13.58   57                         93   -0.3910  158 263 
 MIDR HE ESg    C  621 33.64                              93    1.4210  158 263 
 MIDR BN  IAML     621 36.56        36.9 0.58                           158 263 
 HMDR BZ EPg    C  621 20.01   60                         92    0.2510  196 258 
 HMDR BE ESg    C  621 43.78                              92    1.4910  196 258 
 HMDR BN  IAML     621 47.43        22.8 0.35                           196 258 
                                                                                
 2020  1 2 0622 47.30L  19.131 -67.612  1.3  DOM  6 0.9 2.2LDOM 3.2CDOM 2.2WDOM1
 SPEC AVERAGE  MO 12.4 ST0.789 OM  2.5 f0 4.31 R0.3199 AL 0.00 WI 20.0 MW  2.2 3
 SPEC SD       MO  0.0 ST0.629 OM  1.1 f0 1.62 R0.1202 AL      WI      MW  0.0 3
 GAP=230        2.41      19.4     7.1689.3  0.1058E+03 -0.1425E+04 -0.8534E+04E
 SPEC HIDRBH N MO 12.4 ST  1.4 OM  1.4 f0 5.93 R0.1997 AL-0.00 WI 20.0 MW  2.2 3
 SPEC HIDRBH N T 62320 K 0.020 GD  114 VS 3.20 DE 2.60 Q0400.0 QA 0.70 Q1 0.00 3
 SPEC HMDRBH N MO 12.5 ST0.159 OM  1.4 f0 2.69 R0.4401 AL-0.00 WI 20.0 MW  2.3 3
 SPEC HMDRBH N T 62340 K 0.020 GD  137 VS 3.20 DE 2.60 Q0400.0 QA 0.70 Q1 0.00 3
 LOCALITY: 151.8 Km al Este de Miches, Oceano Atlantico.                       3
 2020-01-02-0622-00S.MAN___144                                                 6
 OLDACT:ARG 20-01-02 10:50 OP:nr   STATUS:               ID:20200102062200     3
 OLDACT:UP  20-01-02 11:55 OP:AMMR STATUS:               ID:20200102062200     3
 ACTION:UP  21-12-07 16:32 OP:JMLC STATUS:               ID:20200102062247 L   I
 OLDACT:UP  20-04-19 16:56 OP:JMLC STATUS:               ID:20200102062247 L   3
 STAT SP IPHASW D HRMM SECON CODA AMPLIT PERI AZIMU VELO AIN AR TRES W  DIS CAZ7
 AGPR BZ EPg    D  623  2.10   43                         91    0.2810 90.2 144 
 AGPR BE ESg    D  623 12.29                              91   -0.3110 90.2 144 
 AGPR BN  IAML     623 18.01       136.3 0.15                          90.2 144 
 AOPR BZ EPg    C  623  6.20   72                         91   -1.2910  125 134 
 AOPR BE ESg    C  623 23.10                              91    0.6510  125 134 
 AOPR BN  IAML     623 33.05        72.4 0.25                           125 134 
 HIDR BZ EPg    C  623  7.53   61                         91   -0.8210  131 243 
 HIDR BE ESg    C  623 22.32                              91   -1.6310  131 243 
 HIDR BN  IAML     623 31.22        57.6 0.25                           131 243 
 MLPR BZ EPg    C  623 11.10   50                         91    0.9610  142 155 
 MLPR BE ESg    C  623 27.39                              91    0.3210  142 155 
 MLPR BN  IAML     623 28.34        24.8 0.45                           142 155 
 MIDR HZ EPg    C  623 11.70   53                         90   -0.1310  152 264 
 MIDR HE ESg    C  623 30.78                              90    0.7810  152 264 
 MIDR BN  IAML     623 34.96        28.2 0.58                           152 264 
 HMDR BZ EPg    C  623 17.55   62                         91   -0.3910  190 259 
 HMDR BE ESg    C  623 42.21                              91    1.5810  190 259 
 HMDR BN  IAML     623 49.24        13.1 0.90                           190 259 
                                                                                
