 2020 10 2 1444 43.90L  18.320 -68.859177.0  DOM 20 0.9 3.8LDOM 3.8CDOM 3.7WDOM1
 SPEC AVERAGE  MO 14.7 ST160.4 OM  2.9 f0 5.20 R0.9644 AL 0.00 WI 20.0 MW  3.7 3
 SPEC SD       MO  0.5 ST315.3 OM  0.5 f0 4.74 R1.9179 AL      WI      MW  0.3 3
 GAP=124        2.37      14.1     5.5  9.5  0.5419E+02  0.9564E+01  0.2942E+02E
 SPEC SADRBH N MO 15.2 ST  6.2 OM  3.5 f0 1.53 R1.0689 AL-0.00 WI 20.0 MW  4.1 3
 SPEC SADRBH N T144520 K 0.020 GD  177 VS 4.42 DE 3.40 Q0400.0 QA 0.70 Q1 0.00 3
 SPEC HIDRBH N MO 14.5 ST122.1 OM  2.8 f0 7.03 R0.2326 AL-0.00 WI 20.0 MW  3.6 3
 SPEC HIDRBH N T144520 K 0.020 GD  180 VS 4.42 DE 3.40 Q0400.0 QA 0.70 Q1 0.00 3
 SPEC PCDRBH N MO 15.1 ST  2.2 OM  3.3 f0 1.24 R1.3189 AL-0.00 WI 20.0 MW  4.0 3
 SPEC PCDRBH N T144524 K 0.020 GD  185 VS 4.42 DE 3.40 Q0400.0 QA 0.70 Q1 0.00 3
 SPEC HMDRBH N MO 14.3 ST 34.9 OM  2.5 f0 5.70 R0.2869 AL-0.00 WI 20.0 MW  3.5 3
 SPEC HMDRBH N T144522 K 0.020 GD  192 VS 4.42 DE 3.40 Q0400.0 QA 0.70 Q1 0.00 3
 SPEC MIDRHH N MO 14.3 ST 53.4 OM  2.5 f0 6.57 R0.2489 AL-0.00 WI 20.0 MW  3.5 3
 SPEC MIDRHH N T144524 K 0.020 GD  192 VS 4.42 DE 3.40 Q0400.0 QA 0.70 Q1 0.00 3
 SPEC SDD BH N MO 15.7 ST0.029 OM  3.9 f00.178 R9.1876 AL-0.00 WI 20.0 MW  4.4 3
 SPEC SDD BH N T144527 K 0.020 GD  209 VS 4.42 DE 3.40 Q0400.0 QA 0.70 Q1 0.00 3
 SPEC SMDRBH N MO 14.7 ST  5.9 OM  2.9 f0 2.25 R0.7268 AL-0.00 WI 20.0 MW  3.8 3
 SPEC SMDRBH N T144526 K 0.020 GD  209 VS 4.42 DE 3.40 Q0400.0 QA 0.70 Q1 0.00 3
 SPEC NAVIBH N MO 15.2 ST999.9 OM  3.4 f0 16.0 R0.1022 AL-0.00 WI 20.0 MW  4.1 3
 SPEC NAVIBH N T144531 K 0.020 GD  226 VS 4.42 DE 3.40 Q0400.0 QA 0.70 Q1 0.00 3
 SPEC NADRBH N MO 15.0 ST107.1 OM  3.1 f0 4.89 R0.3344 AL-0.00 WI 20.0 MW  3.9 3
 SPEC NADRBH N T144533 K 0.020 GD  235 VS 4.42 DE 3.40 Q0400.0 QA 0.70 Q1 0.00 3
 SPEC BADRBH N MO 14.7 ST 83.3 OM  2.8 f0 5.64 R0.2900 AL-0.00 WI 20.0 MW  3.7 3
 SPEC BADRBH N T144535 K 0.020 GD  237 VS 4.42 DE 3.40 Q0400.0 QA 0.70 Q1 0.00 3
 SPEC AGPRBH N MO 14.9 ST  6.4 OM  3.0 f0 2.01 R0.8136 AL-0.00 WI 20.0 MW  3.9 3
 SPEC AGPRBH N T144538 K 0.020 GD  256 VS 4.42 DE 3.40 Q0400.0 QA 0.70 Q1 0.00 3
 SPEC CRPRBH N MO 14.3 ST  7.3 OM  2.4 f0 3.31 R0.4941 AL-0.00 WI 20.0 MW  3.5 3
 SPEC CRPRBH N T144539 K 0.020 GD  259 VS 4.42 DE 3.40 Q0400.0 QA 0.70 Q1 0.00 3
 SPEC MLPRBH N MO 13.8 ST  1.6 OM  1.9 f0 2.94 R0.5563 AL-0.00 WI 20.0 MW  3.2 3
 SPEC MLPRBH N T144538 K 0.020 GD  264 VS 4.42 DE 3.40 Q0400.0 QA 0.70 Q1 0.00 3
 SPEC AOPRBH N MO 14.8 ST 32.9 OM  2.9 f0 3.61 R0.4530 AL-0.00 WI 20.0 MW  3.8 3
 SPEC AOPRBH N T144544 K 0.020 GD  284 VS 4.42 DE 3.40 Q0400.0 QA 0.70 Q1 0.00 3
 SPEC SC01BH N MO 15.1 ST  9.2 OM  3.1 f0 2.01 R0.8136 AL-0.00 WI 20.0 MW  4.0 3
 SPEC SC01BH N T144547 K 0.020 GD  291 VS 4.42 DE 3.40 Q0400.0 QA 0.70 Q1 0.00 3
 SPEC CELPBH N MO 14.0 ST  5.3 OM  2.0 f0 3.86 R0.4237 AL-0.00 WI 20.0 MW  3.3 3
 SPEC CELPBH N T144548 K 0.020 GD  300 VS 4.42 DE 3.40 Q0400.0 QA 0.70 Q1 0.00 3
 SPEC SDDRBH N MO 14.6 ST  1.1 OM  2.6 f0 1.42 R1.1517 AL-0.00 WI 20.0 MW  3.7 3
 SPEC SDDRBH N T144551 K 0.020 GD  320 VS 4.42 DE 3.40 Q0400.0 QA 0.70 Q1 0.00 3
 SPEC MADRBH N MO 15.0 ST 23.6 OM  3.0 f0 2.86 R0.5718 AL-0.00 WI 20.0 MW  3.9 3
 SPEC MADRBH N T144553 K 0.020 GD  326 VS 4.42 DE 3.40 Q0400.0 QA 0.70 Q1 0.00 3
 SPEC REDRBH N MO 14.3 ST919.9 OM  2.3 f0 16.0 R0.1022 AL-0.00 WI 20.0 MW  3.5 3
 SPEC REDRBH N T1446 1 K 0.020 GD  363 VS 4.42 DE 3.40 Q0400.0 QA 0.70 Q1 0.00 3
 SPEC MCDRBH N MO 14.4 ST786.1 OM  2.3 f0 14.9 R0.1098 AL-0.00 WI 20.0 MW  3.5 3
 SPEC MCDRBH N T1446 5 K 0.020 GD  385 VS 4.42 DE 3.40 Q0400.0 QA 0.70 Q1 0.00 3
 LOCALITY: 16.1 Km al ESE de Isla Catalina. Mar Caribe.                        3
 2020-10-02-1444-00S.MAN___126                                                 6
 OLDACT:ARG 20-10-02 15:01 OP:plst STATUS:               ID:20201002144400     3
 OLDACT:UP  20-10-02 15:13 OP:CGRS STATUS:               ID:20201002144400     3
 OLDACT:UP  20-10-02 15:13 OP:CGRS STATUS:               ID:20201002144400     3
 OLDACT:UP  20-10-02 15:12 OP:CGRS STATUS:               ID:20201002144400     3
 ACTION:UP  22-01-06 16:15 OP:jmlc STATUS:               ID:20201002144443 L   I
 STAT SP IPHASW D HRMM SECON CODA AMPLIT PERI AZIMU VELO AIN AR TRES W  DIS CAZ7
 SADR BZ IP     D 1445  5.22   93                        174   -0.8210 16.5 149 
 SADR BN IS     C 1445 22.41                             174   -0.0610 16.5 149 
 SADR BN  IAML    1445 23.01      1456.4 0.55                          16.5 149 
 HIDR BZ IP     C 1445  5.61   57                        169   -0.7510 33.6  27 
 HIDR BN IS     C 1445 22.22                             169   -0.7910 33.6  27 
 HIDR BN  IAML    1445 26.15      2354.9 0.20                          33.6  27 
 PCDR BZ IP     C 1445  6.61   75                        162   -0.3810 54.8  67 
 PCDR BN IS     C 1445 25.63                             162    1.5310 54.8  67 
 PCDR BN  IAML    1445 27.03       851.4 0.65                          54.8  67 
 HMDR BZ IP     C 1445  6.65  106                        156   -1.2810 75.6 313 
 HMDR BN IS     C 1445 24.41                             156   -1.3310 75.6 313 
 HMDR BN  IAML    1445 27.74       511.6 0.40                          75.6 313 
 MIDR HZ IP     C 1445  7.31  102                        156   -0.5810 76.1 345 
 MIDR HN IS     C 1445 25.60                             156   -0.0710 76.1 345 
 MIDR BN  IAML    1445 28.74       507.6 0.32                          76.1 345 
 SDD  BN  IAML    1445 30.42       348.4 0.30                           113 278 
 SMDR BN IS     C 1445 28.41                             146   -0.9510  113 342 
 SMDR BN  IAML    1445 35.21       589.6 0.90                           113 342 
 SDD  BN IS     C 1445 28.99                             146   -0.4210  113 278 
 SMDR BZ IP     C 1445  8.68   85                        146   -1.3310  113 342 
 SDD  BZ IP     C 1445  9.39   71                        146   -0.6410  113 278 
 NAVI BZ IP     C 1445 11.56  100                        139   -0.6610  142 300 
 NAVI BN IS     C 1445 33.24                             139    0.0310  142 300 
 NAVI BN  IAML    1445 36.07      9594.7 0.15                           142 300 
 NADR BZ IP     C 1445 12.21   72                        136   -0.9610  155 318 
 NADR BN IS     C 1445 35.20                             136    0.3310  155 318 
 NADR BN  IAML    1445 45.47      1216.4 0.25                           155 318 
 BADR BZ IP     C 1445 13.58   69                        136   -0.0210  159 273 
 BADR BN IS     C 1445 37.05                             136    1.4310  159 273 
 BADR BN  IAML    1445 40.38       619.8 0.65                           159 273 
 AGPR BZ IP     C 1445 16.41   85                        131    0.6710  186  85 
 AGPR BN IS     C 1445 40.45                             131    1.1110  186  85 
 AGPR BN  IAML    1445 48.39       419.8 0.32                           186  85 
 CRPR BZ IP     C 1445 15.93  100                        130   -0.2410  190 100 
 CRPR BN IS     C 1445 41.10                             130    1.0110  190 100 
 CRPR BN  IAML    1445 48.58       138.9 0.52                           190 100 
 MLPR BZ IP     D 1445 16.52   90                        129   -0.1410  196 101 
 MLPR BN IS     C 1445 40.04                             129   -0.8910  196 101 
 MLPR BN  IAML    1445 46.58        46.1 0.24                           196 101 
 AOPR BZ IP     C 1445 18.78  111                        126   -0.4110  223  89 
 AOPR BN IS     C 1445 45.90                             126    0.5710  223  89 
 AOPR BN  IAML    1445 52.38      1075.7 0.28                           223  89 
 SC01 BZ IP     C 1445 20.31   81                        124    0.2310  232 302 
 SC01 BN IS     C 1445 49.10                             124    2.2110  232 302 
 SC01 BN  IAML    1445 49.67       683.1 0.40                           232 302 
 CELP BZ IP     C 1445 21.35   97                        123    0.1910  243  96 
 CELP BN IS     C 1445 49.98                             123    1.2210  243  96 
 CELP BN  IAML    1445 54.52        69.2 0.36                           243  96 
 SDDR BZ IP     C 1445 24.39   86                        120    0.8110  267 286 
 SDDR BN IS     C 1445 53.07                             120    0.0910  267 286 
 SDDR BN  IAML    1446  1.39       135.4 0.60                           267 286 
 MADR BE IS     C 1445 54.95                             120    0.8610  274 301 
 MADR BN  IAML    1445 55.77       770.8 0.45                           274 301 
 REDR BZ IP     C 1445 28.09  110                        116   -0.8110  318 290 
 REDR BN IS     C 1446  2.89                             116    0.6510  318 290 
 REDR BN  IAML    1446  5.04       393.6 0.10                           318 290 
 MCDR BN IS     C 1446  7.18                             114    0.5910  342 301 
 MCDR BN  IAML    1446 10.00       195.0 0.40                           342 301 
                                                                                
 2020 10 2 1553 19.20L  18.929 -69.716 95.0  DOM  9 0.7 2.6LDOM 2.6CDOM 2.5WDOM1
 SPEC AVERAGE  MO 12.9 ST 20.3 OM  2.0 f0 12.2 R0.2070 AL 0.00 WI 20.0 MW  2.5 3
 SPEC SD       MO  0.3 ST 22.7 OM  0.8 f0 5.22 R0.1678 AL      WI      MW  0.2 3
 GAP=138        1.80       9.3     7.1 15.9 -0.1528E+02 -0.4649E+02  0.1772E+02E
 SPEC HMDRBH N MO 12.6 ST  9.8 OM  1.1 f0 13.5 R0.1231 AL-0.00 WI 20.0 MW  2.4 3
 SPEC HMDRBH N T155339 K 0.020 GD  102 VS 4.49 DE 3.40 Q0400.0 QA 0.70 Q1 0.00 3
 SPEC MIDRHH N MO 12.5 ST 11.9 OM  0.9 f0 16.0 R0.1038 AL-0.00 WI 20.0 MW  2.3 3
 SPEC MIDRHH N T155344 K 0.020 GD  118 VS 4.49 DE 3.40 Q0400.0 QA 0.70 Q1 0.00 3
 SPEC SMDRBH N MO 13.2 ST0.537 OM  1.6 f0 3.34 R0.4974 AL-0.00 WI 20.0 MW  2.7 3
 SPEC SMDRBH N T155345 K 0.020 GD  117 VS 4.49 DE 3.40 Q0400.0 QA 0.70 Q1 0.00 3
 SPEC HIDRBH N MO 13.2 ST 58.8 OM  1.5 f0 16.0 R0.1038 AL-0.00 WI 20.0 MW  2.7 3
 SPEC HIDRBH N T155351 K 0.020 GD  146 VS 4.49 DE 3.40 Q0400.0 QA 0.70 Q1 0.00 3
 LOCALITY: 13.1 Km al ENE de Monte Plata. Monte Plata.                         3
 2020-10-02-1553-00S.MAN___126                                                 6
 OLDACT:UP  20-10-02 18:01 OP:CGRS STATUS:               ID:20201002155300     3
 OLDACT:UP  20-10-02 17:59 OP:CGRS STATUS:               ID:20201002155300     3
 OLDACT:ARG 20-10-02 17:54 OP:plst STATUS:               ID:20201002155300     3
 OLDACT:UP  20-10-02 18:04 OP:CGRS STATUS:               ID:20201002155300     3
 OLDACT:UP  20-10-02 18:02 OP:CGRS STATUS:               ID:20201002155300     3
 ACTION:UP  22-01-06 16:15 OP:jmlc STATUS:               ID:20201002155319 L   I
 OLDACT:UP  21-11-12 20:32 OP:AMMR STATUS:               ID:20201002155300     3
 OLDACT:UP  21-11-12 20:32 OP:AMMR STATUS:               ID:20201002155300     3
 OLDACT:UP  21-11-12 20:31 OP:AMMR STATUS:               ID:20201002155300     3
 OLDACT:UP  20-10-02 18:04 OP:CGRS STATUS:               ID:20201002155300     3
 STAT SP IPHASW D HRMM SECON CODA AMPLIT PERI AZIMU VELO AIN AR TRES W  DIS CAZ7
 NAVI BZ IP     C 1553 32.41   30                        159   -0.0610 33.0 276 
 NAVI BN IS     C 1553 42.27                             159   -0.0310 33.0 276 
 NAVI BN  IAML    1553 43.80      1466.8 0.20                          33.0 276 
 HMDR BZ IP     C 1553 31.35   29                        156   -1.3310 38.6 114 
 HMDR BN IS   4 C 1553 40.55                             156   -2.13 0 38.6 114 
 HMDR BN  IAML    1553 41.05        51.0 0.15                          38.6 114 
 NADR BN IS   4 C 1553 46.14                             150    2.57 0 49.3 343 
 NADR BN  IAML    1553 47.34       297.4 0.35                          49.3 343 
 SDD  BE IS     C 1553 43.33                             146   -0.9610 55.9 202 
 SDD  BN  IAML    1553 55.13       100.7 1.45                          55.9 202 
 SMDR BZ IP     C 1553 34.52   34                        140    0.0410 68.4  54 
 SMDR BN IS     C 1553 46.50                             140    0.6910 68.4  54 
 MIDR HZ IP     C 1553 34.41   28                        139   -0.2310 70.4  85 
 MIDR HN IS     C 1553 45.79                             139   -0.2910 70.4  85 
 MIDR BN  IAML    1554 11.02        40.3 1.84                          70.4  85 
 BADR BN IS     C 1553 50.37                             132    1.2510 89.9 229 
 BADR BN  IAML    1553 56.09       128.7 0.25                          89.9 229 
 HIDR BZ IP     C 1553 38.40   32                        125    0.1010  112 109 
 HIDR BE IS     C 1553 53.19                             125    0.7510  112 109 
 HIDR BN  IAML    1553 53.72       158.2 0.25                           112 109 
 SADR BE IS     C 1553 55.30                             120    0.0710  128 129 
                                                                                
