 2020 11 2 0033 26.90L  19.028 -67.614 14.9  DOM  6 0.8 1.8LDOM 2.5CDOM 2.0WDOM1
 SPEC AVERAGE  MO 12.1 ST0.161 OM  3.6 f0 4.29 R0.3208 AL 2.65 WI 13.4 MW  2.0 3
 SPEC SD       MO  0.0 ST0.000 OM  2.7 f00.000 R0.0000 AL      WI      MW  0.0 3
 GAP=237        2.03      13.0     6.6 12.4  0.6332E+02 -0.1784E+02 -0.1393E+02E
 SPEC PCDRBH N MO 12.1 ST0.161 OM  0.9 f0 4.29 R0.3208 AL 2.65 WI 13.4 MW  2.0 3
 SPEC PCDRBH N T 03351 K 0.020 GD  100 VS 3.72 DE 2.82 Q0400.0 QA 0.70 Q1 1.00 3
 LOCALITY: 148.3 Km al Este de Miches, Oceano Atlantico.                       3
 2020-11-02-0033-00S.MAN___111                                                 6
 OLDACT:ARG 20-11-02 10:13 OP:plst STATUS:               ID:20201102003300     3
 OLDACT:UP  20-11-02 11:11 OP:CGRS STATUS:               ID:20201102003300     3
 OLDACT:UP  20-11-02 11:10 OP:CGRS STATUS:               ID:20201102003300     3
 OLDACT:UP  20-11-02 10:34 OP:CGRS STATUS:               ID:20201102003300     3
 OLDACT:UP  20-11-02 10:27 OP:CGRS STATUS:               ID:20201102003300     3
 OLDACT:UP  20-11-02 10:26 OP:CGRS STATUS:               ID:20201102003300     3
 OLDACT:UP  20-11-02 10:26 OP:CGRS STATUS:               ID:20201102003300     3
 ACTION:UP  22-01-07 19:21 OP:jmlc STATUS:               ID:20201102003326 L   I
 OLDACT:UP  21-12-14 19:25 OP:AMMR STATUS:               ID:20201102003300     3
 OLDACT:UP  21-12-14 19:24 OP:AMMR STATUS:               ID:20201102003300     3
 OLDACT:UP  21-12-14 19:22 OP:AMMR STATUS:               ID:20201102003300     3
 OLDACT:UP  21-12-14 19:22 OP:AMMR STATUS:               ID:20201102003300     3
 OLDACT:UP  21-12-14 19:21 OP:AMMR STATUS:               ID:20201102003300     3
 OLDACT:UP  20-11-02 11:11 OP:CGRS STATUS:               ID:20201102003300     3
 STAT SP IPHASW D HRMM SECON CODA AMPLIT PERI AZIMU VELO AIN AR TRES W  DIS CAZ7
 AGPR BZ IP        033 39.89                              93   -0.0410 81.4 139 
 AGPR BN ESg       033 50.50                              93    0.9310 81.4 139 
 PCDR BZ EPg       033 41.21                              93   -1.3610 98.9 235 
 PCDR BN ESg    C  033 53.95                              93   -0.2110 98.9 235 
 PRSN BE ESg       033 54.47                              92   -0.6110  102 151 
 PRSN BN  IAML     034  2.44        29.6 0.92                           102 151 
 CRPR BZ EPg       033 47.05   27                         92    0.4010  126 154 
 CRPR BN ESg       034  1.29                              92    0.0210  126 154 
 MLPR BZ IP        033 45.98                              55   -1.1710  132 153 
 MLPR BN IS        034  2.83                              55    0.7010  132 153 
 HMDR BZ EPg       033 56.31                              91    0.2210  188 262 
 HMDR BN ESg       034 18.81                              91    1.1210  188 262 
                                                                                
 2020 11 2 0112 31.50L  18.259 -71.489 11.6  DOM  6 0.7 2.0LDOM 2.5CDOM 2.3WDOM1
 SPEC AVERAGE  MO 12.5 ST  1.9 OM  2.6 f0 7.53 R1.6559 AL 0.00 WI 20.0 MW  2.3 3
 SPEC SD       MO  1.0 ST  2.2 OM  1.2 f0 4.58 R2.6205 AL      WI      MW  0.7 3
 GAP=189        1.72       5.8     5.8  5.7  0.1979E+02  0.1233E+01 -0.8291E+01E
 SPEC PODRBH N MO 12.6 ST  5.7 OM  2.0 f0 9.41 R0.1455 AL-0.00 WI 20.0 MW  2.3 3
 SPEC PODRBH N T 11237 K 0.020 GD 26.7 VS 3.70 DE 2.82 Q0400.0 QA 0.70 Q1 0.00 3
 SPEC NEDRBH N MO 12.0 ST0.839 OM  1.4 f0 7.79 R0.1757 AL-0.00 WI 20.0 MW  2.0 3
 SPEC NEDRBH N T 11238 K 0.020 GD 27.6 VS 3.70 DE 2.82 Q0400.0 QA 0.70 Q1 0.00 3
 SPEC JIDRBH N MO 11.5 ST  1.0 OM  0.6 f0 12.7 R0.1078 AL-0.00 WI 20.0 MW  1.6 3
 SPEC JIDRBH N T 11244 K 0.020 GD 47.9 VS 3.70 DE 2.82 Q0400.0 QA 0.70 Q1 0.00 3
 SPEC REDRBH N MO 14.1 ST0.002 OM  2.9 f00.221 R6.1946 AL-0.00 WI 20.0 MW  3.4 3
 SPEC REDRBH N T 113 1 K 0.020 GD  110 VS 3.70 DE 2.82 Q0400.0 QA 0.70 Q1 0.00 3
 LOCALITY: 13.4 Km al SO de Mella. Independencia.                              3
 2020-11-02-0112-00S.MAN___111                                                 6
 OLDACT:ARG 20-11-02 10:35 OP:plst STATUS:               ID:20201102011200     3
 OLDACT:UP  20-11-02 11:17 OP:CGRS STATUS:               ID:20201102011200     3
 OLDACT:UP  20-11-02 11:17 OP:CGRS STATUS:               ID:20201102011200     3
 OLDACT:UP  20-11-02 11:17 OP:CGRS STATUS:               ID:20201102011200     3
 OLDACT:UP  20-11-02 10:48 OP:CGRS STATUS:               ID:20201102011200     3
 OLDACT:UP  20-11-02 10:42 OP:CGRS STATUS:               ID:20201102011200     3
 OLDACT:UP  20-11-02 10:42 OP:CGRS STATUS:               ID:20201102011200     3
 OLDACT:UP  20-11-02 10:42 OP:CGRS STATUS:               ID:20201102011200     3
 ACTION:UP  22-01-07 19:21 OP:jmlc STATUS:               ID:20201102011231 L   I
 OLDACT:UP  21-12-14 19:26 OP:AMMR STATUS:               ID:20201102011200     3
 OLDACT:UP  20-11-02 11:17 OP:CGRS STATUS:               ID:20201102011200     3
 STAT SP IPHASW D HRMM SECON CODA AMPLIT PERI AZIMU VELO AIN AR TRES W  DIS CAZ7
 PODR BZ IP     C  112 35.67   15                        119   -0.3110 24.1 115 
 PODR BN IS     C  112 39.40                             119    0.1310 24.1 115 
 PODR BN  IAML     112 40.40       262.9 0.20                          24.1 115 
 NEDR BN IS     C  112 39.80                             115    0.5310 25.0   5 
 JIDR BN IS     C  112 45.79                              70    0.7910 46.5 304 
 SDDR BE IS     C  112 54.25                              70   -0.3010 82.5  15 
 REDR BZ IP     C  112 48.26   28                         70   -1.4110  115 349 
 REDR BN IS     C  113  3.05                              70   -0.0410  115 349 
 HMDR BZ IP     C  113  4.11   43                         50   -0.2410  230  75 
 HMDR BN IS     C  113 29.47                              50    0.8410  230  75 
                                                                                
 2020 11 2 0406 14.90L  18.478 -69.092120.8  DOM 12 0.9 2.7LDOM 3.1CDOM 3.1WDOM1
 SPEC AVERAGE  MO 13.7 ST  7.7 OM  2.3 f0 6.01 R3.8845 AL 0.00 WI 20.0 MW  3.1 3
 SPEC SD       MO  1.4 ST 15.5 OM  1.4 f0 5.35 R5.7342 AL      WI      MW  0.9 3
 GAP=133        2.52      17.4     8.2 12.8  0.9065E+02 -0.9041E+01  0.4329E+02E
 SPEC SADRBH N MO 13.0 ST0.274 OM  1.4 f0 3.01 R0.5482 AL-0.00 WI 20.0 MW  2.6 3
 SPEC SADRBH N T 4 642 K 0.020 GD  129 VS 4.46 DE 3.40 Q0400.0 QA 0.70 Q1 0.00 3
 SPEC HMDRBH N MO 12.6 ST  4.4 OM  1.0 f0 10.3 R0.1602 AL-0.00 WI 20.0 MW  2.4 3
 SPEC HMDRBH N T 4 641 K 0.020 GD  129 VS 4.46 DE 3.40 Q0400.0 QA 0.70 Q1 0.00 3
 SPEC NAVIBH N MO 16.2 ST0.027 OM  4.5 f00.119 R 13.87 AL-0.00 WI 20.0 MW  4.8 3
 SPEC NAVIBH N T 4 650 K 0.020 GD  164 VS 4.46 DE 3.40 Q0400.0 QA 0.70 Q1 0.00 3
 SPEC BADRBH N MO 13.1 ST 45.6 OM  1.3 f0 16.0 R0.1031 AL-0.00 WI 20.0 MW  2.6 3
 SPEC BADRBH N T 4 655 K 0.020 GD  180 VS 4.46 DE 3.40 Q0400.0 QA 0.70 Q1 0.00 3
 SPEC CRPRBH N MO 12.4 ST  1.1 OM  0.5 f0 7.67 R0.2151 AL-0.00 WI 20.0 MW  2.2 3
 SPEC CRPRBH N T 4 7 7 K 0.020 GD  249 VS 4.46 DE 3.40 Q0400.0 QA 0.70 Q1 0.00 3
 SPEC AOPRBH N MO 13.3 ST  2.5 OM  1.4 f0 4.86 R0.3395 AL-0.00 WI 20.0 MW  2.8 3
 SPEC AOPRBH N T 4 713 K 0.020 GD  275 VS 4.46 DE 3.40 Q0400.0 QA 0.70 Q1 0.00 3
 SPEC REDRBH N MO 15.4 ST0.006 OM  3.4 f00.138 R 11.96 AL-0.00 WI 20.0 MW  4.2 3
 SPEC REDRBH N T 4 725 K 0.020 GD  313 VS 4.46 DE 3.40 Q0400.0 QA 0.70 Q1 0.00 3
 LOCALITY: 13.4 Km al ONO de La Romana. La Romana.                             3
 2020-11-02-0406-00S.MAN___111                                                 6
 OLDACT:ARG 20-11-02 10:35 OP:plst STATUS:               ID:20201102040600     3
 OLDACT:UP  20-11-02 11:23 OP:CGRS STATUS:               ID:20201102040600     3
 OLDACT:UP  20-11-02 10:52 OP:CGRS STATUS:               ID:20201102040600     3
 OLDACT:UP  20-11-02 10:49 OP:CGRS STATUS:               ID:20201102040600     3
 OLDACT:UP  20-11-02 10:49 OP:CGRS STATUS:               ID:20201102040600     3
 OLDACT:UP  20-11-02 10:48 OP:CGRS STATUS:               ID:20201102040600     3
 ACTION:UP  22-01-07 19:21 OP:jmlc STATUS:               ID:20201102040614 L   I
 OLDACT:UP  20-11-02 11:23 OP:CGRS STATUS:               ID:20201102040600     3
 STAT SP IPHASW D HRMM SECON CODA AMPLIT PERI AZIMU VELO AIN AR TRES W  DIS CAZ7
 SADR BN IS     C  4 6 44.03                             158    0.3310 45.8 134 
 HMDR BZ IP     C  4 6 30.21   35                        158   -1.3110 45.8 318 
 HMDR BN IS     C  4 6 42.73                             158   -1.0910 45.8 318 
 SADR BN  IAML     4 6 55.00       148.6 3.05                          45.8 134 
 PCDR BZ IP     C  4 6 32.05   40                        146   -1.0710 75.2  87 
 PCDR BN IS     C  4 6 47.55                             146    0.9510 75.2  87 
 SMDR BZ IP     C  4 6 34.17                             140   -0.0210 90.3 354 
 SMDR BE IS     C  4 6 48.96                             140    0.5010 90.3 354 
 NAVI BN IS     C  4 6 52.13                             134    0.4710  112 298 
 NAVI BN  IAML     4 6 54.73       591.8 0.20                           112 298 
 BADR BZ IP     C  4 6 38.40                             128    0.3410  134 266 
 BADR BN  IAML     4 7  7.21        57.8 2.65                           134 266 
 AGPR BZ IP     C  4 6 46.50   44                        115    0.9810  209  90 
 CRPR BN IS     C  4 7  8.69                             114   -1.1310  218 104 
 MLPR BE IS     C  4 7 12.21                             113    1.3510  224 104 
 AOPR BZ IP     C  4 6 49.67   47                        110   -0.0310  248  93 
 AOPR BN IS     C  4 7 15.03                             110   -0.4110  248  93 
 CELP BZ IP     C  4 6 50.37                             108   -1.7810  270  99 
 CELP BE IS     C  4 7 20.67                             108    0.9510  270  99 
 CELP BN  IAML     4 7 52.99        10.4 2.76                           270  99 
 REDR BZ IP     C  4 6 55.30   60                        107    0.9610  289 288 
                                                                                
 2020 11 2 0748 30.90L  19.209 -70.266 30.8  DOM  5 0.6 2.5LDOM 2.7CDOM 2.5WDOM1
 SPEC AVERAGE  MO 12.9 ST 14.6 OM  2.9 f0 9.66 R0.1460 AL 0.00 WI 20.0 MW  2.5 3
 SPEC SD       MO  0.3 ST 10.4 OM  1.4 f00.508 R0.0106 AL      WI      MW  0.2 3
 GAP=135        1.53       9.6     5.0 23.3  0.2842E+02 -0.8460E+01 -0.1109E+03E
 SPEC NAVIBH N MO 13.2 ST 25.1 OM  2.3 f0 10.0 R0.1410 AL-0.00 WI 20.0 MW  2.7 3
 SPEC NAVIBH N T 74842 K 0.020 GD 48.4 VS 3.81 DE 2.86 Q0400.0 QA 0.70 Q1 0.00 3
 SPEC BADRBH N MO 15.4 ST  0.0 OM  4.1 f00.179 R 0.875 AL-0.00 WI 20.0 MW  4.2 3
 SPEC BADRBH N T 749 1 K 0.020 GD12.50 VS 3.81 DE 2.86 Q0400.0 QA 0.70 Q1      3
 SPEC REDRBH N MO 12.5 ST  4.1 OM  1.1 f0 9.33 R0.1511 AL-0.00 WI 20.0 MW  2.3 3
 SPEC REDRBH N T 749 9 K 0.020 GD  154 VS 3.81 DE 2.86 Q0400.0 QA 0.70 Q1 0.00 3
 LOCALITY: 21.6 Km al NNE de San Francisco de Macoris, Duarte.                 3
 2020-11-02-0748-00S.MAN___111                                                 6
 OLDACT:UP  20-11-02 11:00 OP:CGRS STATUS:               ID:20201102074800     3
 OLDACT:UP  20-11-02 10:57 OP:CGRS STATUS:               ID:20201102074800     3
 OLDACT:ARG 20-11-02 10:53 OP:plst STATUS:               ID:20201102074800     3
 OLDACT:UP  20-11-02 11:28 OP:CGRS STATUS:               ID:20201102074800     3
 OLDACT:UP  20-11-02 11:06 OP:CGRS STATUS:               ID:20201102074800     3
 OLDACT:UP  20-11-02 11:04 OP:CGRS STATUS:               ID:20201102074800     3
 OLDACT:UP  20-11-02 11:04 OP:CGRS STATUS:               ID:20201102074800     3
 OLDACT:UP  20-11-02 11:04 OP:CGRS STATUS:               ID:20201102074800     3
 ACTION:UP  22-01-07 19:21 OP:jmlc STATUS:               ID:20201102074830 L   I
 OLDACT:UP  22-01-07 16:40 OP:NJM  STATUS:               ID:20201102074800     3
 OLDACT:UP  21-12-14 19:30 OP:AMMR STATUS:               ID:20201102074800     3
 OLDACT:UP  21-12-14 19:30 OP:AMMR STATUS:               ID:20201102074800     3
 OLDACT:UP  20-11-02 11:28 OP:CGRS STATUS:               ID:20201102074800     3
 STAT SP IPHASW D HRMM SECON CODA AMPLIT PERI AZIMU VELO AIN AR TRES W  DIS CAZ7
 NAVI BE ESg       748 44.38                             125    0.5810 37.4 138 
 NAVI BN  IAML     748 46.04       403.3 0.10                          37.4 138 
 SC01 BZ IP        748 40.13                             113   -0.2010 54.1 297 
 SC01 BN IS        748 47.17                             113   -0.1510 54.1 297 
 CADR BZ IP        748 42.41                              62    1.2210 61.2  34 
 HMDR BZ IP        748 46.12   28                         62   -0.4610  104 116 
 HMDR BN ESg       748 59.00                              98   -0.2510  104 116 
 REDR BZ IP        748 51.67   39                         62   -0.7510  151 273 
 REDR BN ESg    C  749 10.70                              95    0.0110  151 273 
                                                                                
 2020 11 2 1009 55.60L  17.990 -71.421 13.8  DOM  7 0.7 2.5LDOM 2.8CDOM 2.8WDOM1
 SPEC AVERAGE  MO 13.3 ST 16.4 OM  3.0 f0 4.90 R0.3637 AL 0.00 WI 20.0 MW  2.8 3
 SPEC SD       MO  0.3 ST 28.9 OM  0.8 f0 3.19 R0.1834 AL      WI      MW  0.2 3
 GAP=253        1.72      12.0     6.3 17.4  0.4854E+02  0.5075E+02  0.1022E+03E
 SPEC PODRBH N MO 13.5 ST 74.1 OM  3.0 f0 10.3 R0.1193 AL-0.00 WI 20.0 MW  2.9 3
 SPEC PODRBH N T1010 0 K 0.020 GD 28.1 VS 3.32 DE 2.65 Q0400.0 QA 0.70 Q1 0.00 3
 SPEC NEDRBH N MO 13.4 ST  1.3 OM  2.6 f0 2.87 R0.4280 AL-0.00 WI 20.0 MW  2.9 3
 SPEC NEDRBH N T101010 K 0.020 GD 56.5 VS 3.32 DE 2.65 Q0400.0 QA 0.70 Q1 0.00 3
 SPEC JIDRBH N MO 13.7 ST0.990 OM  2.8 f0 2.07 R0.5934 AL-0.00 WI 20.0 MW  3.1 3
 SPEC JIDRBH N T101014 K 0.020 GD 73.4 VS 3.32 DE 2.65 Q0400.0 QA 0.70 Q1 0.00 3
 SPEC SDDRBH N MO 13.0 ST0.319 OM  1.9 f0 2.47 R0.4973 AL-0.00 WI 20.0 MW  2.6 3
 SPEC SDDRBH N T101024 K 0.020 GD  110 VS 3.32 DE 2.65 Q0400.0 QA 0.70 Q1 0.00 3
 SPEC REDRBH N MO 12.9 ST  5.5 OM  1.7 f0 6.81 R0.1804 AL-0.00 WI 20.0 MW  2.5 3
 SPEC REDRBH N T101031 K 0.020 GD  144 VS 3.32 DE 2.65 Q0400.0 QA 0.70 Q1 0.00 3
 LOCALITY: 19.1 Km al SO de Polo, Barahona.                                    3
 2020-11-02-1009-00S.MAN___111                                                 6
 OLDACT:ARG 20-11-02 11:06 OP:plst STATUS:               ID:20201102100900     3
 OLDACT:UP  20-11-02 11:35 OP:CGRS STATUS:               ID:20201102100900     3
 OLDACT:UP  20-11-02 11:17 OP:CGRS STATUS:               ID:20201102100900     3
 OLDACT:UP  20-11-02 11:10 OP:CGRS STATUS:               ID:20201102100900     3
 OLDACT:UP  20-11-02 11:09 OP:CGRS STATUS:               ID:20201102100900     3
 ACTION:UP  22-01-07 19:21 OP:jmlc STATUS:               ID:20201102100955 L   I
 OLDACT:UP  21-12-14 19:32 OP:AMMR STATUS:               ID:20201102100900     3
 OLDACT:UP  20-11-02 11:35 OP:CGRS STATUS:               ID:20201102100900     3
 STAT SP IPHASW D HRMM SECON CODA AMPLIT PERI AZIMU VELO AIN AR TRES W  DIS CAZ7
 PODR BZ EPg      10 9 59.86   27                        117   -0.3410 24.5  37 
 PODR BN ESg      1010  3.75                             117    0.1210 24.5  37 
 PODR BN  IAML    1010  6.36      2323.9 0.25                          24.5  37 
 NEDR BZ EPg    D 1010  4.12   36                         95   -0.4310 54.8 355 
 NEDR BN ESg      1010 11.42                              95    0.2210 54.8 355 
 NEDR BN  IAML    1010 11.73       601.1 0.65                          54.8 355 
 JIDR BZ EPg    D 1010  6.95   31                         93   -0.2110 72.1 321 
 JIDR BN ESg      1010 16.69                              93    0.9610 72.1 321 
 JIDR BN  IAML    1010 20.39       431.9 0.55                          72.1 321 
 SDDR BN  IAML    1010 39.02        44.5 0.75                           110   7 
 BADR BZ EPg      1010 15.67   36                         91    1.0610  121  68 
 BADR BN  IAML    1010 35.36       141.1 0.45                           121  68 
 REDR BZ EPg    D 1010 17.00   44                         91   -1.3110  145 348 
 REDR BN  IAML    1010 35.92        94.2 0.20                           145 348 
 HMDR BZ EPg      1010 31.76   53                         91    0.2010  233  67 
 HMDR BN ESg      1010 57.92                              91   -0.2710  233  67 
 HMDR BN  IAML    1011  2.20        15.5 0.28                           233  67 
                                                                                
 2020 11 2 1803  1.40L  18.972 -70.134 12.0  DOM  4 0.4 2.0LDOM 2.5CDOM 2.1WDOM1
 SPEC AVERAGE  MO 12.2 ST  4.3 OM  1.9 f0 9.18 R0.1780 AL 0.00 WI 20.0 MW  2.1 3
 SPEC SD       MO  0.3 ST  5.9 OM  0.8 f0 4.15 R0.0631 AL      WI      MW  0.2 3
 GAP=182        1.05       6.6     3.9 32.6  0.1338E+02 -0.6984E+02 -0.1628E+03E
 SPEC ABDRBH N MO 12.2 ST0.610 OM  1.3 f0 5.96 R0.2316 AL-0.00 WI 20.0 MW  2.1 3
 SPEC ABDRBH N T18 315 K 0.020 GD 56.1 VS 3.73 DE 2.83 Q0400.0 QA 0.70 Q1 0.00 3
 SPEC BADRBH N MO 12.3 ST 14.5 OM  1.3 f0 16.0 R0.0863 AL-0.00 WI 20.0 MW  2.2 3
 SPEC BADRBH N T18 319 K 0.020 GD 69.0 VS 3.73 DE 2.83 Q0400.0 QA 0.70 Q1 0.00 3
 SPEC HMDRBH N MO 11.8 ST0.784 OM  0.7 f0 9.02 R0.1530 AL-0.00 WI 20.0 MW  1.8 3
 SPEC HMDRBH N T18 324 K 0.020 GD 82.8 VS 3.73 DE 2.83 Q0400.0 QA 0.70 Q1 0.00 3
 SPEC REDRBH N MO 12.6 ST  1.1 OM  1.2 f0 5.72 R0.2413 AL-0.00 WI 20.0 MW  2.3 3
 SPEC REDRBH N T18 347 K 0.020 GD  149 VS 3.73 DE 2.83 Q0400.0 QA 0.70 Q1 0.00 3
 LOCALITY: 9.3 Km al Sur de Cotui. Sanchez Ramirez.                            3
 2020-11-02-1802-00S.MAN___111                                                 6
 OLDACT:ARG 20-11-02 19:57 OP:AMMR STATUS:               ID:20201102180200     3
 OLDACT:UP  20-11-02 20:01 OP:AMMR STATUS:               ID:20201102180200     3
 ACTION:UP  22-01-07 19:21 OP:jmlc STATUS:               ID:20201102180301 L   I
 OLDACT:UP  21-12-14 19:34 OP:AMMR STATUS:               ID:20201102180200     3
 OLDACT:UP  20-11-02 20:02 OP:AMMR STATUS:               ID:20201102180200     3
 STAT SP IPHASW D HRMM SECON CODA AMPLIT PERI AZIMU VELO AIN AR TRES W  DIS CAZ7
 ABDR BZ EPg      18 3 10.10   24                        105   -0.4610 54.8 251 
 ABDR BN ESg      18 3 17.43                             105    0.0910 54.8 251 
 BADR BN ESg      18 3 20.88                             101    0.0910 67.9 201 
 HMDR BZ EPg      18 3 15.02   32                         99    0.2510 81.9 104 
 REDR BZ EPg      18 3 28.06                              94   -0.5710  168 282 
 REDR BN ESg      18 3 49.38                              94    0.6110  168 282 
 REDR BN  IAML    18 3 49.48        20.6 0.65                           168 282 
                                                                                
