 2020  1 2 0653 11.80L  19.063 -67.661 12.00 DOM  9 0.5 2.2LDOM 2.8CDOM 2.2WDOM1
 SPEC AVERAGE  MO 12.4 ST0.735 OM  1.9 f0 4.26 R0.3142 AL 0.00 WI 20.0 MW  2.2 3
 SPEC SD       MO  0.3 ST0.910 OM  0.7 f0 1.37 R0.1198 AL      WI      MW  0.2 3
 GAP=222        1.39       7.6     3.9 13.3  0.2377E+02 -0.1472E+02 -0.1083E+02E
 SPEC AGPRBH N MO 12.6 ST  2.5 OM  1.7 f0 6.24 R0.1897 AL-0.00 WI 20.0 MW  2.3 3
 SPEC AGPRBH N T 65334 K 0.020 GD 88.4 VS 3.20 DE 2.60 Q0400.0 QA 0.70 Q1 0.00 3
 SPEC CRPRBH N MO 12.9 ST0.254 OM  1.9 f0 2.22 R0.5333 AL-0.00 WI 20.0 MW  2.6 3
 SPEC CRPRBH N T 65347 K 0.020 GD  123 VS 3.20 DE 2.60 Q0400.0 QA 0.70 Q1 0.00 3
 SPEC MLPRBH N MO 12.2 ST0.174 OM  1.1 f0 3.58 R0.3307 AL-0.00 WI 20.0 MW  2.0 3
 SPEC MLPRBH N T 65349 K 0.020 GD  127 VS 3.20 DE 2.60 Q0400.0 QA 0.70 Q1 0.00 3
 SPEC MIDRHH N MO 12.1 ST0.442 OM  1.0 f0 5.18 R0.2286 AL-0.00 WI 20.0 MW  2.0 3
 SPEC MIDRHH N T 65350 K 0.020 GD  134 VS 3.20 DE 2.60 Q0400.0 QA 0.70 Q1 0.00 3
 SPEC HMDRBH N MO 12.2 ST0.261 OM  1.0 f0 4.10 R0.2888 AL-0.00 WI 20.0 MW  2.0 3
 SPEC HMDRBH N T 654 2 K 0.020 GD  160 VS 3.20 DE 2.60 Q0400.0 QA 0.70 Q1 0.00 3
 LOCALITY: 146.8 Km al Este de Miches, Oceano Atlantico.                       3
 2020-01-02-0652-00S.MAN___144                                                 6
 OLDACT:ARG 20-01-02 14:02 OP:JMLC STATUS:               ID:20200102065200     3
 OLDACT:UP  20-01-02 14:10 OP:JMLC STATUS:               ID:20200102065200     3
 ACTION:UP  21-12-07 16:32 OP:JMLC STATUS:               ID:20200102065311 L   I
 OLDACT:UP  21-05-05 16:59 OP:JMLC STATUS:               ID:20200102065311 L   3
 OLDACT:UP  20-04-19 16:56 OP:JMLC STATUS:               ID:20200102065311 L   3
 STAT SP IPHASW D HRMM SECON CODA AMPLIT PERI AZIMU VELO AIN AR TRES W  DIS CAZ7
 PRSN BZ EPg       653 28.84   30                         95                    
 PRSN BN ESg       653 41.75                              95                    
 PRSN BN  IAML     653 48.30        88.0 0.30                                   
 AGPR BZ EPg       653 25.88   24                         98   -0.2110 87.6 138 
 AGPR BN IS        653 35.98                              70   -0.1210 87.6 138 
 AGPR BN  IAML     653 36.59        66.4 0.40                          87.6 138 
 HIDR BZ EPg       653 31.48   34                         96   -0.2510  123 245 
 HIDR BN ESg       653 45.84                              96   -0.6110  123 245 
 HIDR BN  IAML     653 49.46        32.0 0.25                           123 245 
 AOPR BZ EPg       653 31.12   44                         96   -0.8410  124 130 
 AOPR BN  IAML     654  0.66        42.0 0.30                           124 130 
 CRPR BZ EPg       653 33.79   32                         95    0.6510  132 153 
 CRPR BN ESg       653 48.93                              95    0.0110  132 153 
 CRPR BN  IAML     653 52.38        55.4 0.45                           132 153 
 MLPR BZ EPg       653 34.72   29                         95    0.6410  137 152 
 MLPR BN ESg       653 50.61                              95    0.0610  137 152 
 MLPR BN  IAML     653 52.14        16.1 0.40                           137 152 
 MIDR HZ EPg       653 35.95   34                         95    0.4110  147 267 
 MIDR HN ESg       653 52.42                              95   -0.6610  147 267 
 MIDR BN  IAML     653 58.80        17.7 0.58                           147 267 
 HMDR BZ EPg       653 42.12   43                         94    0.5910  184 261 
 HMDR BN ESg       654  3.82                              94    0.3110  184 261 
 HMDR BN  IAML     654  9.62        14.5 0.40                           184 261 
 NAVI BZ EPg       653 51.47   67                         93   -0.6510  250 268 
 NAVI BN ESg       654 22.62                              93    0.6810  250 268 
 NAVI BN  IAML     654 38.02       362.1 0.20                           250 268 
                                                                                
 2020  1 2 0701 43.20L  19.278 -67.276 15.0  DOM  8 0.8 2.0LDOM 2.6CDOM 2.3WDOM1
 SPEC AVERAGE  MO 12.5 ST  2.6 OM  1.5 f0 7.71 R0.2044 AL 0.00 WI 20.0 MW  2.3 3
 SPEC SD       MO  0.3 ST  2.2 OM  0.4 f0 3.30 R0.1586 AL      WI      MW  0.2 3
 GAP=251        2.25      11.5     7.4 18.8  0.6578E+02 -0.1719E+02  0.7453E+01E
 SPEC AGPRBH N MO 12.9 ST  1.5 OM  1.7 f0 4.98 R0.2898 AL-0.00 WI 20.0 MW  2.6 3
 SPEC AGPRBH N T 7 2 6 K 0.020 GD 92.4 VS 3.90 DE 2.90 Q0400.0 QA 0.70 Q1 0.00 3
 SPEC PRSNBH N MO 12.7 ST  3.9 OM  1.4 f0 8.18 R0.1764 AL-0.00 WI 20.0 MW  2.4 3
 SPEC PRSNBH N T 7 212 K 0.020 GD  106 VS 3.90 DE 2.90 Q0400.0 QA 0.70 Q1 0.00 3
 SPEC CRPRBH N MO 12.6 ST0.993 OM  1.2 f0 5.50 R0.2624 AL-0.00 WI 20.0 MW  2.4 3
 SPEC CRPRBH N T 7 219 K 0.020 GD  142 VS 3.90 DE 2.90 Q0400.0 QA 0.70 Q1 0.00 3
 SPEC MLPRBH N MO 12.5 ST  6.5 OM  1.1 f0 11.0 R0.1312 AL-0.00 WI 20.0 MW  2.3 3
 SPEC MLPRBH N T 7 222 K 0.020 GD  147 VS 3.90 DE 2.90 Q0400.0 QA 0.70 Q1 0.00 3
 SPEC HIDRBH N MO 12.5 ST  3.0 OM  1.0 f0 8.77 R0.1645 AL-0.00 WI 20.0 MW  2.3 3
 SPEC HIDRBH N T 7 228 K 0.020 GD  170 VS 3.90 DE 2.90 Q0400.0 QA 0.70 Q1 0.00 3
 SPEC MIDRHH N MO 12.0 ST0.898 OM  0.5 f0 8.28 R0.1743 AL-0.00 WI 20.0 MW  2.0 3
 SPEC MIDRHH N T 7 231 K 0.020 GD  189 VS 3.90 DE 2.90 Q0400.0 QA 0.70 Q1 0.00 3
 LOCALITY: 188.5 Km al Este de Miches, Oceano Atlantico.                       3
 2020-01-02-0701-00S.MAN___144                                                 6
 OLDACT:ARG 20-01-02 14:17 OP:jmlc STATUS:               ID:20200102070100     3
 OLDACT:UP  20-01-02 14:44 OP:JMLC STATUS:               ID:20200102070100     3
 ACTION:UP  21-12-07 16:32 OP:JMLC STATUS:               ID:20200102070143 L   I
 OLDACT:UP  21-12-07 16:22 OP:AMMR STATUS:               ID:20200102070143 L   3
 OLDACT:UP  21-05-05 17:02 OP:JMLC STATUS:               ID:20200102070143 L   3
 OLDACT:UP  20-04-19 16:56 OP:JMLC STATUS:               ID:20200102070143 L   3
 STAT SP IPHASW D HRMM SECON CODA AMPLIT PERI AZIMU VELO AIN AR TRES W  DIS CAZ7
 PRSN BZ EPg       7 2  1.11                              94                    
 PRSN BN ESg       7 2 14.24                              94                    
 PRSN BN  IAML     7 2 18.89        54.5 0.30                                   
 AGPR BZ IP        7 1 56.36   28                         93   -1.3710 91.2 169 
 AGPR BN IS        7 2  8.09                              93   -0.3710 91.2 169 
 AGPR BN  IAML     7 2  8.19        50.2 0.40                          91.2 169 
 AOPR BZ EPg       7 2  2.24   34                         92    0.6010  117 152 
 AOPR BN ESg       7 2 15.77                              92    0.5110  117 152 
 AOPR BN  IAML     7 2 23.07        36.3 0.50                           117 152 
 CRPR BZ EPg       7 2  5.80   29                         92    0.3510  142 172 
 CRPR BN ESg       7 2 21.32                              92   -0.5710  142 172 
 CRPR BN  IAML     7 2 45.82        38.7 0.45                           142 172 
 MLPR BZ EPg       7 2  4.92                              92   -1.2510  147 170 
 MLPR BN ESg       7 2 24.21                              92    1.0710  147 170 
 MLPR BN  IAML     7 2 42.16        34.1 0.15                           147 170 
 HIDR BZ EPg       7 2 10.67   45                         91    1.0610  170 244 
 HIDR BN ESg       7 2 29.74                              91    0.6210  170 244 
 HIDR BN  IAML     7 2 34.24        15.2 0.20                           170 244 
 MIDR HZ EPg       7 2 13.02                              91    0.4110  189 260 
 MIDR HN ESg       7 2 32.83                              91   -1.5210  189 260 
 MIDR BN  IAML     7 2 37.17         8.1 1.24                           189 260 
 HMDR BZ EPg       7 2 18.79   16                         91    0.2910  228 257 
 HMDR BN ESg       7 2 44.78                              91    0.1910  228 257 
 HMDR BN  IAML     7 2 49.83        10.3 1.95                           228 257 
                                                                                
 2020  1 2 0712 23.50L  19.045 -67.653 12.1  DOM  7 1.1 2.0LDOM 3.6CDOM 2.4WDOM1
 SPEC AVERAGE  MO 12.6 ST  9.5 OM  1.6 f0 9.25 R0.1921 AL 0.00 WI 20.0 MW  2.4 3
 SPEC SD       MO  0.3 ST 13.6 OM  0.4 f0 5.51 R0.1624 AL      WI      MW  0.2 3
 GAP=221        2.90      23.8     8.3179.4  0.1519E+03 -0.4314E+03 -0.2718E+04E
 SPEC AGPRBH N MO 12.8 ST  5.5 OM  1.7 f0 7.93 R0.1736 AL-0.00 WI 20.0 MW  2.5 3
 SPEC AGPRBH N T 71246 K 0.020 GD 86.5 VS 3.72 DE 2.82 Q0400.0 QA 0.70 Q1 0.00 3
 SPEC PRSNBH N MO 13.1 ST  2.3 OM  1.9 f0 4.71 R0.2922 AL-0.00 WI 20.0 MW  2.7 3
 SPEC PRSNBH N T 71253 K 0.020 GD  107 VS 3.72 DE 2.82 Q0400.0 QA 0.70 Q1 0.00 3
 SPEC AOPRBH N MO 12.9 ST  2.0 OM  1.7 f0 5.14 R0.2678 AL-0.00 WI 20.0 MW  2.6 3
 SPEC AOPRBH N T 71258 K 0.020 GD  116 VS 3.72 DE 2.82 Q0400.0 QA 0.70 Q1 0.00 3
 SPEC HIDRBH N MO 12.8 ST 39.1 OM  1.5 f0 16.0 R0.0860 AL-0.00 WI 20.0 MW  2.4 3
 SPEC HIDRBH N T 71255 K 0.020 GD  117 VS 3.72 DE 2.82 Q0400.0 QA 0.70 Q1 0.00 3
 SPEC CRPRBH N MO 12.8 ST0.890 OM  1.5 f0 4.48 R0.3072 AL-0.00 WI 20.0 MW  2.5 3
 SPEC CRPRBH N T 71258 K 0.020 GD  121 VS 3.72 DE 2.82 Q0400.0 QA 0.70 Q1 0.00 3
 SPEC MIDRHH N MO 12.1 ST  9.0 OM  0.8 f0 16.0 R0.0860 AL-0.00 WI 20.0 MW  2.0 3
 SPEC MIDRHH N T 713 3 K 0.020 GD  135 VS 3.72 DE 2.82 Q0400.0 QA 0.70 Q1 0.00 3
 SPEC HMDRBH N MO 12.3 ST0.689 OM  0.9 f0 5.94 R0.2317 AL-0.00 WI 20.0 MW  2.1 3
 SPEC HMDRBH N T 71314 K 0.020 GD  161 VS 3.72 DE 2.82 Q0400.0 QA 0.70 Q1 0.00 3
 LOCALITY: 148.2 Km al Este de Miches, Oceano Atlantico.                       3
 2020-01-02-0711-00S.MAN___144                                                 6
 OLDACT:ARG 20-01-02 15:03 OP:JMLC STATUS:               ID:20200102071100     3
 OLDACT:UP  20-01-02 15:21 OP:JMLC STATUS:               ID:20200102071100     3
 ACTION:UP  21-12-07 16:32 OP:JMLC STATUS:               ID:20200102071223 L   I
 OLDACT:UP  20-04-19 16:56 OP:JMLC STATUS:               ID:20200102071223 L   3
 STAT SP IPHASW D HRMM SECON CODA AMPLIT PERI AZIMU VELO AIN AR TRES W  DIS CAZ7
 PRSN BZ EPg       712 40.03   69                         96                    
 PRSN BN ESg       712 55.25                              96                    
 PRSN BN  IAML     713  1.40       113.3 0.30                                   
 AGPR BZ EPg       712 35.40   60                         98   -2.0010 85.6 138 
 AGPR BN ESg       712 47.51                              98   -0.2110 85.6 138 
 AGPR BN  IAML     712 57.06        62.7 0.20                          85.6 138 
 AOPR BZ EPg       712 42.63   93                         96   -0.6610  122 129 
 AOPR BN ESg       712 59.90                              96    1.9310  122 129 
 AOPR BN  IAML     713  6.58        40.1 0.40                           122 129 
 HIDR BZ EPg       712 42.45   93                         96   -0.8910  123 246 
 HIDR BN ESg       712 57.27                              96   -0.7810  123 246 
 HIDR BN  IAML     713  8.90        53.8 0.35                           123 246 
 CRPR BZ EPg       712 44.45                              95    0.0210  129 153 
 CRPR BN ESg       713  0.36                              95    0.4110  129 153 
 CRPR BN  IAML     713  4.71        35.1 0.40                           129 153 
 MIDR HZ EPg       712 48.97   73                         95    1.6910  147 268 
 MIDR HN ESg       713  4.70                              95   -0.2010  147 268 
 MIDR BN  IAML     713 18.57        18.7 2.74                           147 268 
 HMDR BZ EPg       712 52.72   86                         94   -0.5110  184 261 
 HMDR BN ESg       713 16.47                              94    1.2010  184 261 
 HMDR BN  IAML     713 41.54        10.4 1.55                           184 261 
                                                                                
 2020  1 2 0749 20.60L  18.984 -67.489122.9  DOM 12 1.1 2.6LDOM 3.4CDOM 3.1WDOM1
 SPEC AVERAGE  MO 13.7 ST  2.7 OM  2.1 f0 4.30 R2.0441 AL 0.00 WI 20.0 MW  3.1 3
 SPEC SD       MO  0.5 ST  3.0 OM  0.6 f0 2.15 R1.6397 AL      WI      MW  0.4 3
 GAP=212        2.51      29.7    13.1 23.4  0.3171E+03 -0.1020E+03 -0.4623E+03E
 SPEC AGPRBH N MO 13.4 ST  4.8 OM  1.8 f0 5.60 R0.2947 AL-0.00 WI 20.0 MW  2.9 3
 SPEC AGPRBH N T 74944 K 0.020 GD  141 VS 4.46 DE 3.40 Q0400.0 QA 0.70 Q1 0.00 3
 SPEC PRSNBH N MO 13.6 ST  3.7 OM  1.9 f0 4.65 R0.3549 AL-0.00 WI 20.0 MW  3.0 3
 SPEC PRSNBH N T 74951 K 0.020 GD  151 VS 4.46 DE 3.40 Q0400.0 QA 0.70 Q1 0.00 3
 SPEC AOPRBH N MO 13.6 ST  2.2 OM  1.9 f0 3.79 R0.4354 AL-0.00 WI 20.0 MW  3.0 3
 SPEC AOPRBH N T 74955 K 0.020 GD  161 VS 4.46 DE 3.40 Q0400.0 QA 0.70 Q1 0.00 3
 SPEC CRPRBH N MO 13.6 ST0.588 OM  1.9 f0 2.42 R0.6819 AL-0.00 WI 20.0 MW  3.0 3
 SPEC CRPRBH N T 74956 K 0.020 GD  168 VS 4.46 DE 3.40 Q0400.0 QA 0.70 Q1 0.00 3
 SPEC MLPRBH N MO 12.9 ST0.355 OM  1.2 f0 3.47 R0.4756 AL-0.00 WI 20.0 MW  2.6 3
 SPEC MLPRBH N T 74957 K 0.020 GD  173 VS 4.46 DE 3.40 Q0400.0 QA 0.70 Q1 0.00 3
 SPEC HIDRBH N MO 13.2 ST  9.2 OM  1.4 f0 8.64 R0.1910 AL-0.00 WI 20.0 MW  2.7 3
 SPEC HIDRBH N T 74958 K 0.020 GD  183 VS 4.46 DE 3.40 Q0400.0 QA 0.70 Q1 0.00 3
 SPEC HMDRBH N MO 13.0 ST  2.0 OM  1.1 f0 6.06 R0.2723 AL-0.00 WI 20.0 MW  2.6 3
 SPEC HMDRBH N T 75012 K 0.020 GD  235 VS 4.46 DE 3.40 Q0400.0 QA 0.70 Q1 0.00 3
 SPEC NAVIBH N MO 16.1 ST0.030 OM  4.1 f00.138 R 11.96 AL-0.00 WI 20.0 MW  4.7 3
 SPEC NAVIBH N T 75025 K 0.020 GD  293 VS 4.46 DE 3.40 Q0400.0 QA 0.70 Q1 0.00 3
 LOCALITY: 106.2 Km al ENE de Punta Cana, Canal de la Mona.                    3
 2020-01-02-0749-00S.MAN___144                                                 6
 OLDACT:ARG 20-01-02 10:50 OP:nr   STATUS:               ID:20200102074900     3
 OLDACT:UP  20-01-02 16:06 OP:JMLC STATUS:               ID:20200102074900     3
 ACTION:UP  21-12-07 16:32 OP:JMLC STATUS:               ID:20200102074920 L   I
 OLDACT:UP  20-04-19 16:56 OP:JMLC STATUS:               ID:20200102074920 L   3
 STAT SP IPHASW D HRMM SECON CODA AMPLIT PERI AZIMU VELO AIN AR TRES W  DIS CAZ7
 PRSN BZ EPg       749 37.89   55                        140                    
 PRSN BN ESg       749 53.27                             140                    
 PRSN BN  IAML     749 54.17       143.7 0.30                                   
 AGPR BZ EPg  3    749 35.08   46                        148   -3.62 2 69.5 145 
 AGPR BN  IAML     749 50.98        76.5 1.80                          69.5 145 
 AOPR BZ EPg       749 40.13   69                        136   -1.1610  105 132 
 AOPR BN ESg       749 57.45                             136    0.8810  105 132 
 AOPR BN  IAML     750  7.27        60.3 0.60                           105 132 
 CRPR BZ EPg       749 43.14   62                        133    0.9510  116 159 
 CRPR BN ESg       749 58.32                             133    0.1810  116 159 
 CRPR BN  IAML     750  0.42        57.4 0.90                           116 159 
 MLPR BZ EPg       749 42.17   41                        132   -0.5010  122 157 
 MLPR BN ESg       749 58.99                             132    0.0210  122 157 
 MLPR BN  IAML     750  1.49        20.6 0.35                           122 157 
 HIDR BZ EPg  3    749 40.42   77                        128   -3.59 2  136 252 
 HIDR BN ESg       749 59.53                             128   -1.7810  136 252 
 HIDR BN  IAML     750  0.60        63.2 0.25                           136 252 
 MIDR HZ EPg       749 46.25   81                        122   -0.4510  164 270 
 MIDR HN ESg       750  4.97                             122   -1.0210  164 270 
 MIDR BN  IAML     750  5.65        15.8 0.46                           164 270 
 HMDR BZ EPg       749 51.58   90                        117    1.1210  201 264 
 HMDR BN ESg       750 14.02                             117    1.4910  201 264 
 HMDR BN  IAML     750 18.57        15.5 0.45                           201 264 
 NADR BZ EPg       749 56.48   68                        110    0.4710  252 280 
 NADR BN ESg       750 23.45                             110    1.2610  252 280 
 NADR BN  IAML     750 32.20       121.5 2.55                           252 280 
 NAVI BZ EPg       749 57.96   63                        109    0.2110  267 270 
 NAVI BN  IAML     750 35.15       329.8 0.25                           267 270 
 SDDR BZ EPg       750 11.99   40                        101   -0.8710  400 271 
 SDDR BN  IAML     751 35.93        11.4 1.00                           400 271 
 JIDR BZ EPg       750 19.77                              99   -0.3510  463 264 
                                                                                
