 2020  4 1 1214 22.00L  19.656 -70.537 19.7  DOM 19 0.8 2.9LDOM 3.3CDOM 3.3WDOM1
 SPEC AVERAGE  MO 14.0 ST101.2 OM  2.7 f0 5.65 R0.5430 AL 0.00 WI 20.0 MW  3.3 3
 SPEC SD       MO  0.3 ST251.7 OM  0.5 f0 5.01 R0.3476 AL      WI      MW  0.2 3
 GAP=122        2.26       4.1     4.2 16.4  0.6439E+01  0.3682E+01  0.3650E+01E
 SPEC SODRBH N MO 14.5 ST  1.5 OM  3.7 f0 1.63 R0.9874 AL-0.00 WI 20.0 MW  3.6 3
 SPEC SODRBH N T121425 K 0.020 GD 22.8 VS 4.35 DE 3.28 Q0400.0 QA 0.70 Q1 0.00 3
 SPEC SC01BH N MO 13.9 ST  3.2 OM  2.9 f0 3.29 R0.4892 AL-0.00 WI 20.0 MW  3.2 3
 SPEC SC01BH N T121430 K 0.020 GD 37.8 VS 4.35 DE 3.28 Q0400.0 QA 0.70 Q1 0.00 3
 SPEC SFDRBH N MO 14.0 ST196.6 OM  2.8 f0 12.4 R0.1298 AL-0.00 WI 20.0 MW  3.3 3
 SPEC SFDRBH N T121437 K 0.020 GD 54.8 VS 4.35 DE 3.28 Q0400.0 QA 0.70 Q1 0.00 3
 SPEC MADRBH N MO 14.1 ST  2.8 OM  2.8 f0 2.88 R0.5589 AL-0.00 WI 20.0 MW  3.3 3
 SPEC MADRBH N T121438 K 0.020 GD 63.3 VS 4.35 DE 3.28 Q0400.0 QA 0.70 Q1 0.00 3
 SPEC NAVIBH N MO 14.4 ST999.9 OM  3.0 f0 16.0 R0.1006 AL-0.00 WI 20.0 MW  3.6 3
 SPEC NAVIBH N T121446 K 0.020 GD 95.9 VS 4.35 DE 3.28 Q0400.0 QA 0.70 Q1 0.00 3
 SPEC SDDRBH N MO 13.7 ST0.365 OM  2.2 f0 1.91 R0.8427 AL-0.00 WI 20.0 MW  3.1 3
 SPEC SDDRBH N T121450 K 0.020 GD  110 VS 4.35 DE 3.28 Q0400.0 QA 0.70 Q1 0.00 3
 SPEC MCDRBH N MO 13.7 ST 29.9 OM  2.2 f0 8.04 R0.2002 AL-0.00 WI 20.0 MW  3.1 3
 SPEC MCDRBH N T121457 K 0.020 GD  121 VS 4.35 DE 3.28 Q0400.0 QA 0.70 Q1 0.00 3
 SPEC REDRBH N MO 13.8 ST252.8 OM  2.2 f0 16.0 R0.1006 AL-0.00 WI 20.0 MW  3.1 3
 SPEC REDRBH N T121456 K 0.020 GD  130 VS 4.35 DE 3.28 Q0400.0 QA 0.70 Q1 0.00 3
 SPEC BADRBH N MO 14.1 ST 11.9 OM  2.5 f0 4.47 R0.3601 AL-0.00 WI 20.0 MW  3.3 3
 SPEC BADRBH N T121459 K 0.020 GD  141 VS 4.35 DE 3.28 Q0400.0 QA 0.70 Q1 0.00 3
 SPEC SMDRBH N MO 14.1 ST  1.5 OM  2.5 f0 2.22 R0.7250 AL-0.00 WI 20.0 MW  3.4 3
 SPEC SMDRBH N T1215 2 K 0.020 GD  148 VS 4.35 DE 3.28 Q0400.0 QA 0.70 Q1 0.00 3
 SPEC SDD BH N MO 14.1 ST0.542 OM  2.5 f0 1.57 R1.0252 AL-0.00 WI 20.0 MW  3.4 3
 SPEC SDD BH N T1215 0 K 0.020 GD  148 VS 4.35 DE 3.28 Q0400.0 QA 0.70 Q1 0.00 3
 SPEC HMDRBH N MO 13.4 ST 10.7 OM  1.8 f0 7.14 R0.2254 AL-0.00 WI 20.0 MW  2.9 3
 SPEC HMDRBH N T1215 3 K 0.020 GD  156 VS 4.35 DE 3.28 Q0400.0 QA 0.70 Q1 0.00 3
 SPEC PODRBH N MO 14.2 ST0.853 OM  2.5 f0 1.70 R0.9468 AL-0.00 WI 20.0 MW  3.4 3
 SPEC PODRBH N T121511 K 0.020 GD  184 VS 4.35 DE 3.28 Q0400.0 QA 0.70 Q1 0.00 3
 SPEC JIDRBH N MO 14.3 ST0.808 OM  2.6 f0 1.53 R1.0520 AL-0.00 WI 20.0 MW  3.5 3
 SPEC JIDRBH N T121514 K 0.020 GD  190 VS 4.35 DE 3.28 Q0400.0 QA 0.70 Q1 0.00 3
 SPEC GRTKBH N MO 13.8 ST  4.2 OM  2.0 f0 4.01 R0.4014 AL-0.00 WI 20.0 MW  3.1 3
 SPEC GRTKBH N T121518 K 0.020 GD  215 VS 4.35 DE 3.28 Q0400.0 QA 0.70 Q1 0.00 3
 LOCALITY: 10.8 Km al Sur de Sosua. Puerto Plata.                              3
 2020-04-01-1213-00S.MAN___123                                                 6
 OLDACT:ARG 20-04-01 12:28 OP:AMMR STATUS:               ID:20200401121300     3
 OLDACT:UP  20-04-01 12:40 OP:AMMR STATUS:               ID:20200401121300     3
 OLDACT:UP  20-04-01 12:39 OP:AMMR STATUS:               ID:20200401121300     3
 OLDACT:UP  20-04-01 12:38 OP:AMMR STATUS:               ID:20200401121300     3
 ACTION:UP  22-03-16 16:59 OP:JMLC STATUS:               ID:20200401121422 L   I
 STAT SP IPHASW D HRMM SECON CODA AMPLIT PERI AZIMU VELO AIN AR TRES W  DIS CAZ7
 SODR BZ EPg    C 1214 24.91   51                        149   -0.6610 11.4 339 
 SODR BE  IAML    1214 30.55      4918.2 0.30                          11.4 339 
 SODR BN  IAML    1214 31.01      3696.0 0.40                          11.4 339 
 SC01 BZ EPg    C 1214 27.63   59                        118   -0.3210 32.3 218 
 SC01 BE  IAML    1214 36.81       567.0 0.30                          32.3 218 
 SC01 BN  IAML    1214 38.47       723.3 0.30                          32.3 218 
 LUDR BZ EPg      1214 30.72   44                        107    0.1710 50.9 301 
 LUDR BE  IAML    1214 41.64      2123.4 0.30                          50.9 301 
 SFDR BZ EPg      1214 30.25   49                        107   -0.3310 51.1 143 
 SFDR BE ESg    D 1214 38.68                             107    1.7310 51.1 143 
 SFDR BN  IAML    1214 40.03      1974.9 0.15                          51.1 143 
 SFDR BE  IAML    1214 40.16      1662.1 0.35                          51.1 143 
 MADR BZ EPg      1214 32.12                             103    0.2110 60.2 261 
 MADR BE  IAML    1214 45.02       377.6 0.30                          60.2 261 
 MADR BN  IAML    1214 45.52       591.4 0.35                          60.2 261 
 CADR BN  IAML    1214 42.46       821.5 0.25                          62.6  89 
 CADR BE  IAML    1214 45.63       772.3 0.60                          62.6  89 
 ABDR BZ EPg    C 1214 36.17   35                         98   -0.9410 93.9 186 
 ABDR BE ESg    C 1214 48.30                              98   -0.0010 93.9 186 
 ABDR BE  IAML    1214 48.66         9.6 0.40                          93.9 186 
 NAVI BZ EPg    C 1214 36.17   48                         97   -0.8010 93.9 145 
 NAVI BE ESg      1214 48.40                              97    0.3310 93.9 145 
 NAVI BE  IAML    1214 50.51      2781.8 0.15                          93.9 145 
 NAVI BN  IAML    1214 51.45      3368.2 0.20                          93.9 145 
 SDDR BZ EPg    C 1214 38.36   66                         96   -0.8810  109 227 
 SDDR BE ESg    D 1214 52.04                              96    0.0310  109 227 
 SDDR BN  IAML    1214 53.69        96.5 0.60                           109 227 
 SDDR BE  IAML    1214 54.15        83.7 0.40                           109 227 
 MCDR BZ EPg      1214 42.76   64                         95    1.8510  120 283 
 MCDR BN  IAML    1215  1.11       207.3 0.25                           120 283 
 MCDR BE  IAML    1215  2.45       245.9 0.15                           120 283 
 REDR BZ EPg    D 1214 41.63   74                         95   -0.6910  129 251 
 REDR BE ESg    D 1214 58.12                              95    0.7510  129 251 
 REDR BN  IAML    1214 58.42       521.6 0.25                           129 251 
 REDR BE  IAML    1215  1.14       263.3 0.20                           129 251 
 BADR BZ EPg    D 1214 43.61   74                         94   -0.4110  140 172 
 BADR BN  IAML    1215  2.24       423.5 0.40                           140 172 
 BADR BE  IAML    1215  4.95       253.9 0.50                           140 172 
 SDD  BZ EPg      1214 44.10   50                         94   -0.8910  147 154 
 SDD  BN  IAML    1215  3.21        78.5 0.35                           147 154 
 SMDR BZ EPg      1214 45.68   65                         94    0.6910  147 106 
 SMDR BN  IAML    1215  7.23       237.4 0.60                           147 106 
 SMDR BE  IAML    1215  7.81       259.0 0.65                           147 106 
 SDD  BE ESg    D 1215  2.06                              94    0.0310  147 154 
 SDD  BE  IAML    1215  2.89       125.9 0.40                           147 154 
 HMDR BZ EPg    D 1214 44.86   79                         94   -1.3210  155 128 
 HMDR BN ESg    C 1215  5.25                              94    1.1610  155 128 
 HMDR BN  IAML    1215  5.40        91.9 0.45                           155 128 
 HMDR BE  IAML    1215  5.64       119.9 0.60                           155 128 
 PODR BZ EPg      1214 50.36   80                         93   -0.0710  183 206 
 PODR BE  IAML    1215 18.03       185.2 0.40                           183 206 
 PODR BN  IAML    1215 22.28        81.3 0.20                           183 206 
 JIDR BZ EPg      1214 52.04   74                         93    0.7210  189 227 
 JIDR BE  IAML    1215 16.86       281.6 0.45                           189 227 
 JIDR BN  IAML    1215 17.05       242.7 0.35                           189 227 
 GRTK BZ EPg    D 1214 54.12   64                         92   -1.0510  215 343 
 GRTK BN ESg    C 1215 20.45                              92    0.7110  215 343 
 GRTK BN  IAML    1215 20.72       135.3 0.65                           215 343 
 GRTK BE  IAML    1215 22.24        99.5 0.60                           215 343 
 HIDR BE  IAML    1215 24.89       210.4 0.25                           225 121 
 HIDR BN  IAML    1215 26.69       248.4 0.20                           225 121 
                                                                                
 2020  4 1 1243 23.10L  19.465 -70.405 15.0  DOM 15 0.9 3.2LDOM 3.0CDOM 3.1WDOM1
 SPEC AVERAGE  MO 13.7 ST 13.0 OM  2.6 f0 5.06 R2.5389 AL 0.00 WI 20.0 MW  3.1 3
 SPEC SD       MO  0.9 ST 20.9 OM  0.9 f0 5.07 R5.2232 AL      WI      MW  0.6 3
 GAP= 95        2.51       6.3     4.0 13.5  0.5307E+01 -0.1881E+01  0.1232E+02E
 SPEC SFDRBH N MO 13.4 ST 22.4 OM  2.4 f0 9.94 R0.1649 AL-0.00 WI 20.0 MW  2.9 3
 SPEC SFDRBH N T124331 K 0.020 GD 29.9 VS 4.43 DE 3.34 Q0400.0 QA 0.70 Q1 0.00 3
 SPEC SC01BH N MO 13.5 ST  1.0 OM  2.4 f0 3.31 R0.4952 AL-0.00 WI 20.0 MW  2.9 3
 SPEC SC01BH N T124333 K 0.020 GD 37.3 VS 4.43 DE 3.34 Q0400.0 QA 0.70 Q1 0.00 3
 SPEC SODRBH N MO 14.2 ST0.131 OM  3.1 f00.953 R1.7199 AL-0.00 WI 20.0 MW  3.4 3
 SPEC SODRBH N T124333 K 0.020 GD 39.5 VS 4.43 DE 3.34 Q0400.0 QA 0.70 Q1 0.00 3
 SPEC SDDRBH N MO 13.0 ST0.238 OM  1.5 f0 2.84 R0.5771 AL-0.00 WI 20.0 MW  2.6 3
 SPEC SDDRBH N T124350 K 0.020 GD  108 VS 4.43 DE 3.34 Q0400.0 QA 0.70 Q1 0.00 3
 SPEC SMDRBH N MO 13.5 ST0.286 OM  1.9 f0 2.09 R0.7843 AL-0.00 WI 20.0 MW  2.9 3
 SPEC SMDRBH N T124357 K 0.020 GD  129 VS 4.43 DE 3.34 Q0400.0 QA 0.70 Q1 0.00 3
 SPEC HMDRBH N MO 13.1 ST0.443 OM  1.5 f0 3.27 R0.5013 AL-0.00 WI 20.0 MW  2.7 3
 SPEC HMDRBH N T124357 K 0.020 GD  131 VS 4.43 DE 3.34 Q0400.0 QA 0.70 Q1 0.00 3
 SPEC REDRBH N MO 13.3 ST 54.4 OM  1.7 f0 13.7 R0.1196 AL-0.00 WI 20.0 MW  2.8 3
 SPEC REDRBH N T124360 K 0.020 GD  138 VS 4.43 DE 3.34 Q0400.0 QA 0.70 Q1 0.00 3
 SPEC MCDRBH N MO 14.1 ST0.025 OM  2.5 f00.566 R2.8959 AL-0.00 WI 20.0 MW  3.4 3
 SPEC MCDRBH N T1244 1 K 0.020 GD  140 VS 4.43 DE 3.34 Q0400.0 QA 0.70 Q1 0.00 3
 SPEC PODRBH N MO 16.1 ST0.010 OM  4.4 f00.091 R 18.01 AL-0.00 WI 20.0 MW  4.7 3
 SPEC PODRBH N T1244 8 K 0.020 GD  171 VS 4.43 DE 3.34 Q0400.0 QA 0.70 Q1 0.00 3
 SPEC HIDRBH N MO 13.3 ST 51.1 OM  1.5 f0 13.8 R0.1188 AL-0.00 WI 20.0 MW  2.8 3
 SPEC HIDRBH N T124416 K 0.020 GD  202 VS 4.43 DE 3.34 Q0400.0 QA 0.70 Q1 0.00 3
 LOCALITY: 10.0 Km al Norte de Salcedo, Hermanas Mirabal.                      3
 2020-04-01-1242-00S.MAN___123                                                 6
 OLDACT:ARG 20-04-01 12:53 OP:AMMR STATUS:               ID:20200401124200     3
 OLDACT:UP  20-04-01 13:05 OP:AMMR STATUS:               ID:20200401124200     3
 OLDACT:UP  20-04-01 13:04 OP:AMMR STATUS:               ID:20200401124200     3
 OLDACT:UP  20-04-01 13:03 OP:AMMR STATUS:               ID:20200401124200     3
 OLDACT:UP  20-04-01 13:03 OP:AMMR STATUS:               ID:20200401124200     3
 ACTION:UP  22-03-16 16:59 OP:JMLC STATUS:               ID:20200401124323 L   I
 OLDACT:UP  20-04-01 13:06 OP:AMMR STATUS:               ID:20200401124200     3
 STAT SP IPHASW D HRMM SECON CODA AMPLIT PERI AZIMU VELO AIN AR TRES W  DIS CAZ7
 SFDR BZ EPg      1243 27.67   39                        115   -0.1810 25.9 139 
 SFDR BN ESg    C 1243 33.15                             115    1.7610 25.9 139 
 SFDR BN  IAML    1243 33.66      5904.6 0.30                          25.9 139 
 SC01 BZ EPg      1243 28.74   42                        107   -0.2910 34.2 263 
 SC01 BN ESg      1243 34.85                             107    1.4210 34.2 263 
 SC01 BN  IAML    1243 42.40      4661.8 0.30                          34.2 263 
 SODR BZ EPg      1243 29.82   34                        105    0.4610 36.5 330 
 SODR BN  IAML    1243 45.35      1755.5 0.35                          36.5 330 
 CADR BN ESg      1243 38.28                              97   -0.1510 53.6  65 
 CADR BN  IAML    1243 40.62      1775.3 0.30                          53.6  65 
 CADR BE  IAML    1243 48.16      1170.8 0.30                          53.6  65 
 SDDR BZ EPg    C 1243 39.02   51                         92   -1.0510  107 240 
 SDDR BN  IAML    1244  4.62       789.7 0.30                           107 240 
 BADR BZ EPg      1243 40.39   60                         92   -1.3210  118 178 
 BADR BN ESg    C 1243 56.16                              92    0.6610  118 178 
 BADR BE  IAML    1243 56.89        66.0 0.20                           118 178 
 BADR BN  IAML    1244  2.37       665.0 0.30                           118 178 
 SDD  BE ESg    D 1243 56.02                              92   -0.4510  122 155 
 SDD  BN  IAML    1243 57.71       721.5 0.30                           122 155 
 SMDR BZ EPg      1243 42.15   46                         92   -1.1810  129  98 
 SMDR BN ESg      1243 59.37                              92    1.0510  129  98 
 SMDR BN  IAML    1244  6.27      1390.7 0.35                           129  98 
 HMDR BZ EPg    D 1243 42.76   57                         92   -0.8910  131 125 
 HMDR BE ESg      1243 58.71                              92   -0.1710  131 125 
 HMDR BN  IAML    1244  3.97       342.9 0.30                           131 125 
 REDR BZ EPg    C 1243 43.25   59                         92   -1.4210  138 262 
 REDR BE ESg    C 1244  1.63                              92    0.9810  138 262 
 REDR BN  IAML    1244  2.78      1041.1 0.25                           138 262 
 MCDR BZ EPg      1243 45.47   53                         92    0.5810  140 290 
 MCDR BN  IAML    1244  7.62       526.9 0.30                           140 290 
 PODR BZ EPg      1243 49.20   51                         91   -0.5310  171 213 
 JIDR BN  IAML    1244 20.65       323.3 0.30                           187 235 
 HIDR BE ESg    C 1244 18.34                              91    0.7310  202 118 
 HIDR BN  IAML    1244 21.83       332.5 0.25                           202 118 
 GRTK BE  IAML    1244 26.26       989.9 0.30                           239 342 
 GRTK BN  IAML    1244 27.40        26.2 0.43                           239 342 
                                                                                
 2020  4 1 1326 14.10L  17.827 -71.484 31.1  DOM  3 0.3 2.8LDOM 2.5CDOM 2.9WDOM1
 SPEC AVERAGE  MO 13.4 ST0.531 OM  4.8 f0 2.73 R0.6099 AL 0.00 WI 20.0 MW  2.9 3
 SPEC SD       MO  0.0 ST0.000 OM  2.6 f00.000 R0.0000 AL      WI      MW  0.0 3
 GAP=302        0.74       7.6     7.9 24.9 -0.1262E+02  0.1618E+03 -0.4489E+02E
 SPEC PODRBH N MO 13.4 ST0.531 OM  2.2 f0 2.73 R0.6099 AL-0.00 WI 20.0 MW  2.9 3
 SPEC PODRBH N T132626 K 0.020 GD 53.2 VS 4.50 DE 3.40 Q0400.0 QA 0.70 Q1 0.00 3
 LOCALITY: 9.4 Km al ONO de Oviedo. Pedernales.                                3
 2020-04-01-1325-00S.MAN___123                                                 6
 OLDACT:ARG 20-04-01 15:09 OP:AMMR STATUS:               ID:20200401132500     3
 OLDACT:UP  20-04-01 15:16 OP:AMMR STATUS:               ID:20200401132500     3
 OLDACT:UP  20-04-01 15:16 OP:AMMR STATUS:               ID:20200401132500     3
 ACTION:UP  22-03-16 16:59 OP:JMLC STATUS:               ID:20200401132614 L   I
 OLDACT:UP  21-02-16 01:15 OP:AMMR STATUS:               ID:20200401132500     3
 OLDACT:UP  21-02-16 01:15 OP:AMMR STATUS:               ID:20200401132500     3
 OLDACT:UP  20-04-01 15:18 OP:AMMR STATUS:               ID:20200401132500     3
 STAT SP IPHASW D HRMM SECON CODA AMPLIT PERI AZIMU VELO AIN AR TRES W  DIS CAZ7
 PODR BZ EPg    D 1326 22.68   26                        105    0.3310 43.2  30 
 PODR BE ESg    C 1326 28.08                             105   -0.3710 43.2  30 
 PODR BN  IAML    1326 29.38      1576.3 0.30                          43.2  30 
 JIDR BZ EPg      1326 26.93   29                         90   -0.2410 83.5 332 
 JIDR BN ESg    C 1326 36.88                              90    0.0410 83.5 332 
 JIDR BN  IAML    1326 39.25       231.1 0.30                          83.5 332 
 SDDR BN ESg      1326 47.08                              90    0.2510  129   9 
 SDDR BN  IAML    1326 58.76       147.4 0.30                           129   9 
                                                                                
 2020  4 1 1344 30.20L  17.582 -71.604 31.0  DOM  3 0.2 2.9LDOM 2.9CDOM 3.0WDOM1
 SPEC AVERAGE  MO 13.6 ST  1.2 OM  7.0 f0 3.17 R0.5252 AL 0.00 WI 20.0 MW  3.0 3
 SPEC SD       MO  0.0 ST0.000 OM  4.8 f00.000 R0.0000 AL      WI      MW  0.0 3
 GAP=318        0.54       8.2     6.5 10.2  0.3317E+02  0.5126E+02  0.6544E+02E
 SPEC PODRBH N MO 13.6 ST  1.2 OM  2.2 f0 3.17 R0.5252 AL-0.00 WI 20.0 MW  3.0 3
 SPEC PODRBH N T134449 K 0.020 GD 79.5 VS 4.50 DE 3.40 Q0400.0 QA 0.70 Q1 0.00 3
 LOCALITY: 13.8 Km al SSE de Isla Beata. Mar Caribe.                           3
 2020-04-01-1343-00S.MAN___123                                                 6
 OLDACT:ARG 20-04-01 15:19 OP:AMMR STATUS:               ID:20200401134300     3
 OLDACT:UP  20-04-01 15:24 OP:AMMR STATUS:               ID:20200401134300     3
 OLDACT:UP  20-04-01 15:24 OP:AMMR STATUS:               ID:20200401134300     3
 ACTION:UP  22-03-16 16:59 OP:JMLC STATUS:               ID:20200401134430 L   I
 OLDACT:UP  21-02-16 01:16 OP:AMMR STATUS:               ID:20200401134300     3
 OLDACT:UP  20-04-01 15:25 OP:AMMR STATUS:               ID:20200401134300     3
 STAT SP IPHASW D HRMM SECON CODA AMPLIT PERI AZIMU VELO AIN AR TRES W  DIS CAZ7
 PODR BZ EPg      1344 42.60   40                        107    0.1910 73.2  28 
 PODR BE ESg      1344 51.35                             107   -0.0510 73.2  28 
 PODR BN  IAML    1344 53.70      1966.2 0.30                          73.2  28 
 JIDR BZ IP     C 1344 45.92   42                         62    0.0910  104 345 
 JIDR BN ISg    C 1344 58.72                              99    0.1010  104 345 
 JIDR BN  IAML    1345  1.50       320.3 0.35                           104 345 
 REDR BZ EPg      1344 57.98   46                         94   -0.3310  188 357 
 REDR BN  IAML    1345 22.86        30.6 0.25                           188 357 
                                                                                
