 2020  1 1 1458  2.40L  19.250 -67.497 17.1  DOM  9 0.9 3.4LDOM 3.6CDOM 3.6WDOM1
 SPEC AVERAGE  MO 14.6 ST 10.7 OM  3.3 f0 2.97 R0.6347 AL 0.00 WI 20.0 MW  3.6 3
 SPEC SD       MO  0.8 ST  8.7 OM  0.9 f0 1.39 R0.2759 AL      WI      MW  0.5 3
 GAP=238        2.26      22.4     9.8185.6  0.1557E+03 -0.3373E+03 -0.2622E+04E
 SPEC AGPRBH N MO 14.5 ST 26.0 OM  3.0 f0 4.45 R0.3692 AL-0.00 WI 20.0 MW  3.6 3
 SPEC AGPRBH N T145828 K 0.020 GD 96.9 VS 4.44 DE 3.35 Q0400.0 QA 0.70 Q1 0.00 3
 SPEC PRSNBH N MO 14.2 ST 68.2 OM  2.6 f0 7.72 R0.2128 AL-0.00 WI 20.0 MW  3.4 3
 SPEC PRSNBH N T145834 K 0.020 GD  122 VS 4.44 DE 3.35 Q0400.0 QA 0.70 Q1 0.00 3
 SPEC PCDRHN N MO 14.9 ST  2.7 OM  3.3 f0 1.53 R1.0737 AL-0.00 WI 20.0 MW  3.9 3
 SPEC PCDRHN N T145833 K 0.020 GD  125 VS 4.44 DE 3.35 Q0400.0 QA 0.70 Q1 0.00 3
 SPEC AOPRBH N MO 14.4 ST 19.2 OM  2.8 f0 4.27 R0.3847 AL-0.00 WI 20.0 MW  3.5 3
 SPEC AOPRBH N T145837 K 0.020 GD  128 VS 4.44 DE 3.35 Q0400.0 QA 0.70 Q1 0.00 3
 SPEC CRPRBH N MO 14.8 ST  6.1 OM  3.2 f0 2.06 R0.7975 AL-0.00 WI 20.0 MW  3.8 3
 SPEC CRPRBH N T145840 K 0.020 GD  145 VS 4.44 DE 3.35 Q0400.0 QA 0.70 Q1 0.00 3
 SPEC HIDRBH N MO 14.6 ST 13.4 OM  2.9 f0 3.34 R0.4919 AL-0.00 WI 20.0 MW  3.7 3
 SPEC HIDRBH N T145839 K 0.020 GD  148 VS 4.44 DE 3.35 Q0400.0 QA 0.70 Q1 0.00 3
 SPEC MIDRHH N MO 14.2 ST  4.8 OM  2.5 f0 3.11 R0.5282 AL-0.00 WI 20.0 MW  3.4 3
 SPEC MIDRHH N T145847 K 0.020 GD  166 VS 4.44 DE 3.35 Q0400.0 QA 0.70 Q1 0.00 3
 SPEC HMDRBH N MO 14.5 ST  2.7 OM  2.7 f0 2.06 R0.7975 AL-0.00 WI 20.0 MW  3.6 3
 SPEC HMDRBH N T145856 K 0.020 GD  205 VS 4.44 DE 3.35 Q0400.0 QA 0.70 Q1 0.00 3
 LOCALITY: 165.9 Km al Este de Miches, Oceano Atlantico.                       3
 2020-01-01-1457-00S.MAN___144                                                 6
 OLDACT:ARG 20-01-01 17:07 OP:AMMR STATUS:               ID:20200101145700     3
 OLDACT:UP  20-01-01 17:43 OP:AMMR STATUS:               ID:20200101145700     3
 ACTION:UP  21-12-07 16:32 OP:JMLC STATUS:               ID:20200101145802 L   I
 OLDACT:UP  21-05-05 14:34 OP:JMLC STATUS:               ID:20200101145802 L   3
 OLDACT:UP  20-04-19 16:56 OP:JMLC STATUS:               ID:20200101145802 L   3
 STAT SP IPHASW D HRMM SECON CODA AMPLIT PERI AZIMU VELO AIN AR TRES W  DIS CAZ7
 PRSN BZ EPg      1458 21.08                              95                    
 PRSN BN  IAML    1458 39.83      2156.6 0.30                                   
 AGPR BZ EPg    C 1458 18.08   76                         95    0.4810 95.4 155 
 AGPR BE  IAML    1458 28.83      2234.0 0.30                          95.4 155 
 AGPR BN  IAML    1458 33.06       809.7 0.45                          95.4 155 
 PCDR HZ EPg      1458 20.67                              93   -1.2110  124 229 
 PCDR BN  IAML    1458 35.35       689.1 0.80                           124 229 
 AOPR BZ EPg      1458 23.11   95                         93    0.7310  127 142 
 AOPR BE  IAML    1458 49.92      1689.6 0.30                           127 142 
 AOPR BN  IAML    1458 51.29       940.9 0.30                           127 142 
 CRPR BZ EPg      1458 23.77   73                         93   -1.2010  144 163 
 CRPR BN ESg    D 1458 42.32                              93    0.6810  144 163 
 CRPR BE  IAML    1458 42.35      1212.1 0.45                           144 163 
 CRPR BN  IAML    1458 48.37       784.0 0.35                           144 163 
 HIDR BZ EPg      1458 24.13   69                         93   -1.3510  148 241 
 HIDR BE  IAML    1458 44.30       669.3 0.25                           148 241 
 HIDR BN  IAML    1458 45.28       492.5 0.30                           148 241 
 MIDR HZ EPg      1458 28.70                              92    0.4310  166 260 
 MIDR HN ESg    C 1458 48.72                              92    1.3310  166 260 
 MIDR HE  IAML    1458 49.26       226.6 0.92                           166 260 
 MIDR HN  IAML    1458 51.42       333.3 0.58                           166 260 
 MIDR BN  IAML    1458 51.43       333.2 0.58                           166 260 
 HMDR BZ EPg      1458 34.00   92                         92   -0.1710  205 256 
 HMDR BN ESg    D 1458 57.57                              92   -0.0810  205 256 
 HMDR BN  IAML    1458 58.92       216.9 0.55                           205 256 
 HMDR BE  IAML    1458 59.50       213.5 0.30                           205 256 
 NAVI BZ EPg      1458 44.14   88                         91    0.3510  268 264 
                                                                                
 2020  1 1 1534 43.20L  18.811 -70.361 97.5  DOM  9 0.8 2.4LDOM 2.9CDOM 2.8WDOM1
 SPEC AVERAGE  MO 13.3 ST 64.1 OM  2.2 f0 8.28 R0.3458 AL 0.00 WI 20.0 MW  2.8 3
 SPEC SD       MO  0.7 ST145.5 OM  0.9 f0 5.24 R0.3030 AL      WI      MW  0.4 3
 GAP=104        2.07      12.0     7.2 13.0  0.1981E+02  0.1177E+02 -0.1490E+01E
 SPEC NAVIBH N MO 14.0 ST420.2 OM  2.5 f0 16.0 R0.1036 AL-0.00 WI 20.0 MW  3.3 3
 SPEC NAVIBH N T1535 4 K 0.020 GD  104 VS 4.48 DE 3.40 Q0400.0 QA 0.70 Q1 0.00 3
 SPEC SC01BH N MO 13.4 ST  1.4 OM  1.8 f0 3.86 R0.4294 AL-0.00 WI 20.0 MW  2.9 3
 SPEC SC01BH N T153511 K 0.020 GD  125 VS 4.48 DE 3.40 Q0400.0 QA 0.70 Q1 0.00 3
 SPEC NADRBH N MO 14.5 ST  1.2 OM  2.9 f0 1.59 R1.0425 AL-0.00 WI 20.0 MW  3.6 3
 SPEC NADRBH N T153510 K 0.020 GD  126 VS 4.48 DE 3.40 Q0400.0 QA 0.70 Q1 0.00 3
 SPEC HMDRBH N MO 12.8 ST  1.8 OM  1.1 f0 6.84 R0.2423 AL-0.00 WI 20.0 MW  2.4 3
 SPEC HMDRBH N T153514 K 0.020 GD  141 VS 4.48 DE 3.40 Q0400.0 QA 0.70 Q1 0.00 3
 SPEC PODRBH N MO 12.9 ST  1.4 OM  1.2 f0 5.66 R0.2929 AL-0.00 WI 20.0 MW  2.5 3
 SPEC PODRBH N T153519 K 0.020 GD  155 VS 4.48 DE 3.40 Q0400.0 QA 0.70 Q1 0.00 3
 SPEC MIDRHH N MO 12.5 ST 13.6 OM  0.8 f0 16.0 R0.1036 AL-0.00 WI 20.0 MW  2.3 3
 SPEC MIDRHH N T153520 K 0.020 GD  169 VS 4.48 DE 3.40 Q0400.0 QA 0.70 Q1 0.00 3
 SPEC REDRBH N MO 13.3 ST  9.1 OM  1.5 f0 8.04 R0.2062 AL-0.00 WI 20.0 MW  2.8 3
 SPEC REDRBH N T153522 K 0.020 GD  178 VS 4.48 DE 3.40 Q0400.0 QA 0.70 Q1 0.00 3
 LOCALITY: 14.0 Km al SO de Maimon, Monseor Nouel.                            3
 2020-01-01-1533-00S.MAN___144                                                 6
 OLDACT:UP  20-01-01 17:49 OP:AMMR STATUS:               ID:20200101153300     3
 OLDACT:ARG 20-01-01 17:07 OP:AMMR STATUS:               ID:20200101153300     3
 OLDACT:UP  20-01-01 17:50 OP:AMMR STATUS:               ID:20200101153300     3
 ACTION:UP  21-12-07 16:32 OP:JMLC STATUS:               ID:20200101153443 L   I
 OLDACT:UP  21-11-25 23:08 OP:AMMR STATUS:               ID:20200101153443 L   3
 OLDACT:UP  21-05-05 14:44 OP:JMLC STATUS:               ID:20200101153443 L   3
 OLDACT:UP  20-04-19 16:56 OP:JMLC STATUS:               ID:20200101153443 L   3
 STAT SP IPHASW D HRMM SECON CODA AMPLIT PERI AZIMU VELO AIN AR TRES W  DIS CAZ7
 ABDR BE ESg    C 1535  7.31                             163    0.2710 28.0 270 
 NAVI BZ EPg      1534 55.81   33                        156   -1.1910 38.7  65 
 NAVI BN ESg      1535  6.01                             156   -1.2010 38.7  65 
 NAVI BE  IAML    1535  6.25      1022.4 0.15                          38.7  65 
 NAVI BN  IAML    1535  6.96      1350.1 0.10                          38.7  65 
 SDD  BN ESg    D 1535  9.19                             145   -0.0610 60.6 129 
 SC01 BZ EPg      1534 59.61                             137    0.1010 78.3 331 
 SC01 BN ESg      1535 12.53                             137    0.9410 78.3 331 
 SC01 BE  IAML    1535 13.57       133.9 0.30                          78.3 331 
 SC01 BN  IAML    1535 13.58       113.1 0.40                          78.3 331 
 NADR BZ EPg      1534 59.21   31                        136   -0.4310 80.2  41 
 NADR BN  IAML    1535 14.80       146.8 0.55                          80.2  41 
 HMDR BZ EPg      1535  0.95   44                        128   -0.7610  103  91 
 HMDR BE ESg    D 1535 16.46                             128    1.0510  103  91 
 HMDR BN  IAML    1535 17.08        26.3 0.25                           103  91 
 HMDR BE  IAML    1535 17.58        29.6 0.30                           103  91 
 PODR BZ EPg      1535  4.23   34                        123    0.7110  121 234 
 PODR BN  IAML    1535 23.63        38.9 0.80                           121 234 
 MIDR HN ESg      1535 22.47                             119    0.9710  139  82 
 MIDR HE  IAML    1535 23.34        21.0 0.66                           139  82 
 MIDR HN  IAML    1535 23.78        15.2 0.36                           139  82 
 MIDR BN  IAML    1535 23.80        15.2 0.36                           139  82 
 REDR BZ EPg      1535  6.02   61                        116   -0.4010  150 290 
 REDR BN  IAML    1535 28.30        32.9 0.20                           150 290 
 REDR BE  IAML    1535 28.91        18.1 0.15                           150 290 
                                                                                
 2020  1 1 2225 41.50L  18.908 -67.665 18.8  DOM  8 0.6 2.6LDOM 3.4CDOM 3.0WDOM1
 SPEC AVERAGE  MO 13.6 ST  7.6 OM  2.4 f0 5.20 R0.7217 AL 0.00 WI 20.0 MW  3.0 3
 SPEC SD       MO  0.4 ST  8.9 OM  0.5 f0 2.73 R1.1175 AL      WI      MW  0.3 3
 GAP=198        1.68      16.2     6.2 40.7  0.6723E+02  0.3162E+02 -0.2729E+03E
 SPEC AGPRBH N MO 13.5 ST 28.9 OM  2.2 f0 9.37 R0.1639 AL-0.00 WI 20.0 MW  2.9 3
 SPEC AGPRBH N T2226 2 K 0.020 GD 78.3 VS 4.15 DE 3.11 Q0400.0 QA 0.70 Q1 0.00 3
 SPEC PCDRHN N MO 13.5 ST  1.0 OM  2.2 f0 2.94 R0.5223 AL-0.00 WI 20.0 MW  3.0 3
 SPEC PCDRHN N T2226 5 K 0.020 GD 89.3 VS 4.15 DE 3.11 Q0400.0 QA 0.70 Q1 0.00 3
 SPEC AOPRBH N MO 13.7 ST  7.2 OM  2.3 f0 4.79 R0.3206 AL-0.00 WI 20.0 MW  3.1 3
 SPEC AOPRBH N T222611 K 0.020 GD  115 VS 4.15 DE 3.11 Q0400.0 QA 0.70 Q1 0.00 3
 SPEC HIDRBH N MO 13.2 ST 13.1 OM  1.8 f0 8.55 R0.1796 AL-0.00 WI 20.0 MW  2.8 3
 SPEC HIDRBH N T222611 K 0.020 GD  117 VS 4.15 DE 3.11 Q0400.0 QA 0.70 Q1 0.00 3
 SPEC CRPRBH N MO 13.6 ST  3.7 OM  2.2 f0 4.13 R0.3718 AL-0.00 WI 20.0 MW  3.0 3
 SPEC CRPRBH N T222612 K 0.020 GD  118 VS 4.15 DE 3.11 Q0400.0 QA 0.70 Q1 0.00 3
 SPEC MIDRHH N MO 13.1 ST  4.7 OM  1.6 f0 6.55 R0.2344 AL-0.00 WI 20.0 MW  2.7 3
 SPEC MIDRHH N T222620 K 0.020 GD  147 VS 4.15 DE 3.11 Q0400.0 QA 0.70 Q1 0.00 3
 SPEC SMDRBH N MO 14.5 ST0.028 OM  2.9 f00.419 R3.6647 AL-0.00 WI 20.0 MW  3.6 3
 SPEC SMDRBH N T222626 K 0.020 GD  167 VS 4.15 DE 3.11 Q0400.0 QA 0.70 Q1 0.00 3
 SPEC HMDRBH N MO 13.2 ST  2.3 OM  1.6 f0 4.85 R0.3166 AL-0.00 WI 20.0 MW  2.8 3
 SPEC HMDRBH N T222629 K 0.020 GD  181 VS 4.15 DE 3.11 Q0400.0 QA 0.70 Q1 0.00 3
 LOCALITY: 85.2 Km al ENE de Punta Cana, Canal de la Mona.                     3
 2020-01-01-2224-00S.MAN___144                                                 6
 OLDACT:ARG 20-01-01 22:51 OP:AMMR STATUS:               ID:20200101222400     3
 OLDACT:UP  20-01-01 22:55 OP:AMMR STATUS:               ID:20200101222400     3
 ACTION:UP  21-12-07 16:32 OP:JMLC STATUS:               ID:20200101222541 L   I
 OLDACT:UP  20-04-19 16:56 OP:JMLC STATUS:               ID:20200101222541 L   3
 STAT SP IPHASW D HRMM SECON CODA AMPLIT PERI AZIMU VELO AIN AR TRES W  DIS CAZ7
 AGPR BZ EPg      2225 53.57   55                         98   -0.2410 76.0 130 
 AGPR BN ESg      2226  3.74                              98    0.8510 76.0 130 
 AGPR BE  IAML    2226  4.36       393.8 0.25                          76.0 130 
 AGPR BN  IAML    2226  4.44       497.9 0.20                          76.0 130 
 PCDR HZ EPg      2225 55.92                              97    0.4210 87.3 240 
 PCDR BN  IAML    2226  7.88       172.7 0.54                          87.3 240 
 AOPR BZ EPg      2225 58.82   65                         95   -0.7910  114 123 
 AOPR BE ESg    C 2226 13.39                              95    0.4010  114 123 
 AOPR BE  IAML    2226 16.06       322.8 0.35                           114 123 
 AOPR BN  IAML    2226 18.42       171.8 0.15                           114 123 
 HIDR BZ EPg      2225 59.41   72                         95   -0.4510  116 253 
 HIDR BE ESg      2226 13.20                              95   -0.2110  116 253 
 HIDR BN  IAML    2226 19.02       168.6 0.15                           116 253 
 HIDR BE  IAML    2226 19.71       121.2 0.25                           116 253 
 CRPR BZ EPg      2225 59.69   63                         95   -0.2710  117 149 
 CRPR BE  IAML    2226 18.55       144.5 0.30                           117 149 
 CRPR BN  IAML    2226 20.40       217.8 0.25                           117 149 
 MIDR HZ EPg      2226  3.99   75                         93   -0.3910  146 273 
 MIDR HE  IAML    2226 25.14        49.6 0.16                           146 273 
 MIDR HN  IAML    2226 25.78        59.0 0.20                           146 273 
 MIDR BN  IAML    2226 25.79        59.0 0.20                           146 273 
 SMDR BZ EPg    D 2226  6.96   76                         93   -0.3910  166 285 
 SMDR BE ESg      2226 27.94                              93    1.4910  166 285 
 SMDR BE  IAML    2226 31.04        70.9 1.40                           166 285 
 SMDR BN  IAML    2226 55.07        86.2 0.65                           166 285 
 HMDR BZ EPg      2226  9.30   77                         93   -0.4310  181 266 
 HMDR BE  IAML    2226 34.90        36.4 0.30                           181 266 
 HMDR BN  IAML    2226 37.66        47.7 0.35                           181 266 
                                                                                
 2020  1 2 0003 44.70L  17.858 -66.877 12.2  DOM  6 0.8 3.2LDOM 3.6CDOM 3.2WDOM1
 SPEC AVERAGE  MO 14.0 ST  8.8 OM  3.1 f0 3.27 R0.4796 AL 0.00 WI 20.0 MW  3.2 3
 SPEC SD       MO  0.4 ST  7.2 OM  0.8 f0 1.08 R0.1827 AL      WI      MW  0.2 3
 GAP=278        2.15      13.6     8.7 40.0 -0.7202E+02 -0.1202E+03  0.1492E+03E
 SPEC CRPRBH N MO 14.2 ST 18.5 OM  3.5 f0 4.22 R0.3279 AL-0.00 WI 20.0 MW  3.4 3
 SPEC CRPRBH N T 0 351 K 0.020 GD 30.3 VS 3.74 DE 2.83 Q0400.0 QA 0.70 Q1 0.00 3
 SPEC AOPRBH N MO 14.3 ST 17.6 OM  3.4 f0 3.63 R0.3812 AL-0.00 WI 20.0 MW  3.5 3
 SPEC AOPRBH N T 0 358 K 0.020 GD 56.9 VS 3.74 DE 2.83 Q0400.0 QA 0.70 Q1 0.00 3
 SPEC AGPRBH N MO 14.4 ST  7.1 OM  3.3 f0 2.66 R0.5202 AL-0.00 WI 20.0 MW  3.5 3
 SPEC AGPRBH N T 0 4 3 K 0.020 GD 73.0 VS 3.74 DE 2.83 Q0400.0 QA 0.70 Q1 0.00 3
 SPEC HIDRBH N MO 13.6 ST  8.5 OM  2.2 f0 4.86 R0.2847 AL-0.00 WI 20.0 MW  3.0 3
 SPEC HIDRBH N T 0 440 K 0.020 GD  181 VS 3.74 DE 2.83 Q0400.0 QA 0.70 Q1 0.00 3
 SPEC MIDRHH N MO 13.4 ST0.787 OM  1.9 f0 2.61 R0.5302 AL-0.00 WI 20.0 MW  2.9 3
 SPEC MIDRHH N T 0 454 K 0.020 GD  216 VS 3.74 DE 2.83 Q0400.0 QA 0.70 Q1 0.00 3
 SPEC HMDRBH N MO 13.8 ST0.433 OM  2.2 f0 1.66 R0.8336 AL-0.00 WI 20.0 MW  3.1 3
 SPEC HMDRBH N T 0 457 K 0.020 GD  232 VS 3.74 DE 2.83 Q0400.0 QA 0.70 Q1 0.00 3
 LOCALITY: 32.6 Km al OSO de Ponce, Region de Puerto Rico.                     3
 2020-01-02-0003-00S.MAN___144                                                 6
 OLDACT:ARG 20-01-02 00:12 OP:nr   STATUS:               ID:20200102000300     3
 OLDACT:UP  20-01-02 00:18 OP:AMMR STATUS:               ID:20200102000300     3
 OLDACT:UP  20-01-02 00:17 OP:AMMR STATUS:               ID:20200102000300     3
 ACTION:UP  21-12-07 16:32 OP:JMLC STATUS:               ID:20200102000344 L   I
 OLDACT:UP  20-04-19 16:56 OP:JMLC STATUS:               ID:20200102000344 L   3
 STAT SP IPHASW D HRMM SECON CODA AMPLIT PERI AZIMU VELO AIN AR TRES W  DIS CAZ7
 CRPR BE ESg    C  0 3 53.21                             103   -0.0210 27.7 306 
 CRPR BN  IAML     0 3 54.28      6188.1 0.20                          27.7 306 
 AOPR BZ E      C  0 3 54.15                                           55.6  14 
 AOPR BZ EPg    C  0 3 54.15   78                         90    0.3210 55.6  14 
 AOPR BE ESg    C  0 3 59.95                              90   -0.6210 55.6  14 
 AOPR BN  IAML     0 4  1.77      4009.1 0.30                          55.6  14 
 AGPR BZ EPg    C  0 3 56.70   70                         90    0.3910 72.0 340 
 AGPR BZ E         0 3 56.71                                           72.0 340 
 AGPR BE ESg    C  0 4  4.98                              90    0.1010 72.0 340 
 AGPR BN  IAML     0 4  5.21      3756.3 0.25                          72.0 340 
 HIDR BE ESg    C  0 4 42.11                              90    0.6810  211 293 
 HIDR BN  IAML     0 4 53.43       149.2 0.60                           211 293 
 MIDR HZ EPg    C  0 4 25.67   94                         90    0.7110  261 299 
 MIDR HE ESg    C  0 4 55.79                              90    1.0610  261 299 
 MIDR BN  IAML     0 5  4.34        37.6 0.80                           261 299 
 HMDR BZ EPg    C  0 4 27.63   94                         90   -0.8110  284 292 
 HMDR BE ESg    C  0 4 58.97                              90   -1.8110  284 292 
 HMDR BN  IAML     0 5 12.07        38.4 0.55                           284 292 
                                                                                
