 2020 10 1 1424 43.70L  18.608 -67.390  7.0  DOM  9 0.7 2.0LDOM 2.6CDOM 2.3WDOM1
 SPEC AVERAGE  MO 12.6 ST  1.2 OM  2.1 f0 5.34 R1.2633 AL 0.00 WI 20.0 MW  2.3 3
 SPEC SD       MO  0.8 ST0.977 OM  0.9 f0 2.71 R2.3774 AL      WI      MW  0.6 3
 GAP=190        1.89       8.3     6.2 11.6  0.1682E+02  0.4727E+02 -0.3012E+02E
 SPEC AGPRBH N MO 12.2 ST  2.1 OM  1.7 f0 8.07 R0.1467 AL-0.00 WI 20.0 MW  2.1 3
 SPEC AGPRBH N T142452 K 0.020 GD 34.0 VS 3.20 DE 2.60 Q0400.0 QA 0.70 Q1 0.00 3
 SPEC AOPRBH N MO 12.6 ST  2.3 OM  1.8 f0 5.94 R0.1993 AL-0.00 WI 20.0 MW  2.4 3
 SPEC AOPRBH N T1425 2 K 0.020 GD 73.5 VS 3.20 DE 2.60 Q0400.0 QA 0.70 Q1 0.00 3
 SPEC CRPRBH N MO 12.2 ST  2.2 OM  1.4 f0 7.88 R0.1503 AL-0.00 WI 20.0 MW  2.1 3
 SPEC CRPRBH N T1425 2 K 0.020 GD 74.1 VS 3.20 DE 2.60 Q0400.0 QA 0.70 Q1 0.00 3
 SPEC CELPBH N MO 12.1 ST0.727 OM  1.1 f0 6.21 R0.1907 AL-0.00 WI 20.0 MW  2.0 3
 SPEC CELPBH N T142511 K 0.020 GD  101 VS 3.20 DE 2.60 Q0400.0 QA 0.70 Q1 0.00 3
 SPEC HIDRBH N MO 14.4 ST0.004 OM  3.4 f00.180 R6.5778 AL-0.00 WI 20.0 MW  3.6 3
 SPEC HIDRBH N T142520 K 0.020 GD  118 VS 3.20 DE 2.60 Q0400.0 QA 0.70 Q1 0.00 3
 SPEC HMDRBH N MO 12.0 ST0.145 OM  0.9 f0 3.76 R0.3149 AL-0.00 WI 20.0 MW  2.0 3
 SPEC HMDRBH N T142537 K 0.020 GD  145 VS 3.20 DE 2.60 Q0400.0 QA 0.70 Q1 0.00 3
 LOCALITY: 105.5 Km al Este de Punta Cana. Canal de la Mona.                   3
 2020-10-01-1423-00S.MAN___126                                                 6
 OLDACT:ARG 20-10-01 14:52 OP:jmlc STATUS:               ID:20201001142300     3
 OLDACT:UP  20-10-01 14:58 OP:JMLC STATUS:               ID:20201001142300     3
 OLDACT:UP  20-10-01 14:58 OP:JMLC STATUS:               ID:20201001142300     3
 ACTION:UP  22-01-06 16:15 OP:jmlc STATUS:               ID:20201001142443 L   I
 OLDACT:UP  20-10-01 15:00 OP:JMLC STATUS:               ID:20201001142300     3
 STAT SP IPHASW D HRMM SECON CODA AMPLIT PERI AZIMU VELO AIN AR TRES W  DIS CAZ7
 PRSN BZ IP       1424 52.24   33                         90                    
 PRSN BN IS       1424 59.51                              90                    
 PRSN BN  IAML    1425  0.11       292.2 0.24                                   
 AGPR BZ IP       1424 49.92   20                        102    0.7610 33.3 117 
 AGPR BN IS       1424 54.33                             102    1.1010 33.3 117 
 AGPR BN  IAML    1424 58.87       112.3 0.40                          33.3 117 
 AOPR BZ IP       1424 55.07   39                         96   -0.4610 73.2 113 
 AOPR BN IS       1425  4.40                              96    0.0910 73.2 113 
 AOPR BN  IAML    1425  8.70        73.6 0.52                          73.2 113 
 CRPR BZ IP       1424 55.29   32                         95   -0.3410 73.8 154 
 CRPR BN IS       1425  4.40                              95   -0.0810 73.8 154 
 CRPR BN  IAML    1425 12.80        44.2 1.60                          73.8 154 
 MLPR BZ IP       1424 56.34   40                         95   -0.2210 79.6 153 
 MLPR BN IS       1425  6.42                              95    0.3210 79.6 153 
 CELP BZ IP       1424 59.65   30                         70   -0.7810  104 124 
 CELP BN IS     C 1425 12.61                              70   -0.2310  104 124 
 CELP BN  IAML    1425 13.93        14.7 0.40                           104 124 
 HIDR BZ IP       1425  5.08   32                         50   -0.6210  140 269 
 HIDR BN IS     C 1425 21.96                              50   -0.0510  140 269 
 HIDR BN  IAML    1425 59.89       117.9 0.15                           140 269 
 MIDR HZ IP       1425 10.40                              50   -0.2610  180 284 
 MIDR HN IS     C 1425 31.61                              50    0.9710  180 284 
 MIDR BN  IAML    1425 48.87        32.9 3.98                           180 284 
 HMDR BZ IP       1425 13.15                              50   -1.4210  211 276 
 HMDR BN IS     C 1425 38.66                              50    1.2310  211 276 
 HMDR BN  IAML    1425 49.26        24.8 2.55                           211 276 
                                                                                
 2020 10 1 1958 30.40L  17.969 -66.964  0.0  DOM 11 0.5 2.6LDOM 2.7CDOM 2.7WDOM1
 SPEC AVERAGE  MO 13.1 ST 16.9 OM  2.6 f0 7.04 R0.5793 AL 0.00 WI 20.0 MW  2.7 3
 SPEC SD       MO  0.5 ST 23.5 OM  0.7 f0 5.59 R0.3809 AL      WI      MW  0.3 3
 GAP=191        1.48       4.9     2.4  7.0 -0.1409E+01  0.6055E+01  0.6572E+01E
 SPEC MLPRBH N MO 12.5 ST 63.7 OM  2.6 f0 20.0 R0.0592 AL-0.00 WI 20.0 MW  2.3 3
 SPEC MLPRBH N T195830 K 0.020 GD  8.5 VS 3.20 DE 2.60 Q0400.0 QA 0.70 Q1 0.00 3
 SPEC CRPRBH N MO 13.3 ST 17.1 OM  3.2 f0 6.91 R0.1713 AL-0.00 WI 20.0 MW  2.8 3
 SPEC CRPRBH N T195832 K 0.020 GD 13.8 VS 3.20 DE 2.60 Q0400.0 QA 0.70 Q1 0.00 3
 SPEC PRSNBH N MO 13.5 ST  4.1 OM  3.0 f0 3.71 R 0.319 AL-0.00 WI 20.0 MW  2.9 3
 SPEC PRSNBH N T195838 K 0.020 GD33.80 VS 3.20 DE 2.60 Q0400.0 QA 0.70 Q1      3
 SPEC CELPBH N MO 12.6 ST  2.6 OM  2.0 f0 6.34 R0.1868 AL-0.00 WI 20.0 MW  2.3 3
 SPEC CELPBH N T195841 K 0.020 GD 42.7 VS 3.20 DE 2.60 Q0400.0 QA 0.70 Q1 0.00 3
 SPEC AOPRBH N MO 13.5 ST  8.0 OM  2.9 f0 4.47 R0.2649 AL-0.00 WI 20.0 MW  3.0 3
 SPEC AOPRBH N T195842 K 0.020 GD 47.4 VS 3.20 DE 2.60 Q0400.0 QA 0.70 Q1 0.00 3
 SPEC AGPRBH N MO 13.2 ST  3.4 OM  2.5 f0 4.27 R0.2773 AL-0.00 WI 20.0 MW  2.8 3
 SPEC AGPRBH N T195845 K 0.020 GD 57.6 VS 3.20 DE 2.60 Q0400.0 QA 0.70 Q1 0.00 3
 SPEC SADRBH N MO 13.1 ST0.219 OM  2.0 f0 1.88 R0.6298 AL-0.00 WI 20.0 MW  2.7 3
 SPEC SADRBH N T195922 K 0.020 GD  139 VS 3.20 DE 2.60 Q0400.0 QA 0.70 Q1 0.00 3
 SPEC HIDRBH N MO 12.8 ST 56.3 OM  1.7 f0 15.0 R0.0789 AL-0.00 WI 20.0 MW  2.5 3
 SPEC HIDRBH N T195922 K 0.020 GD  140 VS 3.20 DE 2.60 Q0400.0 QA 0.70 Q1 0.00 3
 SPEC MIDRHH N MO 12.5 ST0.677 OM  1.4 f0 4.17 R0.2839 AL-0.00 WI 20.0 MW  2.3 3
 SPEC MIDRHH N T195939 K 0.020 GD  157 VS 3.20 DE 2.60 Q0400.0 QA 0.70 Q1 0.00 3
 SPEC HMDRBH N MO 14.2 ST0.019 OM  3.0 f00.363 R3.2617 AL-0.00 WI 20.0 MW  3.4 3
 SPEC HMDRBH N T195946 K 0.020 GD  164 VS 3.20 DE 2.60 Q0400.0 QA 0.70 Q1 0.00 3
 LOCALITY: 32.2 Km al SE de Mayaguez. Region de Puerto Rico.                   3
 2020-10-01-1957-00S.MAN___126                                                 6
 OLDACT:ARG 20-10-01 21:08 OP:jmlc STATUS:               ID:20201001195700     3
 OLDACT:UP  20-10-01 21:11 OP:JMLC STATUS:               ID:20201001195700     3
 OLDACT:UP  20-10-01 21:11 OP:JMLC STATUS:               ID:20201001195700     3
 ACTION:UP  22-01-06 16:15 OP:jmlc STATUS:               ID:20201001195830 L   I
 STAT SP IPHASW D HRMM SECON CODA AMPLIT PERI AZIMU VELO AIN AR TRES W  DIS CAZ7
 PRSN BZ IP       1958 35.07   14                         90                    
 PRSN BN IS       1958 40.41                              90                    
 PRSN BN  IAML    1958 43.09      2791.3 0.28                                   
 MLPR BZ IP       1958 30.82                              90   -0.9610 8.46 270 
 MLPR BN IS       1958 32.49                              90   -0.3010 8.46 270 
 MLPR BN  IAML    1958 32.99      3127.2 0.08                          8.46 270 
 CRPR BZ IP       1958 32.16   20                         90   -0.4910 13.8 288 
 CRPR BN IS       1958 34.34                              90    0.0410 13.8 288 
 CRPR BN  IAML    1958 35.88      3773.4 0.28                          13.8 288 
 CELP BZ IP       1958 36.90   36                         90   -0.4110 42.7  74 
 CELP BN IS       1958 43.03                              90    0.6110 42.7  74 
 CELP BN  IAML    1958 47.35       152.0 0.32                          42.7  74 
 AOPR BZ IP       1958 37.42   37                         90   -0.6410 47.4  28 
 AOPR BN  IAML    1958 43.73      1130.6 0.24                          47.4  28 
 AOPR BN IS       1958 43.87                              90    0.1610 47.4  28 
 AGPR BZ IP       1958 39.03   34                         90   -0.6710 57.6 345 
 AGPR BN  IAML    1958 46.63       504.8 0.28                          57.6 345 
 AGPR BN IS       1958 46.67                              90    0.0910 57.6 345 
 SJG  BZ IP       1958 45.10                              90    0.5410 87.7  79 
 SJG  BN IS       1958 54.61                              90   -0.4110 87.7  79 
 SADR BZ IP       1959  0.38                              50    0.5310  194 278 
 SADR BN  IAML    1959 29.84       166.5 1.90                           194 278 
 HIDR BZ IP       1959  0.47   69                         50    0.1310  198 291 
 HIDR BN IS       1959 23.50                              50    1.0210  198 291 
 HIDR BN  IAML    1959 38.28        80.0 0.20                           198 291 
 MIDR HZ IP       1959  6.49                              50   -0.0110  247 297 
 MIDR BN  IAML    1959 49.20        28.9 1.88                           247 297 
 HMDR BZ IP       1959 10.27                              50    0.7710  271 290 
 HMDR BN  IAML    20 0  4.55        33.1 2.85                           271 290 
                                                                                
 2020 10 1 2041 33.40L  19.100 -70.862 23.0  DOM 14 1.0 2.6LDOM 2.8CDOM 3.0WDOM1
 SPEC AVERAGE  MO 13.6 ST 65.0 OM  2.4 f0 7.70 R0.3190 AL 0.00 WI 20.0 MW  3.0 3
 SPEC SD       MO  0.3 ST131.7 OM  0.4 f0 4.85 R0.1796 AL      WI      MW  0.2 3
 GAP= 78        2.64       5.5     4.3  9.2  0.6764E+01 -0.1123E+02 -0.1144E+02E
 SPEC ABDRBH N MO 13.5 ST 17.3 OM  2.3 f0 8.45 R0.1970 AL-0.00 WI 20.0 MW  2.9 3
 SPEC ABDRBH N T204145 K 0.020 GD 46.5 VS 4.50 DE 3.40 Q0400.0 QA 0.70 Q1 0.00 3
 SPEC SC01BH N MO 13.5 ST0.815 OM  2.3 f0 3.08 R0.5406 AL-0.00 WI 20.0 MW  2.9 3
 SPEC SC01BH N T204147 K 0.020 GD 45.2 VS 4.50 DE 3.40 Q0400.0 QA 0.70 Q1 0.00 3
 SPEC SDDRBH N MO 13.5 ST0.738 OM  2.3 f0 2.84 R0.5863 AL-0.00 WI 20.0 MW  3.0 3
 SPEC SDDRBH N T204147 K 0.020 GD 52.2 VS 4.50 DE 3.40 Q0400.0 QA 0.70 Q1 0.00 3
 SPEC MADRBH N MO 14.0 ST  5.3 OM  2.7 f0 3.81 R0.4370 AL-0.00 WI 20.0 MW  3.3 3
 SPEC MADRBH N T204150 K 0.020 GD 61.8 VS 4.50 DE 3.40 Q0400.0 QA 0.70 Q1 0.00 3
 SPEC REDRBH N MO 13.8 ST109.8 OM  2.3 f0 12.4 R0.1343 AL-0.00 WI 20.0 MW  3.1 3
 SPEC REDRBH N T204156 K 0.020 GD 93.3 VS 4.50 DE 3.40 Q0400.0 QA 0.70 Q1 0.00 3
 SPEC NAVIBH N MO 14.1 ST464.6 OM  2.6 f0 16.0 R0.1041 AL-0.00 WI 20.0 MW  3.3 3
 SPEC NAVIBH N T204154 K 0.020 GD 92.1 VS 4.50 DE 3.40 Q0400.0 QA 0.70 Q1 0.00 3
 SPEC NEDRBH N MO 13.1 ST  8.6 OM  1.6 f0 8.97 R0.1856 AL-0.00 WI 20.0 MW  2.7 3
 SPEC NEDRBH N T204156 K 0.020 GD 96.3 VS 4.50 DE 3.40 Q0400.0 QA 0.70 Q1 0.00 3
 SPEC BADRBH N MO 13.7 ST  6.6 OM  2.2 f0 5.19 R0.3208 AL-0.00 WI 20.0 MW  3.1 3
 SPEC BADRBH N T204159 K 0.020 GD 96.8 VS 4.50 DE 3.40 Q0400.0 QA 0.70 Q1 0.00 3
 SPEC MCDRBH N MO 13.7 ST  6.0 OM  2.1 f0 5.00 R0.3330 AL-0.00 WI 20.0 MW  3.1 3
 SPEC MCDRBH N T2042 4 K 0.020 GD  123 VS 4.50 DE 3.40 Q0400.0 QA 0.70 Q1 0.00 3
 SPEC JIDRBH N MO 13.6 ST0.991 OM  2.0 f0 2.94 R0.5663 AL-0.00 WI 20.0 MW  3.0 3
 SPEC JIDRBH N T2042 5 K 0.020 GD  126 VS 4.50 DE 3.40 Q0400.0 QA 0.70 Q1 0.00 3
 SPEC HIDRBH N MO 13.4 ST 93.8 OM  1.5 f0 16.0 R0.1041 AL-0.00 WI 20.0 MW  2.9 3
 SPEC HIDRBH N T204238 K 0.020 GD  234 VS 4.50 DE 3.40 Q0400.0 QA 0.70 Q1 0.00 3
 LOCALITY: 22.9 Km al NO de Constanza. La Vega.                                3
 2020-10-01-2041-00S.MAN___126                                                 6
 OLDACT:ARG 20-10-01 21:15 OP:jmlc STATUS:               ID:20201001204100     3
 OLDACT:UP  20-10-01 21:21 OP:JMLC STATUS:               ID:20201001204100     3
 OLDACT:UP  20-10-01 21:21 OP:JMLC STATUS:               ID:20201001204100     3
 ACTION:UP  22-01-06 16:15 OP:jmlc STATUS:               ID:20201001204133 L   I
 OLDACT:UP  21-11-12 20:26 OP:AMMR STATUS:               ID:20201001204100     3
 OLDACT:UP  20-10-02 00:02 OP:JMLC STATUS:               ID:20201001204100     3
 STAT SP IPHASW D HRMM SECON CODA AMPLIT PERI AZIMU VELO AIN AR TRES W  DIS CAZ7
 SC01 BZ IP       2041 40.71                             114    0.2410 38.9  21 
 SC01 BN  IAML    2041 49.55       226.7 0.30                          38.9  21 
 ABDR BZ IP       2041 40.43   25                        116   -0.4810 40.4 142 
 ABDR BE IS       2041 46.58                             116    0.1310 40.4 142 
 ABDR BN  IAML    2041 47.36       487.3 1.00                          40.4 142 
 SDDR BZ IP       2041 41.48   31                        109   -0.1210 46.9 254 
 SDDR BN IS       2041 49.14                             109    1.5010 46.9 254 
 SDDR BN  IAML    2041 51.64       143.5 0.35                          46.9 254 
 MADR BZ IP       2041 41.79                              75   -1.2310 57.4 334 
 MADR BN IS       2041 51.62                              75    1.5010 57.4 334 
 MADR BN  IAML    2041 53.94       754.1 0.30                          57.4 334 
 LUDR BZ IP       2041 47.27   40                         75   -0.1010 88.3 354 
 NAVI BZ IP       2041 46.27   33                         75   -1.2810 89.2 100 
 NAVI BN IS       2041 56.41                              75   -1.5910 89.2 100 
 NAVI BN  IAML    2041 59.04      2150.7 0.20                          89.2 100 
 REDR BZ IP       2041 47.36   34                         75   -0.3610 90.4 283 
 REDR BN IS       2041 57.98                              75   -0.3110 90.4 283 
 REDR BN  IAML    2042  0.35       718.4 0.15                          90.4 283 
 NEDR BZ IP       2041 46.34   30                         75   -1.7610 93.5 223 
 NEDR BN IS       2041 58.47                              75   -0.4810 93.5 223 
 NEDR BN  IAML    2042  1.94        65.1 0.35                          93.5 223 
 BADR BZ IP       2041 49.18   42                         75    0.9410 94.0 146 
 BADR BN IS       2042  0.78                              75    1.5710 94.0 146 
 BADR BN  IAML    2042  7.40       280.9 0.30                          94.0 146 
 MCDR BZ IP       2041 51.64   43                         59   -0.0510  121 317 
 MCDR BN  IAML    2042 11.21       223.8 0.35                           121 317 
 JIDR BZ IP       2041 52.41   54                         59    0.3310  124 237 
 JIDR BN  IAML    2042 11.76       107.2 0.70                           124 237 
 HMDR BZ IP       2041 56.35   49                         59   -0.2010  160 102 
 HMDR BN IS       2042 13.58                              59   -0.0710  160 102 
 MIDR HZ IP       2042  1.07   49                         59    0.6710  191  94 
 MIDR HN IS       2042 22.17                              59    1.8010  191  94 
 MIDR BN  IAML    2042 23.69        35.4 2.10                           191  94 
 HIDR BZ IP       2042  4.97                              59   -0.6510  233 104 
                                                                                
 2020 10 2 0232  8.50L  17.988 -66.809 23.1  DOM  9 0.9 2.7LDOM 2.8CDOM 2.9WDOM1
 SPEC AVERAGE  MO 13.4 ST 25.2 OM  2.3 f0 8.46 R0.3417 AL 0.00 WI 20.0 MW  2.9 3
 SPEC SD       MO  0.6 ST 26.5 OM  0.7 f0 5.85 R0.2002 AL      WI      MW  0.4 3
 GAP=186        2.30       8.9     4.9 12.4 -0.3535E+01  0.6045E+01 -0.1990E+02E
 SPEC MLPRBH N MO 13.0 ST 17.9 OM  2.0 f0 12.0 R0.1369 AL-0.00 WI 20.0 MW  2.6 3
 SPEC MLPRBH N T 23216 K 0.020 GD 34.0 VS 4.44 DE 3.35 Q0400.0 QA 0.70 Q1 0.00 3
 SPEC CELPBH N MO 12.8 ST 54.1 OM  1.8 f0 20.0 R0.0821 AL-0.00 WI 20.0 MW  2.5 3
 SPEC CELPBH N T 23215 K 0.020 GD 35.2 VS 4.44 DE 3.35 Q0400.0 QA 0.70 Q1 0.00 3
 SPEC AOPRBH N MO 14.3 ST 75.5 OM  3.1 f0 7.52 R0.2185 AL-0.00 WI 20.0 MW  3.4 3
 SPEC AOPRBH N T 23219 K 0.020 GD 46.3 VS 4.44 DE 3.35 Q0400.0 QA 0.70 Q1 0.00 3
 SPEC PRSNBH N MO 13.9 ST 11.7 OM  2.7 f0 5.37 R 0.306 AL-0.00 WI 20.0 MW  3.2 3
 SPEC PRSNBH N T 23220 K 0.020 GD49.40 VS 4.44 DE 3.35 Q0400.0 QA 0.70 Q1      3
 SPEC AGPRBH N MO 14.1 ST  3.7 OM  2.8 f0 3.07 R0.5351 AL-0.00 WI 20.0 MW  3.3 3
 SPEC AGPRBH N T 23224 K 0.020 GD 66.2 VS 4.44 DE 3.35 Q0400.0 QA 0.70 Q1 0.00 3
 SPEC PCDRBH N MO 13.1 ST0.270 OM  1.4 f0 2.71 R0.6062 AL-0.00 WI 20.0 MW  2.7 3
 SPEC PCDRBH N T 23252 K 0.020 GD  177 VS 4.44 DE 3.35 Q0400.0 QA 0.70 Q1 0.00 3
 SPEC HIDRBH N MO 13.2 ST 24.8 OM  1.4 f0 11.5 R0.1429 AL-0.00 WI 20.0 MW  2.8 3
 SPEC HIDRBH N T 233 7 K 0.020 GD  213 VS 4.44 DE 3.35 Q0400.0 QA 0.70 Q1 0.00 3
 SPEC HMDRBH N MO 13.3 ST0.323 OM  1.4 f0 2.45 R0.6705 AL-0.00 WI 20.0 MW  2.8 3
 SPEC HMDRBH N T 23328 K 0.020 GD  286 VS 4.44 DE 3.35 Q0400.0 QA 0.70 Q1 0.00 3
 LOCALITY: 20.7 Km al Oeste de Ponce. Region de Puerto Rico.                   3
 2020-10-02-0231-00S.MAN___126                                                 6
 OLDACT:ARG 20-10-02 05:01 OP:cgrs STATUS:               ID:20201002023100     3
 OLDACT:UP  20-10-02 05:04 OP:CGRS STATUS:               ID:20201002023100     3
 ACTION:UP  22-01-06 16:15 OP:jmlc STATUS:               ID:20201002023208 L   I
 STAT SP IPHASW D HRMM SECON CODA AMPLIT PERI AZIMU VELO AIN AR TRES W  DIS CAZ7
 PRSN BZ EPg    D  232 16.19   17                        103                    
 PRSN BN ESg    D  232 22.03                             103                    
 PRSN BN  IAML     232 23.99      2237.8 0.24                                   
 MLPR BZ EPg    D  232 13.92   25                        126    0.1310 24.9 265 
 MLPR BN ESg    D  232 17.74                             126    0.0310 24.9 265 
 MLPR BN  IAML     232 17.96       397.7 0.16                          24.9 265 
 CELP BZ EPg    D  232 14.44   25                        124    0.4410 26.5  69 
 CELP BN ESg    D  232 17.18                             124   -0.8810 26.5  69 
 CELP BN  IAML     232 18.52       226.5 0.08                          26.5  69 
 AOPR BZ EPg    C  232 15.94   21                        109    0.2210 40.1   8 
 AOPR BN ESg    C  232 21.11                             109    0.0510 40.1   8 
 AOPR BN  IAML     232 21.25      6923.7 0.16                          40.1   8 
 AGPR BZ EPg    C  232 18.93   34                         91    0.1810 62.0 329 
 AGPR BN ESg    D  232 26.39                              91    0.0510 62.0 329 
 AGPR BN  IAML     232 26.55       444.0 0.16                          62.0 329 
 SJG  BZ EPg    C  232 20.67   27                         90    0.6110 71.1  79 
 SJG  BN ESg    D  232 28.50                              90   -0.1110 71.1  79 
 PCDR BZ EPg    C  232 33.90   67                         90   -0.9110  176 290 
 PCDR BN  IAML     233 20.19       114.7 1.85                           176 290 
 HIDR BZ EPg    C  232 38.09   67                         90   -1.8210  212 289 
 HIDR BN  IAML     233 10.07        42.5 0.90                           212 289 
 HMDR BZ EPg    D  232 52.31   71                         90    2.0210  286 288 
 HMDR BN  IAML     233 49.91        25.9 3.15                           286 288 
                                                                                
