 2020  6 1 0007 22.10L  19.981 -70.490  0.1  DOM  6 1.0 2.3LDOM 2.6CDOM 2.6WDOM1
 SPEC AVERAGE  MO 13.0 ST  4.8 OM  2.0 f0 4.81 R0.5126 AL 0.00 WI 20.0 MW  2.6 3
 SPEC SD       MO 10.1 ST  4.6 OM  1.6 f0 4.18 R0.5311 AL      WI      MW  2.1 3
 GAP=158        2.74       7.3     9.5 13.7  0.3084E+02 -0.7469E+02 -0.4381E+02E
 SPEC SODRBH N MO 13.8 ST0.133 OM  3.3 f0 1.00 R1.2987 AL-0.00 WI 20.0 MW  3.2 3
 SPEC SODRBH N T 0 729 K 0.020 GD 26.9 VS 3.51 DE 2.73 Q0400.0 QA 0.70 Q1 0.00 3
 SPEC SC01BH N MO 14.2 ST  0.0 OM  3.3 f00.327 R 0.972 AL-0.00 WI 20.0 MW  3.4 3
 SPEC SC01BH N T 0 741 K 0.020 GD69.30 VS 3.51 DE 2.73 Q0400.0 QA 0.70 Q1      3
 SPEC NADRBH N MO 13.3 ST0.922 OM  2.2 f0 2.90 R0.4478 AL-0.00 WI 20.0 MW  2.8 3
 SPEC NADRBH N T 0 749 K 0.020 GD 96.1 VS 3.51 DE 2.73 Q0400.0 QA 0.70 Q1 0.00 3
 SPEC SDDRBH N MO 14.4 ST  0.0 OM  3.2 f00.179 R 0.255 AL-0.00 WI 20.0 MW  3.5 3
 SPEC SDDRBH N T 0 758 K 0.020 GD11.80 VS 3.51 DE 2.73 Q0400.0 QA 0.70 Q1      3
 SPEC REDRBH N MO 12.7 ST  8.7 OM  1.5 f0 9.70 R 0.134 AL-0.00 WI 20.0 MW  2.4 3
 SPEC REDRBH N T 0 760 K 0.020 GD12.10 VS 3.51 DE 2.73 Q0400.0 QA 0.70 Q1      3
 SPEC GRTKBH N MO 12.7 ST0.683 OM  1.5 f0 4.01 R0.3239 AL-0.00 WI 20.0 MW  2.4 3
 SPEC GRTKBH N T 0 8 7 K 0.020 GD  134 VS 3.51 DE 2.73 Q0400.0 QA 0.70 Q1 0.00 3
 SPEC LADRBH N MO 13.4 ST  0.3 OM  2.2 f0 1.70 R 0.764 AL-0.00 WI 20.0 MW  2.9 3
 SPEC LADRBH N T 0 8 7 K 0.020 GD13.40 VS 3.51 DE 2.73 Q0400.0 QA 0.70 Q1      3
 SPEC BADRBH N MO 12.7 ST 21.8 OM  1.5 f0 12.8 R0.1015 AL-0.00 WI 20.0 MW  2.4 3
 SPEC BADRBH N T 0 8 8 K 0.020 GD  132 VS 3.51 DE 2.73 Q0400.0 QA 0.70 Q1 0.00 3
 SPEC HMDRBH N MO 12.6 ST0.303 OM  1.4 f0 3.32 R0.3912 AL-0.00 WI 20.0 MW  2.4 3
 SPEC HMDRBH N T 0 8 8 K 0.020 GD  132 VS 3.51 DE 2.73 Q0400.0 QA 0.70 Q1 0.00 3
 SPEC JIDRBH N MO 12.7 ST  0.3 OM  1.4 f0 3.03 R 0.429 AL-0.00 WI 20.0 MW  2.4 3
 SPEC JIDRBH N T 0 816 K 0.020 GD14.70 VS 3.51 DE 2.73 Q0400.0 QA 0.70 Q1      3
 SPEC HIDRBH N MO 12.5 ST 25.4 OM  1.2 f0 16.0 R 0.081 AL-0.00 WI 20.0 MW  2.3 3
 SPEC HIDRBH N T 0 823 K 0.020 GD15.70 VS 3.51 DE 2.73 Q0400.0 QA 0.70 Q1      3
 LOCALITY: 30.5 Km al NNE de Puerto Plata, Oceano Atlantico.                   3
 2020-06-01-0006-00S.MAN___126                                                 6
 OLDACT:ARG 20-06-01 02:11 OP:jmlc STATUS:               ID:20200601000600     3
 OLDACT:UP  20-06-01 02:25 OP:JMLC STATUS:               ID:20200601000600     3
 ACTION:UP  22-01-18 18:54 OP:JMLC STATUS:               ID:20200601000722 L   I
 OLDACT:UP  20-06-01 02:27 OP:JMLC STATUS:               ID:20200601000600     3
 STAT SP IPHASW D HRMM SECON CODA AMPLIT PERI AZIMU VELO AIN AR TRES W  DIS CAZ7
 SODR BZ IP     C  0 7 25.17   22                         90   -1.2710 26.9 200 
 SODR BN IS     D  0 7 30.45                              90    0.8110 26.9 200 
 SODR BN  IAML     0 7 30.83       691.5 0.45                          26.9 200 
 LUDR BZ IP     D  0 7 30.03   24                         90   -0.0410 49.4 259 
 LUDR BE IS     D  0 7 36.03                              90    0.0610 49.4 259 
 LUDR BE  IAML     0 7 47.77       213.1 0.40                          49.4 259 
 NADR BZ IP     C  0 7 38.42   31                         90    0.8210 96.1 136 
 NADR BN  IAML     0 7 57.90       152.7 1.60                          96.1 136 
 HMDR BN IS     C  0 8 10.61                              50    1.0110  176 138 
 HMDR BN  IAML     0 8 12.78        17.7 1.25                           176 138 
 BADR BZ IP     C  0 7 48.15   39                         50   -1.2610  176 176 
 BADR BN  IAML     0 8 10.62        36.1 0.41                           176 176 
 BADR BN IS     C  0 8 10.65                              50    1.0310  176 176 
 HMDR BZ IP     C  0 7 47.58   40                         50   -1.8210  176 138 
 GRTK BZ IP     C  0 7 49.50   39                         50   -0.5910  182 339 
 GRTK BN IS     D  0 8 12.05                              50    1.2410  182 339 
 GRTK BN  IAML     0 8 17.11        31.3 0.35                           182 339 
                                                                                
 2020  6 1 0211 29.50L  19.944 -70.527  5.1  DOM  4 1.2 2.1LDOM 2.9CDOM 2.3WDOM1
 SPEC AVERAGE  MO 12.6 ST0.149 OM  2.8 f0 2.79 R0.5386 AL 0.00 WI 20.0 MW  2.3 3
 SPEC SD       MO  8.9 ST0.109 OM  2.0 f0 2.12 R0.4094 AL      WI      MW  1.7 3
 GAP=156        3.04       9.2    11.9 14.6  0.2635E+02 -0.3316E+02 -0.7566E+02E
 SPEC SODRBH N MO 13.0 ST0.106 OM  2.6 f0 1.69 R0.7509 AL-0.00 WI 20.0 MW  2.6 3
 SPEC SODRBH N T 21136 K 0.020 GD 22.4 VS 3.43 DE 2.70 Q0400.0 QA 0.70 Q1 0.00 3
 SPEC SC01BH N MO 12.4 ST  0.1 OM  1.6 f0 2.28 R 0.557 AL-0.00 WI 20.0 MW  2.2 3
 SPEC SC01BH N T 21147 K 0.020 GD60.40 VS 3.43 DE 2.70 Q0400.0 QA 0.70 Q1      3
 SPEC BADRBH N MO 15.1 ST  0.0 OM  3.9 f00.129 R 0.838 AL-0.00 WI 20.0 MW  4.0 3
 SPEC BADRBH N T 21216 K 0.020 GD13.10 VS 3.43 DE 2.70 Q0400.0 QA 0.70 Q1      3
 SPEC HMDRBH N MO 12.2 ST0.192 OM  1.0 f0 3.89 R0.3262 AL-0.00 WI 20.0 MW  2.1 3
 SPEC HMDRBH N T 21215 K 0.020 GD  132 VS 3.43 DE 2.70 Q0400.0 QA 0.70 Q1 0.00 3
 LOCALITY: 22.1 Km al NE de Puerto Plata, Oceano Atlantico.                    3
 2020-06-01-0210-00S.MAN___126                                                 6
 OLDACT:UP  20-06-01 02:36 OP:JMLC STATUS:               ID:20200601021000     3
 OLDACT:ARG 20-06-01 02:31 OP:jmlc STATUS:               ID:20200601021000     3
 OLDACT:UP  20-06-01 02:37 OP:JMLC STATUS:               ID:20200601021000     3
 ACTION:UP  22-01-18 18:54 OP:JMLC STATUS:               ID:20200601021129 L   I
 OLDACT:UP  21-12-23 11:06 OP:NEJM STATUS:               ID:20200601021000     3
 OLDACT:UP  20-06-01 02:37 OP:JMLC STATUS:               ID:20200601021000     3
 STAT SP IPHASW D HRMM SECON CODA AMPLIT PERI AZIMU VELO AIN AR TRES W  DIS CAZ7
 SODR BZ IP     C  211 32.31   22                        103   -0.8210 21.8 194 
 SODR BE IS     D  211 37.57                             103    1.7610 21.8 194 
 SODR BN  IAML     211 37.94       394.2 0.45                          21.8 194 
 REDR BZ IP     D  211 50.91   47                         50   -1.3810  144 239 
 REDR BE IS     D  212  9.05                              50   -0.0910  144 239 
 REDR BN  IAML     212 12.26        43.1 0.15                           144 239 
 HMDR BZ IP     C  211 54.92   57                         50   -1.3210  176 137 
 HMDR BE IS     C  212 16.86                              50    0.8410  176 137 
 HMDR BN  IAML     212 19.77        19.4 2.20                           176 137 
 GRTK BZ IP     C  211 56.70   40                         50   -0.6010  185 340 
 GRTK BE IS     C  212 19.47                              50    1.6110  185 340 
 GRTK BN  IAML     212 23.29        20.6 0.70                           185 340 
                                                                                
 2020  6 1 1026 49.20L  18.268 -70.300 17.7  DOM  4 0.4 1.8LDOM 2.6CDOM 2.2WDOM1
 SPEC AVERAGE  MO 12.4 ST  1.2 OM  3.8 f0 7.42 R0.2030 AL 0.00 WI 20.0 MW  2.2 3
 SPEC SD       MO  0.0 ST0.000 OM  2.8 f00.000 R0.0000 AL      WI      MW  0.0 3
 GAP=205        1.09      10.1     4.4  8.5 -0.3331E+02 -0.2152E+02  0.5819E+02E
 SPEC PODRBH N MO 12.4 ST  1.2 OM  1.0 f0 7.42 R0.2030 AL-0.00 WI 20.0 MW  2.2 3
 SPEC PODRBH N T102716 K 0.020 GD  105 VS 4.07 DE 3.04 Q0400.0 QA 0.70 Q1 0.00 3
 LOCALITY: 4.0 Km al ESE de Bani, Peravia.                                     3
 2020-06-01-1026-00S.MAN___126                                                 6
 OLDACT:ARG 20-06-01 10:56 OP:nr   STATUS:               ID:20200601102600     3
 OLDACT:UP  20-06-01 11:00 OP:JMLC STATUS:               ID:20200601102600     3
 ACTION:UP  22-01-18 18:54 OP:JMLC STATUS:               ID:20200601102649 L   I
 OLDACT:UP  20-06-01 11:00 OP:JMLC STATUS:               ID:20200601102600     3
 STAT SP IPHASW D HRMM SECON CODA AMPLIT PERI AZIMU VELO AIN AR TRES W  DIS CAZ7
 BADR BZ EPg    D 1026 52.33   18                        138   -0.7910 15.8 336 
 BADR BE ESg    C 1026 56.39                             138    0.4010 15.8 336 
 BADR BN  IAML    1026 58.84        74.7 0.20                          15.8 336 
 PODR BZ EPg    C 1027  6.04   30                         95    0.1710  104 264 
 PODR BE ESg    C 1027 18.38                              95    0.2110  104 264 
 HMDR BZ EPg    C 1027  6.75   27                         94   -0.3110  113  59 
 HMDR BE ESg    D 1027 20.72                              94    0.4810  113  59 
 HMDR BN  IAML    1027 23.09        10.4 0.90                           113  59 
 SC01 BZ EPg    C 1027 10.39   65                         93   -0.1610  136 341 
 SC01 BN  IAML    1027 50.13        84.4 0.20                           136 341 
                                                                                
 2020  6 1 1205 48.60L  18.866 -66.558 12.1  DOM  6 1.0 3.8LDOM 3.6CDOM 4.0WDOM1
 SPEC AVERAGE  MO 15.1 ST  4.2 OM  4.2 f0 1.41 R1.4566 AL 0.00 WI 20.0 MW  4.0 3
 SPEC SD       MO  0.3 ST  4.3 OM  1.0 f00.698 R0.6128 AL      WI      MW  0.2 3
 GAP=228        2.63      28.1    18.0 21.3  0.4263E+03  0.1890E+03  0.2911E+03E
 SPEC PCDRBH N MO 15.4 ST  1.2 OM  3.7 f00.775 R2.1150 AL-0.00 WI 20.0 MW  4.2 3
 SPEC PCDRBH N T12 637 K 0.020 GD  169 VS 4.43 DE 3.34 Q0400.0 QA 0.70 Q1 0.00 3
 SPEC HIDRBH N MO 14.9 ST 11.5 OM  3.1 f0 2.50 R0.6556 AL-0.00 WI 20.0 MW  3.9 3
 SPEC HIDRBH N T12 647 K 0.020 GD  192 VS 4.43 DE 3.34 Q0400.0 QA 0.70 Q1 0.00 3
 SPEC HMDRBH N MO 14.9 ST  2.6 OM  3.0 f0 1.53 R1.0713 AL-0.00 WI 20.0 MW  3.9 3
 SPEC HMDRBH N T12 7 5 K 0.020 GD  238 VS 4.43 DE 3.34 Q0400.0 QA 0.70 Q1 0.00 3
 SPEC SODRBH N MO 15.4 ST  1.4 OM  3.4 f00.826 R1.9844 AL-0.00 WI 20.0 MW  4.2 3
 SPEC SODRBH N T12 742 K 0.020 GD  326 VS 4.43 DE 3.34 Q0400.0 QA 0.70 Q1 0.00 3
 LOCALITY: 71.3 Km al ONO de San Juan, Region de Puerto Rico.                  3
 2020-06-01-1205-00S.MAN___126                                                 6
 OLDACT:UP  20-06-01 12:31 OP:JMLC STATUS:               ID:20200601120500     3
 OLDACT:ARG 20-06-01 12:15 OP:nr   STATUS:               ID:20200601120500     3
 OLDACT:UP  20-06-01 12:35 OP:JMLC STATUS:               ID:20200601120500     3
 OLDACT:UP  20-06-01 12:35 OP:JMLC STATUS:               ID:20200601120500     3
 ACTION:UP  22-01-18 18:54 OP:JMLC STATUS:               ID:20200601120548 L   I
 OLDACT:UP  21-12-23 11:10 OP:NEJM STATUS:               ID:20200601120500     3
 OLDACT:UP  20-06-01 12:38 OP:JMLC STATUS:               ID:20200601120500     3
 STAT SP IPHASW D HRMM SECON CODA AMPLIT PERI AZIMU VELO AIN AR TRES W  DIS CAZ7
 SJG  BZ EPg    D 12 6  3.31   47                         90   -0.2110 93.9 153 
 PCDR BZ EPg    D 12 6 18.89   64                         90   -0.1010  196 259 
 PCDR BN  IAML    12 6 50.56       832.5 0.95                           196 259 
 HIDR BZ EPg    C 12 6 23.51   63                         90   -0.5210  229 263 
 HIDR BE IS       12 6 47.80                              55    2.4010  229 263 
 HIDR BN  IAML    12 6 59.71       997.9 0.30                           229 263 
 HMDR BZ EPg    C 12 6 34.01   67                         90   -0.3710  298 269 
 HMDR BE ESg    C 12 7  6.56                              90   -1.7010  298 269 
 HMDR BN  IAML    12 7 17.39       353.6 0.45                           298 269 
 SODR BZ EPg    C 12 6 55.82  101                         90    0.8810  434 284 
 SODR BE ESg    C 12 7 44.21                              90    0.1610  434 284 
 LUDR BZ EPg    C 12 7  0.96   99                         90   -0.3410  475 285 
 LUDR BE ESg    C 12 7 54.89                              90   -0.2110  475 285 
                                                                                
 2020  6 1 1358 31.00L  18.823 -67.583 12.1  DOM  5 0.4 3.3LDOM 3.2CDOM 3.4WDOM1
 SPEC AVERAGE  MO 14.2 ST 38.1 OM  3.3 f0 3.37 R0.7236 AL 0.00 WI 20.0 MW  3.4 3
 SPEC SD       MO  0.3 ST 70.3 OM  0.9 f0 1.94 R0.5423 AL      WI      MW  0.2 3
 GAP=344        0.99      15.1     6.1  6.8 -0.1627E+02 -0.3037E+01 -0.4184E+02E
 SPEC HIDRBH N MO 13.9 ST  4.6 OM  2.4 f0 3.79 R0.4130 AL-0.00 WI 20.0 MW  3.2 3
 SPEC HIDRBH N T1359 2 K 0.020 GD  116 VS 4.23 DE 3.18 Q0400.0 QA 0.70 Q1 0.00 3
 SPEC HMDRBH N MO 13.9 ST0.787 OM  2.3 f0 2.02 R0.7748 AL-0.00 WI 20.0 MW  3.2 3
 SPEC HMDRBH N T135921 K 0.020 GD  165 VS 4.23 DE 3.18 Q0400.0 QA 0.70 Q1 0.00 3
 SPEC NAVIBH N MO 14.7 ST178.6 OM  3.0 f0 6.63 R0.2361 AL-0.00 WI 20.0 MW  3.8 3
 SPEC NAVIBH N T135938 K 0.020 GD  211 VS 4.23 DE 3.18 Q0400.0 QA 0.70 Q1 0.00 3
 SPEC BADRBH N MO 14.1 ST  6.0 OM  2.3 f0 3.53 R0.4434 AL-0.00 WI 20.0 MW  3.3 3
 SPEC BADRBH N T135949 K 0.020 GD  237 VS 4.23 DE 3.18 Q0400.0 QA 0.70 Q1 0.00 3
 SPEC SDDRBH N MO 14.4 ST0.196 OM  2.5 f00.894 R1.7507 AL-0.00 WI 20.0 MW  3.5 3
 SPEC SDDRBH N T14 012 K 0.020 GD  299 VS 4.23 DE 3.18 Q0400.0 QA 0.70 Q1 0.00 3
 LOCALITY: 99.7 Km al ENE de Punta Cana, Canal de la Mona.                     3
 2020-06-01-1358-00S.MAN___126                                                 6
 OLDACT:ARG 20-06-01 14:03 OP:nr   STATUS:               ID:20200601135800     3
 OLDACT:UP  20-06-01 14:08 OP:JMLC STATUS:               ID:20200601135800     3
 ACTION:UP  22-01-18 18:54 OP:JMLC STATUS:               ID:20200601135831 L   I
 OLDACT:UP  21-12-23 11:14 OP:NEJM STATUS:               ID:20200601135800     3
 OLDACT:UP  21-12-23 11:13 OP:NEJM STATUS:               ID:20200601135800     3
 OLDACT:UP  20-06-01 14:08 OP:JMLC STATUS:               ID:20200601135800     3
 STAT SP IPHASW D HRMM SECON CODA AMPLIT PERI AZIMU VELO AIN AR TRES W  DIS CAZ7
 HIDR BZ EPg    D 1358 49.98   34                         90   -0.1910  122 258 
 HIDR BE ESg    C 1359  4.16                              90   -0.2010  122 258 
 HIDR BN  IAML    1359  8.96       344.1 0.25                           122 258 
 HMDR BZ EPg    C 1359  0.53   47                         90    0.1310  190 269 
 HMDR BE ESg    C 1359 22.81                              90    0.6410  190 269 
 HMDR BN  IAML    1359 25.63       119.9 0.55                           190 269 
 NAVI BZ EPg    C 1359 10.15   48                         90   -0.6410  258 274 
 NAVI BE ESg    C 1359 39.91                              90   -0.3310  258 274 
 NAVI BN  IAML    1359 42.46      1456.1 0.30                           258 274 
 BADR BZ EPg    C 1359 16.75   71                         90    0.0510  297 261 
 BADR BE ESg    D 1359 50.61                              90    0.0810  297 261 
 BADR BN  IAML    14 0  6.04       106.3 0.40                           297 261 
 SDDR BZ IP       1359 24.09                              54    0.5710  391 273 
 SDDR BE IS       14 0  2.29                              54   -0.1010  391 273 
 SDDR BN  IAML    14 0 26.21        36.3 0.40                           391 273 
                                                                                
 2020  6 1 1614 11.10L  20.003 -72.789 80.0  DOM 11 1.1 3.4LDOM 3.6CDOM 3.7WDOM1
 SPEC AVERAGE  MO 14.7 ST134.4 OM  3.1 f0 3.96 R0.5192 AL 0.00 WI 20.0 MW  3.7 3
 SPEC SD       MO  0.2 ST327.2 OM  0.5 f0 2.63 R0.1574 AL      WI      MW  0.2 3
 GAP=256        3.08       9.5    16.4 53.8 -0.1832E+02  0.2972E+03 -0.1133E+03E
 SPEC JIDRBH N MO 14.7 ST 14.8 OM  2.9 f0 3.06 R0.5441 AL-0.00 WI 20.0 MW  3.8 3
 SPEC JIDRBH N T161456 K 0.020 GD  209 VS 4.50 DE 3.40 Q0400.0 QA 0.70 Q1 0.00 3
 SPEC NEDRBH N MO 14.6 ST  6.4 OM  2.7 f0 2.61 R0.6379 AL-0.00 WI 20.0 MW  3.7 3
 SPEC NEDRBH N T1615 3 K 0.020 GD  232 VS 4.50 DE 3.40 Q0400.0 QA 0.70 Q1 0.00 3
 SPEC SC01BH N MO 14.8 ST 11.8 OM  2.9 f0 2.72 R0.6121 AL-0.00 WI 20.0 MW  3.8 3
 SPEC SC01BH N T1615 3 K 0.020 GD  238 VS 4.50 DE 3.40 Q0400.0 QA 0.70 Q1 0.00 3
 SPEC PODRBH N MO 14.6 ST 11.5 OM  2.7 f0 3.02 R0.5513 AL-0.00 WI 20.0 MW  3.7 3
 SPEC PODRBH N T161511 K 0.020 GD  270 VS 4.50 DE 3.40 Q0400.0 QA 0.70 Q1 0.00 3
 SPEC NAVIBH N MO 15.2 ST999.9 OM  3.2 f0 10.8 R0.1542 AL-0.00 WI 20.0 MW  4.1 3
 SPEC NAVIBH N T161522 K 0.020 GD  322 VS 4.50 DE 3.40 Q0400.0 QA 0.70 Q1 0.00 3
 SPEC BADRBH N MO 14.5 ST 21.2 OM  2.5 f0 4.07 R0.4091 AL-0.00 WI 20.0 MW  3.6 3
 SPEC BADRBH N T161522 K 0.020 GD  321 VS 4.50 DE 3.40 Q0400.0 QA 0.70 Q1 0.00 3
 SPEC HMDRBH N MO 14.4 ST  6.2 OM  2.3 f0 2.96 R0.5625 AL-0.00 WI 20.0 MW  3.5 3
 SPEC HMDRBH N T161536 K 0.020 GD  390 VS 4.50 DE 3.40 Q0400.0 QA 0.70 Q1 0.00 3
 SPEC SMDRBH N MO 14.4 ST  3.5 OM  2.3 f0 2.44 R0.6824 AL-0.00 WI 20.0 MW  3.5 3
 SPEC SMDRBH N T161536 K 0.020 GD  394 VS 4.50 DE 3.40 Q0400.0 QA 0.70 Q1 0.00 3
 LOCALITY: 122.0 Km al ONO de San Fernando de Montecristi, Oceano Atlantico.   3
 2020-06-01-1614-00S.MAN___126                                                 6
 OLDACT:ARG 20-06-01 16:21 OP:nr   STATUS:               ID:20200601161400     3
 OLDACT:UP  20-06-01 16:33 OP:JMLC STATUS:               ID:20200601161400     3
 OLDACT:UP  20-06-01 16:33 OP:JMLC STATUS:               ID:20200601161400     3
 ACTION:UP  22-01-18 18:54 OP:JMLC STATUS:               ID:20200601161411 L   I
 OLDACT:UP  20-06-01 16:44 OP:JMLC STATUS:               ID:20200601161400     3
 STAT SP IPHASW D HRMM SECON CODA AMPLIT PERI AZIMU VELO AIN AR TRES W  DIS CAZ7
 LUDR BZ EPg    D 1614 36.29   69                        107   -1.9810  193  93 
 LUDR BE ESg    C 1614 56.41                             107   -2.0010  193  93 
 JIDR BZ EPg    C 1614 38.12   55                        106   -0.3010  194 149 
 JIDR BE ESg    C 1614 58.44                             106   -0.2310  194 149 
 JIDR BN  IAML    1614 58.94      1651.8 0.25                           194 149 
 NEDR BZ EPg    C 1614 40.89   49                        104   -0.3610  218 140 
 NEDR BE ESg    C 1615  4.70                             104    1.1010  218 140 
 NEDR BN  IAML    1615  8.77       294.2 0.30                           218 140 
 SC01 BZ EPg    C 1614 40.89   64                        104   -1.2310  225 106 
 SC01 BE ESg    D 1615  4.59                             104   -0.5210  225 106 
 SC01 BN  IAML    1615 11.19       491.5 0.40                           225 106 
 GRTK BZ EPg    D 1614 44.93   85                        103    1.0910  240  46 
 GRTK BE ESg    D 1615 10.45                             103    2.3410  240  46 
 PODR BZ EPg    C 1614 46.20   69                        102    0.0710  258 142 
 PODR BE ESg    C 1615 13.40                             102    1.3210  258 142 
 PODR BN  IAML    1615 24.40       258.9 0.35                           258 142 
 ABDR BZ EPg    C 1614 46.23   68                        101   -0.5910  263 120 
 ABDR BE ESg    D 1615 13.74                             101    0.4510  263 120 
 ABDR BN  IAML    1615 24.49         0.3 0.90                           263 120 
 BADR BZ EPg    C 1614 54.19   94                         99    1.7910  311 124 
 BADR BE ESg    C 1615 23.94                              99    0.9410  311 124 
 BADR BN  IAML    1615 34.04       238.8 0.25                           311 124 
 NAVI BZ EPg    C 1614 51.61   76                         99   -0.8810  312 111 
 NAVI BE ESg    C 1615 23.94                              99    0.7910  312 111 
 NAVI BN  IAML    1615 29.69      1894.0 0.15                           312 111 
 HMDR BZ EPg    C 1615  0.48   88                         97   -0.4310  382 110 
 HMDR BE ESg    C 1615 38.46                              97    0.6610  382 110 
 HMDR BN  IAML    1615 47.36        97.5 0.70                           382 110 
 SMDR BZ EPg    C 1615  0.16   76                         97   -1.1110  386 101 
 SMDR BE ESg    C 1615 37.51                              97   -0.9210  386 101 
 SMDR BN  IAML    1615 59.05       137.2 0.85                           386 101 
                                                                                
