 2020  6 2 1700 16.70L  18.915 -70.151  0.0  DOM  4 0.6 2.0LDOM 2.7CDOM 2.1WDOM1
 SPEC AVERAGE  MO 12.3 ST  6.0 OM  2.8 f0 8.38 R0.1843 AL 0.00 WI 20.0 MW  2.1 3
 SPEC SD       MO  0.5 ST  5.2 OM  1.4 f0 4.60 R0.0873 AL      WI      MW  0.4 3
 GAP=146        1.55       5.5     4.6 17.3 -0.3438E+01  0.2236E+02 -0.3003E+02E
 SPEC NAVIBH N MO 13.2 ST 10.6 OM  3.1 f0 6.35 R0.1865 AL-0.00 WI 20.0 MW  2.7 3
 SPEC NAVIBH N T17 019 K 0.020 GD 13.9 VS 3.20 DE 2.60 Q0400.0 QA 0.70 Q1 0.00 3
 SPEC BADRBH N MO 12.0 ST 11.9 OM  1.3 f0 16.0 R0.0740 AL-0.00 WI 20.0 MW  2.0 3
 SPEC BADRBH N T17 032 K 0.020 GD 61.4 VS 3.20 DE 2.60 Q0400.0 QA 0.70 Q1 0.00 3
 SPEC HMDRBH N MO 11.8 ST0.080 OM  0.9 f0 3.73 R0.3174 AL-0.00 WI 20.0 MW  1.8 3
 SPEC HMDRBH N T17 038 K 0.020 GD 82.4 VS 3.20 DE 2.60 Q0400.0 QA 0.70 Q1 0.00 3
 SPEC REDRBH N MO 12.2 ST  1.6 OM  1.1 f0 7.43 R0.1594 AL-0.00 WI 20.0 MW  2.1 3
 SPEC REDRBH N T17 1 1 K 0.020 GD  129 VS 3.20 DE 2.60 Q0400.0 QA 0.70 Q1 0.00 3
 LOCALITY: 15.5 Km al Sur de Cotui, Sanchez Ramirez.                           3
 2020-06-02-1700-00S.MAN___126                                                 6
 OLDACT:UP  20-06-02 19:22 OP:JMLC STATUS:               ID:20200602170000     3
 OLDACT:ARG 20-06-02 17:10 OP:njm  STATUS:               ID:20200602170000     3
 OLDACT:UP  20-06-02 19:23 OP:JMLC STATUS:               ID:20200602170000     3
 ACTION:UP  22-01-18 18:54 OP:JMLC STATUS:               ID:20200602170016 L   I
 STAT SP IPHASW D HRMM SECON CODA AMPLIT PERI AZIMU VELO AIN AR TRES W  DIS CAZ7
 NAVI BZ IP       17 0 18.89   23                         93   -0.0110 13.9  70 
 NAVI BN  IAML    17 0 22.75      2964.4 0.20                          13.9  70 
 BADR BZ IP       17 0 26.35   34                         91   -0.2110 61.4 201 
 BADR BE ESg      17 0 33.99                              91    0.1010 61.4 201 
 BADR BN  IAML    17 0 50.82        45.0 0.55                          61.4 201 
 HMDR BZ IP       17 0 29.59   41                         90   -0.3610 82.4 100 
 HMDR BN  IAML    17 0 50.55        25.6 1.05                          82.4 100 
 REDR BZ IP       17 0 44.19   42                         50    1.2210  168 284 
 REDR BE ESg      17 1  3.05                              90   -0.7510  168 284 
                                                                                
 2020  6 2 1820 48.90L  18.646 -69.680 78.6  DOM  3 0.7 2.2LDOM 2.7CDOM 2.3WDOM1
 SPEC AVERAGE  MO 12.6 ST  3.7 OM  2.4 f0 8.81 R0.2381 AL 0.00 WI 20.0 MW  2.3 3
 SPEC SD       MO  0.0 ST  3.3 OM  1.4 f0 4.00 R0.1080 AL      WI      MW  0.0 3
 GAP=300        1.66      14.9    17.1 16.1  0.1073E+03 -0.1472E+02  0.6978E+02E
 SPEC HMDRBH N MO 12.5 ST  7.0 OM  1.1 f0 12.8 R0.1301 AL-0.00 WI 20.0 MW  2.3 3
 SPEC HMDRBH N T1821 7 K 0.020 GD 86.2 VS 4.50 DE 3.40 Q0400.0 QA 0.70 Q1 0.00 3
 SPEC SMDRBH N MO 12.6 ST0.406 OM  1.0 f0 4.81 R0.3462 AL-0.00 WI 20.0 MW  2.3 3
 SPEC SMDRBH N T182114 K 0.020 GD  118 VS 4.50 DE 3.40 Q0400.0 QA 0.70 Q1 0.00 3
 LOCALITY: 12.5 Km al SSO de Bayaguana, Monte Plata.                           3
 2020-06-02-1820-00S.MAN___126                                                 6
 OLDACT:UP  20-06-02 19:25 OP:JMLC STATUS:               ID:20200602182000     3
 OLDACT:ARG 20-06-02 19:20 OP:njm  STATUS:               ID:20200602182000     3
 OLDACT:UP  20-06-02 19:27 OP:JMLC STATUS:               ID:20200602182000     3
 ACTION:UP  22-01-18 18:54 OP:JMLC STATUS:               ID:20200602182048 L   I
 STAT SP IPHASW D HRMM SECON CODA AMPLIT PERI AZIMU VELO AIN AR TRES W  DIS CAZ7
 HMDR BZ IP       1821  0.68   28                        154    0.1610 35.3  63 
 HMDR BE ESg      1821  9.00                             154   -0.0910 35.3  63 
 HMDR BN  IAML    1821  9.30        53.0 0.20                          35.3  63 
 SMDR BZ IP       1821  5.52   38                        127    0.8910 88.1  36 
 SMDR BE ESg      1821 15.73                             127   -0.5110 88.1  36 
 SMDR BN  IAML    1821 19.80        54.6 0.80                          88.1  36 
 PCDR BZ IP       1821  8.81   38                        114   -1.0510  138  96 
 PCDR BN ESg      1821 25.95                             114    0.6010  138  96 
 PCDR BN  IAML    1821 43.17        58.0 2.40                           138  96 
                                                                                
 2020  6 2 2140 44.80L  18.973 -68.139 15.0  DOM  4 0.8 2.1LDOM 2.9CDOM 2.6WDOM1
 SPEC AVERAGE  MO 13.0 ST 17.0 OM  2.4 f0 9.09 R0.2661 AL 0.00 WI 20.0 MW  2.6 3
 SPEC SD       MO  0.2 ST 21.9 OM  0.9 f0 5.20 R0.1585 AL      WI      MW  0.1 3
 GAP=279        2.14      24.6    19.0 40.0  0.1891E+03 -0.2046E+03 -0.8285E+03E
 SPEC PCDRBH N MO 13.2 ST0.599 OM  1.9 f0 3.46 R0.4812 AL-0.00 WI 20.0 MW  2.7 3
 SPEC PCDRBH N T214060 K 0.020 GD 58.8 VS 4.50 DE 3.40 Q0400.0 QA 0.70 Q1 0.00 3
 SPEC HIDRBH N MO 13.1 ST 47.9 OM  1.7 f0 16.0 R0.1041 AL-0.00 WI 20.0 MW  2.7 3
 SPEC HIDRBH N T2141 2 K 0.020 GD 75.5 VS 4.50 DE 3.40 Q0400.0 QA 0.70 Q1 0.00 3
 SPEC HMDRBH N MO 12.7 ST  2.5 OM  1.1 f0 7.82 R0.2129 AL-0.00 WI 20.0 MW  2.4 3
 SPEC HMDRBH N T214119 K 0.020 GD  132 VS 4.50 DE 3.40 Q0400.0 QA 0.70 Q1 0.00 3
 LOCALITY: 93.4 Km al Este de Miches, Oceano Atlantico.                        3
 2020-06-02-2140-00S.MAN___126                                                 6
 OLDACT:ARG 20-06-02 22:45 OP:njm  STATUS:               ID:20200602214000     3
 OLDACT:UP  20-06-03 00:04 OP:JMLC STATUS:               ID:20200602214000     3
 ACTION:UP  22-01-18 18:54 OP:JMLC STATUS:               ID:20200602214044 L   I
 STAT SP IPHASW D HRMM SECON CODA AMPLIT PERI AZIMU VELO AIN AR TRES W  DIS CAZ7
 PCDR BZ IP       2140 54.79   37                         97    0.6610 56.9 207 
 PCDR BE ESg      2141  1.92                              97    0.8910 56.9 207 
 PCDR BN  IAML    2141  2.32        90.8 0.25                          56.9 207 
 HIDR BZ IP       2140 56.36   27                         94   -0.3510 74.0 235 
 HIDR BE ESg      2141  4.46                              94   -1.0510 74.0 235 
 HIDR BN  IAML    2141  5.89       201.2 0.15                          74.0 235 
 SMDR BZ IP       2141  2.34   44                         68   -0.6710  116 288 
 SMDR BE ESg      2141 17.94                              92    1.4410  116 288 
 SMDR BN  IAML    2141 19.76        65.0 0.40                           116 288 
 HMDR BZ IP       2141  4.54   73                         55   -0.6510  132 261 
 HMDR BN ESg      2141 20.67                              92   -0.2710  132 261 
 HMDR BN  IAML    2141 43.54        27.2 1.70                           132 261 
                                                                                
 2020  6 2 2248 29.10L  18.940 -73.051 15.0  DOM  3 0.8 2.3LDOM 3.0CDOM 3.3WDOM1
 SPEC AVERAGE  MO 14.0 ST0.091 OM  3.7 f00.837 R1.7387 AL 0.00 WI 20.0 MW  3.3 3
 SPEC SD       MO  0.1 ST0.048 OM  1.2 f00.079 R0.1650 AL      WI      MW  0.1 3
 GAP=207        2.10      22.4    14.2 23.0  0.2939E+03  0.1978E+03  0.2936E+03E
 SPEC JIDRBH N MO 14.1 ST0.139 OM  2.7 f00.917 R1.5736 AL-0.00 WI 20.0 MW  3.3 3
 SPEC JIDRBH N T2249 4 K 0.020 GD  136 VS 3.90 DE 2.90 Q0400.0 QA 0.70 Q1 0.00 3
 SPEC SDDRBH N MO 13.8 ST0.043 OM  2.3 f00.758 R1.9037 AL-0.00 WI 20.0 MW  3.2 3
 SPEC SDDRBH N T224917 K 0.020 GD  186 VS 3.90 DE 2.90 Q0400.0 QA 0.70 Q1 0.00 3
 LOCALITY: 143.9 Km al Oeste de Pedro Santana, Golfo de Gonaive.               3
 2020-06-02-2248-00S.MAN___126                                                 6
 OLDACT:UP  20-06-03 00:10 OP:JMLC STATUS:               ID:20200602224800     3
 OLDACT:ARG 20-06-02 23:58 OP:njm  STATUS:               ID:20200602224800     3
 OLDACT:UP  20-06-03 00:14 OP:JMLC STATUS:               ID:20200602224800     3
 ACTION:UP  22-01-18 18:54 OP:JMLC STATUS:               ID:20200602224829 L   I
 STAT SP IPHASW D HRMM SECON CODA AMPLIT PERI AZIMU VELO AIN AR TRES W  DIS CAZ7
 JIDR BZ IP       2248 49.07   37                         55   -0.8110  136 111 
 JIDR BE ESg      2249  5.65                              92   -0.4210  136 111 
 JIDR BN  IAML    2249  9.00        60.1 0.65                           136 111 
 MASC HZ IP       2248 56.71   58                         55    0.7210  185 318 
 MASC HE ESg      2249 18.25                              91   -0.7510  185 318 
 MASC BN  IAML    2249 37.22        19.0 1.78                           185 318 
 SDDR BZ IP       2248 57.61   42                         55    1.4810  186  88 
 SDDR BE ESg      2249 19.06                              91   -0.2210  186  88 
 SDDR BN  IAML    2249 19.36        47.4 0.80                           186  88 
                                                                                
 2020  6 2 2320 49.70L  20.297 -70.957 12.1  DOM  3 0.2 2.2LDOM 3.3CDOM 2.7WDOM1
 SPEC AVERAGE  MO 13.1 ST0.215 OM  2.9 f0 2.98 R1.4794 AL 0.00 WI 20.0 MW  2.7 3
 SPEC SD       MO  1.0 ST0.149 OM  1.6 f0 2.04 R1.6073 AL      WI      MW  0.7 3
 GAP=287        0.58      38.8    13.0 59.6 -0.4894E+03  0.7485E+03 -0.2302E+04E
 SPEC SDDRBH N MO 12.6 ST0.233 OM  1.3 f0 3.21 R0.4299 AL-0.00 WI 20.0 MW  2.4 3
 SPEC SDDRBH N T232129 K 0.020 GD  137 VS 3.73 DE 2.83 Q0400.0 QA 0.70 Q1 0.00 3
 SPEC SMDRBH N MO 14.5 ST0.024 OM  3.0 f00.368 R3.7503 AL-0.00 WI 20.0 MW  3.6 3
 SPEC SMDRBH N T232150 K 0.020 GD  183 VS 3.73 DE 2.83 Q0400.0 QA 0.70 Q1 0.00 3
 SPEC HMDRBH N MO 12.2 ST0.388 OM  0.7 f0 5.35 R0.2580 AL-0.00 WI 20.0 MW  2.1 3
 SPEC HMDRBH N T232151 K 0.020 GD  196 VS 3.73 DE 2.83 Q0400.0 QA 0.70 Q1 0.00 3
 LOCALITY: 43.6 Km al Norte de Luperon, Oceano Atlantico.                      3
 2020-06-02-2320-00S.MAN___126                                                 6
 OLDACT:ARG 20-06-02 23:59 OP:njm  STATUS:               ID:20200602232000     3
 OLDACT:UP  20-06-03 00:17 OP:JMLC STATUS:               ID:20200602232000     3
 ACTION:UP  22-01-18 18:54 OP:JMLC STATUS:               ID:20200602232049 L   I
 OLDACT:UP  20-06-03 00:17 OP:JMLC STATUS:               ID:20200602232000     3
 STAT SP IPHASW D HRMM SECON CODA AMPLIT PERI AZIMU VELO AIN AR TRES W  DIS CAZ7
 SDDR BZ IP       2321 12.21   44                         55   -0.2810  150 194 
 SDDR BE ESg      2321 30.53                              90    0.1310  150 194 
 SDDR BN  IAML    2321 33.98        19.0 0.70                           150 194 
 SMDR BZ IP       2321 20.67   57                         55   -0.0110  216 121 
 SMDR BN  IAML    2322 30.09        53.3 1.10                           216 121 
 HMDR BZ IP       2321 23.35   62                         55    0.2910  235 135 
 HMDR BE ESg      2321 52.72                              90   -0.1310  235 135 
 HMDR BN  IAML    2322 12.65        13.6 2.25                           235 135 
                                                                                
 2020  6 3 0543 30.80L  19.173 -72.885 15.0  DOM  4 0.8 2.2LDOM 3.2CDOM 3.1WDOM1
 SPEC AVERAGE  MO 13.7 ST  1.4 OM  3.2 f0 2.99 R2.4778 AL 0.00 WI 20.0 MW  3.1 3
 SPEC SD       MO  0.9 ST  1.8 OM  1.3 f0 2.70 R2.8713 AL      WI      MW  0.6 3
 GAP=175        2.05      12.1     6.4 17.2  0.5397E+02  0.2952E+02  0.9301E+01E
 SPEC REDRBH N MO 13.0 ST  3.9 OM  1.6 f0 6.65 R0.2170 AL-0.00 WI 20.0 MW  2.6 3
 SPEC REDRBH N T 544 3 K 0.020 GD  125 VS 3.90 DE 2.90 Q0400.0 QA 0.70 Q1 0.00 3
 SPEC JIDRBH N MO 15.0 ST0.015 OM  3.6 f00.221 R6.5294 AL-0.00 WI 20.0 MW  3.9 3
 SPEC JIDRBH N T 544 5 K 0.020 GD  132 VS 3.90 DE 2.90 Q0400.0 QA 0.70 Q1 0.00 3
 SPEC SDDRBH N MO 13.1 ST0.165 OM  1.6 f0 2.10 R0.6871 AL-0.00 WI 20.0 MW  2.7 3
 SPEC SDDRBH N T 54414 K 0.020 GD  169 VS 3.90 DE 2.90 Q0400.0 QA 0.70 Q1 0.00 3
 LOCALITY: 125.2 Km al Oeste de Pedro Santana, Golfo de Gonaive.               3
 2020-06-03-0542-00S.MAN___126                                                 6
 OLDACT:UP  20-06-03 10:02 OP:JMLC STATUS:               ID:20200603054200     3
 OLDACT:ARG 20-06-03 09:55 OP:njm  STATUS:               ID:20200603054200     3
 OLDACT:UP  20-06-03 10:05 OP:JMLC STATUS:               ID:20200603054200     3
 ACTION:UP  22-01-18 18:54 OP:JMLC STATUS:               ID:20200603054330 L   I
 STAT SP IPHASW D HRMM SECON CODA AMPLIT PERI AZIMU VELO AIN AR TRES W  DIS CAZ7
 REDR BZ IP        543 50.15   54                         55   -0.1410  125  85 
 REDR BE ESg       544  4.76                              92   -0.2410  125  85 
 REDR BN  IAML     544  7.89        54.5 0.15                           125  85 
 JIDR BZ IP        543 49.76   50                         55   -1.3510  132 124 
 JIDR BE ESg       544  7.16                              92    0.3410  132 124 
 JIDR BN  IAML     544  7.76        68.6 0.35                           132 124 
 SDDR BZ IP        543 57.14   39                         55    1.3810  169  97 
 SDDR BE ESg       544 16.37                              91   -0.2610  169  97 
 SDDR BN  IAML     544 25.72        22.6 2.45                           169  97 
 QMBU HZ IP        544  4.36   66                         55    0.8510  232 300 
 QMBU HE ESg       544 32.52                              91   -0.5810  232 300 
 QMBU BN  IAML     544 33.15        17.0 2.24                           232 300 
                                                                                
 2020  6 3 0551 36.10L  18.607 -71.770 43.6  DOM  3 0.1 2.0LDOM 2.6CDOM 2.5WDOM1
 SPEC AVERAGE  MO 12.9 ST  3.4 OM  2.6 f0 7.04 R0.3217 AL 0.00 WI 20.0 MW  2.5 3
 SPEC SD       MO  0.2 ST  3.1 OM  1.1 f0 3.78 R0.1710 AL      WI      MW  0.1 3
 GAP=150        0.36       2.4     2.6  4.5  0.1971E+01 -0.3636E+01 -0.8347E+01E
 SPEC JIDRBH N MO 13.1 ST  2.4 OM  1.9 f0 5.99 R0.2780 AL-0.00 WI 20.0 MW  2.7 3
 SPEC JIDRBH N T 55146 K 0.020 GD 46.2 VS 4.50 DE 3.40 Q0400.0 QA 0.70 Q1 0.00 3
 SPEC NEDRBH N MO 12.9 ST0.191 OM  1.6 f0 3.03 R0.5495 AL-0.00 WI 20.0 MW  2.5 3
 SPEC NEDRBH N T 55148 K 0.020 GD 55.7 VS 4.50 DE 3.40 Q0400.0 QA 0.70 Q1 0.00 3
 SPEC REDRBH N MO 12.6 ST  7.5 OM  1.2 f0 12.1 R0.1376 AL-0.00 WI 20.0 MW  2.4 3
 SPEC REDRBH N T 55155 K 0.020 GD 86.3 VS 4.50 DE 3.40 Q0400.0 QA 0.70 Q1 0.00 3
 LOCALITY: 5.5 Km al NO de La Descubierta, Independencia.                      3
 2020-06-03-0551-00S.MAN___126                                                 6
 OLDACT:ARG 20-06-03 09:55 OP:njm  STATUS:               ID:20200603055100     3
 OLDACT:UP  20-06-03 10:09 OP:JMLC STATUS:               ID:20200603055100     3
 ACTION:UP  22-01-18 18:54 OP:JMLC STATUS:               ID:20200603055136 L   I
 STAT SP IPHASW D HRMM SECON CODA AMPLIT PERI AZIMU VELO AIN AR TRES W  DIS CAZ7
 JIDR BZ IP        551 42.76   25                        157   -0.0310 15.3 215 
 JIDR BE ESg       551 47.72                             157    0.0210 15.3 215 
 JIDR BN  IAML     551 48.27       268.3 0.25                          15.3 215 
 NEDR BZ IP        551 44.01   29                        134   -0.1210 34.6 113 
 NEDR BN ESg       551 50.10                             134    0.0710 34.6 113 
 NEDR BN  IAML     551 52.03        48.7 0.30                          34.6 113 
 REDR BZ IP        551 48.58   39                        108    0.1410 74.5   6 
 REDR BE ESg       551 57.45                             108   -0.0810 74.5   6 
 REDR BN  IAML     551 58.07        59.6 0.15                          74.5   6 
                                                                                
 2020  6 3 0644 56.60L  17.712 -69.223 15.0  DOM  3 0.5 1.9LDOM 2.8CDOM 2.0WDOM1
 SPEC AVERAGE  MO 12.1 ST  5.1 OM  2.1 f0 13.3 R0.1086 AL 0.00 WI 20.0 MW  2.0 3
 SPEC SD       MO  0.2 ST  2.3 OM  1.3 f00.300 R0.0024 AL      WI      MW  0.1 3
 GAP=307        1.36      16.1     8.6 25.3  0.6216E+02  0.1045E+03  0.3321E+03E
 SPEC HIDRBH N MO 12.3 ST  7.4 OM  1.0 f0 13.6 R0.1061 AL-0.00 WI 20.0 MW  2.1 3
 SPEC HIDRBH N T 64525 K 0.020 GD  112 VS 3.90 DE 2.90 Q0400.0 QA 0.70 Q1 0.00 3
 SPEC HMDRBH N MO 11.9 ST  2.8 OM  0.6 f0 13.0 R0.1110 AL-0.00 WI 20.0 MW  1.9 3
 SPEC HMDRBH N T 64527 K 0.020 GD  120 VS 3.90 DE 2.90 Q0400.0 QA 0.70 Q1 0.00 3
 LOCALITY: 70.1 Km al SO de Mano Juan Isla Saona, Mar Caribe.                  3
 2020-06-03-0644-00S.MAN___126                                                 6
 OLDACT:UP  20-06-03 10:12 OP:JMLC STATUS:               ID:20200603064400     3
 OLDACT:ARG 20-06-03 09:55 OP:njm  STATUS:               ID:20200603064400     3
 OLDACT:UP  20-06-03 10:13 OP:JMLC STATUS:               ID:20200603064400     3
 ACTION:UP  22-01-18 18:54 OP:JMLC STATUS:               ID:20200603064456 L   I
 STAT SP IPHASW D HRMM SECON CODA AMPLIT PERI AZIMU VELO AIN AR TRES W  DIS CAZ7
 HIDR BZ IP        645 14.57   37                         92    0.4110  111  29 
 HIDR BE ESg       645 26.52                              92   -0.6010  111  29 
 HIDR BN  IAML     645 27.70        28.5 0.20                           111  29 
 HMDR BZ IP     C  645 15.89   37                         68    0.4110  120 352 
 HMDR BE ESg       645 29.44                              92   -0.0910  120 352 
 HMDR BN  IAML     645 29.47        15.1 0.25                           120 352 
 PCDR BZ IP        645 15.38   39                         55   -0.7610  126  45 
 PCDR BE ESg       645 31.59                              92    0.6310  126  45 
 PCDR BN  IAML     645 56.16        46.2 2.30                           126  45 
                                                                                
 2020  6 3 0810 16.40L  18.631 -66.960 15.1  DOM  4 0.4 2.7LDOM 3.0CDOM 2.5WDOM1
 SPEC AVERAGE  MO 12.9 ST0.350 OM  2.2 f0 3.54 R0.4900 AL 0.00 WI 20.0 MW  2.5 3
 SPEC SD       MO  0.1 ST0.167 OM  1.1 f00.830 R0.1149 AL      WI      MW  0.1 3
 GAP=338        1.09      12.8     8.4  9.3  0.5624E+01 -0.5120E+02  0.2412E+01E
 SPEC PCDRBH N MO 13.0 ST0.183 OM  1.3 f0 2.71 R0.6048 AL-0.00 WI 20.0 MW  2.6 3
 SPEC PCDRBH N T 81055 K 0.020 GD  151 VS 4.43 DE 3.34 Q0400.0 QA 0.70 Q1 0.00 3
 SPEC HMDRBH N MO 12.8 ST0.516 OM  0.9 f0 4.37 R0.3751 AL-0.00 WI 20.0 MW  2.5 3
 SPEC HMDRBH N T 81121 K 0.020 GD  256 VS 4.43 DE 3.34 Q0400.0 QA 0.70 Q1 0.00 3
 LOCALITY: 49.9 Km al NNE de Mayaguez, Region de Puerto Rico.                  3
 2020-06-03-0810-00S.MAN___126                                                 6
 OLDACT:ARG 20-06-03 09:55 OP:njm  STATUS:               ID:20200603081000     3
 OLDACT:UP  20-06-03 10:19 OP:JMLC STATUS:               ID:20200603081000     3
 ACTION:UP  22-01-18 18:54 OP:JMLC STATUS:               ID:20200603081016 L   I
 OLDACT:UP  20-06-03 10:20 OP:JMLC STATUS:               ID:20200603081000     3
 STAT SP IPHASW D HRMM SECON CODA AMPLIT PERI AZIMU VELO AIN AR TRES W  DIS CAZ7
 PCDR BZ IP        810 38.75   35                         55   -0.2510  151 265 
 PCDR BE ESg       810 56.71                              91   -0.5810  151 265 
 HIDR BZ IP        810 44.03   42                         55    0.7210  185 269 
 HIDR BE ESg       811  6.93                              91    0.5010  185 269 
 SMDR BZ IP        810 50.37                              55   -0.4410  246 288 
 SMDR BE ESg       811 22.43                              91    0.0810  246 288 
 SMDR BN  IAML     811 23.13        45.2 0.65                           246 288 
 HMDR BZ IP        810 52.13   51                         55    0.0010  256 274 
 HMDR BE IS        811 18.53                              55   -0.0210  256 274 
                                                                                
