 2020 10 3 1653 49.50L  18.910 -70.129  7.3  DOM  8 0.9 2.0LDOM 2.7CDOM 2.8WDOM1
 SPEC AVERAGE  MO 13.3 ST0.521 OM  3.0 f0 4.46 R4.1407 AL 0.00 WI 20.0 MW  2.8 3
 SPEC SD       MO  1.5 ST0.520 OM  1.8 f0 4.72 R4.0009 AL      WI      MW  1.0 3
 GAP=106        2.33       8.0     4.8  9.1 -0.7590E+01  0.1948E+02 -0.6283E+01E
 SPEC NAVIBH N MO 14.8 ST0.004 OM  4.6 f00.147 R8.7088 AL-0.00 WI 20.0 MW  3.8 3
 SPEC NAVIBH N T165350 K 0.020 GD 14.0 VS 3.46 DE 2.71 Q0400.0 QA 0.70 Q1 0.00 3
 SPEC HMDRBH N MO 11.5 ST0.952 OM  0.5 f0 11.5 R0.1113 AL-0.00 WI 20.0 MW  1.6 3
 SPEC HMDRBH N T165411 K 0.020 GD 80.3 VS 3.46 DE 2.71 Q0400.0 QA 0.70 Q1 0.00 3
 SPEC MIDRHH N MO 14.7 ST0.005 OM  3.6 f00.170 R7.5306 AL-0.00 WI 20.0 MW  3.7 3
 SPEC MIDRHH N T165419 K 0.020 GD  106 VS 3.46 DE 2.71 Q0400.0 QA 0.70 Q1 0.00 3
 SPEC REDRBH N MO 12.4 ST  1.1 OM  1.2 f0 6.04 R0.2120 AL-0.00 WI 20.0 MW  2.2 3
 SPEC REDRBH N T165432 K 0.020 GD  130 VS 3.46 DE 2.71 Q0400.0 QA 0.70 Q1 0.00 3
 LOCALITY: 16.1 Km al Sur de Cotui. Sanchez Ramirez.                           3
 2020-10-03-1653-00S.MAN___126                                                 6
 OLDACT:UP  20-10-03 21:08 OP:AMMR STATUS:               ID:20201003165300     3
 OLDACT:UP  20-10-03 21:07 OP:AMMR STATUS:               ID:20201003165300     3
 OLDACT:UP  20-10-03 21:06 OP:AMMR STATUS:               ID:20201003165300     3
 OLDACT:ARG 20-10-03 20:35 OP:PLST STATUS:               ID:20201003165300     3
 OLDACT:UP  20-10-03 21:16 OP:AMMR STATUS:               ID:20201003165300     3
 OLDACT:UP  20-10-03 21:10 OP:AMMR STATUS:               ID:20201003165300     3
 ACTION:UP  22-01-06 16:15 OP:jmlc STATUS:               ID:20201003165349 L   I
 OLDACT:UP  21-11-15 19:29 OP:AMMR STATUS:               ID:20201003165300     3
 OLDACT:UP  20-10-03 21:16 OP:AMMR STATUS:               ID:20201003165300     3
 STAT SP IPHASW D HRMM SECON CODA AMPLIT PERI AZIMU VELO AIN AR TRES W  DIS CAZ7
 NAVI BZ IP     C 1653 51.36   30                        124   -0.4310 11.9  63 
 NAVI BN IS     C 1653 52.49                             124   -1.0110 11.9  63 
 NAVI BN  IAML    1653 54.47      1285.7 0.15                          11.9  63 
 ABDR BZ IP     C 1653 57.02   39                        101   -1.2610 53.6 258 
 ABDR BN IS     C 1654  5.87                             101    1.0810 53.6 258 
 SDD  BZ IP     C 1653 57.42   40                         98   -0.9010 54.3 156 
 NADR BZ IP     C 1654  0.23   40                         97    1.4910 56.9  30 
 NADR BN  IAML    1654 31.32       244.1 0.80                          56.9  30 
 BADR BZ IP     C 1654  0.23   36                         98    0.7010 61.8 203 
 BADR BN  IAML    1654  8.05        65.7 3.70                          61.8 203 
 HMDR BZ IP     C 1654  2.70   34                         96    0.2610 80.0 100 
 HMDR BN IS     C 1654 12.89                              96    0.8610 80.0 100 
 MIDR HZ IP     C 1654  7.28   33                         70   -0.3910  114  86 
 MIDR BN  IAML    1654 24.50        20.2 0.78                           114  86 
 REDR BZ IP     C 1654 15.73   39                         50    0.3810  170 284 
 REDR BN IS     C 1654 33.70                              50   -0.7910  170 284 
 REDR BN  IAML    1654 40.50        12.0 1.00                           170 284 
                                                                                
 2020 10 3 2028 20.20L  19.551 -69.765 85.7  DOM  7 0.7 3.1LDOM 2.8CDOM 2.9WDOM1
 SPEC AVERAGE  MO 13.4 ST 32.9 OM  3.1 f0 11.2 R0.1528 AL 0.00 WI 20.0 MW  2.9 3
 SPEC SD       MO  0.2 ST  5.6 OM  1.5 f0 1.98 R0.0270 AL      WI      MW  0.1 3
 GAP=269        1.78      17.5    12.7 12.2  0.3541E+01 -0.7675E+02 -0.1707E+02E
 SPEC NADRBH N MO 13.6 ST 27.3 OM  2.1 f0 9.24 R0.1798 AL-0.00 WI 20.0 MW  3.0 3
 SPEC NADRBH N T202838 K 0.020 GD 88.9 VS 4.49 DE 3.40 Q0400.0 QA 0.70 Q1 0.00 3
 SPEC CRPRBH N MO 13.2 ST 38.4 OM  1.2 f0 13.2 R0.1259 AL-0.00 WI 20.0 MW  2.8 3
 SPEC CRPRBH N T202933 K 0.020 GD  340 VS 4.49 DE 3.40 Q0400.0 QA 0.70 Q1 0.00 3
 LOCALITY: 18.1 Km al ESE de Cabrera. Oceano Atlantico.                        3
 2020-10-03-2028-00S.MAN___126                                                 6
 OLDACT:UP  20-10-03 21:29 OP:AMMR STATUS:               ID:20201003202800     3
 OLDACT:UP  20-10-03 21:28 OP:AMMR STATUS:               ID:20201003202800     3
 OLDACT:UP  20-10-03 21:25 OP:AMMR STATUS:               ID:20201003202800     3
 OLDACT:ARG 20-10-03 21:19 OP:plst STATUS:               ID:20201003202800     3
 OLDACT:UP  20-10-03 21:30 OP:AMMR STATUS:               ID:20201003202800     3
 OLDACT:UP  20-10-03 21:32 OP:AMMR STATUS:               ID:20201003202800     3
 OLDACT:UP  20-10-03 21:32 OP:AMMR STATUS:               ID:20201003202800     3
 OLDACT:UP  20-10-03 21:31 OP:AMMR STATUS:               ID:20201003202800     3
 ACTION:UP  22-01-06 16:15 OP:jmlc STATUS:               ID:20201003202820 L   I
 OLDACT:UP  20-10-04 00:15 OP:AMMR STATUS:               ID:20201003202800     3
 STAT SP IPHASW D HRMM SECON CODA AMPLIT PERI AZIMU VELO AIN AR TRES W  DIS CAZ7
 NADR BZ IP     C 2028 32.41   36                        163    0.4210 23.7 204 
 NADR BN IS       2028 40.11                             163   -0.6010 23.7 204 
 NADR BN  IAML    2028 40.68       278.9 0.10                          23.7 204 
 SMDR BZ IP     C 2028 34.87   41                        137    0.2910 67.1 115 
 NAVI BZ IP     C 2028 35.23                             136    0.2410 71.1 203 
 HMDR BN IS     C 2028 49.67                             126    0.2910 93.6 154 
 HMDR BN  IAML    2028 50.64        29.6 1.60                          93.6 154 
 BADR BZ IP     C 2028 41.92                             113   -0.1110  142 206 
 CRPR BZ IP     C 2029  2.11   27                         93   -1.4510  330 121 
 CRPR BN  IAML    2029  4.23      1520.0 0.20                           330 121 
 CELP BZ IP     C 2029  9.66   31                         92    0.9310  374 115 
 CELP BN  IAML    2029 17.66        42.9 0.20                           374 115 
                                                                                
 2020 10 4 0001 29.90L  17.802 -68.332 22.7  DOM  6 0.8 2.2LDOM 2.9CDOM 2.6WDOM1
 SPEC AVERAGE  MO 13.0 ST0.173 OM  2.4 f0 4.02 R2.4447 AL 0.00 WI 20.0 MW  2.6 3
 SPEC SD       MO  1.3 ST0.177 OM  1.7 f0 3.30 R2.9827 AL      WI      MW  0.9 3
 GAP=234        2.22      12.9     7.9 20.7  0.6906E+02 -0.1308E+02  0.2299E+02E
 SPEC PCDRBH N MO 12.3 ST0.088 OM  0.9 f0 3.52 R0.4730 AL-0.00 WI 20.0 MW  2.2 3
 SPEC PCDRBH N T 0 150 K 0.020 GD 82.2 VS 4.50 DE 3.40 Q0400.0 QA 0.70 Q1 1.00 3
 SPEC MIDRHH N MO 14.9 ST0.012 OM  3.2 f00.250 R6.6600 AL-0.00 WI 20.0 MW  3.9 3
 SPEC MIDRHH N T 0 2 6 K 0.020 GD  152 VS 4.50 DE 3.40 Q0400.0 QA 0.70 Q1 1.00 3
 SPEC CELPBH N MO 11.9 ST0.419 OM  0.1 f0 8.28 R0.2011 AL-0.00 WI 20.0 MW  1.9 3
 SPEC CELPBH N T 0 214 K 0.020 GD  189 VS 4.50 DE 3.40 Q0400.0 QA 0.70 Q1 1.00 3
 LOCALITY: 55.3 Km al SE de Mano Juan Isla Saona. Mar Caribe.                  3
 2020-10-04-0001-00S.MAN___126                                                 6
 OLDACT:ARG 20-10-04 00:19 OP:plst STATUS:               ID:20201004000100     3
 OLDACT:UP  20-10-04 01:58 OP:AMMR STATUS:               ID:20201004000100     3
 OLDACT:UP  20-10-04 01:57 OP:AMMR STATUS:               ID:20201004000100     3
 OLDACT:UP  21-11-15 19:33 OP:AMMR STATUS:               ID:20201004000100     3
 OLDACT:UP  20-10-04 01:58 OP:AMMR STATUS:               ID:20201004000100     3
 ACTION:UP  22-01-06 16:15 OP:jmlc STATUS:               ID:20201004000129 L   I
 OLDACT:UP  21-11-15 19:35 OP:AMMR STATUS:               ID:20201004000100     3
 OLDACT:UP  21-11-15 19:34 OP:AMMR STATUS:               ID:20201004000100     3
 STAT SP IPHASW D HRMM SECON CODA AMPLIT PERI AZIMU VELO AIN AR TRES W  DIS CAZ7
 PCDR BZ IP     C  0 1 43.04   38                         75    0.5010 79.0 356 
 PCDR BN IS     C  0 1 51.82                              75   -0.0710 79.0 356 
 PCDR BN  IAML     0 2 17.17       118.3 2.05                          79.0 356 
 HIDR BN IS     C  0 1 56.36                              75    0.2110 96.3 335 
 MIDR HZ IP     C  0 1 49.67                              59   -2.2510  151 330 
 MIDR HN IS     C  0 2  8.34                              59    0.1210  151 330 
 MIDR BN  IAML     0 2 14.31        37.9 2.12                           151 330 
 HMDR BZ IP     C  0 1 52.49   41                         59   -0.0210  156 315 
 HMDR BE IS     C  0 2 10.10                              59    0.8610  156 315 
 HMDR BN  IAML     0 2 14.62        27.3 2.30                           156 315 
 AOPR BZ IP     C  0 1 55.30   32                         59    0.0610  178  70 
 AOPR BN IS     C  0 2 13.62                              59   -0.3810  178  70 
 CELP BZ IP     C  0 1 57.77   41                         59    1.2010  188  81 
 CELP BN IS     C  0 2 16.09                              59   -0.2310  188  81 
                                                                                
 2020 10 4 0718 28.40L  18.946 -67.674 18.2  DOM 10 0.9 1.8LDOM 2.8CDOM 1.7WDOM1
 SPEC AVERAGE  MO 11.7 ST  1.3 OM  1.2 f0 8.94 R0.1423 AL 0.00 WI 20.0 MW  1.7 3
 SPEC SD       MO  0.4 ST  1.1 OM  0.6 f0 3.17 R0.1674 AL      WI      MW  0.2 3
 GAP=212        2.29      19.7     5.9 84.2  0.9023E+02 -0.2419E+03 -0.1112E+04E
 SPEC PRSNBH N MO 12.3 ST  1.2 OM  1.4 f0 5.83 R0.2031 AL-0.00 WI 20.0 MW  2.2 3
 SPEC PRSNBH N T 71850 K 0.020 GD 99.8 VS 3.20 DE 2.60 Q0400.0 QA 0.70 Q1 1.00 3
 SPEC CRPRBH N MO 11.9 ST  3.0 OM  0.9 f0 10.9 R0.1086 AL-0.00 WI 20.0 MW  1.9 3
 SPEC CRPRBH N T 71860 K 0.020 GD  122 VS 3.20 DE 2.60 Q0400.0 QA 0.70 Q1 1.00 3
 SPEC MLPRBH N MO 11.5 ST0.351 OM  0.4 f0 7.72 R0.1534 AL-0.00 WI 20.0 MW  1.6 3
 SPEC MLPRBH N T 719 0 K 0.020 GD  128 VS 3.20 DE 2.60 Q0400.0 QA 0.70 Q1 1.00 3
 SPEC MIDRHH N MO 11.6 ST  1.6 OM  0.5 f0 11.3 R0.1048 AL-0.00 WI 20.0 MW  1.7 3
 SPEC MIDRHH N T 719 7 K 0.020 GD  146 VS 3.20 DE 2.60 Q0400.0 QA 0.70 Q1 1.00 3
 SPEC HMDRBH N MO 11.8 ST0.343 OM  0.6 f0 5.85 R0.2024 AL-0.00 WI 20.0 MW  1.8 3
 SPEC HMDRBH N T 71914 K 0.020 GD  181 VS 3.20 DE 2.60 Q0400.0 QA 0.70 Q1 1.00 3
 LOCALITY: 81.1 Km al ENE de Punta Cana. Canal de la Mona.                     3
 2020-10-04-0718-00S.MAN___126                                                 6
 OLDACT:ARG 20-10-04 10:17 OP:plst STATUS:               ID:20201004071800     3
 OLDACT:UP  20-10-04 10:25 OP:AMMR STATUS:               ID:20201004071800     3
 OLDACT:UP  20-10-04 10:25 OP:AMMR STATUS:               ID:20201004071800     3
 OLDACT:UP  20-10-04 10:24 OP:AMMR STATUS:               ID:20201004071800     3
 OLDACT:UP  21-11-15 19:53 OP:AMMR STATUS:               ID:20201004071800     3
 OLDACT:UP  20-10-04 10:27 OP:AMMR STATUS:               ID:20201004071800     3
 ACTION:UP  22-01-06 16:15 OP:jmlc STATUS:               ID:20201004071828 L   I
 OLDACT:UP  21-11-15 19:59 OP:AMMR STATUS:               ID:20201004071800     3
 OLDACT:UP  21-11-15 19:57 OP:AMMR STATUS:               ID:20201004071800     3
 OLDACT:UP  21-11-15 19:56 OP:AMMR STATUS:               ID:20201004071800     3
 OLDACT:UP  21-11-15 19:55 OP:AMMR STATUS:               ID:20201004071800     3
 STAT SP IPHASW D HRMM SECON CODA AMPLIT PERI AZIMU VELO AIN AR TRES W  DIS CAZ7
 PRSN BN  IAML     719  0.93        50.9 0.32                                   
 AGPR BZ EPg       718 40.98   30                         97   -0.2210 79.5 131 
 AGPR BN ESg       718 52.40                              97    1.7410 79.5 131 
 AGPR BN  IAML     719  1.50        56.0 2.00                          79.5 131 
 PCDR BZ EPg       718 41.76   27                         96   -0.8010 88.6 237 
 PCDR BN ESg       718 52.55                              96   -0.4710 88.6 237 
 HIDR BE ESg       718 59.62                              94   -0.7410  117 250 
 AOPR BZ EPg       718 46.13   46                         94   -0.8310  118 124 
 AOPR BN  IAML     719 18.67        23.6 1.12                           118 124 
 CRPR BZ EPg       718 46.86   35                         94   -0.5910  121 149 
 CRPR BN  IAML     719 11.68        47.8 1.64                           121 149 
 MLPR BZ EPg       718 48.59   34                         94    0.2410  127 148 
 MLPR BE  IAML     719  7.34         6.7 0.30                           127 148 
 MIDR HZ EPg       718 50.39   38                         93   -0.6710  145 272 
 MIDR HN ESg       719  8.93                              93    1.1110  145 272 
 MIDR BN  IAML     719 17.00        36.3 2.94                           145 272 
 CELP BZ EPg       718 50.95   34                         93   -1.0210  151 130 
 CELP BN ESg       719  9.96                              93    0.5510  151 130 
 CELP BN  IAML     719 14.15         8.5 1.12                           151 130 
 HMDR BZ EPg       718 57.08   44                         92    0.5810  181 265 
 HMDR BN ESg       719 18.41                              92    1.1310  181 265 
                                                                                
 2020 10 4 0736 21.70L  18.762 -70.295 99.4  DOM 12 0.8 2.4LDOM 2.8CDOM 2.7WDOM1
 SPEC AVERAGE  MO 13.1 ST 12.4 OM  1.6 f0 9.28 R0.2761 AL 0.00 WI 20.0 MW  2.7 3
 SPEC SD       MO  0.3 ST 11.6 OM  0.4 f0 4.90 R0.2270 AL      WI      MW  0.2 3
 GAP= 94        2.27      10.6     5.6 13.8  0.1902E+02  0.2622E+01  0.3799E+02E
 SPEC ABDRBH N MO 12.8 ST 26.7 OM  1.3 f0 16.0 R0.1036 AL-0.00 WI 20.0 MW  2.5 3
 SPEC ABDRBH N T 73645 K 0.020 GD  105 VS 4.48 DE 3.40 Q0400.0 QA 0.70 Q1 0.00 3
 SPEC BADRBH N MO 13.2 ST  7.4 OM  1.7 f0 7.63 R0.2172 AL-0.00 WI 20.0 MW  2.8 3
 SPEC BADRBH N T 73645 K 0.020 GD  107 VS 4.48 DE 3.40 Q0400.0 QA 0.70 Q1 0.00 3
 SPEC NADRBH N MO 13.7 ST  4.7 OM  2.1 f0 4.57 R0.3627 AL-0.00 WI 20.0 MW  3.1 3
 SPEC NADRBH N T 73649 K 0.020 GD  127 VS 4.48 DE 3.40 Q0400.0 QA 0.70 Q1 0.00 3
 SPEC HMDRBH N MO 12.5 ST  2.9 OM  0.9 f0 9.50 R0.1745 AL-0.00 WI 20.0 MW  2.3 3
 SPEC HMDRBH N T 73650 K 0.020 GD  138 VS 4.48 DE 3.40 Q0400.0 QA 0.70 Q1 0.00 3
 SPEC SDDRBH N MO 13.2 ST0.113 OM  1.5 f0 1.99 R0.8330 AL-0.00 WI 20.0 MW  2.7 3
 SPEC SDDRBH N T 73654 K 0.020 GD  146 VS 4.48 DE 3.40 Q0400.0 QA 0.70 Q1 0.00 3
 SPEC MADRBH N MO 13.1 ST  2.5 OM  1.4 f0 5.85 R0.2834 AL-0.00 WI 20.0 MW  2.7 3
 SPEC MADRBH N T 73655 K 0.020 GD  158 VS 4.48 DE 3.40 Q0400.0 QA 0.70 Q1 0.00 3
 SPEC REDRBH N MO 13.2 ST 29.8 OM  1.4 f0 12.7 R0.1305 AL-0.00 WI 20.0 MW  2.7 3
 SPEC REDRBH N T 737 3 K 0.020 GD  187 VS 4.48 DE 3.40 Q0400.0 QA 0.70 Q1 0.00 3
 SPEC HIDRBH N MO 12.8 ST 24.7 OM  1.0 f0 16.0 R0.1036 AL-0.00 WI 20.0 MW  2.5 3
 SPEC HIDRBH N T 737 6 K 0.020 GD  195 VS 4.48 DE 3.40 Q0400.0 QA 0.70 Q1 0.00 3
 LOCALITY: 14.9 Km al SSO de Maimon. Monseor Nouel.                           3
 2020-10-04-0736-00S.MAN___126                                                 6
 OLDACT:UP  20-10-04 10:32 OP:AMMR STATUS:               ID:20201004073600     3
 OLDACT:ARG 20-10-04 10:28 OP:plst STATUS:               ID:20201004073600     3
 OLDACT:UP  20-10-04 10:34 OP:AMMR STATUS:               ID:20201004073600     3
 OLDACT:UP  20-10-04 10:34 OP:AMMR STATUS:               ID:20201004073600     3
 OLDACT:UP  20-10-04 10:34 OP:AMMR STATUS:               ID:20201004073600     3
 ACTION:UP  22-01-06 16:15 OP:jmlc STATUS:               ID:20201004073621 L   I
 OLDACT:UP  21-11-15 20:01 OP:AMMR STATUS:               ID:20201004073600     3
 OLDACT:UP  20-10-04 10:52 OP:AMMR STATUS:               ID:20201004073600     3
 STAT SP IPHASW D HRMM SECON CODA AMPLIT PERI AZIMU VELO AIN AR TRES W  DIS CAZ7
 ABDR BZ IP     C  736 34.70   38                        159   -1.2410 35.4 279 
 ABDR BN IS     C  736 46.85                             159    0.4010 35.4 279 
 ABDR BN  IAML     736 48.47        62.3 0.30                          35.4 279 
 BADR BZ IP     C  736 35.93   25                        156    0.0310 40.9 190 
 BADR BN  IAML     736 52.47       100.3 0.25                          40.9 190 
 SFDR BZ IP     C  736 36.63   32                        147   -0.1310 58.4   5 
 SFDR BN IS     C  736 47.18                             147   -0.7010 58.4   5 
 SFDR BN  IAML     736 48.46       131.7 0.45                          58.4   5 
 NADR BZ IP     C  736 37.34   35                        137   -1.0010 80.2  35 
 NADR BN IS     C  736 51.24                             137    0.6110 80.2  35 
 NADR BN  IAML     736 51.52       184.6 0.50                          80.2  35 
 SC01 BN IS     C  736 51.78                             135    0.1910 86.6 328 
 SC01 BN  IAML     736 53.73        51.0 0.55                          86.6 328 
 HMDR BZ IP     C  736 39.29   42                        131   -0.4810 96.4  88 
 HMDR BN IS     C  736 52.25                             131   -0.8610 96.4  88 
 SDDR BZ IP     C  736 40.16   42                        128   -0.6510  108 283 
 SDDR BN IS     C  736 56.01                             128    1.0910  108 283 
 MADR BZ IP     C  736 40.86   42                        123   -1.3610  123 316 
 MADR BN IS     C  736 56.71                             123   -0.6610  123 316 
 MIDR HZ IP     C  736 43.68   40                        121    0.4310  133  79 
 MIDR HN IS     C  737  0.23                             121    1.0610  133  79 
 MIDR BN  IAML     737 35.30        35.1 2.68                           133  79 
 LUDR BE IS     C  737  1.64                             119    0.7610  143 331 
 REDR BZ IP     C  736 45.79   40                        116   -0.1710  159 291 
 REDR BN IS     C  737  5.13                             116    1.2510  159 291 
 REDR BN  IAML     737  8.38        43.3 0.20                           159 291 
 HIDR BZ IP     C  736 48.26   36                        114    1.4210  168  96 
 HIDR BN IS   4 C  737  8.34                             114    2.92 0  168  96 
 HIDR BN  IAML     737 11.79        43.4 0.20                           168  96 
                                                                                
