 2020  4 1 0727 22.40L  18.995 -67.687 11.0  DOM  5 0.6 2.5LDOM 2.9CDOM 2.2WDOM1
 SPEC AVERAGE  MO 12.4 ST0.509 OM  3.8 f0 4.57 R0.2882 AL 0.00 WI 20.0 MW  2.2 3
 SPEC SD       MO  0.0 ST0.000 OM  2.4 f00.000 R0.0000 AL      WI      MW  0.0 3
 GAP=228        1.59      13.8     5.1 14.5  0.5700E+02 -0.3198E+02 -0.1115E+03E
 SPEC AGPRBH N MO 12.4 ST0.509 OM  1.4 f0 4.57 R0.2882 AL-0.00 WI 20.0 MW  2.2 3
 SPEC AGPRBH N T 72746 K 0.020 GD 84.8 VS 3.56 DE 2.75 Q0400.0 QA 0.70 Q1 0.00 3
 LOCALITY: 145.9 Km al Este de Miches. Oceano Atlantico.                       3
 2020-04-01-0727-00S.MAN___123                                                 6
 OLDACT:ARG 20-04-01 10:55 OP:jrdn STATUS:               ID:20200401072700     3
 OLDACT:UP  20-04-01 11:10 OP:JMLC STATUS:               ID:20200401072700     3
 OLDACT:UP  20-04-01 11:10 OP:JMLC STATUS:               ID:20200401072700     3
 ACTION:UP  22-03-16 16:59 OP:JMLC STATUS:               ID:20200401072722 L   I
 OLDACT:UP  22-01-09 03:37 OP:CGRS STATUS:               ID:20200401072700     3
 OLDACT:UP  22-01-09 03:36 OP:CGRS STATUS:               ID:20200401072700     3
 OLDACT:UP  22-01-09 03:35 OP:CGRS STATUS:               ID:20200401072700     3
 OLDACT:UP  21-02-16 00:57 OP:AMMR STATUS:               ID:20200401072700     3
 OLDACT:UP  21-02-16 00:56 OP:AMMR STATUS:               ID:20200401072700     3
 OLDACT:UP  21-02-16 00:55 OP:AMMR STATUS:               ID:20200401072700     3
 OLDACT:UP  21-02-16 00:55 OP:AMMR STATUS:               ID:20200401072700     3
 OLDACT:UP  20-04-01 11:10 OP:JMLC STATUS:               ID:20200401072700     3
 STAT SP IPHASW D HRMM SECON CODA AMPLIT PERI AZIMU VELO AIN AR TRES W  DIS CAZ7
 AGPR BZ EPg    C  727 35.71                              98   -0.3710 84.1 134 
 AGPR BN ESg    C  727 47.51                              98    1.3010 84.1 134 
 AGPR BN  IAML     727 49.52       146.2 0.28                          84.1 134 
 HIDR BZ IP        727 41.33   39                         70    0.4410  117 248 
 HIDR BN ESg    C  727 55.10                              95   -0.3510  117 248 
 HIDR BN  IAML     727 59.17       115.7 0.25                           117 248 
 MLPR BZ EPg    C  727 42.66   34                         95   -1.1410  132 149 
 MLPR BN ESg       727 59.64                              95    0.0010  132 149 
 MLPR BN  IAML     728  4.99        98.3 0.28                           132 149 
 CELP BZ IP     C  727 45.89   37                         50   -0.0710  155 131 
 CELP BN ISg    D  728  5.85                              94   -0.2510  155 131 
 CELP BN  IAML     728  9.55        94.5 0.32                           155 131 
 HMDR BZ EPg    C  727 51.74   46                         94    0.2510  180 263 
 HMDR BN ESg    C  728 13.21                              94    0.2010  180 263 
 HMDR BN  IAML     728 16.26        51.0 0.30                           180 263 
                                                                                
 2020  4 1 0915  9.00L  18.047 -71.216 31.1  DOM 11 0.6 2.7LDOM 2.8CDOM 3.2WDOM1
 SPEC AVERAGE  MO 13.9 ST123.1 OM  3.2 f0 6.94 R0.4233 AL 0.00 WI 20.0 MW  3.2 3
 SPEC SD       MO  0.2 ST202.1 OM  0.8 f0 5.35 R0.2639 AL      WI      MW  0.2 3
 GAP=240        1.70       6.5     3.8  6.0  0.7322E+01 -0.6014E+01 -0.9559E+01E
 SPEC PODRBH N MO 13.9 ST 87.3 OM  2.9 f0 10.1 R0.1649 AL-0.00 WI 20.0 MW  3.2 3
 SPEC PODRBH N T 91517 K 0.020 GD 34.5 VS 4.50 DE 3.40 Q0400.0 QA 0.70 Q1 0.00 3
 SPEC NEDRBH N MO 13.6 ST  1.8 OM  2.3 f0 3.61 R0.4612 AL-0.00 WI 20.0 MW  3.0 3
 SPEC NEDRBH N T 91524 K 0.020 GD 63.3 VS 4.50 DE 3.40 Q0400.0 QA 0.70 Q1 0.00 3
 SPEC BADRBH N MO 14.2 ST  4.1 OM  2.7 f0 2.94 R0.5663 AL-0.00 WI 20.0 MW  3.4 3
 SPEC BADRBH N T 91534 K 0.020 GD  103 VS 4.50 DE 3.40 Q0400.0 QA 0.70 Q1 0.00 3
 SPEC SDDRBH N MO 13.6 ST0.354 OM  2.1 f0 2.03 R0.8202 AL-0.00 WI 20.0 MW  3.0 3
 SPEC SDDRBH N T 91534 K 0.020 GD  108 VS 4.50 DE 3.40 Q0400.0 QA 0.70 Q1 0.00 3
 SPEC NAVIBH N MO 14.1 ST521.8 OM  2.4 f0 16.0 R0.1041 AL-0.00 WI 20.0 MW  3.4 3
 SPEC NAVIBH N T 91549 K 0.020 GD  163 VS 4.50 DE 3.40 Q0400.0 QA 0.70 Q1 0.00 3
 LOCALITY: 7.6 Km al NO de Paraiso. Barahona.                                  3
 2020-04-01-0914-00S.MAN___123                                                 6
 OLDACT:ARG 20-04-01 10:11 OP:jrdn STATUS:               ID:20200401091400     3
 OLDACT:UP  20-04-01 10:47 OP:JMLC STATUS:               ID:20200401091400     3
 OLDACT:UP  20-04-01 10:46 OP:JMLC STATUS:               ID:20200401091400     3
 ACTION:UP  22-03-16 16:59 OP:JMLC STATUS:               ID:20200401091509 L   I
 OLDACT:UP  21-02-16 01:02 OP:AMMR STATUS:               ID:20200401091400     3
 OLDACT:UP  21-02-16 01:01 OP:AMMR STATUS:               ID:20200401091400     3
 OLDACT:UP  21-02-16 00:59 OP:AMMR STATUS:               ID:20200401091400     3
 OLDACT:UP  21-02-16 00:58 OP:AMMR STATUS:               ID:20200401091400     3
 OLDACT:UP  20-04-01 10:47 OP:JMLC STATUS:               ID:20200401091400     3
 STAT SP IPHASW D HRMM SECON CODA AMPLIT PERI AZIMU VELO AIN AR TRES W  DIS CAZ7
 PODR BZ EPg    D  915 15.08   27                        154    0.5010 14.9 332 
 PODR BN ESg       915 19.41                             154    0.6810 14.9 332 
 PODR BN  IAML     915 20.14      2526.4 0.15                          14.9 332 
 BRDR HZ EPg    C  915 14.77   21                        142   -0.1310 22.4  32 
 BRDR HN ESg    C  915 19.22                             142   -0.0710 22.4  32 
 NEDR BZ EPg    C  915 18.44   28                        114   -0.1610 55.1 331 
 NEDR BN ESg    C  915 25.63                             114   -0.0910 55.1 331 
 NEDR BN  IAML     915 26.31       499.4 0.25                          55.1 331 
 JIDR BZ EPg    C  915 23.10   46                        103    0.7010 83.6 306 
 JIDR BN ESg    C  915 31.96                             103   -0.3910 83.6 306 
 JIDR BN  IAML     915 39.24        63.9 0.15                          83.6 306 
 BADR BZ EPg    C  915 24.56   42                        100    0.0310 98.4  67 
 BADR BN ESg    C  915 35.91                             100   -0.1410 98.4  67 
 BADR BN  IAML     915 37.96       614.3 0.30                          98.4  67 
 SDDR BZ EPg    C  915 24.33   35                        100   -0.8710  104 356 
 SDDR BN ESg    C  915 35.81                             100   -1.4110  104 356 
 SDDR BN  IAML     915 39.11        84.5 0.20                           104 356 
 REDR BZ EPg    D  915 30.89   38                         96   -0.1810  145 339 
 REDR BN ESg    C  915 46.89                              96   -0.5310  145 339 
 REDR BN  IAML     915 47.59       242.3 0.15                           145 339 
 SC01 BZ EPg    C  915 33.35                              95    0.1110  161  19 
 SC01 BE ESg    C  915 52.72                              95    1.5210  161  19 
 SC01 BN  IAML     915 57.04        53.6 0.60                           161  19 
 NAVI BZ EPg    C  915 33.27   47                         95    0.0210  161  51 
 NAVI BE ESg       915 50.87                              95   -0.3610  161  51 
 NAVI BN  IAML     915 51.49       429.3 0.15                           161  51 
 LUDR BZ IP     C  915 37.56   63                         62    0.3610  206   8 
 LUDR BE ESg    C  916  3.29                              93    1.1110  206   8 
 HMDR BZ EPg    C  915 39.76   58                         93   -0.4310  210  67 
 HMDR BN ESg    C  916  3.01                              93   -0.2810  210  67 
 HMDR BN  IAML     916  5.44        18.4 0.30                           210  67 
                                                                                
 2020  4 1 0951 51.20L  17.953 -66.807 14.5  DOM  7 0.4 2.8LDOM 2.8CDOM 2.9WDOM1
 SPEC AVERAGE  MO 13.4 ST 12.0 OM  2.8 f0 6.24 R0.3315 AL 0.00 WI 20.0 MW  2.9 3
 SPEC SD       MO  0.2 ST 10.1 OM  0.6 f0 3.20 R0.2312 AL      WI      MW  0.1 3
 GAP=198        1.16       5.5     2.1  9.8  0.8869E+00 -0.3035E-01 -0.9721E+01E
 SPEC MLPRBH N MO 13.3 ST  7.2 OM  2.6 f0 6.19 R0.2313 AL-0.00 WI 20.0 MW  2.8 3
 SPEC MLPRBH N T 95157 K 0.020 GD 29.0 VS 3.87 DE 2.89 Q0400.0 QA 0.70 Q1 0.00 3
 SPEC CELPBH N MO 13.0 ST 27.1 OM  2.3 f0 11.8 R0.1213 AL-0.00 WI 20.0 MW  2.6 3
 SPEC CELPBH N T 95157 K 0.020 GD 31.4 VS 3.87 DE 2.89 Q0400.0 QA 0.70 Q1 0.00 3
 SPEC PRSNBH N MO 13.6 ST 21.9 OM  2.7 f0 7.00 R0.2046 AL-0.00 WI 20.0 MW  3.0 3
 SPEC PRSNBH N T 952 3 K 0.020 GD 48.4 VS 3.87 DE 2.89 Q0400.0 QA 0.70 Q1 0.00 3
 SPEC AGPRBH N MO 13.4 ST 14.5 OM  2.3 f0 7.43 R0.1927 AL-0.00 WI 20.0 MW  2.9 3
 SPEC AGPRBH N T 952 8 K 0.020 GD 67.2 VS 3.87 DE 2.89 Q0400.0 QA 0.70 Q1 0.00 3
 SPEC HIDRBH N MO 13.4 ST  1.2 OM  1.8 f0 3.26 R0.4392 AL-0.00 WI 20.0 MW  2.9 3
 SPEC HIDRBH N T 95250 K 0.020 GD  214 VS 3.87 DE 2.89 Q0400.0 QA 0.70 Q1 0.00 3
 SPEC HMDRBH N MO 13.5 ST0.273 OM  1.8 f0 1.79 R0.7999 AL-0.00 WI 20.0 MW  2.9 3
 SPEC HMDRBH N T 95311 K 0.020 GD  287 VS 3.87 DE 2.89 Q0400.0 QA 0.70 Q1 0.00 3
 LOCALITY: 21.4 Km al OSO de Ponce. Region de Puerto Rico.                     3
 2020-04-01-0951-00S.MAN___123                                                 6
 OLDACT:ARG 20-04-01 10:13 OP:JRDN STATUS:               ID:20200401095100     3
 OLDACT:UP  20-04-01 10:54 OP:JMLC STATUS:               ID:20200401095100     3
 OLDACT:UP  20-04-01 10:53 OP:JMLC STATUS:               ID:20200401095100     3
 ACTION:UP  22-03-16 16:59 OP:JMLC STATUS:               ID:20200401095151 L   I
 OLDACT:UP  20-04-01 10:54 OP:JMLC STATUS:               ID:20200401095100     3
 STAT SP IPHASW D HRMM SECON CODA AMPLIT PERI AZIMU VELO AIN AR TRES W  DIS CAZ7
 MLPR BZ EPg    D  951 55.76   21                        115   -0.0510 25.1 274 
 MLPR BN ESg    C  951 59.45                             115    0.2110 25.1 274 
 MLPR BN  IAML     952  0.37       855.7 0.20                          25.1 274 
 CELP BZ EPg    D  951 56.29   24                        112    0.0710 27.9  61 
 CELP BN ESg    C  951 59.48                             112   -0.4610 27.9  61 
 CELP BN  IAML     952  0.80      1142.1 0.20                          27.9  61 
 PRSN BZ EPg    C  951 58.84   21                         99   -0.0310 46.2 309 
 PRSN BN ESg    C  952  4.89                              99    0.3210 46.2 309 
 PRSN BN  IAML     952  7.51      6274.0 0.28                          46.2 309 
 AGPR BZ EPg    C  952  1.68   40                         94   -0.1210 65.6 331 
 AGPR BE ESg       952  9.66                              94    0.0010 65.6 331 
 AGPR BN  IAML     952 13.30       293.1 0.60                          65.6 331 
 SJG  BZ EPg    D  952  2.72   41                         94   -0.0410 71.8  76 
 SJG  BN ESg    C  952 11.84                              94    0.5110 71.8  76 
 HIDR BZ EPg    C  952 24.89   63                         91    0.6510  214 290 
 HIDR BN  IAML     953  1.62        55.9 0.25                           214 290 
 HMDR BZ EPg    C  952 34.32   76                         91   -1.0710  287 289 
 HMDR BN  IAML     953 13.32        21.7 0.50                           287 289 
                                                                                
 2020  4 1 1051 45.40L  19.304 -69.431 71.3  DOM  8 0.8 2.5LDOM 2.9CDOM 2.8WDOM1
 SPEC AVERAGE  MO 13.3 ST113.1 OM  2.2 f0 13.8 R0.1526 AL 0.00 WI 20.0 MW  2.8 3
 SPEC SD       MO  0.4 ST150.3 OM  0.7 f0 4.48 R0.0971 AL      WI      MW  0.3 3
 GAP=161        2.11       9.7     7.4 14.5  0.2067E+02  0.5633E+02  0.3002E+02E
 SPEC SMDRBH N MO 13.0 ST  1.0 OM  1.6 f0 4.80 R0.3469 AL-0.00 WI 20.0 MW  2.6 3
 SPEC SMDRBH N T1052 1 K 0.020 GD 75.8 VS 4.50 DE 3.40 Q0400.0 QA 0.70 Q1 0.00 3
 SPEC NAVIBH N MO 14.0 ST410.2 OM  2.5 f0 16.0 R0.1041 AL-0.00 WI 20.0 MW  3.3 3
 SPEC NAVIBH N T1052 7 K 0.020 GD  102 VS 4.50 DE 3.40 Q0400.0 QA 0.70 Q1 0.00 3
 SPEC SFDRBH N MO 13.3 ST 70.6 OM  1.7 f0 16.0 R0.1041 AL-0.00 WI 20.0 MW  2.8 3
 SPEC SFDRBH N T105210 K 0.020 GD  111 VS 4.50 DE 3.40 Q0400.0 QA 0.70 Q1 0.00 3
 SPEC HIDRBH N MO 13.1 ST 52.2 OM  1.5 f0 16.0 R0.1041 AL-0.00 WI 20.0 MW  2.7 3
 SPEC HIDRBH N T105215 K 0.020 GD  130 VS 4.50 DE 3.40 Q0400.0 QA 0.70 Q1 0.00 3
 SPEC BADRBH N MO 12.9 ST 31.5 OM  1.2 f0 16.0 R0.1041 AL-0.00 WI 20.0 MW  2.5 3
 SPEC BADRBH N T105220 K 0.020 GD  157 VS 4.50 DE 3.40 Q0400.0 QA 0.70 Q1 0.00 3
 LOCALITY: 11.4 Km al Este de Las Terrenas. Samana.                            3
 2020-04-01-1051-00S.MAN___123                                                 6
 OLDACT:ARG 20-04-01 10:59 OP:jrdn STATUS:               ID:20200401105100     3
 OLDACT:UP  20-04-01 11:06 OP:JMLC STATUS:               ID:20200401105100     3
 OLDACT:UP  20-04-01 11:06 OP:JMLC STATUS:               ID:20200401105100     3
 ACTION:UP  22-03-16 16:59 OP:JMLC STATUS:               ID:20200401105145 L   I
 OLDACT:UP  21-02-16 01:07 OP:AMMR STATUS:               ID:20200401105100     3
 OLDACT:UP  20-04-01 11:07 OP:JMLC STATUS:               ID:20200401105100     3
 STAT SP IPHASW D HRMM SECON CODA AMPLIT PERI AZIMU VELO AIN AR TRES W  DIS CAZ7
 SMDR BZ EPg    C 1051 54.26   24                        158   -1.3310 25.6  94 
 SMDR BN ESg    C 1052  3.41                             158    0.2510 25.6  94 
 SMDR BN  IAML    1052  3.81        64.9 0.40                          25.6  94 
 HMDR BZ EPg    C 1051 56.72   56                        137   -1.0210 57.4 175 
 HMDR BN ESg    C 1052  6.95                             137    0.0510 57.4 175 
 NAVI BN ESg    C 1052  8.71                             129   -0.7210 73.5 239 
 NAVI BN  IAML    1052  9.71      1350.8 0.20                          73.5 239 
 SFDR BE ESg    C 1052 11.86                             124    0.5310 85.4 269 
 SFDR BN  IAML    1052 12.41       156.6 0.30                          85.4 269 
 HIDR BN ESg    C 1052 17.14                             117    1.5110  109 136 
 HIDR BN  IAML    1052 17.42        83.1 0.25                           109 136 
 BADR BZ EPg    C 1052  6.22                             110   -0.1110  140 224 
 BADR BN ESg    C 1052 22.43                             110    0.5910  140 224 
 BADR BN  IAML    1052 24.90        40.7 0.15                           140 224 
 LUDR BE ESg    C 1052 29.12                             105    0.9910  172 292 
 PODR BZ EPg    C 1052 16.79   51                        100   -0.4010  232 237 
 PODR BN ESg    C 1052 40.39                             100   -0.3510  232 237 
 PODR BN  IAML    1052 51.84        29.1 1.50                           232 237 
                                                                                
 2020  4 1 1115 23.70L  19.036 -69.081 21.0  DOM  4 0.5 2.2LDOM 2.5CDOM 2.0WDOM1
 SPEC AVERAGE  MO 12.1 ST0.479 OM  2.1 f0 8.20 R0.3334 AL 0.00 WI 20.0 MW  2.0 3
 SPEC SD       MO  0.5 ST0.382 OM  1.3 f0 5.19 R0.2111 AL      WI      MW  0.3 3
 GAP=164        1.32       4.6     5.0 17.0  0.2477E+01 -0.2239E+02  0.4419E+02E
 SPEC SMDRBH N MO 12.5 ST0.097 OM  1.5 f0 3.01 R0.5446 AL-0.00 WI 20.0 MW  2.3 3
 SPEC SMDRBH N T111532 K 0.020 GD 36.9 VS 4.43 DE 3.34 Q0400.0 QA 0.70 Q1 0.00 3
 SPEC HMDRBH N MO 11.6 ST0.861 OM  0.4 f0 13.4 R0.1223 AL-0.00 WI 20.0 MW  1.6 3
 SPEC HMDRBH N T111534 K 0.020 GD 46.9 VS 4.43 DE 3.34 Q0400.0 QA 0.70 Q1 0.00 3
 LOCALITY: 7.0 Km al NNO de Miches. Oceano Atlantico.                          3
 2020-04-01-1115-00S.MAN___123                                                 6
 OLDACT:UP  20-04-01 11:24 OP:JMLC STATUS:               ID:20200401111500     3
 OLDACT:ARG 20-04-01 11:21 OP:I    STATUS:               ID:20200401111500     3
 OLDACT:UP  20-04-01 11:26 OP:JMLC STATUS:               ID:20200401111500     3
 OLDACT:UP  20-04-01 11:25 OP:JMLC STATUS:               ID:20200401111500     3
 ACTION:UP  22-03-16 16:59 OP:JMLC STATUS:               ID:20200401111523 L   I
 OLDACT:UP  21-02-16 01:11 OP:AMMR STATUS:               ID:20200401111500     3
 OLDACT:UP  21-02-16 01:10 OP:AMMR STATUS:               ID:20200401111500     3
 OLDACT:UP  20-04-01 11:26 OP:JMLC STATUS:               ID:20200401111500     3
 STAT SP IPHASW D HRMM SECON CODA AMPLIT PERI AZIMU VELO AIN AR TRES W  DIS CAZ7
 SMDR BZ EPg    C 1115 29.21   21                        118   -0.2610 30.3 338 
 SMDR BN ESg      1115 33.95                             118    0.2110 30.3 338 
 HMDR BZ EPg    C 1115 31.34   36                        108    0.2910 41.9 229 
 HMDR BN ESg    C 1115 36.19                             108   -0.3110 41.9 229 
 HIDR BZ EPg    C 1115 33.00   34                         95   -0.9610 62.4 142 
 HIDR BN ESg      1115 42.27                              95    0.7110 62.4 142 
 HIDR BN  IAML    1115 45.15        32.6 0.10                          62.4 142 
 NAVI BZ EPg    C 1115 39.80                              91    0.3210  100 265 
 NAVI BE  IAML    1115 54.16       268.5 0.10                           100 265 
                                                                                
 2020  4 1 1141 44.60L  18.331 -68.844144.7  DOM  5 0.3 2.6LDOM 2.9CDOM 2.8WDOM1
 SPEC AVERAGE  MO 13.4 ST263.6 OM  2.1 f0 11.4 R0.1828 AL 0.00 WI 20.0 MW  2.8 3
 SPEC SD       MO  0.7 ST425.5 OM  0.8 f0 4.81 R0.0951 AL      WI      MW  0.4 3
 GAP=274        0.87      11.9     7.9  8.9  0.4082E+02  0.8014E+01  0.2132E+02E
 SPEC HIDRBH N MO 13.1 ST 47.2 OM  1.4 f0 16.0 R0.1024 AL-0.00 WI 20.0 MW  2.7 3
 SPEC HIDRBH N T114215 K 0.020 GD  148 VS 4.43 DE 3.40 Q0400.0 QA 0.70 Q1 0.00 3
 SPEC HMDRBH N MO 13.0 ST  6.3 OM  1.3 f0 8.57 R0.1913 AL-0.00 WI 20.0 MW  2.6 3
 SPEC HMDRBH N T114218 K 0.020 GD  163 VS 4.43 DE 3.40 Q0400.0 QA 0.70 Q1 0.00 3
 SPEC SMDRBH N MO 12.9 ST0.833 OM  1.1 f0 4.89 R0.3352 AL-0.00 WI 20.0 MW  2.5 3
 SPEC SMDRBH N T114223 K 0.020 GD  182 VS 4.43 DE 3.40 Q0400.0 QA 0.70 Q1 0.00 3
 SPEC NAVIBH N MO 14.5 ST999.9 OM  2.7 f0 16.0 R0.1024 AL-0.00 WI 20.0 MW  3.6 3
 SPEC NAVIBH N T114228 K 0.020 GD  203 VS 4.43 DE 3.40 Q0400.0 QA 0.70 Q1 0.00 3
 LOCALITY: 17.3 Km al Este de Isla Catalina. Mar Caribe.                       3
 2020-04-01-1141-00S.MAN___123                                                 6
 OLDACT:ARG 20-04-01 12:47 OP:AMMR STATUS:               ID:20200401114100     3
 OLDACT:UP  20-04-01 12:51 OP:AMMR STATUS:               ID:20200401114100     3
 ACTION:UP  22-03-16 16:59 OP:JMLC STATUS:               ID:20200401114144 L   I
 STAT SP IPHASW D HRMM SECON CODA AMPLIT PERI AZIMU VELO AIN AR TRES W  DIS CAZ7
 HIDR BZ EPg      1142  3.77   38                        167    0.4410 31.9  25 
 HIDR BN ESg    C 1142 17.20                             167   -0.0110 31.9  25 
 HIDR BE  IAML    1142 17.74        91.9 0.25                          31.9  25 
 HIDR BN  IAML    1142 18.17       100.9 0.25                          31.9  25 
 HMDR BZ EPg    C 1142  5.14   44                        151   -0.1510 76.0 312 
 HMDR BE ESg      1142 20.18                             151   -0.4410 76.0 312 
 HMDR BN  IAML    1142 21.23        50.7 0.35                          76.0 312 
 HMDR BE  IAML    1142 21.99        26.0 0.20                          76.0 312 
 SMDR BZ EPg      1142  7.28   40                        140   -0.4010  112 341 
 SMDR BN ESg    C 1142 25.00                             140    0.2310  112 341 
 SMDR BE  IAML    1142 28.41        26.5 1.30                           112 341 
 SMDR BN  IAML    1142 34.55        39.0 0.55                           112 341 
 NAVI BN ESg      1142 29.65                             132    0.3410  143 299 
 NAVI BE  IAML    1142 30.17       562.6 0.20                           143 299 
 NAVI BN  IAML    1142 32.72       777.8 0.20                           143 299 
 REDR BE  IAML    1143  6.47         3.6 0.15                           319 290 
 REDR BN  IAML    1143  7.69         8.5 0.25                           319 290 
                                                                                
