 2020  3 4 0025  7.00L  18.333 -68.948196.9  DOM  9 1.0 3.2LDOM 3.3CDOM 2.9WDOM1
 SPEC AVERAGE  MO 13.5 ST 36.6 OM  2.5 f0 8.82 R0.2272 AL 0.00 WI 20.0 MW  2.9 3
 SPEC SD       MO  0.3 ST 30.4 OM  1.0 f0 3.23 R0.1133 AL      WI      MW  0.2 3
 GAP=173        2.56      26.0    11.1 17.5  0.1788E+03  0.7718E+02  0.2390E+03E
 SPEC HIDRBH N MO 14.0 ST 32.8 OM  2.2 f0 6.94 R0.2399 AL-0.00 WI 20.0 MW  3.3 3
 SPEC HIDRBH N T 02549 K 0.020 GD  200 VS 4.50 DE 3.40 Q0400.0 QA 0.70 Q1 0.00 3
 SPEC HMDRBH N MO 13.3 ST 31.0 OM  1.5 f0 11.5 R0.1448 AL-0.00 WI 20.0 MW  2.8 3
 SPEC HMDRBH N T 02548 K 0.020 GD  208 VS 4.50 DE 3.40 Q0400.0 QA 0.70 Q1 0.00 3
 SPEC BADRBH N MO 13.8 ST 66.4 OM  1.9 f0 10.3 R0.1617 AL-0.00 WI 20.0 MW  3.1 3
 SPEC BADRBH N T 02560 K 0.020 GD  247 VS 4.50 DE 3.40 Q0400.0 QA 0.70 Q1 0.00 3
 SPEC CRPRBH N MO 13.1 ST  4.2 OM  1.1 f0 7.27 R0.2290 AL-0.00 WI 20.0 MW  2.7 3
 SPEC CRPRBH N T 026 6 K 0.020 GD  280 VS 4.50 DE 3.40 Q0400.0 QA 0.70 Q1 0.00 3
 SPEC SDDRBH N MO 13.2 ST0.740 OM  1.2 f0 3.60 R0.4625 AL-0.00 WI 20.0 MW  2.8 3
 SPEC SDDRBH N T 02618 K 0.020 GD  323 VS 4.50 DE 3.40 Q0400.0 QA 0.70 Q1 0.00 3
 SPEC REDRBH N MO 13.6 ST 84.3 OM  1.5 f0 13.3 R0.1252 AL-0.00 WI 20.0 MW  3.0 3
 SPEC REDRBH N T 02625 K 0.020 GD  366 VS 4.50 DE 3.40 Q0400.0 QA 0.70 Q1 0.00 3
 LOCALITY: 6.8 Km al ESE de Isla Catalina, Mar Caribe.                         3
 2020-03-04-0025-00S.MAN___120                                                 6
 OLDACT:ARG 20-03-04 01:21 OP:plst STATUS:               ID:20200304002500     3
 OLDACT:UP  20-03-04 11:45 OP:JAAF STATUS:               ID:20200304002500     3
 OLDACT:UP  20-03-04 09:56 OP:JAAF STATUS:               ID:20200304002500     3
 OLDACT:UP  20-03-04 01:25 OP:JAA  STATUS:               ID:20200304002500     3
 OLDACT:UP  20-03-04 01:24 OP:JAA  STATUS:               ID:20200304002500     3
 ACTION:UP  22-01-08 17:50 OP:jmlc STATUS:               ID:20200304002507 L   I
 STAT SP IPHASW D HRMM SECON CODA AMPLIT PERI AZIMU VELO AIN AR TRES W  DIS CAZ7
 HIDR BZ EPg    C  025 31.62   41                        169   -0.2810 37.7  41 
 HIDR BN ESg    C  025 50.87                             169    0.5410 37.7  41 
 HIDR BN  IAML     025 52.79       385.3 0.30                          37.7  41 
 HMDR BZ EPg    C  025 31.82   47                        160   -1.1010 68.0 318 
 HMDR BN ESg    C  025 49.83                             160   -2.2710 68.0 318 
 HMDR BN  IAML     025 51.78        64.0 0.15                          68.0 318 
 SMDR BN ESg    C  025 56.01                             150    0.4610  109 347 
 SMDR BN  IAML     026 39.66       191.3 0.60                           109 347 
 NAVI BZ EPg    C  025 36.63   47                        144    0.0610  133 301 
 NAVI BN ESg    C  025 57.77                             144   -0.6910  133 301 
 NAVI BN  IAML     025 59.52       846.1 0.25                           133 301 
 NADR BN ESg    C  026  1.13                             141    1.0110  148 320 
 NADR BN  IAML     026 16.75       319.6 1.90                           148 320 
 BADR BZ EPg    C  025 36.98   49                        141   -0.7910  150 273 
 BADR BN ESg    C  026  1.73                             141    1.1810  150 273 
 BADR BN  IAML     026  3.68       137.9 0.20                           150 273 
 CRPR BZ EPg    D  025 41.65   56                        132   -0.0610  200 100 
 CRPR BE ESg    C  026  8.34                             132    0.9410  200 100 
 CRPR BN  IAML     026 26.94        90.0 3.05                           200 100 
 SDDR BZ EPg    C  025 47.91   63                        125    0.8410  257 287 
 SDDR BN  IAML     026 46.79        27.9 2.25                           257 287 
 REDR BZ EPg    C  025 51.37   65                        120   -0.8110  309 290 
 REDR BN ESg    C  026 26.57                             120    0.9610  309 290 
 REDR BN  IAML     026 29.62        38.9 0.10                           309 290 
                                                                                
 2020  3 4 0142  8.90L  19.269 -67.197 18.3  DOM  6 0.8 3.1LDOM 3.5CDOM 3.3WDOM1
 SPEC AVERAGE  MO 14.0 ST205.8 OM  2.7 f0 6.95 R0.3803 AL 0.00 WI 20.0 MW  3.3 3
 SPEC SD       MO  0.5 ST397.1 OM  0.7 f0 5.01 R0.2249 AL      WI      MW  0.3 3
 GAP=228        1.97      13.8    10.8 29.3  0.1105E+03  0.5577E+02 -0.5585E+02E
 SPEC CRPRBH N MO 14.3 ST  2.1 OM  2.6 f0 2.29 R0.7271 AL-0.00 WI 20.0 MW  3.5 3
 SPEC CRPRBH N T 14245 K 0.020 GD  141 VS 4.50 DE 3.40 Q0400.0 QA 0.70 Q1 0.00 3
 SPEC HIDRBH N MO 13.6 ST 21.7 OM  1.8 f0 8.55 R0.1947 AL-0.00 WI 20.0 MW  3.0 3
 SPEC HIDRBH N T 14249 K 0.020 GD  177 VS 4.50 DE 3.40 Q0400.0 QA 0.70 Q1 0.00 3
 SPEC SMDRBH N MO 13.6 ST  1.3 OM  1.8 f0 3.17 R0.5252 AL-0.00 WI 20.0 MW  3.0 3
 SPEC SMDRBH N T 143 8 K 0.020 GD  209 VS 4.50 DE 3.40 Q0400.0 QA 0.70 Q1 0.00 3
 SPEC HMDRBH N MO 13.6 ST  3.9 OM  1.7 f0 4.75 R0.3505 AL-0.00 WI 20.0 MW  3.0 3
 SPEC HMDRBH N T 14316 K 0.020 GD  236 VS 4.50 DE 3.40 Q0400.0 QA 0.70 Q1 0.00 3
 SPEC NAVIBH N MO 14.9 ST999.9 OM  2.9 f0 16.0 R0.1041 AL-0.00 WI 20.0 MW  3.9 3
 SPEC NAVIBH N T 14334 K 0.020 GD  300 VS 4.50 DE 3.40 Q0400.0 QA 0.70 Q1 0.00 3
 LOCALITY: 197.1 Km al Este de Miches, Oceano Atlantico.                       3
 2020-03-04-0142-00S.MAN___120                                                 6
 OLDACT:ARG 20-03-04 01:53 OP:njm  STATUS:               ID:20200304014200     3
 OLDACT:UP  20-03-04 01:58 OP:JAA  STATUS:               ID:20200304014200     3
 ACTION:UP  22-01-08 17:50 OP:jmlc STATUS:               ID:20200304014208 L   I
 STAT SP IPHASW D HRMM SECON CODA AMPLIT PERI AZIMU VELO AIN AR TRES W  DIS CAZ7
 CRPR BZ EPg    D  142 32.13   77                         93    1.3010  140 175 
 CRPR BE ESg    D  142 46.61                              93   -0.4510  140 175 
 CRPR BN  IAML     142 51.21       337.2 0.40                           140 175 
 SJG  BZ EPg    D  142 34.65   64                         93   -0.5710  169 139 
 SJG  BE ESg    C  142 54.82                              93    0.1110  169 139 
 HIDR BE IP        142 33.09                              55   -1.3410  177 245 
 HIDR BN  IAML     143  5.04       131.0 0.25                           177 245 
 SMDR BZ EPg    D  142 41.65   62                         92    0.3710  209 271 
 SMDR BN  IAML     143 29.00       110.2 0.60                           209 271 
 HMDR BZ EPg    D  142 46.01   92                         92    0.6610  236 257 
 HMDR BN  IAML     143 35.48        32.6 1.60                           236 257 
 NAVI BZ EPg    C  142 54.96   62                         91   -0.0710  300 264 
 NAVI BN  IAML     143 41.69       781.6 0.20                           300 264 
                                                                                
 2020  3 4 0309 51.00L  17.770 -66.835 20.0  DOM  3 0.1 2.6LDOM 3.2CDOM 2.9WDOM1
 SPEC AVERAGE  MO 13.4 ST  8.9 OM  5.0 f0 7.03 R0.2321 AL 0.00 WI 20.0 MW  2.9 3
 SPEC SD       MO  0.0 ST0.000 OM  2.7 f00.000 R0.0000 AL      WI      MW  0.0 3
 GAP=231        0.49      24.8     2.5 43.3  0.4856E+01 -0.5932E+01  0.1038E+04E
 SPEC CRPRBH N MO 13.4 ST  8.9 OM  2.3 f0 7.03 R0.2321 AL-0.00 WI 20.0 MW  2.9 3
 SPEC CRPRBH N T 310 1 K 0.020 GD 42.5 VS 4.41 DE 3.33 Q0400.0 QA 0.70 Q1 0.00 3
 LOCALITY: 34.4 Km al SO de Ponce, Region de Puerto Rico.                      3
 2020-03-04-0309-00S.MAN___120                                                 6
 OLDACT:ARG 20-03-04 09:42 OP:njm  STATUS:               ID:20200304030900     3
 OLDACT:UP  20-03-04 10:02 OP:JAAF STATUS:               ID:20200304030900     3
 ACTION:UP  22-01-08 17:50 OP:jmlc STATUS:               ID:20200304030951 L   I
 STAT SP IPHASW D HRMM SECON CODA AMPLIT PERI AZIMU VELO AIN AR TRES W  DIS CAZ7
 CRPR BZ EPg    D  3 9 57.92   41                        114    0.2610 37.5 314 
 CRPR BE ESg    C  310  2.50                             114   -0.1110 37.5 314 
 CRPR BN  IAML     310  3.05       587.6 0.15                          37.5 314 
 SJG  BZ EPg       310  4.11   53                         99   -0.0510 81.8  62 
 HMDR BZ EPg       310 35.81   72                         92   -0.0910  292 293 
 HMDR BN  IAML     311 28.92        30.5 2.25                           292 293 
                                                                                
 2020  3 4 0335  8.80L  17.823 -67.036  5.8  DOM  3 0.2 2.9LDOM 3.2CDOM 2.7WDOM1
 SPEC AVERAGE  MO 13.2 ST 16.4 OM  4.8 f0 4.93 R0.3921 AL 0.00 WI 20.0 MW  2.7 3
 SPEC SD       MO  0.3 ST 16.2 OM  2.6 f0 2.93 R0.2332 AL      WI      MW  0.2 3
 GAP=223        0.62      26.9     2.3 75.9  0.2849E+02  0.7277E+02  0.2021E+04E
 SPEC CRPRBH N MO 13.5 ST 32.6 OM  3.1 f0 7.87 R0.1589 AL-0.00 WI 20.0 MW  2.9 3
 SPEC CRPRBH N T 33513 K 0.020 GD 21.9 VS 3.38 DE 2.67 Q0400.0 QA 0.70 Q1 0.00 3
 SPEC HMDRBH N MO 12.8 ST0.127 OM  1.6 f0 2.00 R0.6253 AL-0.00 WI 20.0 MW  2.5 3
 SPEC HMDRBH N T 33624 K 0.020 GD  164 VS 3.38 DE 2.67 Q0400.0 QA 0.70 Q1 0.00 3
 LOCALITY: 43.4 Km al SSE de Mayaguez, Region de Puerto Rico.                  3
 2020-03-04-0334-00S.MAN___120                                                 6
 OLDACT:ARG 20-03-04 09:42 OP:njm  STATUS:               ID:20200304033400     3
 OLDACT:UP  20-03-04 10:04 OP:JAAF STATUS:               ID:20200304033400     3
 ACTION:UP  22-01-08 17:50 OP:jmlc STATUS:               ID:20200304033508 L   I
 STAT SP IPHASW D HRMM SECON CODA AMPLIT PERI AZIMU VELO AIN AR TRES W  DIS CAZ7
 CRPR BZ EPg    C  335 12.65   31                        106    0.3010 21.1 345 
 CRPR BE ESg    C  335 14.79                             106   -0.1710 21.1 345 
 CRPR BN  IAML     335 15.01      5233.3 0.25                          21.1 345 
 SJG  BZ EPg       335 24.54   72                         94   -0.3010 99.1  71 
 SJG  BE ESg       335 36.87                              94    0.1710 99.1  71 
 HMDR BZ EPg       335 52.37   87                         91    0.0010  270 294 
 HMDR BN  IAML     336 33.94        31.2 1.95                           270 294 
                                                                                
 2020  3 4 0544 11.50L  18.588 -69.698 89.3  DOM 11 0.9 2.7LDOM 3.0CDOM 3.0WDOM1
 SPEC AVERAGE  MO 13.5 ST 40.5 OM  2.4 f0 8.10 R0.3004 AL 0.00 WI 20.0 MW  3.0 3
 SPEC SD       MO  0.6 ST 80.2 OM  0.8 f0 4.66 R0.1961 AL      WI      MW  0.4 3
 GAP=150        2.46      10.9     8.0 12.7  0.1056E+02  0.2301E+02  0.1993E+01E
 SPEC SDD BH N MO 12.9 ST  2.5 OM  1.4 f0 7.04 R0.2360 AL-0.00 WI 20.0 MW  2.5 3
 SPEC SDD BH N T 54432 K 0.020 GD 93.3 VS 4.49 DE 3.40 Q0400.0 QA 0.70 Q1 0.00 3
 SPEC HMDRBH N MO 12.8 ST 24.7 OM  1.3 f0 16.0 R0.1038 AL-0.00 WI 20.0 MW  2.5 3
 SPEC HMDRBH N T 54431 K 0.020 GD 97.9 VS 4.49 DE 3.40 Q0400.0 QA 0.70 Q1 0.00 3
 SPEC NAVIBH N MO 14.5 ST276.5 OM  3.0 f0 9.50 R0.1749 AL-0.00 WI 20.0 MW  3.6 3
 SPEC NAVIBH N T 54432 K 0.020 GD  104 VS 4.49 DE 3.40 Q0400.0 QA 0.70 Q1 0.00 3
 SPEC BADRBH N MO 13.4 ST 15.3 OM  1.8 f0 8.80 R0.1888 AL-0.00 WI 20.0 MW  2.9 3
 SPEC BADRBH N T 54438 K 0.020 GD  115 VS 4.49 DE 3.40 Q0400.0 QA 0.70 Q1 0.00 3
 SPEC NADRBH N MO 14.7 ST  4.9 OM  3.1 f0 2.17 R0.7656 AL-0.00 WI 20.0 MW  3.7 3
 SPEC NADRBH N T 54439 K 0.020 GD  124 VS 4.49 DE 3.40 Q0400.0 QA 0.70 Q1 0.00 3
 SPEC SMDRBH N MO 13.3 ST  1.2 OM  1.7 f0 3.91 R0.4249 AL-0.00 WI 20.0 MW  2.8 3
 SPEC SMDRBH N T 54440 K 0.020 GD  129 VS 4.49 DE 3.40 Q0400.0 QA 0.70 Q1 0.00 3
 SPEC HIDRBH N MO 13.1 ST 54.9 OM  1.5 f0 16.0 R0.1038 AL-0.00 WI 20.0 MW  2.7 3
 SPEC HIDRBH N T 54442 K 0.020 GD  137 VS 4.49 DE 3.40 Q0400.0 QA 0.70 Q1 0.00 3
 SPEC SC01BH N MO 13.5 ST  1.9 OM  1.8 f0 3.88 R0.4282 AL-0.00 WI 20.0 MW  3.0 3
 SPEC SC01BH N T 54450 K 0.020 GD  168 VS 4.49 DE 3.40 Q0400.0 QA 0.70 Q1 0.00 3
 SPEC MADRBH N MO 13.5 ST  2.2 OM  1.7 f0 4.11 R0.4042 AL-0.00 WI 20.0 MW  3.0 3
 SPEC MADRBH N T 54456 K 0.020 GD  203 VS 4.49 DE 3.40 Q0400.0 QA 0.70 Q1 0.00 3
 SPEC REDRBH N MO 13.4 ST 20.5 OM  1.5 f0 9.55 R0.1740 AL-0.00 WI 20.0 MW  2.9 3
 SPEC REDRBH N T 545 6 K 0.020 GD  241 VS 4.49 DE 3.40 Q0400.0 QA 0.70 Q1 0.00 3
 LOCALITY: 3.8 Km al Norte de San Antonio de Guerra, Santo Domingo.            3
 2020-03-04-0544-00S.MAN___120                                                 6
 OLDACT:UP  20-03-04 10:09 OP:JAAF STATUS:               ID:20200304054400     3
 OLDACT:UP  20-03-04 10:07 OP:JAAF STATUS:               ID:20200304054400     3
 OLDACT:ARG 20-03-04 09:43 OP:njm  STATUS:               ID:20200304054400     3
 OLDACT:UP  20-03-04 10:10 OP:JAAF STATUS:               ID:20200304054400     3
 ACTION:UP  22-01-08 17:50 OP:jmlc STATUS:               ID:20200304054411 L   I
 STAT SP IPHASW D HRMM SECON CODA AMPLIT PERI AZIMU VELO AIN AR TRES W  DIS CAZ7
 SDD  BZ EPg    C  544 23.70   37                        161   -0.0910 27.1 239 
 SDD  BE ESg    D  544 34.11                             161    1.2010 27.1 239 
 SDD  BN  IAML     545 10.56        58.6 2.15                          27.1 239 
 HMDR BZ EPg    C  544 23.11   59                        153   -1.3310 40.1  56 
 HMDR BE ESg    D  544 32.87                             153   -1.1710 40.1  56 
 HMDR BN  IAML     544 34.17        55.2 0.10                          40.1  56 
 NAVI BZ EPg    C  544 24.21   33                        146   -1.0910 53.8 320 
 NAVI BE ESg    C  544 34.12                             146   -1.4210 53.8 320 
 NAVI BN  IAML     544 34.94      4920.2 0.20                          53.8 320 
 BADR BZ EPg    D  544 27.61   43                        136    0.8210 73.1 253 
 BADR BN  IAML     544 43.63       110.4 0.45                          73.1 253 
 NADR BZ EPg    D  544 27.05   39                        131   -0.7410 86.4 349 
 NADR BE ESg    D  544 41.13                             131    1.2610 86.4 349 
 NADR BN  IAML     544 41.41      1214.8 0.55                          86.4 349 
 SMDR BZ EPg    D  544 27.92   33                        128   -0.6010 94.4  35 
 SMDR BE ESg    C  544 42.48                             128    1.3510 94.4  35 
 SMDR BN  IAML     544 45.80       109.6 0.60                          94.4  35 
 SFDR BZ EPg    C  544 28.44   50                        127   -0.2810 96.4 323 
 SFDR BE ESg    C  544 41.91                             127    0.4310 96.4 323 
 SFDR BN  IAML     544 43.71       219.6 0.30                          96.4 323 
 HIDR BZ EPg    D  544 29.36   41                        125   -0.0510  104  90 
 HIDR BE ESg    D  544 43.64                             125    0.9510  104  90 
 HIDR BN  IAML     544 45.11        88.3 0.25                           104  90 
 SC01 BZ EPg    C  544 34.09   41                        114    0.6510  143 311 
 SC01 BN  IAML     544 53.71       118.6 2.00                           143 311 
 MADR BZ EPg    C  544 37.45   40                        107   -0.4310  183 306 
 MADR BN  IAML     545  5.72        61.0 1.15                           183 306 
 REDR BZ EPg    D  544 43.19   80                        102    0.5410  224 290 
 REDR BN  IAML     545 11.71        32.8 0.20                           224 290 
                                                                                
 2020  3 4 0730 39.50L  19.051 -67.733 20.0  DOM  5 0.6 2.1LDOM 2.8CDOM 2.5WDOM1
 SPEC AVERAGE  MO 12.8 ST0.477 OM  2.2 f0 3.58 R0.4707 AL 0.00 WI 20.0 MW  2.5 3
 SPEC SD       MO  0.2 ST0.428 OM  0.8 f0 1.31 R0.1897 AL      WI      MW  0.2 3
 GAP=229        1.46      14.8     7.6103.7  0.9718E+02 -0.5011E+03 -0.1182E+04E
 SPEC HIDRBH N MO 12.7 ST  1.1 OM  1.4 f0 5.19 R0.2780 AL-0.00 WI 20.0 MW  2.4 3
 SPEC HIDRBH N T 731 9 K 0.020 GD  116 VS 3.90 DE 2.90 Q0400.0 QA 0.70 Q1 0.00 3
 SPEC CRPRBH N MO 13.1 ST0.139 OM  1.7 f0 1.98 R0.7288 AL-0.00 WI 20.0 MW  2.7 3
 SPEC CRPRBH N T 73115 K 0.020 GD  135 VS 3.90 DE 2.90 Q0400.0 QA 0.70 Q1 0.00 3
 SPEC HMDRBH N MO 12.5 ST0.211 OM  1.0 f0 3.56 R0.4053 AL-0.00 WI 20.0 MW  2.3 3
 SPEC HMDRBH N T 73127 K 0.020 GD  177 VS 3.90 DE 2.90 Q0400.0 QA 0.70 Q1 0.00 3
 LOCALITY: 140.5 Km al Este de Miches, Oceano Atlantico.                       3
 2020-03-04-0730-00S.MAN___120                                                 6
 OLDACT:UP  20-03-04 10:14 OP:JAAF STATUS:               ID:20200304073000     3
 OLDACT:UP  20-03-04 10:12 OP:JAAF STATUS:               ID:20200304073000     3
 OLDACT:ARG 20-03-04 09:44 OP:njm  STATUS:               ID:20200304073000     3
 OLDACT:UP  20-03-04 10:16 OP:JAAF STATUS:               ID:20200304073000     3
 OLDACT:UP  20-03-04 10:15 OP:JAAF STATUS:               ID:20200304073000     3
 OLDACT:UP  20-03-04 10:14 OP:JAAF STATUS:               ID:20200304073000     3
 OLDACT:UP  20-03-04 10:14 OP:JAAF STATUS:               ID:20200304073000     3
 OLDACT:UP  20-03-04 12:18 OP:JAAF STATUS:               ID:20200304073000     3
 OLDACT:UP  20-03-04 10:17 OP:JAAF STATUS:               ID:20200304073000     3
 OLDACT:UP  20-03-04 10:16 OP:JAAF STATUS:               ID:20200304073000     3
 ACTION:UP  22-01-08 17:50 OP:jmlc STATUS:               ID:20200304073039 L   I
 OLDACT:UP  20-03-04 12:55 OP:JAAF STATUS:               ID:20200304073000     3
 STAT SP IPHASW D HRMM SECON CODA AMPLIT PERI AZIMU VELO AIN AR TRES W  DIS CAZ7
 HIDR BZ EPg       730 57.34   35                         92   -0.2910  115 244 
 HIDR BE ESg    C  731 11.17                              92    0.1010  115 244 
 HIDR BN  IAML     731 13.22        37.1 0.20                           115 244 
 CRPR BZ EPg    D  731  0.23   35                         92   -0.2510  134 149 
 CRPR BE ESg    D  731 16.50                              92    0.4810  134 149 
 CRPR BN  IAML     731 17.54        30.3 0.25                           134 149 
 SMDR BZ EPg       731  4.33   26                         91    0.6510  155 280 
 SMDR BN ESg       731 22.25                              91    0.6610  155 280 
 HMDR BZ EPg       731  6.82   44                         91   -0.0210  176 261 
 HMDR BE ESg    C  731 26.72                              91   -0.3710  176 261 
 HMDR BN  IAML     731 30.22        29.7 3.10                           176 261 
 NAVI BZ EPg       731 15.57                              91   -1.2610  242 268 
 NAVI BN ESg       731 44.77                              91    0.3110  242 268 
                                                                                
