 2020  8 3 2339 45.2 L  18.980 -67.654 15.0  DOM  7 0.8 2.3LDOM 3.2CDOM 2.6WDOM1
 LOCALITY: 146.7 Km al Este de Miches. Oceano Atlantico.                       3
 SPEC AVERAGE  MO 13.0 ST  1.7 OM  1.6 f0 4.51 R0.3545 AL 0.00 WI 20.0 MW  2.6 3
 SPEC SD       MO  0.3 ST  1.5 OM  0.3 f0 1.44 R0.1125 AL      WI      MW  0.2 3
 GAP=204        2.18      36.3    17.0 30.3  0.5487E+03 -0.2598E+03 -0.4793E+03E
 SPEC PCDRBH N MO 13.2 ST0.548 OM  2.0 f0 2.81 R0.5135 AL-0.00 WI 20.0 MW  2.8 3
 SPEC PCDRBH N T2340 9 K 0.020 GD 93.6 VS 3.90 DE 2.90 Q0400.0 QA 0.70 Q1 1.00 3
 SPEC AOPRBH N MO 13.3 ST  4.5 OM  2.0 f0 5.24 R0.2754 AL-0.00 WI 20.0 MW  2.8 3
 SPEC AOPRBH N T234015 K 0.020 GD  118 VS 3.90 DE 2.90 Q0400.0 QA 0.70 Q1 1.00 3
 SPEC MLPRBH N MO 12.7 ST0.657 OM  1.3 f0 4.58 R0.3151 AL-0.00 WI 20.0 MW  2.4 3
 SPEC MLPRBH N T234019 K 0.020 GD  129 VS 3.90 DE 2.90 Q0400.0 QA 0.70 Q1 1.00 3
 SPEC CELPBH N MO 12.6 ST  2.0 OM  1.2 f0 6.77 R0.2131 AL-0.00 WI 20.0 MW  2.4 3
 SPEC CELPBH N T234025 K 0.020 GD  152 VS 3.90 DE 2.90 Q0400.0 QA 0.70 Q1 1.00 3
 SPEC SMDRBH N MO 13.1 ST0.554 OM  1.6 f0 3.17 R0.4552 AL-0.00 WI 20.0 MW  2.7 3
 SPEC SMDRBH N T234029 K 0.020 GD  165 VS 3.90 DE 2.90 Q0400.0 QA 0.70 Q1 1.00 3
 2020-08-03-2339-00S.MAN___111                                                 6
 OLDACT:ARG 20-08-03 23:48 OP:AMMR STATUS:               ID:20200803233900     3
 ACTION:UPD 20-09-29 11:31 OP:jmlc STATUS:               ID:20200803233900     I
 OLDACT:UP  20-08-03 23:58 OP:AMMR STATUS:               ID:20200803233900     3
 STAT SP IPHASW D HRMM SECON CODA AMPLIT PERI AZIMU VELO AIN AR TRES W  DIS CAZ7
 AGPR BN  IAML    2340 10.61       140.7 0.24                          80.5 134 
 AGPR BE  IAML    2340 10.75       181.5 0.20                          80.5 134 
 PCDR BZ EPg      2339 59.45   48                         93   -0.4010 92.4 236 
 PCDR BN  IAML    2340 13.24        84.4 1.00                          92.4 236 
 AOPR BZ EPg      2340  3.10   67                         92   -0.6410  118 126 
 AOPR BE  IAML    2340 30.21       139.4 0.32                           118 126 
 AOPR BN  IAML    2340 33.70        88.7 0.28                           118 126 
 HIDR BZ EPg      2340  5.38   50                         92    1.3810  120 249 
 HIDR BN ESg      2340 17.09                              92   -0.8410  120 249 
 HIDR BN  IAML    2340 20.06       147.9 0.25                           120 249 
 HIDR BE  IAML    2340 20.70       123.4 0.25                           120 249 
 MLPR BZ EPg      2340  5.52   56                         92    0.1310  129 150 
 MLPR BE  IAML    2340 24.96        28.9 0.92                           129 150 
 MLPR BN  IAML    2340 25.93        31.6 0.48                           129 150 
 CELP BZ EPg      2340  8.26   60                         91   -0.5610  152 131 
 CELP BE ESg      2340 27.23                              91    0.9110  152 131 
 CELP BN  IAML    2340 31.81        25.2 0.28                           152 131 
 CELP BE  IAML    2340 34.69        20.2 0.20                           152 131 
 SMDR BZ EPg      2340  9.86   46                         91   -0.9710  165 282 
 SMDR BE ESg      2340 30.81                              91    0.9810  165 282 
 SMDR BE  IAML    2340 32.48        57.0 1.55                           165 282 
 SMDR BN  IAML    2340 39.91        45.1 0.80                           165 282 
                                                                                
 2020  8 4 0017 24.0 L  19.257 -69.973 19.0  DOM  8 0.6 2.2LDOM 2.9CDOM 2.8WDOM1
 SPEC AVERAGE  MO 13.3 ST 18.9 OM  1.9 f0 8.42 R0.2653 AL 0.00 WI 20.0 MW  2.8 3
 SPEC SD       MO  0.3 ST 19.5 OM  0.5 f0 4.79 R0.1434 AL      WI      MW  0.2 3
 GAP=137        1.68       7.9     4.8 11.1 -0.2129E+02 -0.1087E+02  0.5104E+02E
 SPEC NADRBH N MO 13.7 ST  8.9 OM  2.8 f0 5.53 R0.2924 AL-0.00 WI 20.0 MW  3.1 3
 SPEC NADRBH N T 01730 K 0.020 GD 27.9 VS 4.37 DE 3.29 Q0400.0 QA 0.70 Q1 1.00 3
 SPEC SMDRBH N MO 13.0 ST0.380 OM  1.6 f0 3.34 R0.4841 AL-0.00 WI 20.0 MW  2.6 3
 SPEC SMDRBH N T 01746 K 0.020 GD 85.6 VS 4.37 DE 3.29 Q0400.0 QA 0.70 Q1 1.00 3
 SPEC BADRBH N MO 13.1 ST 51.5 OM  1.6 f0 16.0 R0.1011 AL-0.00 WI 20.0 MW  2.7 3
 SPEC BADRBH N T 01751 K 0.020 GD  105 VS 4.37 DE 3.29 Q0400.0 QA 0.70 Q1 1.00 3
 SPEC REDRBH N MO 13.3 ST 14.9 OM  1.6 f0 8.80 R0.1837 AL-0.00 WI 20.0 MW  2.8 3
 SPEC REDRBH N T 01812 K 0.020 GD  183 VS 4.37 DE 3.29 Q0400.0 QA 0.70 Q1 1.00 3
 LOCALITY: 24.5 Km al SSO de Ponce, Region de Puerto Rico.                     3
 2020-08-04-0016-00S.MAN___111                                                 6
 OLDACT:ARG 20-08-04 03:39 OP:AMMR STATUS:               ID:20200804001600     3
 ACTION:UPD 20-09-29 11:31 OP:jmlc STATUS:               ID:20200804001600     I
 OLDACT:UP  20-08-04 03:44 OP:AMMR STATUS:               ID:20200804001600     3
 STAT SP IPHASW D HRMM SECON CODA AMPLIT PERI AZIMU VELO AIN AR TRES W  DIS CAZ7
 NADR BZ EPg       017 27.93   21                        143   -0.4310 16.3  48 
 NADR BN ESg    C  017 32.10                             143    0.5010 16.3  48 
 NADR BN  IAML     017 32.30      1465.3 0.20                          16.3  48 
 NADR BE  IAML     017 32.58       902.4 0.10                          16.3  48 
 SMDR BZ EPg       017 36.37   33                        101   -0.9410 82.5  87 
 SMDR BN ESg       017 47.98                             101    0.8010 82.5  87 
 SMDR BE  IAML     017 50.91        86.2 0.75                          82.5  87 
 SMDR BN  IAML     017 56.80        42.6 1.15                          82.5  87 
 ABDR BE ESg    C  017 48.26                             102    0.2410 84.6 235 
 ABDR BN  IAML     018  9.51         0.3 0.55                          84.6 235 
 BADR BZ EPg    C  017 40.25   36                         99   -0.2410  103 203 
 BADR BE ESg    D  017 52.92                              99    0.2110  103 203 
 BADR BE  IAML     017 53.41       100.6 0.20                           103 203 
 BADR BN  IAML     017 53.42       167.8 0.15                           103 203 
 LUDR BE  IAML     018  9.67       123.5 0.40                           125 305 
 HIDR BZ EPg       017 46.58   53                         95   -1.0910  152 119 
 HIDR BE  IAML     018  4.04        39.0 0.25                           152 119 
 HIDR BN  IAML     018 13.49        30.6 1.15                           152 119 
 REDR BZ EPg       017 52.36   54                         94    0.0910  182 271 
 REDR BE  IAML     018 18.01        28.1 0.25                           182 271 
 REDR BN  IAML     018 18.38        46.3 0.15                           182 271 
 PCDR BZ EPg       017 53.84   52                         94    0.8510  187 116 
 PCDR BN  IAML     019  1.17       119.9 1.80                           187 116 
                                                                                
 2020  8 4 0441 30.3 L  17.818 -66.725 19.0  DOM  5 0.2 1.9LDOM 2.6CDOM 2.5WDOM1
 SPEC AVERAGE  MO 12.8 ST  2.0 OM  1.7 f0 6.06 R0.2661 AL 0.00 WI 20.0 MW  2.5 3
 SPEC SD       MO  0.3 ST  1.0 OM  0.2 f0 1.34 R0.0543 AL      WI      MW  0.2 3
 GAP=267        0.62       3.5     2.2  7.5 -0.2186E+01  0.4695E+01 -0.1391E+01E
 SPEC CELPBH N MO 12.5 ST  2.0 OM  1.5 f0 8.45 R0.1826 AL-0.00 WI 20.0 MW  2.2 3
 SPEC CELPBH N T 44139 K 0.020 GD 37.6 VS 4.17 DE 3.12 Q0400.0 QA 0.70 Q1 1.00 3
 SPEC MLPRBH N MO 12.5 ST0.938 OM  1.5 f0 6.28 R0.2457 AL-0.00 WI 20.0 MW  2.3 3
 SPEC MLPRBH N T 44140 K 0.020 GD 42.2 VS 4.17 DE 3.12 Q0400.0 QA 0.70 Q1 1.00 3
 SPEC AOPRBH N MO 13.2 ST  3.0 OM  2.0 f0 5.59 R0.2760 AL-0.00 WI 20.0 MW  2.7 3
 SPEC AOPRBH N T 44145 K 0.020 GD 61.5 VS 4.17 DE 3.12 Q0400.0 QA 0.70 Q1 1.00 3
 SPEC PRSNBH N MO 13.2 ST  3.3 OM  2.0 f0 5.60 R0.2755 AL-0.00 WI 20.0 MW  2.7 3
 SPEC PRSNBH N T 44146 K 0.020 GD 65.4 VS 4.17 DE 3.12 Q0400.0 QA 0.70 Q1 1.00 3
 SPEC AGPRBH N MO 12.9 ST0.818 OM  1.6 f0 4.40 R0.3507 AL-0.00 WI 20.0 MW  2.5 3
 SPEC AGPRBH N T 44152 K 0.020 GD 85.0 VS 4.17 DE 3.12 Q0400.0 QA 0.70 Q1 1.00 3
 2020-08-04-0440-00S.MAN___111                                                 6
 OLDACT:ARG 20-08-04 08:22 OP:AMMR STATUS:               ID:20200804044000     3
 ACTION:UPD 20-09-29 11:31 OP:jmlc STATUS:               ID:20200804044000     I
 OLDACT:UP  20-08-04 08:25 OP:AMMR STATUS:               ID:20200804044000     3
 STAT SP IPHASW D HRMM SECON CODA AMPLIT PERI AZIMU VELO AIN AR TRES W  DIS CAZ7
 CELP BZ EPg       441 36.59   29                        117    0.3210 32.5  29 
 CELP BN ESg       441 40.61                             117   -0.0510 32.5  29 
 CELP BN  IAML     441 41.57        67.8 0.20                          32.5  29 
 CELP BE  IAML     441 41.68        57.3 0.24                          32.5  29 
 MLPR BZ EPg       441 37.04   26                        113    0.0710 37.7 296 
 MLPR BN ESg       441 41.84                             113   -0.0510 37.7 296 
 MLPR BN  IAML     441 43.58        66.8 0.28                          37.7 296 
 MLPR BE  IAML     441 44.08       103.7 0.20                          37.7 296 
 AOPR BZ EPg       441 39.64   59                        103   -0.3710 58.5 357 
 AOPR BE ESg       441 47.05                             103   -0.1210 58.5 357 
 AOPR BE  IAML     441 48.51       277.9 0.36                          58.5 357 
 AOPR BN  IAML     441 49.57       181.4 0.32                          58.5 357 
 PRSN BZ EPg       441 40.54   30                        101   -0.0610 62.6 315 
 PRSN BN ESg       441 48.07                             101   -0.1310 62.6 315 
 PRSN BN  IAML     441 50.73       249.0 0.32                          62.6 315 
 AGPR BE  IAML     441 53.76        62.0 0.47                          82.8 331 
 AGPR BN ESg       441 53.85                              98    0.3910 82.8 331 
 AGPR BN  IAML     441 58.45        46.5 0.40                          82.8 331 
                                                                                
 2020  8 4 1521 50.5 L  18.420 -69.385 29.0  DOM 15 0.9 2.7LDOM 3.0CDOM 3.2WDOM1
 LOCALITY: 7.7 Km al Este de Guayacanes. Mar Caribe.                           3
 SPEC AVERAGE  MO 13.9 ST 40.4 OM  2.2 f0 6.61 R0.4319 AL 0.00 WI 20.0 MW  3.2 3
 SPEC SD       MO  0.4 ST 46.6 OM  0.4 f0 4.05 R0.4444 AL      WI      MW  0.3 3
 GAP=168        2.52       8.4     4.1 11.7  0.1532E+02 -0.1903E+02 -0.3664E+02E
 SPEC HIDRBH N MO 13.6 ST158.6 OM  2.2 f0 16.0 R0.1041 AL-0.00 WI 20.0 MW  3.0 3
 SPEC HIDRBH N T152210 K 0.020 GD 79.0 VS 4.50 DE 3.40 Q0400.0 QA 0.70 Q1 1.00 3
 SPEC SMDRBH N MO 13.5 ST  2.0 OM  2.0 f0 3.96 R0.4205 AL-0.00 WI 20.0 MW  3.0 3
 SPEC SMDRBH N T152214 K 0.020 GD  102 VS 4.50 DE 3.40 Q0400.0 QA 0.70 Q1 1.00 3
 SPEC BADRBH N MO 13.8 ST 66.2 OM  2.3 f0 10.0 R0.1665 AL-0.00 WI 20.0 MW  3.2 3
 SPEC BADRBH N T152216 K 0.020 GD  107 VS 4.50 DE 3.40 Q0400.0 QA 0.70 Q1 1.00 3
 SPEC NADRBH N MO 14.3 ST 25.1 OM  2.7 f0 5.15 R0.3233 AL-0.00 WI 20.0 MW  3.5 3
 SPEC NADRBH N T152218 K 0.020 GD  118 VS 4.50 DE 3.40 Q0400.0 QA 0.70 Q1 1.00 3
 SPEC SFDRBH N MO 14.2 ST 72.8 OM  2.6 f0 7.59 R0.2194 AL-0.00 WI 20.0 MW  3.4 3
 SPEC SFDRBH N T152222 K 0.020 GD  135 VS 4.50 DE 3.40 Q0400.0 QA 0.70 Q1 1.00 3
 SPEC SDDRBH N MO 14.5 ST0.270 OM  2.7 f00.937 R1.7769 AL-0.00 WI 20.0 MW  3.6 3
 SPEC SDDRBH N T152239 K 0.020 GD  212 VS 4.50 DE 3.40 Q0400.0 QA 0.70 Q1 1.00 3
 SPEC MLPRBH N MO 13.3 ST0.970 OM  1.4 f0 3.66 R0.4549 AL-0.00 WI 20.0 MW  2.8 3
 SPEC MLPRBH N T152249 K 0.020 GD  254 VS 4.50 DE 3.40 Q0400.0 QA 0.70 Q1 1.00 3
 SPEC REDRBH N MO 13.9 ST 70.1 OM  2.0 f0 9.51 R0.1751 AL-0.00 WI 20.0 MW  3.2 3
 SPEC REDRBH N T152249 K 0.020 GD  263 VS 4.50 DE 3.40 Q0400.0 QA 0.70 Q1 1.00 3
 SPEC AOPRBH N MO 14.5 ST  9.9 OM  2.5 f0 3.31 R0.5030 AL-0.00 WI 20.0 MW  3.6 3
 SPEC AOPRBH N T152254 K 0.020 GD  279 VS 4.50 DE 3.40 Q0400.0 QA 0.70 Q1 1.00 3
 SPEC MCDRBH N MO 13.8 ST 36.1 OM  1.8 f0 8.60 R0.1936 AL-0.00 WI 20.0 MW  3.1 3
 SPEC MCDRBH N T152255 K 0.020 GD  290 VS 4.50 DE 3.40 Q0400.0 QA 0.70 Q1 1.00 3
 SPEC CELPBH N MO 13.6 ST  2.4 OM  1.6 f0 4.03 R0.4132 AL-0.00 WI 20.0 MW  3.0 3
 SPEC CELPBH N T152259 K 0.020 GD  301 VS 4.50 DE 3.40 Q0400.0 QA 0.70 Q1 1.00 3
 2020-08-04-1521-00S.MAN___114                                                 6
 OLDACT:ARG 20-08-04 15:59 OP:jmlc STATUS:               ID:20200804152100     3
 ACTION:UPD 20-09-29 11:31 OP:jmlc STATUS:               ID:20200804152100     I
 OLDACT:UP  20-08-04 16:12 OP:JMLC STATUS:               ID:20200804152100     3
 STAT SP IPHASW D HRMM SECON CODA AMPLIT PERI AZIMU VELO AIN AR TRES W  DIS CAZ7
 SDD  BZ IP       1522  0.94                             109    0.7610 56.5 275 
 SDD  BN IS       1522  7.03                             109   -0.3410 56.5 275 
 SDD  BN  IAML    1522 18.46        81.8 1.20                          56.5 275 
 HIDR BZ IP       1522  0.60   30                         62   -1.7710 73.2  75 
 HIDR BN IS       1522 12.49                              62    1.3110 73.2  75 
 HIDR BN  IAML    1522 16.29       539.3 0.30                          73.2  75 
 SMDR BZ IP       1522  4.73   34                         62   -0.7610 98.5  12 
 SMDR BN IS       1522 15.67                              62   -0.9510 98.5  12 
 SMDR BN  IAML    1522 18.92        83.2 0.15                          98.5  12 
 BADR BZ IP       1522  6.37   33                         62    0.2010  103 269 
 BADR BN IS       1522 17.70                              62   -0.1110  103 269 
 BADR BN  IAML    1522 25.80       887.5 0.20                           103 269 
 NADR BZ IP       1522  9.31   33                         62    1.8010  115 334 
 NADR BN IS       1522 19.87                              62   -0.2610  115 334 
 NADR BN  IAML    1522 21.35       820.1 0.25                           115 334 
 SFDR BZ IP       1522 10.71   32                         62    1.0510  132 317 
 SFDR BN IS       1522 24.23                              62    0.3610  132 317 
 SFDR BN  IAML    1522 27.55      1095.2 0.25                           132 317 
 ABDR BZ IP       1522  9.50   33                         62   -1.2010  138 289 
 ABDR BN  IAML    1522 32.89         0.3 0.25                           138 289 
 SDDR BZ IP       1522 18.77   38                         62   -0.6710  210 287 
 SDDR BN IS       1522 40.88                              62   -0.0010  210 287 
 SDDR BN  IAML    1522 47.21        83.1 0.50                           210 287 
 LUDR BZ IP       1522 22.11   44                         62    0.0410  232 315 
 MLPR BZ IP       1522 24.67   53                         62    0.0310  253 101 
 MLPR BN IS       1522 50.73                              62    0.7910  253 101 
 MLPR BN  IAML    1523  2.75        11.3 0.52                           253 101 
 REDR BZ IP       1522 27.59   49                         62    1.7310  262 292 
 REDR BN IS       1522 51.40                              62   -0.6710  262 292 
 REDR BN  IAML    1522 56.15        82.3 0.15                           262 292 
 AOPR BZ IP       1522 26.14   65                         62   -1.7110  278  91 
 AOPR BN IS       1522 55.86                              62    0.3410  278  91 
 AOPR BN  IAML    1523  1.44       341.1 0.36                           278  91 
 MCDR BZ IP       1522 28.82   60                         62   -0.3710  289 305 
 MCDR BN IS       1522 57.37                              62   -0.4910  289 305 
 MCDR BN  IAML    1523  6.47        61.7 0.20                           289 305 
 CELP BZ IP       1522 29.77   57                         62   -0.7210  300  97 
 CELP BN IS       1523  0.52                              62    0.4110  300  97 
 CELP BN  IAML    1523  7.46        48.8 0.36                           300  97 
 GRTK BZ IP       1522 42.65                              62    1.1910  388 332 
 GRTK BN  IAML    1524  8.46        57.6 3.30                           388 332 
                                                                                
 2020  8 4 2143  0.3 L  18.668 -71.729  9.0  DOM  7 0.9 2.2LDOM 2.4CDOM 2.5WDOM1
 LOCALITY: 10.5 Km al Norte de La Descubierta. Independencia.                  3
 SPEC AVERAGE  MO 12.8 ST  9.6 OM  1.9 f0 7.36 R0.2289 AL 0.00 WI 20.0 MW  2.5 3
 SPEC SD       MO  0.1 ST 11.0 OM  0.2 f0 3.58 R0.1096 AL      WI      MW  0.1 3
 GAP=223        2.42       5.7    11.5  7.8  0.3715E+02 -0.2792E+01 -0.8666E+01E
 SPEC NEDRBH N MO 12.9 ST0.661 OM  2.2 f0 3.61 R0.3639 AL-0.00 WI 20.0 MW  2.5 3
 SPEC NEDRBH N T2143 9 K 0.020 GD 35.5 VS 3.55 DE 2.75 Q0400.0 QA 0.70 Q1 1.00 3
 SPEC SDDRBH N MO 12.6 ST0.375 OM  1.7 f0 3.71 R0.3540 AL-0.00 WI 20.0 MW  2.3 3
 SPEC SDDRBH N T214314 K 0.020 GD 58.5 VS 3.55 DE 2.75 Q0400.0 QA 0.70 Q1 1.00 3
 SPEC REDRBH N MO 12.8 ST 30.4 OM  1.9 f0 13.1 R0.1003 AL-0.00 WI 20.0 MW  2.5 3
 SPEC REDRBH N T214318 K 0.020 GD 68.1 VS 3.55 DE 2.75 Q0400.0 QA 0.70 Q1 1.00 3
 SPEC PODRBH N MO 13.0 ST  6.6 OM  2.0 f0 7.11 R0.1847 AL-0.00 WI 20.0 MW  2.6 3
 SPEC PODRBH N T214319 K 0.020 GD 73.5 VS 3.55 DE 2.75 Q0400.0 QA 0.70 Q1 1.00 3
 SPEC BADRBH N MO 12.8 ST  9.7 OM  1.6 f0 9.29 R0.1414 AL-0.00 WI 20.0 MW  2.5 3
 SPEC BADRBH N T214339 K 0.020 GD  121 VS 3.55 DE 2.75 Q0400.0 QA 0.70 Q1 1.00 3
 2020-08-04-2142-00S.MAN___120                                                 6
 OLDACT:ARG 20-08-04 22:00 OP:JMLC STATUS:               ID:20200804214200     3
 ACTION:UPD 20-09-29 11:31 OP:jmlc STATUS:               ID:20200804214200     I
 OLDACT:UP  20-08-04 22:08 OP:JMLC STATUS:               ID:20200804214200     3
 STAT SP IPHASW D HRMM SECON CODA AMPLIT PERI AZIMU VELO AIN AR TRES W  DIS CAZ7
 NEDR BZ IP       2143  7.09   16                        105    1.0610 34.3 126 
 NEDR BN IS       2143 10.88                             105    0.6210 34.3 126 
 NEDR BN  IAML    2143 13.53       154.4 0.35                          34.3 126 
 SDDR BZ IP       2143  8.74   23                         99   -1.0210 57.8  53 
 SDDR BN IS       2143 16.20                              99   -0.5510 57.8  53 
 SDDR BN  IAML    2143 17.35        51.8 0.25                          57.8  53 
 REDR BZ IP       2143 11.38   22                         98    0.0810 67.5   3 
 REDR BN IS       2143 20.30                              98    0.8610 67.5   3 
 REDR BN  IAML    2143 21.85       167.7 0.15                          67.5   3 
 PODR BZ IP       2143 11.25   27                         98   -0.9410 72.9 139 
 PODR BN IS       2143 20.76                              98   -0.2210 72.9 139 
 PODR BN  IAML    2143 20.91       208.4 0.15                          72.9 139 
 MCDR BZ IP       2143 20.62   33                         50   -1.0710  136   3 
 MCDR BN  IAML    2143 45.22        47.5 0.40                           136   3 
 BADR BZ IP       2143 22.24   27                         50   -1.0110  148 101 
 BADR BN IS       2143 41.03                              50    0.8010  148 101 
 BADR BN  IAML    2143 41.63        61.0 1.80                           148 101 
 LUDR BZ IP       2143 26.29   27                         50    1.8010  158  31 
 LUDR BE IS       2143 41.99                              50   -0.4010  158  31 
                                                                                
