 2020  9 1 0016 42.1 L  18.258 -71.061 37.3  DOM  5 1.0 2.2LDOM 2.6CDOM 2.8WDOM1
 SPEC AVERAGE  MO 13.3 ST  7.6 OM  1.9 f0 5.56 R0.4324 AL 0.00 WI 20.0 MW  2.8 3
 SPEC SD       MO  0.3 ST 12.4 OM  0.4 f0 4.53 R0.1695 AL      WI      MW  0.2 3
 GAP=168        2.54      15.3     6.6 13.0  0.2343E+02 -0.1920E+02 -0.1417E+03E
 LOCALITY: 5.7 Km al SSE de Santa Cruz de Barahona. Barahona.                  3
 SPEC PODRBH N MO 13.8 ST  3.0 OM  2.6 f0 3.77 R0.4416 AL-0.00 WI 20.0 MW  3.1 3
 SPEC PODRBH N T 01654 K 0.020 GD 45.2 VS 4.50 DE 3.40 Q0400.0 QA 0.70 Q1 1.00 3
 SPEC NEDRBH N MO 13.3 ST0.361 OM  2.0 f0 2.71 R0.6144 AL-0.00 WI 20.0 MW  2.8 3
 SPEC NEDRBH N T 01659 K 0.020 GD 58.6 VS 4.50 DE 3.40 Q0400.0 QA 0.70 Q1 1.00 3
 SPEC BADRBH N MO 13.0 ST 32.3 OM  1.6 f0 14.6 R0.1140 AL-0.00 WI 20.0 MW  2.6 3
 SPEC BADRBH N T 017 6 K 0.020 GD 84.3 VS 4.50 DE 3.40 Q0400.0 QA 0.70 Q1 1.00 3
 SPEC JIDRBH N MO 13.0 ST0.308 OM  1.5 f0 3.21 R0.5187 AL-0.00 WI 20.0 MW  2.6 3
 SPEC JIDRBH N T 017 9 K 0.020 GD 95.3 VS 4.50 DE 3.40 Q0400.0 QA 0.70 Q1 1.00 3
 SPEC REDRBH N MO 13.6 ST  1.8 OM  2.0 f0 3.52 R0.4730 AL-0.00 WI 20.0 MW  3.0 3
 SPEC REDRBH N T 01718 K 0.020 GD  136 VS 4.50 DE 3.40 Q0400.0 QA 0.70 Q1 1.00 3
 2020-09-01-0016-00S.MAN___126                                                 6
 OLDACT:UP  20-09-01 10:22 OP:AMMR STATUS:               ID:20200901001600     3
 OLDACT:ARG 20-09-01 10:14 OP:njm  STATUS:               ID:20200901001600     3
 ACTION:UP  22-06-23 12:36 OP:jmlc STATUS:               ID:20200901001642 L   I
 OLDACT:UP  20-09-01 10:22 OP:AMMR STATUS:               ID:20200901001600     3
 STAT SP IPHASW D HRMM SECON CODA AMPLIT PERI AZIMU VELO AIN AR TRES W  DIS CAZ7
 PODR BZ IP        016 50.37   25                        139   -0.2210 25.5 246 
 PODR BE IS        016 55.66                             139   -1.3810 25.5 246 
 PODR BN  IAML     016 56.94       646.6 0.25                          25.5 246 
 NEDR BZ IP        016 53.89   25                        117    1.3010 45.2 304 
 NEDR BE IS        017  1.29                             117    0.7210 45.2 304 
 NEDR BN  IAML     017  1.59        73.6 0.50                          45.2 304 
 BADR BZ IP        016 57.06   29                        101    0.0510 75.6  78 
 BADR BE IS        017  8.34                             101   -0.0110 75.6  78 
 BADR BN  IAML     017 54.51       113.4 1.00                          75.6  78 
 JIDR BZ IP        016 59.88   32                         65    1.2910 87.7 287 
 JIDR BN  IAML     017 21.34        29.0 1.05                          87.7 287 
 REDR BZ IP        017  4.46   42                         65   -0.0910  131 329 
 REDR BE IS        017 19.96                              65   -1.6610  131 329 
 REDR BN  IAML     017 23.71        54.6 0.20                           131 329 
                                                                                
 2020  9 1 0348 42.5 L  18.878 -70.397103.5  DOM  6 0.3 2.4LDOM 2.8CDOM 2.7WDOM1
 SPEC AVERAGE  MO 13.1 ST  6.0 OM  2.4 f0 6.82 R0.3148 AL 0.00 WI 20.0 MW  2.7 3
 SPEC SD       MO  0.1 ST  5.3 OM  1.0 f0 3.28 R0.1514 AL      WI      MW  0.0 3
 GAP= 77        0.89       4.1     2.9  5.4  0.3201E+01 -0.3349E+01 -0.2207E+01E
 LOCALITY: 7.9 Km al Sur de Bonao, Monse¤or Nouel.                             3
 LOCALITY: 7.9 Km al Sur de Bonao, Monseñor Nouel.                             3
 SPEC SC01BH N MO 13.2 ST0.682 OM  1.6 f0 3.54 R0.4662 AL-0.00 WI 20.0 MW  2.7 3
 SPEC SC01BH N T 34912 K 0.020 GD  124 VS 4.46 DE 3.40 Q0400.0 QA 0.70 Q1 1.00 3
 SPEC REDRBH N MO 13.0 ST 11.3 OM  1.3 f0 10.1 R0.1634 AL-0.00 WI 20.0 MW  2.6 3
 SPEC REDRBH N T 34924 K 0.020 GD  177 VS 4.46 DE 3.40 Q0400.0 QA 0.70 Q1 1.00 3
 2020-09-01-0348-00S.MAN___126                                                 6
 OLDACT:ARG 20-09-01 10:15 OP:njm  STATUS:               ID:20200901034800     3
 ACTION:UP  22-06-23 12:36 OP:jmlc STATUS:               ID:20200901034842 L   I
 OLDACT:UP  20-09-01 15:03 OP:JMLC STATUS:               ID:20200901034800     3
 OLDACT:UP  20-09-01 15:03 OP:JMLC STATUS:               ID:20200901034800     3
 OLDACT:UP  20-09-01 10:26 OP:AMMR STATUS:               ID:20200901034800     3
 OLDACT:UP  20-09-01 10:26 OP:AMMR STATUS:               ID:20200901034800     3
 STAT SP IPHASW D HRMM SECON CODA AMPLIT PERI AZIMU VELO AIN AR TRES W  DIS CAZ7
 ABDR BZ IP        348 59.18                             164    0.6610 25.3 253 
 ABDR BN IS        349 10.63                             164   -0.0310 25.3 253 
 BADR BZ IP     D  348 59.53   31                        147    0.0610 53.2 176 
 BADR BE IS     C  349 12.08                             147   -0.2710 53.2 176 
 BADR BN  IAML     349 13.53        65.5 1.00                          53.2 176 
 SC01 BZ IP     D  349  0.96   31                        139    0.4810 70.0 330 
 SC01 BE IS     D  349 14.25                             139    0.1410 70.0 330 
 SC01 BN  IAML     349 15.70        90.3 0.15                          70.0 330 
 NADR BZ IP     C  349  0.52   35                        136   -0.5110 77.6  47 
 NADR BE IS     C  349 14.94                             136   -0.1410 77.6  47 
 NADR BN  IAML     349 31.42       183.4 2.10                          77.6  47 
 REDR BZ IP     C  349  7.52   45                        114   -0.0210  144 288 
 REDR BE IS     C  349 26.15                             114   -0.4010  144 288 
 REDR BN  IAML     349 29.50        23.4 0.55                           144 288 
 HIDR BZ IP     C  349 11.12   42                        108   -0.1910  180 100 
 HIDR BE IS     C  349 33.39                             108    0.2210  180 100 
 HIDR BN  IAML     349 33.71        25.2 0.85                           180 100 
                                                                                
 2020  9 1 0457 29.8 L  19.501 -69.787 33.5  DOM 13 1.4 2.5LDOM 3.0CDOM 2.5WDOM1
 SPEC AVERAGE  MO 12.8 ST  6.2 OM  2.2 f0 5.69 R0.2389 AL 0.00 WI 20.0 MW  2.5 3
 SPEC SD       MO  0.3 ST  6.8 OM  0.5 f0 2.13 R0.0885 AL      WI      MW  0.2 3
 GAP=142        3.58      10.7     6.8 11.6  0.4533E+02  0.1787E+02  0.3410E+02E
 LOCALITY: 15.7 Km al ESE de Cabrera. Oceano Atlantico.                        3
 SPEC NADRBH N MO 13.0 ST  4.3 OM  2.5 f0 5.33 R0.2221 AL-0.00 WI 20.0 MW  2.6 3
 SPEC NADRBH N T 45738 K 0.020 GD 37.9 VS 3.20 DE 2.60 Q0400.0 QA 0.70 Q1 1.00 3
 SPEC SMDRBH N MO 12.4 ST0.578 OM  1.6 f0 4.34 R0.2728 AL-0.00 WI 20.0 MW  2.2 3
 SPEC SMDRBH N T 45750 K 0.020 GD 75.1 VS 3.20 DE 2.60 Q0400.0 QA 0.70 Q1 1.00 3
 SPEC MADRBH N MO 12.9 ST  1.8 OM  1.8 f0 4.41 R0.2685 AL-0.00 WI 20.0 MW  2.5 3
 SPEC MADRBH N T 458 8 K 0.020 GD  142 VS 3.20 DE 2.60 Q0400.0 QA 0.70 Q1 1.00 3
 SPEC BADRBH N MO 13.2 ST  6.1 OM  2.1 f0 5.28 R0.2242 AL-0.00 WI 20.0 MW  2.7 3
 SPEC BADRBH N T 45810 K 0.020 GD  140 VS 3.20 DE 2.60 Q0400.0 QA 0.70 Q1 1.00 3
 SPEC HIDRBH N MO 12.6 ST  9.7 OM  1.5 f0 9.43 R0.1256 AL-0.00 WI 20.0 MW  2.4 3
 SPEC HIDRBH N T 45813 K 0.020 GD  154 VS 3.20 DE 2.60 Q0400.0 QA 0.70 Q1 1.00 3
 SPEC PCDRBH N MO 12.5 ST0.206 OM  1.3 f0 2.86 R0.4140 AL-0.00 WI 20.0 MW  2.3 3
 SPEC PCDRBH N T 45821 K 0.020 GD  187 VS 3.20 DE 2.60 Q0400.0 QA 0.70 Q1 1.00 3
 SPEC REDRBH N MO 13.2 ST 21.0 OM  1.9 f0 8.16 R0.1451 AL-0.00 WI 20.0 MW  2.7 3
 SPEC REDRBH N T 45823 K 0.020 GD  205 VS 3.20 DE 2.60 Q0400.0 QA 0.70 Q1 1.00 3
 2020-09-01-0457-00S.MAN___126                                                 6
 OLDACT:UP  20-09-01 10:33 OP:AMMR STATUS:               ID:20200901045700     3
 OLDACT:UP  20-09-01 10:30 OP:AMMR STATUS:               ID:20200901045700     3
 OLDACT:ARG 20-09-01 10:15 OP:njm  STATUS:               ID:20200901045700     3
 OLDACT:UP  20-09-01 10:34 OP:AMMR STATUS:               ID:20200901045700     3
 ACTION:UP  22-06-23 12:36 OP:jmlc STATUS:               ID:20200901045729 L   I
 OLDACT:UP  20-09-01 10:35 OP:AMMR STATUS:               ID:20200901045700     3
 STAT SP IPHASW D HRMM SECON CODA AMPLIT PERI AZIMU VELO AIN AR TRES W  DIS CAZ7
 NADR BZ IP     D  457 36.25   29                        145   -0.5810 17.8 203 
 NADR BN  IAML     457 42.26       469.2 0.60                          17.8 203 
 SMDR BZ IP     C  457 42.11   30                         97   -1.1310 67.2 110 
 SMDR BE IS     C  457 52.14                              97   -1.3010 67.2 110 
 SODR BZ IP     D  457 44.74   43                         97    1.3110 68.5 294 
 SODR BE IS     D  457 57.60                              97    3.8110 68.5 294 
 SODR BN  IAML     458  5.67       128.4 1.35                          68.5 294 
 SC01 BZ IP     C  457 49.64   41                         93    1.7010 99.0 265 
 SC01 BE IS     C  457 59.00                              93   -2.7210 99.0 265 
 SC01 BN  IAML     458  6.53        63.8 2.40                          99.0 265 
 SDD  BZ IP     C  457 50.19   40                         65   -0.0910  116 187 
 SDD  BE IS     C  458  6.47                              65    0.6410  116 187 
 SDD  BN  IAML     458 32.17        76.0 2.65                           116 187 
 LUDR BZ IP     C  457 51.34   48                         65   -0.8010  130 290 
 LUDR BE IS     C  458  7.42                              65   -1.7010  130 290 
 BADR BZ IP     C  457 53.72   32                         65    0.5410  136 206 
 BADR BE IS     C  458 11.64                              65    0.6910  136 206 
 BADR BN  IAML     458 12.17       142.0 0.15                           136 206 
 MADR BZ IP     C  457 52.12   41                         65   -1.1710  138 273 
 MADR BE IS     D  458 10.46                              65   -0.6710  138 273 
 MADR BN  IAML     458 18.53        79.3 1.15                           138 273 
 HIDR BZ IP     C  457 54.57   53                         65   -0.4610  151 132 
 HIDR BE IS     C  458 14.82                              65    0.6310  151 132 
 HIDR BN  IAML     458 15.10        54.6 0.25                           151 132 
 PCDR BZ IP     C  457 59.47   54                         58    0.2510  184 126 
 PCDR BE IS     C  458 22.93                              58    1.3510  184 126 
 PCDR BN  IAML     459  0.08        93.0 1.90                           184 126 
 MCDR BZ IP     C  458  2.40   52                         58    1.1010  201 283 
 MCDR BE IS     C  458 25.94                              58    0.7110  201 283 
 MCDR BN  IAML     458 43.92        55.5 0.70                           201 283 
 REDR BZ IP     C  458  0.97   48                         58   -0.6810  203 263 
 REDR BE IS     C  458 24.75                              58   -1.1010  203 263 
 REDR BN  IAML     458 27.32       107.8 0.15                           203 263 
 GRTK BZ IP   3 D  458  5.73   57                         58   -3.31 2  263 328 
 GRTK BE IS   3 C  458 36.73                              58   -2.12 2  263 328 
 GRTK BN  IAML     458 42.70        48.9 2.70                           263 328 
                                                                                
 2020  9 1 0654 54.5 L  18.278 -68.804 94.0  DOM  5 0.7 2.2LDOM 2.3CDOM 2.2WDOM1
 SPEC AVERAGE  MO 12.4 ST 12.1 OM  3.2 f0 16.0 R0.0992 AL 0.00 WI 20.0 MW  2.2 3
 SPEC SD       MO  0.0 ST0.000 OM  2.2 f00.000 R0.0000 AL      WI      MW  0.0 3
 GAP=241        1.88      21.7    15.3 12.2  0.2697E+03  0.1647E+02  0.8558E+02E
 LOCALITY: 50.0 Km al SO de Mano Juan Isla Saona. Mar Caribe.                  3
 SPEC HIDRBH N MO 12.4 ST 12.1 OM  1.0 f0 16.0 R0.0992 AL-0.00 WI 20.0 MW  2.2 3
 SPEC HIDRBH N T 65519 K 0.020 GD  100 VS 4.29 DE 3.22 Q0400.0 QA 0.70 Q1 1.00 3
 2020-09-01-0654-00S.MAN___126                                                 6
 OLDACT:ARG 20-09-01 10:17 OP:njm  STATUS:               ID:20200901065400     3
 ACTION:UP  22-06-23 12:36 OP:jmlc STATUS:               ID:20200901065454 L   I
 OLDACT:UP  20-09-01 10:38 OP:AMMR STATUS:               ID:20200901065400     3
 OLDACT:UP  20-09-01 10:38 OP:AMMR STATUS:               ID:20200901065400     3
 STAT SP IPHASW D HRMM SECON CODA AMPLIT PERI AZIMU VELO AIN AR TRES W  DIS CAZ7
 HIDR BZ IP        655  8.34   18                        154   -0.9410 36.0  15 
 HIDR BE IS        655 20.67                             154    0.1410 36.0  15 
 HIDR BN  IAML     655 43.04        39.0 3.30                          36.0  15 
 PCDR BZ IP        655  9.75   27                        145   -0.4510 51.8  60 
 PCDR BE IS        655 22.78                             145    0.6210 51.8  60 
 PCDR BN  IAML     656  1.03        65.0 3.00                          51.8  60 
 SMDR BZ IP        655 17.70                             116    1.4610  119 340 
 SMDR BN IS        655 32.08                             116   -0.7010  119 340 
 CRPR BZ IP        655 23.84                             102    0.4510  184  99 
 CRPR BN  IAML     655 57.74        32.1 4.44                           184  99 
 AOPR BZ IP        655 26.65                              99   -0.5410  217  88 
 AOPR BE IS        655 52.02                              99   -0.0410  217  88 
 AOPR BN  IAML     655 59.36        19.1 1.32                           217  88 
                                                                                
 2020  9 1 1052 33.9 L  18.662 -69.676118.8  DOM  6 0.7 2.8LDOM 2.9CDOM 3.2WDOM1
 SPEC AVERAGE  MO 13.9 ST 23.8 OM  2.7 f0 5.76 R1.3029 AL 0.00 WI 20.0 MW  3.2 3
 SPEC SD       MO  0.4 ST 24.8 OM  0.7 f0 4.30 R2.1097 AL      WI      MW  0.3 3
 GAP=133        1.78      11.4     5.0 12.2 -0.2194E+01  0.7669E+01 -0.3880E+02E
 LOCALITY: 6.3 Km al NE de San Antonio de Guerra. Santo Domingo.               3
 SPEC SDD BH N MO 14.7 ST0.010 OM  3.1 f00.274 R5.9956 AL-0.00 WI 20.0 MW  3.7 3
 SPEC SDD BH N T1053 1 K 0.020 GD  123 VS 4.44 DE 3.40 Q0400.0 QA 0.70 Q1 1.00 3
 SPEC BADRBH N MO 14.0 ST 29.8 OM  2.4 f0 6.46 R0.2543 AL-0.00 WI 20.0 MW  3.3 3
 SPEC BADRBH N T1053 9 K 0.020 GD  142 VS 4.44 DE 3.40 Q0400.0 QA 0.70 Q1 1.00 3
 SPEC SMDRBH N MO 13.7 ST  1.4 OM  2.0 f0 3.11 R0.5282 AL-0.00 WI 20.0 MW  3.1 3
 SPEC SMDRBH N T1053 8 K 0.020 GD  146 VS 4.44 DE 3.40 Q0400.0 QA 0.70 Q1 1.00 3
 SPEC HIDRBH N MO 13.5 ST 50.2 OM  1.8 f0 11.8 R0.1392 AL-0.00 WI 20.0 MW  2.9 3
 SPEC HIDRBH N T105310 K 0.020 GD  156 VS 4.44 DE 3.40 Q0400.0 QA 0.70 Q1 1.00 3
 SPEC PCDRBH N MO 13.8 ST0.600 OM  2.0 f0 2.20 R0.7467 AL-0.00 WI 20.0 MW  3.1 3
 SPEC PCDRBH N T105316 K 0.020 GD  182 VS 4.44 DE 3.40 Q0400.0 QA 0.70 Q1 1.00 3
 SPEC REDRBH N MO 13.7 ST 60.6 OM  1.8 f0 10.7 R0.1535 AL-0.00 WI 20.0 MW  3.1 3
 SPEC REDRBH N T105332 K 0.020 GD  253 VS 4.44 DE 3.40 Q0400.0 QA 0.70 Q1 1.00 3
 2020-09-01-1052-00S.MAN___126                                                 6
 OLDACT:ARG 20-09-01 10:58 OP:njm  STATUS:               ID:20200901105200     3
 ACTION:UP  22-06-23 12:36 OP:jmlc STATUS:               ID:20200901105233 L   I
 OLDACT:UP  20-09-01 11:01 OP:AMMR STATUS:               ID:20200901105200     3
 STAT SP IPHASW D HRMM SECON CODA AMPLIT PERI AZIMU VELO AIN AR TRES W  DIS CAZ7
 SDD  BZ IP       1052 50.51   24                        162   -0.7510 33.6 229 
 SDD  BE IS     C 1053  3.34                             162   -1.1210 33.6 229 
 SDD  BN  IAML    1053  4.49       117.2 0.15                          33.6 229 
 BADR BZ IP       1052 53.89   37                        141   -0.0710 78.0 248 
 BADR BE IS       1053 10.80                             141    1.6010 78.0 248 
 BADR BN  IAML    1053 12.70       286.7 0.15                          78.0 248 
 SMDR BZ IP       1052 54.60   33                        138    0.2210 86.4  36 
 SMDR BE IS       1053 10.10                             138    0.1510 86.4  36 
 SMDR BN  IAML    1053 13.95        69.2 0.25                          86.4  36 
 HIDR BZ IP       1052 56.36   32                        133    0.7210  102  94 
 HIDR BE IS       1053 11.86                             133   -0.3110  102  94 
 HIDR BN  IAML    1053 14.68       257.3 0.20                           102  94 
 PCDR BZ IP       1052 58.83   46                        122   -0.1210  138  97 
 PCDR BE IS       1053 18.20                             122    0.2010  138  97 
 PCDR BN  IAML    1053 33.75       107.7 1.70                           138  97 
 REDR BZ IP       1053  7.63   58                        108   -0.5310  224 288 
 REDR BE IS     C 1053 34.23                             108    0.0210  224 288 
 REDR BN  IAML    1053 36.18        76.4 0.15                           224 288 
                                                                                
