 2020 12 3 0750 31.70L  17.986 -71.496 21.5  DOM  4 0.2 2.8LDOM 2.6CDOM 2.6WDOM1
 SPEC AVERAGE  MO 13.1 ST  2.0 OM  2.7 f0 4.75 R0.3696 AL 0.00 WI 20.0 MW  2.6 3
 SPEC SD       MO  0.2 ST  2.4 OM  0.9 f0 1.50 R0.1051 AL      WI      MW  0.1 3
 GAP=277        0.56       4.0     2.9  3.1  0.3234E+01  0.4672E+01 -0.8236E+00E
 SPEC PODRBH N MO 13.2 ST  6.2 OM  2.2 f0 7.10 R0.2256 AL-0.00 WI 20.0 MW  2.8 3
 SPEC PODRBH N T 75040 K 0.020 GD 37.1 VS 4.33 DE 3.26 Q0400.0 QA 0.70 Q1 0.00 3
 SPEC NEDRBH N MO 13.0 ST0.598 OM  1.8 f0 3.78 R0.4238 AL-0.00 WI 20.0 MW  2.6 3
 SPEC NEDRBH N T 75046 K 0.020 GD 59.1 VS 4.33 DE 3.26 Q0400.0 QA 0.70 Q1 0.00 3
 SPEC JIDRBH N MO 12.8 ST0.808 OM  1.5 f0 4.95 R0.3237 AL-0.00 WI 20.0 MW  2.5 3
 SPEC JIDRBH N T 75049 K 0.020 GD 71.0 VS 4.33 DE 3.26 Q0400.0 QA 0.70 Q1 0.00 3
 SPEC REDRBH N MO 13.2 ST0.548 OM  1.6 f0 3.17 R0.5054 AL-0.00 WI 20.0 MW  2.7 3
 SPEC REDRBH N T 751 7 K 0.020 GD  145 VS 4.33 DE 3.26 Q0400.0 QA 0.70 Q1 0.00 3
 LOCALITY: 18.1 Km al ENE de Cabo Rojo. Pedernales.                            3
 2020-12-03-0749-00S.MAN___129                                                 6
 OLDACT:ARG 20-12-03 10:17 OP:njm  STATUS:               ID:20201203074900     3
 OLDACT:UP  20-12-03 10:27 OP:AMMR STATUS:               ID:20201203074900     3
 ACTION:UP  22-01-13 17:41 OP:jmlc STATUS:               ID:20201203075031 L   I
 OLDACT:UP  20-12-03 10:27 OP:AMMR STATUS:               ID:20201203074900     3
 STAT SP IPHASW D HRMM SECON CODA AMPLIT PERI AZIMU VELO AIN AR TRES W  DIS CAZ7
 PODR BZ IP     C  750 37.80   30                        122    0.1210 30.2  49 
 PODR BE IS     C  750 42.26                             122    0.1610 30.2  49 
 PODR BN  IAML     750 48.85      2113.9 0.30                          30.2  49 
 NEDR BZ IP     D  750 40.54   24                        100   -0.4010 55.1   3 
 NEDR BE IS     C  750 47.59                             100   -0.1810 55.1   3 
 NEDR BN  IAML     750 48.22       611.5 0.25                          55.1   3 
 JIDR BZ IP     D  750 42.71   31                         95   -0.0410 67.7 326 
 JIDR BE IS     D  750 51.14                              95    0.2210 67.7 326 
 JIDR BN  IAML     750 52.34       499.2 0.35                          67.7 326 
 REDR BZ IP     D  750 53.05   44                         59   -0.0210  144 351 
 REDR BE IS     C  751  9.02                              59    0.1410  144 351 
 REDR BN  IAML     751 12.17        86.2 0.25                           144 351 
                                                                                
 2020 12 3 0909 19.30L  17.796 -66.841  0.0  DOM  6 0.6 2.9LDOM 2.6CDOM 2.9WDOM1
 SPEC AVERAGE  MO 13.4 ST  5.0 OM  3.3 f0 4.27 R0.2902 AL 0.00 WI 20.0 MW  2.9 3
 SPEC SD       MO  0.3 ST  2.2 OM  0.6 f00.910 R0.0639 AL      WI      MW  0.2 3
 GAP=254        1.59       9.5     4.1 19.5 -0.4376E+01  0.4658E+01  0.9976E+02E
 LOCALITY: 34.1 Km al SO de Ponce, Region de Puerto Rico.                      3
 SPEC MLPRBH N MO 13.0 ST  5.3 OM  2.6 f0 5.80 R0.2041 AL-0.00 WI 20.0 MW  2.6 3
 SPEC MLPRBH N T 9 925 K 0.020 GD 28.9 VS 3.20 DE 2.60 Q0400.0 QA 0.70 Q1 0.00 3
 SPEC CRPRBH N MO 13.6 ST  8.2 OM  3.1 f0 4.27 R0.2773 AL-0.00 WI 20.0 MW  3.0 3
 SPEC CRPRBH N T 9 928 K 0.020 GD 35.2 VS 3.20 DE 2.60 Q0400.0 QA 0.70 Q1 0.00 3
 SPEC CELPBH N MO 13.0 ST  1.9 OM  2.4 f0 4.27 R0.2773 AL-0.00 WI 20.0 MW  2.6 3
 SPEC CELPBH N T 9 930 K 0.020 GD 41.7 VS 3.20 DE 2.60 Q0400.0 QA 0.70 Q1 0.00 3
 SPEC PRSNBH N MO 13.7 ST  3.4 OM  3.0 f0 2.94 R0.4027 AL-0.00 WI 20.0 MW  3.1 3
 SPEC PRSNBH N T 9 933 K 0.020 GD 56.7 VS 3.20 DE 2.60 Q0400.0 QA 0.70 Q1 0.00 3
 SPEC AOPRBH N MO 13.5 ST  6.3 OM  2.8 f0 4.09 R0.2895 AL-0.00 WI 20.0 MW  3.0 3
 SPEC AOPRBH N T 9 934 K 0.020 GD 61.7 VS 3.20 DE 2.60 Q0400.0 QA 0.70 Q1 0.00 3
 2020-12-03-0908-00S.MAN___129                                                 6
 OLDACT:ARG 20-12-03 10:17 OP:njm  STATUS:               ID:20201203090800     3
 OLDACT:UP  20-12-03 10:32 OP:AMMR STATUS:               ID:20201203090800     3
 ACTION:UP  22-01-13 17:41 OP:jmlc STATUS:               ID:20201203090919 L   I
 OLDACT:UP  21-11-17 14:14 OP:CGRS STATUS:               ID:20201203090800     3
 OLDACT:UP  21-11-17 14:13 OP:CGRS STATUS:               ID:20201203090800     3
 OLDACT:UP  20-12-03 10:32 OP:AMMR STATUS:               ID:20201203090800     3
 STAT SP IPHASW D HRMM SECON CODA AMPLIT PERI AZIMU VELO AIN AR TRES W  DIS CAZ7
 MLPR BZ IP     C  9 9 23.46   19                         90   -0.4910 28.9 312 
 MLPR BE IS     D  9 9 27.36                              90   -0.0410 28.9 312 
 MLPR BN  IAML     9 9 29.38       719.9 0.16                          28.9 312 
 CRPR BZ IP     C  9 9 24.80   25                         90   -0.1610 35.2 312 
 CRPR BE IS     C  9 9 29.87                              90    0.7210 35.2 312 
 CRPR BN  IAML     9 9 30.27      4664.4 0.16                          35.2 312 
 CELP BZ IP     D  9 9 25.82   33                         90   -0.1910 41.7  42 
 CELP BE IS     D  9 9 32.07                              90    1.0810 41.7  42 
 CELP BN  IAML     9 9 32.59       346.0 0.40                          41.7  42 
 PRSN BZ IP     C  9 9 27.82   31                         90   -0.6110 56.7 325 
 PRSN BE IS     C  9 9 35.49                              90    0.2910 56.7 325 
 PRSN BN  IAML     9 9 38.39      2407.6 0.28                          56.7 325 
 AOPR BZ IP     D  9 9 28.45   45                         90   -0.7810 61.7   9 
 AOPR BE IS     C  9 9 36.01                              90   -0.5810 61.7   9 
 AOPR BN  IAML     9 9 37.29       874.6 0.20                          61.7   9 
 PCDR BZ IP     C  9 9 47.96   57                         50    0.7610  181 296 
 PCDR BN  IAML     910 16.19        88.1 0.65                           181 296 
                                                                                
 2020 12 3 1740  8.20L  18.285 -69.482 59.7  DOM  7 0.6 3.0LDOM 2.9CDOM 2.8WDOM1
 SPEC AVERAGE  MO 13.2 ST  4.8 OM  2.8 f0 6.03 R0.3641 AL 0.00 WI 20.0 MW  2.8 3
 SPEC SD       MO  0.4 ST  3.3 OM  1.2 f0 3.06 R0.1858 AL      WI      MW  0.3 3
 GAP=180        1.65      19.0     4.5 14.5  0.1566E+02  0.1813E+01  0.2873E+02E
 SPEC SDD BH N MO 12.8 ST  6.2 OM  1.4 f0 10.1 R0.1649 AL-0.00 WI 20.0 MW  2.5 3
 SPEC SDD BH N T174025 K 0.020 GD 77.9 VS 4.50 DE 3.40 Q0400.0 QA 0.70 Q1 0.00 3
 SPEC SADRBH N MO 13.1 ST0.238 OM  1.6 f0 2.72 R0.6121 AL-0.00 WI 20.0 MW  2.7 3
 SPEC SADRBH N T174030 K 0.020 GD 95.9 VS 4.50 DE 3.40 Q0400.0 QA 0.70 Q1 0.00 3
 SPEC BADRBH N MO 13.8 ST  8.0 OM  2.2 f0 5.28 R0.3153 AL-0.00 WI 20.0 MW  3.1 3
 SPEC BADRBH N T174034 K 0.020 GD  111 VS 4.50 DE 3.40 Q0400.0 QA 0.70 Q1 0.00 3
 LOCALITY: 14.7 Km al Sur de Guayacanes. Mar Caribe.                           3
 2020-12-03-1738-00S.MAN___129                                                 6
 OLDACT:ARG 20-12-03 18:16 OP:AMMR STATUS:               ID:20201203173800     3
 OLDACT:UP  20-12-03 18:21 OP:AMMR STATUS:               ID:20201203173800     3
 ACTION:UP  22-01-13 17:41 OP:jmlc STATUS:               ID:20201203174008 L   I
 OLDACT:UP  20-12-03 18:22 OP:AMMR STATUS:               ID:20201203173800     3
 STAT SP IPHASW D HRMM SECON CODA AMPLIT PERI AZIMU VELO AIN AR TRES W  DIS CAZ7
 SDD  BZ EPg      1740 18.05                             135   -0.8810 50.1 293 
 SDD  BN ESg      1740 26.53                             135   -0.3210 50.1 293 
 SDD  BN  IAML    1740 27.39      1207.5 0.30                          50.1 293 
 SADR BZ EPg      1740 21.73                             121    0.4010 75.1  98 
 SADR BN  IAML    1740 36.31       282.6 0.35                          75.1  98 
 HIDR BZ EPg    C 1740 22.35   32                        116   -0.3510 87.9  67 
 HIDR BE ESg    D 1740 33.85                             116    0.4410 87.9  67 
 HIDR BN  IAML    1740 35.36       451.0 0.25                          87.9  67 
 BADR BZ EPg      1740 22.98   43                        115   -0.4710 93.7 278 
 BADR BN ESg    D 1740 35.87                             115    1.1610 93.7 278 
 BADR BE  IAML    1740 38.74       129.9 0.50                          93.7 278 
 BADR BN  IAML    1740 41.27      2777.6 0.30                          93.7 278 
 SMDR BE  IAML    1740 45.80       418.6 0.30                           115  16 
 ABDR BZ EPg      1740 27.49   50                        105   -0.7910  134 296 
 ABDR BN ESg      1740 43.43                             105    0.3210  134 296 
 ABDR BN  IAML    1740 45.11       241.7 0.25                           134 296 
 ABDR BE  IAML    1740 46.50        37.1 0.34                           134 296 
 REDR BZ EPg      1740 43.41                              95    0.4910  258 295 
 REDR BN  IAML    1741 15.90        81.7 0.25                           258 295 
                                                                                
 2020 12 3 1834  3.20L  19.200 -70.432 12.1  DOM  5 0.4 3.0LDOM 2.6CDOM 2.5WDOM1
 SPEC AVERAGE  MO 12.9 ST 31.8 OM  2.8 f0 12.7 R0.1131 AL 0.00 WI 20.0 MW  2.5 3
 SPEC SD       MO  0.2 ST 24.6 OM  1.0 f0 2.53 R0.0219 AL      WI      MW  0.1 3
 GAP=150        0.93       3.1     4.6 12.9 -0.2879E+01  0.3641E+02  0.7201E+01E
 SPEC SFDRBH N MO 13.0 ST 66.5 OM  2.4 f0 16.0 R0.0863 AL-0.00 WI 20.0 MW  2.6 3
 SPEC SFDRBH N T1834 8 K 0.020 GD 25.1 VS 3.73 DE 2.83 Q0400.0 QA 0.70 Q1 0.00 3
 SPEC BADRBH N MO 12.6 ST 13.3 OM  1.5 f0 12.2 R0.1131 AL-0.00 WI 20.0 MW  2.4 3
 SPEC BADRBH N T183427 K 0.020 GD 89.8 VS 3.73 DE 2.83 Q0400.0 QA 0.70 Q1 0.00 3
 SPEC REDRBH N MO 13.0 ST 15.5 OM  1.7 f0 9.86 R0.1400 AL-0.00 WI 20.0 MW  2.6 3
 SPEC REDRBH N T183440 K 0.020 GD  125 VS 3.73 DE 2.83 Q0400.0 QA 0.70 Q1 0.00 3
 LOCALITY: 9.5 Km al NO de Jima Abajo. La Vega.                                3
 2020-12-03-1832-00S.MAN___129                                                 6
 OLDACT:ARG 20-12-03 18:57 OP:AMMR STATUS:               ID:20201203183200     3
 OLDACT:UP  20-12-03 19:04 OP:AMMR STATUS:               ID:20201203183200     3
 ACTION:UP  22-01-13 17:41 OP:jmlc STATUS:               ID:20201203183403 L   I
 OLDACT:UP  20-12-03 19:04 OP:AMMR STATUS:               ID:20201203183200     3
 STAT SP IPHASW D HRMM SECON CODA AMPLIT PERI AZIMU VELO AIN AR TRES W  DIS CAZ7
 SFDR BN ESg    D 1834 10.39                             119    0.1510 22.0  64 
 SFDR BN  IAML    1834 10.78      5964.7 0.30                          22.0  64 
 ABDR BZ EPg    C 1834 10.63   24                        107   -0.5810 47.5 206 
 ABDR BE ESg      1834 17.53                             107    0.3710 47.5 206 
 ABDR BN  IAML    1834 17.79       654.1 0.35                          47.5 206 
 BADR BZ EPg      1834 17.30   30                         98   -0.3910 89.0 175 
 BADR BN ESg    D 1834 28.70                              98    0.2710 89.0 175 
 BADR BN  IAML    1834 30.10       401.1 0.30                          89.0 175 
 SDDR BN  IAML    1834 31.61       550.6 0.35                          93.5 255 
 REDR BZ EPg      1834 25.03   37                         95    0.1910  134 274 
 REDR BN  IAML    1834 41.36       295.9 0.25                           134 274 
                                                                                
 2020 12 3 2229 52.60L  19.591 -71.113 12.5  DOM  6 0.7 2.9LDOM 2.4CDOM 2.4WDOM1
 SPEC AVERAGE  MO 12.7 ST 10.5 OM  2.8 f0 7.74 R0.3627 AL 0.00 WI 20.0 MW  2.4 3
 SPEC SD       MO  0.1 ST 14.0 OM  1.0 f0 6.01 R0.2773 AL      WI      MW  0.0 3
 GAP=123        1.83       4.3     5.2 14.2 -0.1897E+01  0.1596E+02  0.3345E+01E
 SPEC MADRBH N MO 12.6 ST  1.0 OM  2.3 f0 5.35 R0.2593 AL-0.00 WI 20.0 MW  2.3 3
 SPEC MADRBH N T222954 K 0.020 GD 12.9 VS 3.75 DE 2.84 Q0400.0 QA 0.70 Q1 0.00 3
 SPEC SDDRBH N MO 12.7 ST0.060 OM  1.7 f0 1.87 R0.7420 AL-0.00 WI 20.0 MW  2.4 3
 SPEC SDDRBH N T223010 K 0.020 GD 71.2 VS 3.75 DE 2.84 Q0400.0 QA 0.70 Q1 0.00 3
 SPEC REDRBH N MO 12.7 ST 30.3 OM  1.6 f0 16.0 R0.0867 AL-0.00 WI 20.0 MW  2.4 3
 SPEC REDRBH N T223011 K 0.020 GD 72.0 VS 3.75 DE 2.84 Q0400.0 QA 0.70 Q1 0.00 3
 LOCALITY: 5.5 Km al NO de Mao. Valverde.                                      3
 2020-12-03-2228-00S.MAN___129                                                 6
 OLDACT:ARG 20-12-03 22:36 OP:AMMR STATUS:               ID:20201203222800     3
 OLDACT:UP  20-12-03 22:41 OP:AMMR STATUS:               ID:20201203222800     3
 ACTION:UP  22-01-13 17:41 OP:jmlc STATUS:               ID:20201203222952 L   I
 OLDACT:UP  20-12-03 22:41 OP:AMMR STATUS:               ID:20201203222800     3
 STAT SP IPHASW D HRMM SECON CODA AMPLIT PERI AZIMU VELO AIN AR TRES W  DIS CAZ7
 MADR BZ EPg      2229 54.66                             166   -0.0110 2.98 158 
 MADR BN  IAML    2229 59.80      4519.2 0.30                          2.98 158 
 LUDR BZ EPg    D 2229 57.65   29                         95   -1.2810 37.4  27 
 LUDR BE ESg    C 2230  4.25                              95    0.6310 37.4  27 
 LUDR BE  IAML    2230  9.66      6489.1 0.30                          37.4  27 
 MCDR BN ESg      2230 12.00                              91    0.8410 66.0 300 
 MCDR BN  IAML    2230 15.66       393.5 0.30                          66.0 300 
 SDDR BZ EPg    C 2230  3.66   26                         91   -0.2510 70.1 195 
 SDDR BN  IAML    2230 14.22      1330.3 0.30                          70.1 195 
 REDR BZ EPg    C 2230  3.27   26                         91   -0.7610 70.9 241 
 REDR BE ESg      2230 12.55                              91    0.0510 70.9 241 
 REDR BN  IAML    2230 14.76       334.2 0.25                          70.9 241 
 ABDR BN ESg      2230 21.21                              91    0.7710  100 149 
 ABDR BN  IAML    2230 22.81       190.9 0.30                           100 149 
                                                                                
 2020 12 4 0151 32.70L  18.190 -68.532152.3  DOM  5 0.5 3.0LDOM 3.1CDOM 2.6WDOM1
 SPEC AVERAGE  MO 13.0 ST 11.8 OM  1.7 f0 8.04 R0.2847 AL 0.00 WI 20.0 MW  2.6 3
 SPEC SD       MO  0.4 ST 19.6 OM  0.7 f0 4.58 R0.1606 AL      WI      MW  0.3 3
 GAP=239        1.44      40.5    12.4 15.3  0.4020E+03  0.6648E+02  0.4151E+03E
 SPEC PCDRBH N MO 13.0 ST0.265 OM  1.3 f0 3.01 R0.5433 AL-0.00 WI 20.0 MW  2.6 3
 SPEC PCDRBH N T 152 5 K 0.020 GD  157 VS 4.42 DE 3.40 Q0400.0 QA 0.70 Q1 0.00 3
 SPEC HIDRBH N MO 13.1 ST 50.9 OM  1.4 f0 16.0 R0.1022 AL-0.00 WI 20.0 MW  2.7 3
 SPEC HIDRBH N T 152 6 K 0.020 GD  159 VS 4.42 DE 3.40 Q0400.0 QA 0.70 Q1 0.00 3
 SPEC CRPRBH N MO 12.6 ST  3.2 OM  0.8 f0 9.08 R0.1801 AL-0.00 WI 20.0 MW  2.4 3
 SPEC CRPRBH N T 15218 K 0.020 GD  216 VS 4.42 DE 3.40 Q0400.0 QA 0.70 Q1 0.00 3
 SPEC AOPRBH N MO 13.7 ST  3.4 OM  1.8 f0 4.17 R0.3922 AL-0.00 WI 20.0 MW  3.1 3
 SPEC AOPRBH N T 15224 K 0.020 GD  242 VS 4.42 DE 3.40 Q0400.0 QA 0.70 Q1 0.00 3
 SPEC CELPBH N MO 12.4 ST  1.3 OM  0.5 f0 7.96 R0.2055 AL-0.00 WI 20.0 MW  2.2 3
 SPEC CELPBH N T 15226 K 0.020 GD  256 VS 4.42 DE 3.40 Q0400.0 QA 0.70 Q1 0.00 3
 LOCALITY: 22.5 Km al ENE de Mano Juan Isla Saona, Mar Caribe.                 3
 2020-12-04-0151-00S.MAN___129                                                 6
 OLDACT:ARG 20-12-04 03:07 OP:cgrs STATUS:               ID:20201204015100     3
 OLDACT:UP  20-12-04 03:13 OP:CGRS STATUS:               ID:20201204015100     3
 OLDACT:UP  20-12-04 03:13 OP:CGRS STATUS:               ID:20201204015100     3
 ACTION:UP  22-01-13 17:41 OP:jmlc STATUS:               ID:20201204015132 L   I
 OLDACT:UP  20-12-04 04:06 OP:CGRS STATUS:               ID:20201204015100     3
 STAT SP IPHASW D HRMM SECON CODA AMPLIT PERI AZIMU VELO AIN AR TRES W  DIS CAZ7
 PCDR BZ EPg       151 52.62   38                        165    0.0510 39.3  24 
 PCDR BN ESg    C  152  6.78                             165   -0.4610 39.3  24 
 PCDR BN  IAML     152 14.37       171.7 0.30                          39.3  24 
 HIDR BZ EPg       151 52.13   33                        161   -0.7610 48.5 337 
 HIDR BN ESg    D  152  8.48                             161    0.6810 48.5 337 
 HIDR BN  IAML     152 10.97       338.1 0.25                          48.5 337 
 HIDR BZ E      D  153 32.69                                           48.5 337 
 CRPR BZ EPg    D  152  0.45   50                        132    0.5210  154  97 
 CRPR BN ESg    D  152 20.32                             132    0.2610  154  97 
 CRPR BN  IAML     152 30.79        38.4 0.32                           154  97 
 AOPR BZ EPg    C  152  3.97   49                        126    0.8010  189  84 
 AOPR BN ESg    D  152 25.77                             126    0.0810  189  84 
 AOPR BN  IAML     152 33.66       449.2 0.28                           189  84 
 CELP BZ EPg    C  152  4.37   56                        123   -0.5810  207  93 
 CELP BN ESg    C  152 28.20                             123   -0.5910  207  93 
 CELP BN  IAML     152 34.47        76.9 0.32                           207  93 
                                                                                
