 2020 12 2 0233 14.70L  18.041 -71.391 12.4  DOM 14 0.8 3.2LDOM 3.1CDOM 3.4WDOM1
 SPEC AVERAGE  MO 14.1 ST 25.4 OM  3.0 f0 3.13 R0.6880 AL 0.00 WI 20.0 MW  3.4 3
 SPEC SD       MO  0.4 ST 70.6 OM  0.6 f0 2.14 R0.4932 AL      WI      MW  0.3 3
 GAP=238        2.12       7.5     5.2 13.8  0.1113E+02  0.1410E+02  0.1032E+01E
 SPEC PODRBH N MO 14.6 ST268.8 OM  4.1 f0 7.24 R0.1911 AL-0.00 WI 20.0 MW  3.7 3
 SPEC PODRBH N T 23319 K 0.020 GD 21.9 VS 3.74 DE 2.83 Q0400.0 QA 0.70 Q1 0.00 3
 SPEC NEDRBH N MO 14.2 ST 11.7 OM  3.3 f0 3.55 R0.3898 AL-0.00 WI 20.0 MW  3.4 3
 SPEC NEDRBH N T 23327 K 0.020 GD 51.1 VS 3.74 DE 2.83 Q0400.0 QA 0.70 Q1 0.00 3
 SPEC JIDRBH N MO 14.2 ST  5.8 OM  3.2 f0 2.71 R0.5106 AL-0.00 WI 20.0 MW  3.4 3
 SPEC JIDRBH N T 23333 K 0.020 GD 71.1 VS 3.74 DE 2.83 Q0400.0 QA 0.70 Q1 0.00 3
 SPEC SDDRBH N MO 13.9 ST0.590 OM  2.7 f0 1.64 R0.8438 AL-0.00 WI 20.0 MW  3.2 3
 SPEC SDDRBH N T 23341 K 0.020 GD  103 VS 3.74 DE 2.83 Q0400.0 QA 0.70 Q1 0.00 3
 SPEC BADRBH N MO 14.1 ST  3.5 OM  2.9 f0 2.47 R0.5602 AL-0.00 WI 20.0 MW  3.4 3
 SPEC BADRBH N T 23348 K 0.020 GD  113 VS 3.74 DE 2.83 Q0400.0 QA 0.70 Q1 0.00 3
 SPEC ABDRBH N MO 14.1 ST  1.9 OM  2.9 f0 2.00 R0.6919 AL-0.00 WI 20.0 MW  3.4 3
 SPEC ABDRBH N T 23346 K 0.020 GD  113 VS 3.74 DE 2.83 Q0400.0 QA 0.70 Q1 0.00 3
 SPEC REDRBH N MO 13.5 ST 26.5 OM  2.2 f0 7.89 R0.1754 AL-0.00 WI 20.0 MW  3.0 3
 SPEC REDRBH N T 23350 K 0.020 GD  132 VS 3.74 DE 2.83 Q0400.0 QA 0.70 Q1 0.00 3
 SPEC SC01BH N MO 14.0 ST0.387 OM  2.6 f0 1.35 R1.0250 AL-0.00 WI 20.0 MW  3.3 3
 SPEC SC01BH N T 23359 K 0.020 GD  153 VS 3.74 DE 2.83 Q0400.0 QA 0.70 Q1 0.00 3
 SPEC MADRBH N MO 14.3 ST  1.3 OM  2.9 f0 1.59 R0.8703 AL-0.00 WI 20.0 MW  3.5 3
 SPEC MADRBH N T 23360 K 0.020 GD  155 VS 3.74 DE 2.83 Q0400.0 QA 0.70 Q1 0.00 3
 SPEC SFDRBH N MO 14.4 ST  1.8 OM  3.0 f0 1.62 R0.8542 AL-0.00 WI 20.0 MW  3.5 3
 SPEC SFDRBH N T 234 3 K 0.020 GD  164 VS 3.74 DE 2.83 Q0400.0 QA 0.70 Q1 0.00 3
 SPEC MCDRBH N MO 13.7 ST  3.5 OM  2.2 f0 3.62 R0.3823 AL-0.00 WI 20.0 MW  3.0 3
 SPEC MCDRBH N T 23412 K 0.020 GD  181 VS 3.74 DE 2.83 Q0400.0 QA 0.70 Q1 0.00 3
 SPEC NADRBH N MO 14.9 ST0.336 OM  3.4 f00.649 R2.1322 AL-0.00 WI 20.0 MW  3.9 3
 SPEC NADRBH N T 23410 K 0.020 GD  190 VS 3.74 DE 2.83 Q0400.0 QA 0.70 Q1 0.00 3
 SPEC HIDRBH N MO 13.5 ST  4.1 OM  1.9 f0 4.37 R0.3167 AL-0.00 WI 20.0 MW  2.9 3
 SPEC HIDRBH N T 23435 K 0.020 GD  241 VS 3.74 DE 2.83 Q0400.0 QA 0.70 Q1 0.00 3
 LOCALITY: 26.7 Km al Norte de Oviedo. Pedernales.                             3
 2020-12-02-0233-00S.MAN___129                                                 6
 OLDACT:ARG 20-12-02 02:40 OP:cgrs STATUS:               ID:20201202023300     3
 OLDACT:UP  20-12-02 02:49 OP:CGRS STATUS:               ID:20201202023300     3
 ACTION:UP  22-01-13 17:41 OP:jmlc STATUS:               ID:20201202023314 L   I
 STAT SP IPHASW D HRMM SECON CODA AMPLIT PERI AZIMU VELO AIN AR TRES W  DIS CAZ7
 PODR BZ EPg    C  233 17.89   20                        123   -0.4410 18.0  40 
 PODR BN ESg    D  233 20.67                             123   -0.3810 18.0  40 
 PODR BN  IAML     233 24.10     32549.2 0.30                          18.0  40 
 NEDR BZ EPg    D  233 22.53   35                         91   -0.3110 49.6 351 
 NEDR BN ESg    D  233 28.96                              91    0.0610 49.6 351 
 NEDR BN  IAML     233 30.93      2856.4 0.25                          49.6 351 
 JIDR BZ EPg    D  233 26.77   38                         91    0.8410 70.0 316 
 JIDR BN ESg    D  233 34.90                              91    0.6210 70.0 316 
 JIDR BN  IAML     233 40.97      1088.4 0.50                          70.0 316 
 SDDR BZ EPg    C  233 30.61   39                         90   -0.5710  104   6 
 SDDR BN ESg    D  233 42.69                              90   -0.7210  104   6 
 SDDR BN  IAML     233 48.84       287.3 0.75                           104   6 
 BADR BZ EPg    D  233 34.32   44                         90    1.3910  116  70 
 BADR BN  IAML     233 54.55       764.3 0.35                           116  70 
 ABDR BZ EPg    C  233 33.58   46                         90    0.3110  117  43 
 ABDR BN ESg    D  233 48.46                              90    1.4110  117  43 
 ABDR BN  IAML     233 52.71       523.6 0.75                           117  43 
 REDR BZ EPg    D  233 36.19   47                         90   -0.4810  141 347 
 REDR BN ESg    D  233 52.47                              90   -0.4910  141 347 
 REDR BN  IAML     233 52.94       394.9 0.15                           141 347 
 SC01 BZ EPg    C  233 40.93   61                         90    0.0610  169  24 
 SC01 BN  IAML     234 14.84       175.9 0.75                           169  24 
 MADR BZ EPg    C  233 39.90   51                         90   -1.4010  171  10 
 MADR BN ESg    D  234  1.83                              90    0.8110  171  10 
 MADR BN  IAML     234  4.65       341.5 0.60                           171  10 
 SFDR BZ EPg    C  233 43.84   57                         90    0.7210  183  41 
 SFDR BN ESg    D  234  4.54                              90    0.3510  183  41 
 SFDR BN  IAML     234 11.34       411.1 0.45                           183  41 
 MCDR BZ EPg    D  233 46.21   57                         90   -0.4510  207 352 
 MCDR BN  IAML     234 31.47        71.6 0.45                           207 352 
 LUDR BZ EPg    C  233 48.18   64                         90    1.0310  210  13 
 NADR BZ EPg    D  233 48.15   62                         90   -0.1310  218  48 
 NADR BN ESg    D  234 12.23                              90   -0.9410  218  48 
 NADR BN  IAML     234 22.85       264.7 0.50                           218  48 
 HIDR BZ EPg    C  233 57.86   72                         90   -1.3010  289  77 
 HIDR BN  IAML     234 53.07        61.1 0.35                           289  77 
                                                                                
 2020 12 2 0258  6.00L  18.703 -69.148157.5  DOM  5 0.6 2.6LDOM 3.0CDOM 3.1WDOM1
 SPEC AVERAGE  MO 13.8 ST 24.8 OM  3.0 f0 10.5 R2.7422 AL 0.00 WI 20.0 MW  3.1 3
 SPEC SD       MO  1.2 ST 21.3 OM  1.6 f0 7.27 R3.7296 AL      WI      MW  0.8 3
 GAP=190        1.57      30.6     6.2 13.3 -0.2311E+02  0.3652E+02 -0.4636E+02E
 SPEC HIDRBH N MO 12.8 ST 22.5 OM  1.1 f0 15.2 R0.1076 AL-0.00 WI 20.0 MW  2.5 3
 SPEC HIDRBH N T 25839 K 0.020 GD  164 VS 4.42 DE 3.40 Q0400.0 QA 0.70 Q1 0.00 3
 SPEC PCDRBH N MO 15.4 ST0.023 OM  3.7 f00.204 R8.0167 AL-0.00 WI 20.0 MW  4.2 3
 SPEC PCDRBH N T 25844 K 0.020 GD  178 VS 4.42 DE 3.40 Q0400.0 QA 0.70 Q1 0.00 3
 SPEC BADRBH N MO 13.1 ST 51.9 OM  1.3 f0 16.0 R0.1022 AL-0.00 WI 20.0 MW  2.7 3
 SPEC BADRBH N T 25850 K 0.020 GD  205 VS 4.42 DE 3.40 Q0400.0 QA 0.70 Q1 0.00 3
 LOCALITY: 13.8 Km al OSO de El Seibo. El Seibo.                               3
 2020-12-02-0257-00S.MAN___129                                                 6
 OLDACT:ARG 20-12-02 09:44 OP:cgrs STATUS:               ID:20201202025700     3
 OLDACT:UP  20-12-02 09:49 OP:CGRS STATUS:               ID:20201202025700     3
 ACTION:UP  22-01-13 17:41 OP:jmlc STATUS:               ID:20201202025806 L   I
 STAT SP IPHASW D HRMM SECON CODA AMPLIT PERI AZIMU VELO AIN AR TRES W  DIS CAZ7
 HIDR BZ EPg    C  258 26.43   35                        162   -0.2010 47.3 105 
 HIDR BN ESg    D  258 41.05                             162   -0.8910 47.3 105 
 HIDR BN  IAML     258 43.88        40.1 0.20                          47.3 105 
 PCDR BZ EPg    C  258 27.99   38                        150   -0.3610 83.5 104 
 PCDR BN ESg    D  258 45.95                             150    1.0210 83.5 104 
 PCDR BN  IAML     259  4.80       107.6 1.50                          83.5 104 
 BADR BZ EPg    C  258 31.86   41                        138   -0.0310  132 255 
 BADR BN ESg    D  258 51.56                             138    0.4710  132 255 
 BADR BN  IAML     259 13.93        94.5 1.55                           132 255 
 ABDR BZ EPg    C  258 33.94   48                        133   -0.1910  156 275 
 ABDR BN ESg    D  258 55.28                             133    0.2910  156 275 
 ABDR BN  IAML     259 13.88        16.9 1.40                           156 275 
 PODR BZ EPg    C  258 41.95   50                        121    0.7110  233 256 
 PODR BN ESg    C  259  6.55                             121   -0.8110  233 256 
 PODR BN  IAML     259 23.80        51.9 2.85                           233 256 
                                                                                
 2020 12 2 0419 11.10L  18.062 -71.299  4.3  DOM  4 0.5 2.1LDOM 2.4CDOM 2.0WDOM1
 SPEC AVERAGE  MO 12.0 ST  7.1 OM  5.0 f0 13.4 R0.0884 AL 0.00 WI 20.0 MW  2.0 3
 SPEC SD       MO  0.0 ST0.000 OM  3.0 f00.000 R0.0000 AL      WI      MW  0.0 3
 GAP=269        1.27       9.1     4.0 12.9  0.2619E-01  0.1071E+02  0.4982E+02E
 SPEC PODRBH N MO 12.0 ST  7.1 OM  2.0 f0 13.4 R0.0884 AL-0.00 WI 20.0 MW  2.0 3
 SPEC PODRBH N T 41913 K 0.020 GD 12.5 VS 3.20 DE 2.60 Q0400.0 QA 0.70 Q1 0.00 3
 LOCALITY: 5.3 Km al SSO de Polo, Barahona.                                    3
 2020-12-02-0419-00S.MAN___129                                                 6
 OLDACT:ARG 20-12-02 10:09 OP:cgrs STATUS:               ID:20201202041900     3
 OLDACT:UP  20-12-02 10:14 OP:CGRS STATUS:               ID:20201202041900     3
 ACTION:UP  22-01-13 17:41 OP:jmlc STATUS:               ID:20201202041911 L   I
 OLDACT:UP  21-11-21 10:33 OP:CGRS STATUS:               ID:20201202041900     3
 OLDACT:UP  21-11-17 14:09 OP:CGRS STATUS:               ID:20201202041900     3
 OLDACT:UP  20-12-02 10:17 OP:CGRS STATUS:               ID:20201202041900     3
 STAT SP IPHASW D HRMM SECON CODA AMPLIT PERI AZIMU VELO AIN AR TRES W  DIS CAZ7
 PODR BZ EPg    D  419 12.91   14                        117   -0.2810 11.7   9 
 PODR BN ESg    D  419 14.93                             117    0.1710 11.7   9 
 PODR BN  IAML     419 15.97      2254.4 0.30                          11.7   9 
 NEDR BZ EPg    C  419 18.40   26                         95   -0.7510 50.0 339 
 NEDR BN ESg    D  419 24.81                              95   -0.3310 50.0 339 
 NEDR BN  IAML     419 26.57       150.4 0.30                          50.0 339 
 JIDR BZ EPg    C  419 23.03   30                         93   -0.2510 75.6 309 
 JIDR BN ESg    D  419 33.13                              93    0.8110 75.6 309 
 JIDR BN  IAML     419 36.58        76.9 0.30                          75.6 309 
 ABDR BZ EPg    D  419 29.35   35                         94    0.6210  109  40 
 ABDR BN ESg       419 41.83                              94    0.0210  109  40 
 ABDR BN  IAML     419 53.01        22.7 0.30                           109  40 
                                                                                
 2020 12 2 1254 36.60L  19.509 -73.589 15.0  DOM 11 0.8 3.1LDOM 3.2CDOM 2.8WDOM1
 SPEC AVERAGE  MO 13.2 ST 11.1 OM  2.5 f0 5.18 R1.1572 AL 0.00 WI 20.0 MW  2.8 3
 SPEC SD       MO  0.6 ST 22.7 OM  0.9 f0 3.65 R2.3080 AL      WI      MW  0.4 3
 GAP=165        2.06      13.9     6.0 13.0  0.6681E+02 -0.2288E+02 -0.1011E+03E
 SPEC QMBUHH N MO 13.1 ST0.686 OM  1.8 f0 3.08 R0.4217 AL-0.00 WI 20.0 MW  2.7 3
 SPEC QMBUHH N T125514 K 0.020 GD  149 VS 3.51 DE 2.73 Q0400.0 QA 0.70 Q1 0.00 3
 SPEC GTBYBH N MO 12.8 ST  4.2 OM  1.5 f0 6.85 R0.1896 AL-0.00 WI 20.0 MW  2.5 3
 SPEC GTBYBH N T125517 K 0.020 GD  166 VS 3.51 DE 2.73 Q0400.0 QA 0.70 Q1 0.00 3
 SPEC NMDOHH N MO 12.8 ST  1.6 OM  1.4 f0 5.19 R0.2502 AL-0.00 WI 20.0 MW  2.5 3
 SPEC NMDOHH N T125521 K 0.020 GD  187 VS 3.51 DE 2.73 Q0400.0 QA 0.70 Q1 0.00 3
 SPEC REDRBH N MO 13.2 ST 70.6 OM  1.8 f0 13.1 R0.0991 AL-0.00 WI 20.0 MW  2.7 3
 SPEC REDRBH N T125525 K 0.020 GD  200 VS 3.51 DE 2.73 Q0400.0 QA 0.70 Q1 0.00 3
 SPEC MCDRBH N MO 13.2 ST 10.5 OM  1.8 f0 6.85 R0.1896 AL-0.00 WI 20.0 MW  2.8 3
 SPEC MCDRBH N T125526 K 0.020 GD  207 VS 3.51 DE 2.73 Q0400.0 QA 0.70 Q1 0.00 3
 SPEC JIDRBH N MO 14.8 ST0.008 OM  3.4 f00.179 R7.2553 AL-0.00 WI 20.0 MW  3.8 3
 SPEC JIDRBH N T125531 K 0.020 GD  215 VS 3.51 DE 2.73 Q0400.0 QA 0.70 Q1 0.00 3
 SPEC SDDRBH N MO 13.1 ST0.524 OM  1.6 f0 2.77 R0.4688 AL-0.00 WI 20.0 MW  2.7 3
 SPEC SDDRBH N T125535 K 0.020 GD  249 VS 3.51 DE 2.73 Q0400.0 QA 0.70 Q1 0.00 3
 SPEC PODRBH N MO 12.9 ST0.694 OM  1.4 f0 3.39 R0.3831 AL-0.00 WI 20.0 MW  2.6 3
 SPEC PODRBH N T125557 K 0.020 GD  285 VS 3.51 DE 2.73 Q0400.0 QA 0.70 Q1 0.00 3
 LOCALITY: 193.7 Km al Oeste de Pepillo Salcedo, Golfo de Gonaive.             3
 2020-12-02-1254-00S.MAN___129                                                 6
 OLDACT:ARG 20-12-02 13:04 OP:jmlc STATUS:               ID:20201202125400     3
 OLDACT:UP  20-12-02 13:19 OP:JMLC STATUS:               ID:20201202125400     3
 ACTION:UP  22-01-13 17:41 OP:jmlc STATUS:               ID:20201202125436 L   I
 OLDACT:UP  21-11-21 10:37 OP:CGRS STATUS:               ID:20201202125400     3
 OLDACT:UP  20-12-02 13:28 OP:JMLC STATUS:               ID:20201202125400     3
 STAT SP IPHASW D HRMM SECON CODA AMPLIT PERI AZIMU VELO AIN AR TRES W  DIS CAZ7
 QMBU HZ IP       1254 59.32   46                         55    0.2610  149 301 
 QMBU HN IS       1255 15.53                              55   -0.1410  149 301 
 QMBU HN  IAML    1255 18.34      1174.6 0.30                           149 301 
 GTBY BZ IP       1255  1.48   32                         55    0.3410  166 286 
 GTBY BN IS       1255 19.25                              55   -0.0410  166 286 
 GTBY HN  IAML    1255 19.90        62.4 0.40                           166 286 
 GTBY BN  IAML    1255 20.36      2634.2 0.35                           166 286 
 NMDO HZ IP       1255  3.20   53                         55   -0.4810  187 309 
 NMDO HN IS       1255 23.27                              55   -0.4310  187 309 
 NMDO HN  IAML    1255 27.49       649.5 0.36                           187 309 
 REDR BZ IP       1255  4.46   53                         55   -0.9510  200  97 
 REDR HN  IAML    1255 31.61        80.6 0.20                           200  97 
 MCDR BZ IP       1255  6.79   35                         55    0.5810  207  78 
 MCDR BN IS       1255 27.57                              55   -0.5410  207  78 
 MCDR HN  IAML    1255 27.85        89.8 0.25                           207  78 
 MCDR BN  IAML    1255 28.26      1016.5 0.30                           207  78 
 JIDR BZ IP     D 1255  7.24   47                         55    0.0910  215 121 
 JIDR BN ISg    D 1255 33.04                              91   -1.3010  215 121 
 JIDR BN  IAML    1255 34.05       279.5 0.30                           215 121 
 JIDR HN  IAML    1255 54.88        27.3 2.15                           215 121 
 SDDR BZ IP       1255 13.22   63                         55    1.7710  249 103 
 SDDR BN IS       1255 36.79                              55   -0.4410  249 103 
 SDDR BN  IAML    1255 47.25       514.3 0.35                           249 103 
 SDDR HN  IAML    1255 48.11        22.0 0.75                           249 103 
 LUDR BZ IP     C 1255 14.95                              54   -0.2710  280  81 
 PODR BZ IP       1255 15.43   61                         54   -0.6210  285 121 
 PODR HN  IAML    1256  4.21        53.6 2.60                           285 121 
 ABDR BZ IP       1255 20.41   72                         54   -0.1710  321 103 
 ABDR BN IS       1255 54.07                              54    0.9610  321 103 
 ABDR BN  IAML    1256  1.95        81.3 0.35                           321 103 
 ABDR HN  IAML    1256 29.75        24.3 3.15                           321 103 
 BADR BZ IP       1255 26.70                              54    1.3610  361 109 
                                                                                
 2020 12 2 1303  6.70L  17.904 -71.323  8.5  DOM  4 0.7 2.5LDOM 2.6CDOM 2.4WDOM1
 SPEC AVERAGE  MO 12.6 ST  4.4 OM  4.7 f0 7.27 R0.1629 AL 0.00 WI 20.0 MW  2.4 3
 SPEC SD       MO  0.0 ST0.000 OM  2.5 f00.000 R0.0000 AL      WI      MW  0.0 3
 GAP=283        1.75      15.5     6.4 15.7  0.1109E+02  0.1703E+02  0.1848E+03E
 SPEC PODRBH N MO 12.6 ST  4.4 OM  2.2 f0 7.27 R0.1629 AL-0.00 WI 20.0 MW  2.4 3
 SPEC PODRBH N T13 313 K 0.020 GD 30.5 VS 3.20 DE 2.60 Q0400.0 QA 0.70 Q1 0.00 3
 LOCALITY: 12.7 Km al NNE de Oviedo. Pedernales.                               3
 2020-12-02-1302-00S.MAN___129                                                 6
 OLDACT:ARG 20-12-02 13:46 OP:jmlc STATUS:               ID:20201202130200     3
 OLDACT:UP  20-12-02 13:51 OP:JMLC STATUS:               ID:20201202130200     3
 ACTION:UP  22-01-13 17:41 OP:jmlc STATUS:               ID:20201202130306 L   I
 OLDACT:UP  21-11-21 11:14 OP:CGRS STATUS:               ID:20201202130200     3
 OLDACT:UP  20-12-02 13:51 OP:JMLC STATUS:               ID:20201202130200     3
 STAT SP IPHASW D HRMM SECON CODA AMPLIT PERI AZIMU VELO AIN AR TRES W  DIS CAZ7
 PODR BZ IP       13 3 11.15   17                        109   -0.5810 29.3   9 
 PODR BN IS       13 3 15.00                             109   -0.4410 29.3   9 
 PODR BN  IAML    13 3 15.37      4802.2 0.30                          29.3   9 
 JIDR BZ IP     C 13 3 20.85                              70    0.2310 86.0 319 
 JIDR BN ISg    D 13 3 32.00                              96    1.0110 86.0 319 
 JIDR BN  IAML    13 3 34.38       150.9 0.35                          86.0 319 
 ABDR BZ IP       13 3 26.47   42                         70   -0.1410  125  36 
 ABDR BN ISg    D 13 3 42.92                              95    1.0910  125  36 
 ABDR BN  IAML    13 3 47.06        34.8 0.35                           125  36 
 REDR BZ IP     C 13 3 30.47   44                         50   -0.3410  157 345 
 REDR BN ISg    D 13 3 50.04                              93   -0.8410  157 345 
 REDR BN  IAML    13 3 52.97        33.1 0.25                           157 345 
                                                                                
