 2020  4 2 0740  5.10L  18.422 -71.606 14.2  DOM  4 0.6 1.4LDOM 2.5CDOM 1.6WDOM1
 SPEC AVERAGE  MO 11.5 ST0.029 OM  4.9 f0 3.17 R0.3735 AL 0.00 WI 20.0 MW  1.6 3
 SPEC SD       MO  0.0 ST0.000 OM  4.3 f00.000 R0.0000 AL      WI      MW  0.0 3
 GAP=157        1.48       6.0     5.0 11.2  0.7794E+01  0.1131E+02 -0.1084E+02E
 SPEC REDRBH N MO 11.5 ST0.029 OM  0.6 f0 3.17 R0.3735 AL-0.00 WI 20.0 MW  1.6 3
 SPEC REDRBH N T 74033 K 0.020 GD 96.2 VS 3.20 DE 2.60 Q0400.0 QA 0.70 Q1 0.00 3
 LOCALITY: 9.6 Km al OSO de Duverge, Independencia.                            3
 2020-04-02-0739-00S.MAN___123                                                 6
 OLDACT:ARG 20-04-02 10:23 OP:nr   STATUS:               ID:20200402073900     3
 OLDACT:UP  20-04-02 11:17 OP:AMMR STATUS:               ID:20200402073900     3
 OLDACT:UP  20-04-02 11:17 OP:AMMR STATUS:               ID:20200402073900     3
 ACTION:UP  22-03-16 16:59 OP:JMLC STATUS:               ID:20200402074005 L   I
 OLDACT:UP  22-01-09 04:13 OP:CGRS STATUS:               ID:20200402073900     3
 OLDACT:UP  22-01-09 04:13 OP:CGRS STATUS:               ID:20200402073900     3
 OLDACT:UP  22-01-09 04:09 OP:CGRS STATUS:               ID:20200402073900     3
 OLDACT:UP  21-02-16 11:36 OP:AMMR STATUS:               ID:20200402073900     3
 OLDACT:UP  21-02-16 11:26 OP:AMMR STATUS:               ID:20200402073900     3
 OLDACT:UP  20-04-02 11:17 OP:AMMR STATUS:               ID:20200402073900     3
 STAT SP IPHASW D HRMM SECON CODA AMPLIT PERI AZIMU VELO AIN AR TRES W  DIS CAZ7
 NEDR BZ IP     C  740  8.23   27                        128   -0.3310 16.1  65 
 NEDR BN ESg    C  740 11.15                             128    0.0510 16.1  65 
 NEDR BN  IAML     740 21.47        23.0 0.30                          16.1  65 
 JIDR BN ESg    C  740 13.76                             112    0.0910 27.3 287 
 JIDR BN  IAML     740 14.29        58.8 0.30                          27.3 287 
 PODR BZ IP     C  740 13.11   28                        101    0.4510 44.5 129 
 PODR BN  IAML     740 30.56        76.0 0.30                          44.5 129 
 REDR BZ IP     C  740 19.20   29                         92   -1.0410 95.1 354 
 REDR BN ISg    D  740 32.22                              92    0.7910 95.1 354 
 REDR BN  IAML     740 36.12        19.3 0.30                          95.1 354 
                                                                                
 2020  4 2 0758 44.60L  17.810 -70.377133.4  DOM  4 0.8 2.6LDOM 2.9CDOM        1
 GAP=291        2.04      25.1    18.7 21.4  0.1262E+02  0.4834E+02  0.1766E+03E
 SPEC BADRBH N T 75915 K 0.020 GD  148 VS 4.44 DE 3.40 Q0400.0 QA 0.70 Q1 0.00 3
 SPEC PODRBH N MO 13.6 ST0.173 OM  1.9 f0 1.61 R1.0204 AL-0.00 WI 20.0 MW  3.0 3
 SPEC PODRBH N T 75920 K 0.020 GD  168 VS 4.44 DE 3.40 Q0400.0 QA 0.70 Q1 0.00 3
 SPEC NEDRBH N T 75923 K 0.020 GD  191 VS 4.44 DE 3.40 Q0400.0 QA 0.70 Q1 0.00 3
 LOCALITY: 46.7 Km al SSE de La Calderas, Mar Caribe.                          3
 2020-04-02-0758-00S.MAN___123                                                 6
 OLDACT:ARG 20-04-02 10:02 OP:nr   STATUS:               ID:20200402075800     3
 OLDACT:UP  20-04-02 10:18 OP:AMMR STATUS:               ID:20200402075800     3
 ACTION:UP  22-03-16 16:59 OP:JMLC STATUS:               ID:20200402075844 L   I
 OLDACT:UP  21-02-16 11:40 OP:AMMR STATUS:               ID:20200402075800     3
 OLDACT:UP  21-02-16 11:40 OP:AMMR STATUS:               ID:20200402075800     3
 OLDACT:UP  20-04-02 10:18 OP:AMMR STATUS:               ID:20200402075800     3
 STAT SP IPHASW D HRMM SECON CODA AMPLIT PERI AZIMU VELO AIN AR TRES W  DIS CAZ7
 BADR BZ EPg    C  759  4.12   34                        152    0.4610 65.1   1 
 BADR BE ESg    C  759 17.31                             152   -0.4210 65.1   1 
 BADR BN  IAML     759 20.99        25.5 0.30                          65.1   1 
 PODR BZ EPg    C  759  7.28   45                        140    0.9810  104 293 
 PODR BE ESg    C  759 22.42                             140    0.0810  104 293 
 PODR BN  IAML     759 25.67       233.5 0.30                           104 293 
 NEDR BZ EPg    C  759  7.18   31                        131   -1.7110  137 303 
 NEDR BN  IAML     759 16.71        85.3 0.30                           137 303 
 SDDR BZ EPg    C  759 11.46   38                        126    0.2710  162 323 
 SDDR BE ESg    C  759 31.16                             126    0.3310  162 323 
 SDDR BN  IAML     759 38.62        72.3 0.30                           162 323 
                                                                                
 2020  4 2 0825 44.00L  19.597 -70.039 36.7  DOM  7 0.5 2.6LDOM 3.0CDOM 3.0WDOM1
 SPEC AVERAGE  MO 13.5 ST 68.1 OM  3.6 f0 10.4 R2.4334 AL 0.00 WI 20.0 MW  3.0 3
 SPEC SD       MO  1.2 ST 94.1 OM  2.0 f0 7.21 R3.2893 AL      WI      MW  0.8 3
 GAP=202        1.24       6.0     3.7 38.4  0.4651E+01  0.3340E+02 -0.5828E+02E
 SPEC BADRBH N MO 14.9 ST0.009 OM  3.2 f00.235 R7.0851 AL-0.00 WI 20.0 MW  3.9 3
 SPEC BADRBH N T 82616 K 0.020 GD  141 VS 4.50 DE 3.40 Q0400.0 QA 0.70 Q1 0.00 3
 SPEC HMDRBH N MO 12.0 ST  3.1 OM  0.4 f0 15.0 R0.1110 AL-0.00 WI 20.0 MW  1.9 3
 SPEC HMDRBH N T 82610 K 0.020 GD  118 VS 4.50 DE 3.40 Q0400.0 QA 0.70 Q1 0.00 3
 SPEC NAVIBH N MO 13.7 ST201.1 OM  2.3 f0 16.0 R0.1041 AL-0.00 WI 20.0 MW  3.1 3
 SPEC NAVIBH N T 826 2 K 0.020 GD 79.6 VS 4.50 DE 3.40 Q0400.0 QA 0.70 Q1 0.00 3
 LOCALITY: 9.0 Km al SE de Rio San Juan, Maria Trinidad Sanchez.               3
 2020-04-02-0825-00S.MAN___123                                                 6
 OLDACT:UP  20-04-02 11:25 OP:AMMR STATUS:               ID:20200402082500     3
 OLDACT:ARG 20-04-02 10:50 OP:plst STATUS:               ID:20200402082500     3
 OLDACT:UP  20-04-02 11:30 OP:AMMR STATUS:               ID:20200402082500     3
 OLDACT:UP  20-04-02 11:27 OP:AMMR STATUS:               ID:20200402082500     3
 ACTION:UP  22-03-16 16:59 OP:JMLC STATUS:               ID:20200402082544 L   I
 OLDACT:UP  21-02-16 11:45 OP:AMMR STATUS:               ID:20200402082500     3
 OLDACT:UP  21-02-16 11:42 OP:AMMR STATUS:               ID:20200402082500     3
 OLDACT:UP  20-04-02 11:30 OP:AMMR STATUS:               ID:20200402082500     3
 STAT SP IPHASW D HRMM SECON CODA AMPLIT PERI AZIMU VELO AIN AR TRES W  DIS CAZ7
 NAVI BE ESg    C  826  4.46                             102    0.2310 70.6 179 
 NAVI BN  IAML     826 14.90      1068.6 0.25                          70.6 179 
 SMDR BN ESg       826  9.75                              96    0.2910 95.6 111 
 SMDR BN  IAML     826 25.41        87.6 0.40                          95.6 111 
 MADR BZ EPg    C  825 59.88                              95   -0.7610  112 268 
 MADR BN ESg    C  826 12.99                              95    0.0710  112 268 
 MADR BN  IAML     826 20.37        95.5 0.30                           112 268 
 HMDR BZ EPg    C  826  1.06   33                         95    0.2010  113 142 
 HMDR BN ESg    C  826 12.49                              95   -0.8210  113 142 
 HMDR BN  IAML     826 16.54        24.2 0.30                           113 142 
 SDD  BN  IAML     826 40.58       326.7 0.30                           126 174 
 BADR BZ EPg    C  826  4.46   44                         94    0.5910  137 194 
 BADR BN ESg    C  826 18.20                              94   -0.3410  137 194 
 BADR BN  IAML     826 23.62       199.8 0.30                           137 194 
 PODR BZ EPg    C  826 12.96   51                         92    0.5210  205 220 
 PODR BN ISg    C  826 33.46                              92    0.0110  205 220 
 PODR BN  IAML     826 39.30        59.7 0.30                           205 220 
                                                                                
 2020  4 2 0851  3.60L  18.184 -72.270  0.0  DOM 11 0.8 3.5LDOM 3.3CDOM 3.0WDOM1
 SPEC AVERAGE  MO 13.7 ST0.971 OM  2.7 f0 1.66 R1.2569 AL 0.00 WI 20.0 MW  3.0 3
 SPEC SD       MO  0.6 ST  1.4 OM  0.8 f00.943 R1.0776 AL      WI      MW  0.4 3
 GAP=288        2.16       6.7     8.2 22.1  0.1583E+02  0.4801E+02  0.4203E+02E
 SPEC JIDRBH N MO 13.7 ST  4.6 OM  2.8 f0 3.70 R0.3750 AL-0.00 WI 20.0 MW  3.1 3
 SPEC JIDRBH N T 85117 K 0.020 GD 55.8 VS 3.75 DE 2.84 Q0400.0 QA 0.70 Q1 0.00 3
 SPEC NEDRBH N MO 14.1 ST0.934 OM  2.9 f0 1.71 R0.8114 AL-0.00 WI 20.0 MW  3.3 3
 SPEC NEDRBH N T 85129 K 0.020 GD 91.0 VS 3.75 DE 2.84 Q0400.0 QA 0.70 Q1 0.00 3
 SPEC PODRBH N MO 14.2 ST  1.1 OM  3.0 f0 1.60 R0.8672 AL-0.00 WI 20.0 MW  3.4 3
 SPEC PODRBH N T 85131 K 0.020 GD  102 VS 3.75 DE 2.84 Q0400.0 QA 0.70 Q1 0.00 3
 SPEC SDDRBH N MO 13.8 ST0.141 OM  2.5 f0 1.14 R1.2171 AL-0.00 WI 20.0 MW  3.1 3
 SPEC SDDRBH N T 85139 K 0.020 GD  116 VS 3.75 DE 2.84 Q0400.0 QA 0.70 Q1 0.00 3
 SPEC ABDRBH N MO 11.9 ST0.000 OM  0.6 f00.318 R4.3632 AL-0.00 WI 20.0 MW  1.9 3
 SPEC ABDRBH N T 85152 K 0.020 GD  136 VS 3.75 DE 2.84 Q0400.0 QA 0.70 Q1 0.00 3
 SPEC MADRBH N MO 14.2 ST0.342 OM  2.9 f0 1.06 R1.3090 AL-0.00 WI 20.0 MW  3.4 3
 SPEC MADRBH N T 85156 K 0.020 GD  140 VS 3.75 DE 2.84 Q0400.0 QA 0.70 Q1 0.00 3
 SPEC BADRBH N MO 13.6 ST  2.0 OM  2.3 f0 3.03 R0.4579 AL-0.00 WI 20.0 MW  3.0 3
 SPEC BADRBH N T 85157 K 0.020 GD  142 VS 3.75 DE 2.84 Q0400.0 QA 0.70 Q1 0.00 3
 SPEC MCDRBH N MO 14.0 ST0.257 OM  2.7 f0 1.12 R1.2388 AL-0.00 WI 20.0 MW  3.3 3
 SPEC MCDRBH N T 85158 K 0.020 GD  141 VS 3.75 DE 2.84 Q0400.0 QA 0.70 Q1 0.00 3
 SPEC SC01BH N MO 13.8 ST0.208 OM  2.4 f0 1.30 R1.0673 AL-0.00 WI 20.0 MW  3.1 3
 SPEC SC01BH N T 852 1 K 0.020 GD  145 VS 3.75 DE 2.84 Q0400.0 QA 0.70 Q1 0.00 3
 SPEC HMDRBH N MO 13.1 ST0.095 OM  1.7 f0 1.61 R0.8618 AL-0.00 WI 20.0 MW  2.7 3
 SPEC HMDRBH N T 85231 K 0.020 GD  176 VS 3.75 DE 2.84 Q0400.0 QA 0.70 Q1 0.00 3
 LOCALITY: 56.6 Km al Oeste de Pedernales, Mar Caribe.                         3
 2020-04-02-0850-00S.MAN___123                                                 6
 OLDACT:ARG 20-04-02 09:06 OP:nr   STATUS:               ID:20200402085000     3
 OLDACT:UP  20-04-02 09:48 OP:AMMR STATUS:               ID:20200402085000     3
 ACTION:UP  22-03-16 16:59 OP:JMLC STATUS:               ID:20200402085103 L   I
 OLDACT:UP  22-01-09 04:35 OP:CGRS STATUS:               ID:20200402085000     3
 OLDACT:UP  21-02-16 11:47 OP:AMMR STATUS:               ID:20200402085000     3
 OLDACT:UP  20-04-02 09:49 OP:AMMR STATUS:               ID:20200402085000     3
 STAT SP IPHASW D HRMM SECON CODA AMPLIT PERI AZIMU VELO AIN AR TRES W  DIS CAZ7
 JIDR BZ EPg    D  851 12.94   37                         90    0.3810 55.8  52 
 JIDR BE ESg    C  851 19.38                              90    0.1610 55.8  52 
 JIDR BN  IAML     851 20.22      8344.8 0.35                          55.8  52 
 NEDR BZ EPg    D  851 19.09   44                         90    0.8510 91.0  69 
 NEDR BE ESg    C  851 30.70                              90    1.5910 91.0  69 
 NEDR BN  IAML     851 31.86      3863.4 0.30                          91.0  69 
 PODR BZ EPg    C  851 20.36   51                         91   -0.0710  105  91 
 PODR BE ESg    C  851 33.36                              91    0.4410  105  91 
 PODR BN  IAML     851 43.95      3189.1 0.30                           105  91 
 SDDR BZ EPg    C  851 25.13   58                         90   -0.3510  136  49 
 SDDR BE ESg    C  851 40.91                              90   -0.7810  136  49 
 SDDR BN  IAML     851 47.21      2278.4 0.30                           136  49 
 ABDR BZ EPg    C  851 32.70   64                         91   -1.0210  187  68 
 ABDR BE ISg    C  851 55.99                              91   -0.0410  187  68 
 ABDR BN  IAML     852 26.11         1.9 0.30                           187  68 
 MADR BZ EPg    C  851 35.06   64                         90   -0.1610  196  39 
 MADR BE ESg    C  851 58.35                              90   -0.3010  196  39 
 MADR BN  IAML     852  0.94      1121.4 0.40                           196  39 
 MCDR BZ EPg    C  851 36.37   61                         90    0.5810  200  19 
 MCDR BE ESg    C  851 59.81                              90    0.1810  200  19 
 MCDR BN  IAML     852  4.07      1038.6 0.35                           200  19 
 BADR BZ EPg    C  851 34.60   66                         90   -1.7410  203  83 
 BADR BE ISg    C  852  0.02                              90   -0.5810  203  83 
 BADR BN  IAML     852 10.34      1199.5 0.30                           203  83 
 SC01 BZ EPg    C  851 37.34   74                         90   -0.5810  213  50 
 SC01 BE ESg    C  852  2.93                              90   -0.4110  213  50 
 SC01 BN  IAML     852  3.33       804.3 0.35                           213  50 
 LUDR BZ EPg    C  851 40.97   64                         90   -0.4210  235  36 
 LUDR BE ESg    C  852  9.88                              90    0.5010  235  36 
 HMDR BZ IP        851 49.50   80                         49    1.7610  312  77 
 HMDR BN  IAML     852 25.14       138.5 0.30                           312  77 
                                                                                
 2020  4 2 0944 30.70L  17.722 -66.913 15.6  DOM  4 0.2 2.2LDOM 2.6CDOM 2.4WDOM1
 SPEC AVERAGE  MO 12.7 ST  1.3 OM  2.2 f0 5.22 R0.3276 AL 0.00 WI 20.0 MW  2.4 3
 SPEC SD       MO  0.3 ST0.889 OM  0.8 f0 2.15 R0.1238 AL      WI      MW  0.2 3
 GAP=309        0.62       4.0     4.0  8.1 -0.4371E+01  0.1969E+01  0.1281E+02E
 SPEC MLPRBH N MO 12.4 ST  2.3 OM  1.6 f0 8.62 R0.1691 AL-0.00 WI 20.0 MW  2.2 3
 SPEC MLPRBH N T 94438 K 0.020 GD 34.4 VS 3.94 DE 2.93 Q0400.0 QA 0.70 Q1 1.00 3
 SPEC PRSNBH N MO 13.0 ST  2.0 OM  1.9 f0 5.35 R0.2725 AL-0.00 WI 20.0 MW  2.6 3
 SPEC PRSNBH N T 94446 K 0.020 GD 62.0 VS 3.94 DE 2.93 Q0400.0 QA 0.70 Q1 1.00 3
 SPEC AGPRBH N MO 13.0 ST0.947 OM  1.8 f0 4.02 R0.3626 AL-0.00 WI 20.0 MW  2.6 3
 SPEC AGPRBH N T 94452 K 0.020 GD 86.7 VS 3.94 DE 2.93 Q0400.0 QA 0.70 Q1 1.00 3
 SPEC HMDRBH N MO 12.4 ST0.091 OM  0.7 f0 2.88 R0.5062 AL-0.00 WI 20.0 MW  2.2 3
 SPEC HMDRBH N T 94546 K 0.020 GD  286 VS 3.94 DE 2.93 Q0400.0 QA 0.70 Q1 1.00 3
 LOCALITY: 45.1 Km al SO de Ponce, Region de Puerto Rico.                      3
 2020-04-02-0944-00S.MAN___123                                                 6
 OLDACT:ARG 20-04-02 10:02 OP:nr   STATUS:               ID:20200402094400     3
 OLDACT:UP  20-04-02 10:07 OP:AMMR STATUS:               ID:20200402094400     3
 OLDACT:UP  21-02-16 11:48 OP:AMMR STATUS:               ID:20200402094400     3
 OLDACT:UP  20-04-02 10:07 OP:AMMR STATUS:               ID:20200402094400     3
 ACTION:UP  22-03-16 16:59 OP:JMLC STATUS:               ID:20200402094430 L   I
 OLDACT:UP  21-02-16 11:48 OP:AMMR STATUS:               ID:20200402094400     3
 STAT SP IPHASW D HRMM SECON CODA AMPLIT PERI AZIMU VELO AIN AR TRES W  DIS CAZ7
 MLPR BZ EPg    C  944 36.25   16                        112    0.0610 30.7 333 
 MLPR BE ESg    C  944 40.12                             112   -0.1210 30.7 333 
 MLPR BN  IAML     944 42.04       111.1 0.32                          30.7 333 
 PRSN BZ EPg    C  944 40.81   23                         97    0.2910 60.0 336 
 PRSN BE ESg    C  944 48.03                              97    0.2510 60.0 336 
 PRSN BN  IAML     944 51.15       435.3 0.28                          60.0 336 
 AGPR BZ EPg    C  944 44.39   37                         94    0.0410 85.3 346 
 AGPR BE ESg    C  944 54.11                              94   -0.3210 85.3 346 
 AGPR BN  IAML     944 54.41       101.2 0.24                          85.3 346 
 HMDR BZ EPg       945 14.48   72                         91   -0.3310  286 295 
 HMDR BE ESg    C  945 47.55                              91    0.1210  286 295 
                                                                                
