 2020 10 3 0722 57.10L  18.258 -71.784 23.1  DOM  6 0.4 2.6LDOM 2.9CDOM 2.8WDOM1
 SPEC AVERAGE  MO 13.3 ST  1.7 OM  2.8 f0 3.37 R0.8323 AL 0.00 WI 20.0 MW  2.8 3
 SPEC SD       MO  0.7 ST  2.0 OM  0.9 f0 2.75 R0.7996 AL      WI      MW  0.5 3
 GAP=244        1.06       5.2     5.4 11.5  0.1776E+02 -0.2214E+02 -0.2731E+02E
 SPEC JIDRBH N MO 12.6 ST  2.1 OM  2.1 f0 5.86 R0.2020 AL-0.00 WI 20.0 MW  2.3 3
 SPEC JIDRBH N T 723 5 K 0.020 GD 35.6 VS 3.20 DE 2.60 Q0400.0 QA 0.70 Q1 0.00 3
 SPEC NEDRBH N MO 13.4 ST  1.6 OM  2.8 f0 2.80 R0.4229 AL-0.00 WI 20.0 MW  2.9 3
 SPEC NEDRBH N T 723 7 K 0.020 GD 47.7 VS 3.20 DE 2.60 Q0400.0 QA 0.70 Q1 0.00 3
 SPEC PODRBH N MO 14.3 ST0.641 OM  3.6 f0 1.05 R1.1276 AL-0.00 WI 20.0 MW  3.5 3
 SPEC PODRBH N T 72312 K 0.020 GD 58.8 VS 3.20 DE 2.60 Q0400.0 QA 0.70 Q1 0.00 3
 SPEC SDDRBH N MO 13.9 ST0.026 OM  3.0 f00.480 R2.4667 AL-0.00 WI 20.0 MW  3.2 3
 SPEC SDDRBH N T 72322 K 0.020 GD 98.2 VS 3.20 DE 2.60 Q0400.0 QA 0.70 Q1 0.00 3
 SPEC REDRBH N MO 12.6 ST  5.9 OM  1.6 f0 8.16 R0.1451 AL-0.00 WI 20.0 MW  2.4 3
 SPEC REDRBH N T 72326 K 0.020 GD  115 VS 3.20 DE 2.60 Q0400.0 QA 0.70 Q1 0.00 3
 SPEC HMDRBH N MO 12.7 ST0.082 OM  1.3 f0 1.88 R0.6298 AL-0.00 WI 20.0 MW  2.4 3
 SPEC HMDRBH N T 724 3 K 0.020 GD  261 VS 3.20 DE 2.60 Q0400.0 QA 0.70 Q1 0.00 3
 LOCALITY: 20.4 Km al SSE de Jimani. Region Haiti.                             3
 2020-10-03-0722-00S.MAN___126                                                 6
 OLDACT:UP  20-10-03 14:15 OP:AMMR STATUS:               ID:20201003072200     3
 OLDACT:UP  20-10-03 14:13 OP:AMMR STATUS:               ID:20201003072200     3
 OLDACT:ARG 20-10-03 12:40 OP:plst STATUS:               ID:20201003072200     3
 OLDACT:UP  20-10-03 14:20 OP:AMMR STATUS:               ID:20201003072200     3
 OLDACT:UP  20-10-03 14:20 OP:AMMR STATUS:               ID:20201003072200     3
 OLDACT:UP  20-10-03 14:20 OP:AMMR STATUS:               ID:20201003072200     3
 ACTION:UP  22-01-06 16:15 OP:jmlc STATUS:               ID:20201003072257 L   I
 OLDACT:UP  21-11-15 19:22 OP:AMMR STATUS:               ID:20201003072200     3
 OLDACT:UP  20-10-03 14:27 OP:AMMR STATUS:               ID:20201003072200     3
 STAT SP IPHASW D HRMM SECON CODA AMPLIT PERI AZIMU VELO AIN AR TRES W  DIS CAZ7
 JIDR BZ EPg    C  723  3.23   43                        133    0.1210 27.1 344 
 NEDR BZ EPg    C  723  4.33   38                        120   -0.5010 41.7  53 
 NEDR BN  IAML     723 11.07       817.8 0.35                          41.7  53 
 PODR BZ EPg       723  6.75   34                        113    0.1410 54.1 101 
 PODR BN ESg    C  723 14.00                             113    0.3610 54.1 101 
 PODR BN  IAML     723 18.24       838.8 0.25                          54.1 101 
 SDDR BZ EPg       723 11.52                             100   -0.7910 95.4  33 
 SDDR BN ESg       723 23.33                             100   -0.2310 95.4  33 
 SDDR BN  IAML     723 28.19        95.2 1.10                          95.4  33 
 REDR BZ EPg    D  723 15.05   49                         97    0.1810  113   4 
 REDR BN ESg    C  723 28.63                              97    0.6210  113   4 
 REDR BN  IAML     723 31.71        95.6 0.20                           113   4 
 HMDR BZ EPg       723 36.17   57                         92   -0.0710  260  77 
 HMDR BN ESg    C  724  5.37                              92    0.1710  260  77 
 HMDR BN  IAML     724 15.65        28.7 4.65                           260  77 
                                                                                
 2020 10 3 0754 38.40L  18.437 -68.802108.6  DOM 13 0.8 3.0LDOM 3.2CDOM 3.1WDOM1
 SPEC AVERAGE  MO 13.8 ST106.9 OM  2.3 f0 7.17 R0.3108 AL 0.00 WI 20.0 MW  3.1 3
 SPEC SD       MO  0.5 ST271.9 OM  0.6 f0 3.84 R0.1637 AL      WI      MW  0.4 3
 GAP=119        2.20      14.5     8.3 10.1  0.7985E+02 -0.2360E+02 -0.1137E+02E
 SPEC HIDRBH N MO 13.7 ST139.0 OM  2.2 f0 13.7 R0.1207 AL-0.00 WI 20.0 MW  3.1 3
 SPEC HIDRBH N T 755 1 K 0.020 GD  110 VS 4.47 DE 3.40 Q0400.0 QA 0.70 Q1 0.00 3
 SPEC SADRBH N MO 14.2 ST  2.1 OM  2.6 f0 2.49 R0.6642 AL-0.00 WI 20.0 MW  3.4 3
 SPEC SADRBH N T 755 3 K 0.020 GD  111 VS 4.47 DE 3.40 Q0400.0 QA 0.70 Q1 0.00 3
 SPEC PCDRBH N MO 13.5 ST  1.5 OM  1.9 f0 3.69 R0.4482 AL-0.00 WI 20.0 MW  2.9 3
 SPEC PCDRBH N T 755 3 K 0.020 GD  117 VS 4.47 DE 3.40 Q0400.0 QA 0.70 Q1 0.00 3
 SPEC MIDRHH N MO 13.4 ST 54.5 OM  1.8 f0 13.0 R0.1272 AL-0.00 WI 20.0 MW  2.9 3
 SPEC MIDRHH N T 755 6 K 0.020 GD  127 VS 4.47 DE 3.40 Q0400.0 QA 0.70 Q1 0.00 3
 SPEC HMDRBH N MO 13.5 ST 34.0 OM  1.9 f0 10.2 R0.1621 AL-0.00 WI 20.0 MW  3.0 3
 SPEC HMDRBH N T 755 6 K 0.020 GD  130 VS 4.47 DE 3.40 Q0400.0 QA 0.70 Q1 0.00 3
 SPEC SMDRBH N MO 14.0 ST  4.7 OM  2.3 f0 3.71 R0.4458 AL-0.00 WI 20.0 MW  3.3 3
 SPEC SMDRBH N T 75511 K 0.020 GD  149 VS 4.47 DE 3.40 Q0400.0 QA 0.70 Q1 0.00 3
 SPEC NAVIBH N MO 15.0 ST999.9 OM  3.2 f0 11.6 R0.1426 AL-0.00 WI 20.0 MW  3.9 3
 SPEC NAVIBH N T 75517 K 0.020 GD  178 VS 4.47 DE 3.40 Q0400.0 QA 0.70 Q1 0.00 3
 SPEC NADRBH N MO 14.5 ST 25.6 OM  2.7 f0 4.47 R0.3700 AL-0.00 WI 20.0 MW  3.6 3
 SPEC NADRBH N T 75521 K 0.020 GD  185 VS 4.47 DE 3.40 Q0400.0 QA 0.70 Q1 0.00 3
 SPEC AGPRBH N MO 13.6 ST  5.0 OM  1.8 f0 4.96 R0.3334 AL-0.00 WI 20.0 MW  3.0 3
 SPEC AGPRBH N T 75524 K 0.020 GD  209 VS 4.47 DE 3.40 Q0400.0 QA 0.70 Q1 0.00 3
 SPEC CRPRBH N MO 13.1 ST  6.8 OM  1.3 f0 7.99 R0.2070 AL-0.00 WI 20.0 MW  2.7 3
 SPEC CRPRBH N T 75524 K 0.020 GD  216 VS 4.47 DE 3.40 Q0400.0 QA 0.70 Q1 0.00 3
 SPEC AOPRBH N MO 14.2 ST  7.2 OM  2.3 f0 3.63 R0.4556 AL-0.00 WI 20.0 MW  3.4 3
 SPEC AOPRBH N T 75530 K 0.020 GD  242 VS 4.47 DE 3.40 Q0400.0 QA 0.70 Q1 0.00 3
 SPEC CELPBH N MO 13.0 ST  2.9 OM  1.1 f0 6.55 R0.2525 AL-0.00 WI 20.0 MW  2.6 3
 SPEC CELPBH N T 75536 K 0.020 GD  262 VS 4.47 DE 3.40 Q0400.0 QA 0.70 Q1 0.00 3
 LOCALITY: 12.5 Km al ONO de San Rafael del Yuma. La Altagracia.               3
 2020-10-03-0754-00S.MAN___126                                                 6
 OLDACT:ARG 20-10-03 12:41 OP:plst STATUS:               ID:20201003075400     3
 OLDACT:UP  20-10-03 14:31 OP:AMMR STATUS:               ID:20201003075400     3
 OLDACT:UP  20-10-03 14:30 OP:AMMR STATUS:               ID:20201003075400     3
 OLDACT:UP  20-10-03 14:30 OP:AMMR STATUS:               ID:20201003075400     3
 OLDACT:UP  20-10-03 14:30 OP:AMMR STATUS:               ID:20201003075400     3
 ACTION:UP  22-01-06 16:15 OP:jmlc STATUS:               ID:20201003075438 L   I
 OLDACT:UP  20-10-03 14:36 OP:AMMR STATUS:               ID:20201003075400     3
 STAT SP IPHASW D HRMM SECON CODA AMPLIT PERI AZIMU VELO AIN AR TRES W  DIS CAZ7
 HIDR BZ IP     D  754 51.47   46                        169   -1.2510 19.4  28 
 HIDR BN IS     C  755  3.02                             169   -0.2710 19.4  28 
 HIDR BN  IAML     755  4.77       402.9 0.20                          19.4  28 
 SADR BZ IP        754 52.84   34                        165   -0.0710 27.2 175 
 SADR BN IS     C  755  4.63                             165    1.0010 27.2 175 
 SADR BN  IAML     755  7.06       330.1 0.45                          27.2 175 
 PCDR BZ IP     C  754 52.49   49                        155   -1.1610 45.2  79 
 PCDR BN IS        755  5.11                             155    0.2010 45.2  79 
 PCDR BN  IAML     755  8.89       176.8 2.00                          45.2  79 
 MIDR HZ IP     C  754 53.98   43                        146   -0.8510 65.9 337 
 MIDR HN IS   4 C  755  8.32                             146    1.35 0 65.9 337 
 MIDR BN  IAML     755  9.87       132.7 0.44                          65.9 337 
 HMDR BZ IP     C  754 54.31   46                        143   -1.0310 72.4 303 
 HMDR BN IS     C  755  7.67                             143   -0.1810 72.4 303 
 HMDR BN  IAML     755 11.19       192.3 0.30                          72.4 303 
 SMDR BZ IP     C  754 57.66   44                        132   -0.0210  103 337 
 SMDR BN IS     C  755 12.88                             132    0.9510  103 337 
 SMDR BN  IAML     755 18.50       176.2 0.25                           103 337 
 SDD  BE IS   4 C  755 16.79                             128    2.48 0  118 272 
 NAVI BZ IP     C  755  1.29   51                        122   -0.1210  142 294 
 NAVI BN IS     C  755 18.91                             122    0.4910  142 294 
 NAVI BN  IAML     755 24.71      4936.8 0.15                           142 294 
 NADR BZ IP     C  755  3.28   48                        120    1.0610  150 313 
 NADR BN  IAML     755 28.61       668.4 0.35                           150 313 
 AGPR BZ IP     C  755  5.37   58                        115    0.1910  179  89 
 AGPR BN  IAML     755 33.61        88.6 1.20                           179  89 
 CRPR BZ IP     C  755  5.32   66                        114   -0.7710  187 104 
 CRPR BN  IAML     755 36.22        37.1 1.32                           187 104 
 MLPR BZ IP     C  755  8.69   62                        113    2.0010  193 105 
 MLPR BN IS   4 C  755 29.47                             113    1.86 0  193 105 
 AOPR BZ IP     C  755  8.76   59                        110   -0.5610  217  92 
 AOPR BN IS     C  755 32.46                             110    0.2810  217  92 
 AOPR BN  IAML     755 40.32       190.0 0.32                           217  92 
 CELP BZ IP     C  755 11.86   61                        108    0.1010  239  99 
 CELP BN  IAML     755 43.84        19.6 1.40                           239  99 
                                                                                
 2020 10 3 0933 37.90L  19.110 -66.994 18.3  DOM 10 0.9 2.5LDOM 3.0CDOM 2.5WDOM1
 SPEC AVERAGE  MO 12.9 ST 10.0 OM  1.7 f0 7.55 R0.2391 AL 0.00 WI 20.0 MW  2.5 3
 SPEC SD       MO  0.3 ST 18.6 OM  0.4 f0 3.68 R0.0999 AL      WI      MW  0.2 3
 GAP=252        2.40      11.1    10.3  9.4  0.7962E+02  0.1618E+02 -0.1470E+02E
 SPEC AGPRBH N MO 12.9 ST  3.5 OM  1.7 f0 6.94 R0.2213 AL-0.00 WI 20.0 MW  2.6 3
 SPEC AGPRBH N T 93356 K 0.020 GD 74.2 VS 4.15 DE 3.11 Q0400.0 QA 0.70 Q1 0.00 3
 SPEC AOPRBH N MO 13.2 ST  4.6 OM  1.9 f0 6.12 R0.2509 AL-0.00 WI 20.0 MW  2.8 3
 SPEC AOPRBH N T 934 1 K 0.020 GD 90.1 VS 4.15 DE 3.11 Q0400.0 QA 0.70 Q1 0.00 3
 SPEC PRSNBH N MO 13.5 ST  1.7 OM  2.1 f0 3.59 R0.4277 AL-0.00 WI 20.0 MW  2.9 3
 SPEC PRSNBH N T 934 3 K 0.020 GD  100 VS 4.15 DE 3.11 Q0400.0 QA 0.70 Q1 0.00 3
 SPEC CRPRBH N MO 13.1 ST  2.0 OM  1.6 f0 5.23 R0.2936 AL-0.00 WI 20.0 MW  2.7 3
 SPEC CRPRBH N T 934 8 K 0.020 GD  124 VS 4.15 DE 3.11 Q0400.0 QA 0.70 Q1 0.00 3
 SPEC CELPBH N MO 12.5 ST  1.8 OM  1.0 f0 7.94 R0.1934 AL-0.00 WI 20.0 MW  2.3 3
 SPEC CELPBH N T 934 8 K 0.020 GD  124 VS 4.15 DE 3.11 Q0400.0 QA 0.70 Q1 0.00 3
 SPEC HIDRBH N MO 13.0 ST 55.6 OM  1.4 f0 16.0 R0.0960 AL-0.00 WI 20.0 MW  2.6 3
 SPEC HIDRBH N T 93425 K 0.020 GD  190 VS 4.15 DE 3.11 Q0400.0 QA 0.70 Q1 0.00 3
 SPEC MIDRHH N MO 12.7 ST  1.9 OM  1.0 f0 6.70 R0.2292 AL-0.00 WI 20.0 MW  2.4 3
 SPEC MIDRHH N T 93431 K 0.020 GD  217 VS 4.15 DE 3.11 Q0400.0 QA 0.70 Q1 0.00 3
 SPEC HMDRBH N MO 12.9 ST0.555 OM  1.1 f0 3.94 R0.3897 AL-0.00 WI 20.0 MW  2.5 3
 SPEC HMDRBH N T 93448 K 0.020 GD  254 VS 4.15 DE 3.11 Q0400.0 QA 0.70 Q1 0.00 3
 LOCALITY: 215.4 Km al Este de Miches. Oceano Atlantico.                       3
 2020-10-03-0933-00S.MAN___126                                                 6
 OLDACT:ARG 20-10-03 12:43 OP:plst STATUS:               ID:20201003093300     3
 OLDACT:UP  20-10-03 14:37 OP:AMMR STATUS:               ID:20201003093300     3
 OLDACT:UP  20-10-03 14:37 OP:AMMR STATUS:               ID:20201003093300     3
 OLDACT:UP  20-10-03 14:36 OP:AMMR STATUS:               ID:20201003093300     3
 OLDACT:UP  20-10-03 14:36 OP:AMMR STATUS:               ID:20201003093300     3
 ACTION:UP  22-01-06 16:15 OP:jmlc STATUS:               ID:20201003093337 L   I
 OLDACT:UP  21-11-15 19:24 OP:AMMR STATUS:               ID:20201003093300     3
 OLDACT:UP  21-11-15 19:11 OP:AMMR STATUS:               ID:20201003093300     3
 OLDACT:UP  21-11-15 19:09 OP:AMMR STATUS:               ID:20201003093300     3
 OLDACT:UP  21-11-15 19:07 OP:AMMR STATUS:               ID:20201003093300     3
 OLDACT:UP  21-11-15 19:06 OP:AMMR STATUS:               ID:20201003093300     3
 OLDACT:UP  20-10-03 14:43 OP:AMMR STATUS:               ID:20201003093300     3
 STAT SP IPHASW D HRMM SECON CODA AMPLIT PERI AZIMU VELO AIN AR TRES W  DIS CAZ7
 PRSN BZ IS     C  934  4.81                              96                    
 PRSN BN  IAML     934  7.25       154.4 0.24                                   
 AGPR BZ IP     D  933 49.35   34                         99   -0.1810 71.9 190 
 AGPR BE IP     C  933 49.55   34                         99    0.0210 71.9 190 
 AGPR BN IS     C  933 58.18                              99    0.0410 71.9 190 
 AOPR BZ IS     C  934  3.33                              96    0.8910 88.2 163 
 CELP BZ IP     C  933 58.05   44                         55    1.2910  123 159 
 CELP BN IS     C  934 10.45                              55   -0.2710  123 159 
 CRPR BZ IP     C  933 56.28   44                         55   -0.4410  123 185 
 CRPR BN IS     C  934  9.75                              55   -0.8910  123 185 
 MLPR BZ IP     C  933 56.81   42                         55   -0.3710  126 182 
 MLPR BN IS     C  934 11.86                              55    0.4110  126 182 
 PCDR BZ IP     C  933 59.88   41                         55   -1.5410  160 246 
 PCDR BN IS     C  934 17.50                              55   -1.3310  160 246 
 HIDR BE IS     C  934 26.65                              55    1.3710  190 253 
 HIDR BN  IAML     934 29.25        47.8 0.20                           190 253 
 MIDR HZ IP     C  934  7.98   53                         55   -0.4510  217 267 
 MIDR HN IS     C  934 32.64                              55    1.6210  217 267 
 MIDR BN  IAML     934 36.55        46.4 2.80                           217 267 
 HMDR BZ IP     C  934 12.92   61                         55   -0.1510  254 262 
                                                                                
 2020 10 3 1246  7.40L  18.197 -67.734 13.3  DOM  7 0.7 2.4LDOM 2.9CDOM 2.7WDOM1
 SPEC AVERAGE  MO 13.1 ST 10.6 OM  2.0 f0 6.44 R0.3263 AL 0.00 WI 20.0 MW  2.7 3
 SPEC SD       MO  0.3 ST 19.6 OM  0.5 f0 3.92 R0.1700 AL      WI      MW  0.2 3
 GAP=184        1.75      11.8     6.0 13.9  0.2169E+02  0.5308E+02 -0.9764E+01E
 SPEC CRPRBH N MO 13.2 ST 54.3 OM  1.9 f0 14.8 R0.1063 AL-0.00 WI 20.0 MW  2.7 3
 SPEC CRPRBH N T124625 K 0.020 GD 72.6 VS 4.25 DE 3.19 Q0400.0 QA 0.70 Q1 0.00 3
 SPEC AGPRBH N MO 13.4 ST  2.5 OM  2.1 f0 4.54 R0.3464 AL-0.00 WI 20.0 MW  2.9 3
 SPEC AGPRBH N T124626 K 0.020 GD 73.7 VS 4.25 DE 3.19 Q0400.0 QA 0.70 Q1 0.00 3
 SPEC PCDRBH N MO 13.3 ST0.294 OM  2.0 f0 2.35 R0.6691 AL-0.00 WI 20.0 MW  2.8 3
 SPEC PCDRBH N T124629 K 0.020 GD 78.0 VS 4.25 DE 3.19 Q0400.0 QA 0.70 Q1 0.00 3
 SPEC AOPRBH N MO 13.3 ST  5.1 OM  1.9 f0 5.93 R0.2652 AL-0.00 WI 20.0 MW  2.8 3
 SPEC AOPRBH N T124633 K 0.020 GD  105 VS 4.25 DE 3.19 Q0400.0 QA 0.70 Q1 0.00 3
 SPEC CELPBH N MO 12.6 ST0.726 OM  1.1 f0 5.47 R0.2875 AL-0.00 WI 20.0 MW  2.3 3
 SPEC CELPBH N T124642 K 0.020 GD  121 VS 4.25 DE 3.19 Q0400.0 QA 0.70 Q1 0.00 3
 SPEC HMDRBH N MO 12.7 ST0.882 OM  1.0 f0 5.55 R0.2833 AL-0.00 WI 20.0 MW  2.4 3
 SPEC HMDRBH N T124653 K 0.020 GD  177 VS 4.25 DE 3.19 Q0400.0 QA 0.70 Q1 0.00 3
 LOCALITY: 85.4 Km al ESE de Punta Cana. Canal de la Mona.                     3
 2020-10-03-1246-00S.MAN___126                                                 6
 OLDACT:ARG 20-10-03 15:19 OP:plst STATUS:               ID:20201003124600     3
 OLDACT:UP  20-10-03 15:54 OP:AMMR STATUS:               ID:20201003124600     3
 OLDACT:UP  20-10-03 15:54 OP:AMMR STATUS:               ID:20201003124600     3
 OLDACT:UP  20-10-03 15:53 OP:AMMR STATUS:               ID:20201003124600     3
 ACTION:UP  22-01-06 16:15 OP:jmlc STATUS:               ID:20201003124607 L   I
 OLDACT:UP  21-11-15 19:13 OP:AMMR STATUS:               ID:20201003124600     3
 OLDACT:UP  21-11-15 19:12 OP:AMMR STATUS:               ID:20201003124600     3
 OLDACT:UP  21-11-15 19:11 OP:AMMR STATUS:               ID:20201003124600     3
 OLDACT:UP  21-11-15 19:10 OP:AMMR STATUS:               ID:20201003124600     3
 OLDACT:UP  20-10-03 16:00 OP:AMMR STATUS:               ID:20201003124600     3
 STAT SP IPHASW D HRMM SECON CODA AMPLIT PERI AZIMU VELO AIN AR TRES W  DIS CAZ7
 CRPR BN IS       1246 26.77                              92   -0.6310 71.4 107 
 CRPR BN  IAML    1246 27.83       385.7 0.12                          71.4 107 
 AGPR BN IS     C 1246 28.18                              92    0.5010 72.5  65 
 AGPR BN  IAML    1246 29.66       232.1 0.24                          72.5  65 
 PCDR BZ IP   3 C 1246 19.02   37                         92   -0.70 2 76.9 297 
 PCDR BN IS   4 C 1246 31.35                              92    2.51 0 76.9 297 
 AOPR BZ IP     C 1246 24.66   44                         91    0.6810  105  81 
 AOPR BN IS     C 1246 35.23                              91   -1.0210  105  81 
 AOPR BN  IAML    1246 36.97       123.6 0.24                           105  81 
 CELP BZ IP       1246 27.83   40                         91    1.0810  123  96 
 MIDR HN IS     C 1246 49.32                              55   -0.5310  164 302 
 MIDR BN  IAML    1247  6.10        25.9 2.24                           164 302 
 HMDR BZ IP     C 1246 34.52   48                         55   -0.0410  186 291 
                                                                                
