 2020  3 5 1347  8.60L  18.349 -70.739 31.1  DOM  6 0.3 1.8LDOM 2.8CDOM 3.1WDOM1
 SPEC AVERAGE  MO 13.7 ST 83.9 OM  3.0 f0 8.04 R1.2932 AL 0.00 WI 20.0 MW  3.1 3
 SPEC SD       MO  0.5 ST135.1 OM  1.0 f0 5.44 R1.9390 AL      WI      MW  0.3 3
 GAP=233        0.71       4.0     2.3  6.1  0.4892E+01  0.6446E+01  0.4302E+01E
 SPEC BADRBH N MO 13.4 ST 10.2 OM  2.2 f0 7.41 R0.2247 AL-0.00 WI 20.0 MW  2.9 3
 SPEC BADRBH N T134721 K 0.020 GD 51.0 VS 4.50 DE 3.40 Q0400.0 QA 0.70 Q1 0.00 3
 SPEC SDDRBH N MO 14.4 ST0.011 OM  2.9 f00.358 R4.6508 AL-0.00 WI 20.0 MW  3.5 3
 SPEC SDDRBH N T134732 K 0.020 GD 96.0 VS 4.50 DE 3.40 Q0400.0 QA 0.70 Q1 0.00 3
 SPEC NAVIBH N MO 13.9 ST317.7 OM  2.4 f0 15.7 R0.1061 AL-0.00 WI 20.0 MW  3.2 3
 SPEC NAVIBH N T134734 K 0.020 GD  105 VS 4.50 DE 3.40 Q0400.0 QA 0.70 Q1 0.00 3
 SPEC REDRBH N MO 13.1 ST  7.5 OM  1.4 f0 8.70 R0.1914 AL-0.00 WI 20.0 MW  2.7 3
 SPEC REDRBH N T134745 K 0.020 GD  147 VS 4.50 DE 3.40 Q0400.0 QA 0.70 Q1 0.00 3
 LOCALITY: 6.3 Km al SSE de Pueblo Viejo, Azua.                                3
 2020-03-05-1346-00S.MAN___120                                                 6
 OLDACT:ARG 20-03-05 17:56 OP:jmlc STATUS:               ID:20200305134600     3
 OLDACT:UP  20-03-05 18:23 OP:AMMR STATUS:               ID:20200305134600     3
 ACTION:UP  22-01-08 17:50 OP:jmlc STATUS:               ID:20200305134708 L   I
 STAT SP IPHASW D HRMM SECON CODA AMPLIT PERI AZIMU VELO AIN AR TRES W  DIS CAZ7
 BADR BZ EPg      1347 16.25   34                        124   -0.2410 40.4  82 
 BADR BN ESg      1347 22.69                             124    0.3510 40.4  82 
 BADR BE  IAML    1347 22.84       156.0 0.10                          40.4  82 
 BADR BN  IAML    1347 23.54       365.1 0.75                          40.4  82 
 ABDR BZ EPg    D 1347 17.68   23                        117   -0.4910 52.6  13 
 ABDR BE ESg    D 1347 25.27                             117    0.0110 52.6  13 
 ABDR BE  IAML    1347 25.70         2.2 0.24                          52.6  13 
 ABDR BN  IAML    1348  0.10         0.3 0.30                          52.6  13 
 SDDR BZ EPg      1347 22.80   49                        102   -0.2610 90.8 320 
 SDDR BE ESg      1347 33.97                             102    0.2010 90.8 320 
 SDDR BE  IAML    1347 37.28        13.8 0.35                          90.8 320 
 SDDR BN  IAML    1347 41.50        33.3 2.35                          90.8 320 
 NAVI BZ EPg      1347 24.40   34                        100   -0.0710  101  48 
 NAVI BN ESg      1347 36.16                             100   -0.0710  101  48 
 NAVI BE  IAML    1347 38.10       521.9 0.15                           101  48 
 NAVI BN  IAML    1347 38.81       558.1 0.20                           101  48 
 REDR BZ EPg    C 1347 30.49   50                         96   -0.0310  144 316 
 REDR BN ESg    D 1347 47.04                              96    0.2810  144 316 
 REDR BE  IAML    1347 47.41        37.1 0.20                           144 316 
 REDR BN  IAML    1347 47.54        70.6 0.20                           144 316 
 HMDR BZ EPg    D 1347 31.82   49                         95    0.3210  151  71 
 HMDR BE  IAML    1347 51.19        11.9 1.55                           151  71 
 HMDR BN  IAML    1348 31.43        20.2 3.00                           151  71 
                                                                                
 2020  3 5 1416 11.40L  18.158 -66.887 19.7  DOM  3 0.1 2.9LDOM 2.8CDOM 3.0WDOM1
 SPEC AVERAGE  MO 13.6 ST 98.9 OM  5.7 f0 12.7 R0.1227 AL 0.00 WI 20.0 MW  3.0 3
 SPEC SD       MO  0.0 ST0.000 OM  3.0 f00.000 R0.0000 AL      WI      MW  0.0 3
 GAP=168        0.41      20.9     1.4 26.6  0.1223E+02 -0.1759E+02 -0.5481E+03E
 SPEC CRPRBH N MO 13.6 ST 98.9 OM  2.7 f0 12.7 R0.1227 AL-0.00 WI 20.0 MW  3.0 3
 SPEC CRPRBH N T141619 K 0.020 GD 33.5 VS 4.21 DE 3.16 Q0400.0 QA 0.70 Q1 0.00 3
 LOCALITY: 27.1 Km al Este de Mayaguez, Region de Puerto Rico.                 3
 2020-03-05-1415-00S.MAN___120                                                 6
 OLDACT:ARG 20-03-05 17:58 OP:jmlc STATUS:               ID:20200305141500     3
 OLDACT:UP  20-03-05 18:26 OP:AMMR STATUS:               ID:20200305141500     3
 ACTION:UP  22-01-08 17:50 OP:jmlc STATUS:               ID:20200305141611 L   I
 STAT SP IPHASW D HRMM SECON CODA AMPLIT PERI AZIMU VELO AIN AR TRES W  DIS CAZ7
 CRPR BZ EP       1416 16.86   33                        123    0.1510 27.1 232 
 CRPR BN ES     C 1416 20.53                             123   -0.0910 27.1 232 
 CRPR BN  IAML    1416 20.78      3507.4 0.25                          27.1 232 
 CRPR BE  IAML    1416 20.96      2981.7 0.25                          27.1 232 
 SJG  BZ EPg    D 1416 23.90   48                         99   -0.1510 78.2  94 
 SJG  BN ESg      1416 33.49                              99    0.0910 78.2  94 
 HMDR BZ EPg      1416 53.41                              92    0.0010  272 285 
 HMDR BN  IAML    1417 35.46        16.4 0.95                           272 285 
                                                                                
 2020  3 5 1629  8.00L  17.931 -66.987 19.4  DOM  4 0.2 3.3LDOM 3.5CDOM 3.5WDOM1
 SPEC AVERAGE  MO 14.3 ST 18.2 OM  4.8 f0 3.73 R0.9202 AL 0.00 WI 20.0 MW  3.5 3
 SPEC SD       MO  0.4 ST 14.5 OM  2.0 f0 2.33 R0.8612 AL      WI      MW  0.3 3
 GAP=214        0.62      15.7     1.9  3.7  0.1787E+02  0.1641E+01  0.2950E+02E
 SPEC CRPRBH N MO 14.7 ST 35.5 OM  3.9 f0 4.04 R0.3837 AL-0.00 WI 20.0 MW  3.7 3
 SPEC CRPRBH N T162913 K 0.020 GD 23.7 VS 4.19 DE 3.14 Q0400.0 QA 0.70 Q1 0.00 3
 SPEC HIDRBH N MO 13.8 ST 18.8 OM  2.1 f0 6.42 R0.2415 AL-0.00 WI 20.0 MW  3.1 3
 SPEC HIDRBH N T1630 1 K 0.020 GD  197 VS 4.19 DE 3.14 Q0400.0 QA 0.70 Q1 0.00 3
 SPEC HMDRBH N MO 14.5 ST0.148 OM  2.7 f00.726 R2.1354 AL-0.00 WI 20.0 MW  3.6 3
 SPEC HMDRBH N T163018 K 0.020 GD  270 VS 4.19 DE 3.14 Q0400.0 QA 0.70 Q1 0.00 3
 LOCALITY: 34.1 Km al SSE de Mayaguez, Region de Puerto Rico.                  3
 2020-03-05-1628-00S.MAN___120                                                 6
 OLDACT:ARG 20-03-05 17:59 OP:jmlc STATUS:               ID:20200305162800     3
 OLDACT:UP  20-03-05 18:31 OP:AMMR STATUS:               ID:20200305162800     3
 ACTION:UP  22-01-08 17:50 OP:jmlc STATUS:               ID:20200305162908 L   I
 STAT SP IPHASW D HRMM SECON CODA AMPLIT PERI AZIMU VELO AIN AR TRES W  DIS CAZ7
 CRPR BZ EP     C 1629 11.79   41                        143    0.0410 13.7 308 
 CRPR BN ESg    C 1629 14.50                             143   -0.0210 13.7 308 
 CRPR BN  IAML    1629 14.63     29140.2 0.25                          13.7 308 
 CRPR BE  IAML    1629 14.74     34032.7 0.30                          13.7 308 
 SJG  BZ EPg    D 1629 22.34   75                         97   -0.1910 90.8  77 
 SJG  BN ESg    D 1629 33.38                              97    0.1010 90.8  77 
 HIDR BZ EPg      1629 38.98   89                         93    0.4510  197 292 
 HIDR BN  IAML    1630  7.27       175.8 0.25                           197 292 
 HIDR BE  IAML    1630  7.28       116.0 0.25                           197 292 
 HMDR BZ EPg      1629 49.40  108                         92   -0.2610  270 291 
 HMDR BN ESg      1630 20.36                              92   -0.1210  270 291 
 HMDR BE  IAML    1630 30.00        55.5 0.35                           270 291 
 HMDR BN  IAML    1630 33.49        68.4 0.90                           270 291 
                                                                                
 2020  3 6 0148 45.60L  18.367 -70.547168.8  DOM  4 0.5 2.8LDOM 3.3CDOM 3.5WDOM1
 SPEC AVERAGE  MO 14.3 ST  2.2 OM  5.0 f0 8.05 R8.9959 AL 0.00 WI 20.0 MW  3.5 3
 SPEC SD       MO  2.3 ST  2.1 OM  3.4 f0 7.95 R8.8942 AL      WI      MW  1.5 3
 GAP=196        1.31      16.1    11.3 12.9 -0.9596E+02  0.5365E+02 -0.2719E+02E
 SPEC HMDRBH N MO 12.0 ST  4.3 OM  0.2 f0 16.0 R0.1018 AL-0.00 WI 20.0 MW  2.0 3
 SPEC HMDRBH N T 14930 K 0.020 GD  214 VS 4.40 DE 3.40 Q0400.0 QA 0.70 Q1 0.00 3
 SPEC BADRBH N MO 16.6 ST0.031 OM  4.9 f00.091 R 17.89 AL-0.00 WI 20.0 MW  5.0 3
 SPEC BADRBH N T 14921 K 0.020 GD  169 VS 4.40 DE 3.40 Q0400.0 QA 0.70 Q1 0.00 3
 LOCALITY: 9.2 Km al NNE de Palmar de Ocoa, Azua.                              3
 2020-03-06-0148-00S.MAN___120                                                 6
 OLDACT:ARG 20-03-06 02:21 OP:CGRS STATUS:               ID:20200306014800     3
 OLDACT:UP  20-03-06 02:25 OP:CGRS STATUS:               ID:20200306014800     3
 OLDACT:UP  20-03-06 02:25 OP:CGRS STATUS:               ID:20200306014800     3
 ACTION:UP  22-01-08 17:50 OP:jmlc STATUS:               ID:20200306014845 L   I
 STAT SP IPHASW D HRMM SECON CODA AMPLIT PERI AZIMU VELO AIN AR TRES W  DIS CAZ7
 BADR BZ EPg    C  149  6.04   45                        173   -1.0010 19.9  80 
 BADR BN ESg    D  149 23.33                             173    0.4210 19.9  80 
 BADR BN  IAML     149 25.90       512.1 0.35                          19.9  80 
 NADR BZ EPg       149 12.89   46                        140    0.5910  131  34 
 NADR BN ESg    D  149 31.64                             140   -0.4310  131  34 
 NADR BN  IAML     150 11.17       187.0 0.30                           131  34 
 HMDR BZ EPg    D  149 12.51   64                        140    0.1310  132  69 
 HMDR BN ESg    D  149 32.33                             140    0.1210  132  69 
 HMDR BN  IAML     149 56.58        19.7 2.90                           132  69 
 JIDR BZ EPg    D  149 13.06   62                        138    0.1810  139 276 
 JIDR BN  IAML     150  6.38        43.0 3.85                           139 276 
                                                                                
 2020  3 6 0505 34.90L  18.282 -70.629 31.1  DOM 25 0.8 3.1LDOM 3.1CDOM 3.5WDOM1
 SPEC AVERAGE  MO 14.4 ST 81.7 OM  3.1 f0 4.55 R1.0853 AL 0.00 WI 20.0 MW  3.5 3
 SPEC SD       MO  0.4 ST230.1 OM  0.5 f0 3.83 R1.6833 AL      WI      MW  0.3 3
 GAP=172        2.15       5.6     3.1 16.0 -0.4311E+00  0.1431E+02 -0.1531E+02E
 SPEC BADRBH N MO 14.6 ST249.1 OM  3.4 f0 9.00 R0.1850 AL-0.00 WI 20.0 MW  3.6 3
 SPEC BADRBH N T 5 545 K 0.020 GD 44.0 VS 4.50 DE 3.40 Q0400.0 QA 0.70 Q1 0.00 3
 SPEC BAN1HN N MO 14.6 ST  6.8 OM  3.4 f0 2.71 R0.6144 AL-0.00 WI 20.0 MW  3.6 3
 SPEC BAN1HN N T 5 543 K 0.020 GD 44.2 VS 4.50 DE 3.40 Q0400.0 QA 0.70 Q1 0.00 3
 SPEC PODRBH N MO 14.1 ST 26.2 OM  2.7 f0 6.04 R0.2757 AL-0.00 WI 20.0 MW  3.3 3
 SPEC PODRBH N T 5 554 K 0.020 GD 76.8 VS 4.50 DE 3.40 Q0400.0 QA 0.70 Q1 0.00 3
 SPEC NEDRBH N MO 13.9 ST  4.2 OM  2.4 f0 3.82 R0.4359 AL-0.00 WI 20.0 MW  3.2 3
 SPEC NEDRBH N T 5 558 K 0.020 GD 96.5 VS 4.50 DE 3.40 Q0400.0 QA 0.70 Q1 0.00 3
 SPEC NAVIBH N MO 14.7 ST999.9 OM  3.2 f0 16.0 R0.1041 AL-0.00 WI 20.0 MW  3.8 3
 SPEC NAVIBH N T 5 557 K 0.020 GD  103 VS 4.50 DE 3.40 Q0400.0 QA 0.70 Q1 0.00 3
 SPEC SDDRBH N MO 14.3 ST  5.2 OM  2.8 f0 2.90 R0.5741 AL-0.00 WI 20.0 MW  3.5 3
 SPEC SDDRBH N T 5 559 K 0.020 GD  108 VS 4.50 DE 3.40 Q0400.0 QA 0.70 Q1 0.00 3
 SPEC SFDRBH N MO 14.1 ST 27.8 OM  2.5 f0 6.15 R0.2707 AL-0.00 WI 20.0 MW  3.3 3
 SPEC SFDRBH N T 5 6 3 K 0.020 GD  122 VS 4.50 DE 3.40 Q0400.0 QA 0.70 Q1 0.00 3
 SPEC SC01BH N MO 14.5 ST  2.0 OM  2.9 f0 1.83 R0.9098 AL-0.00 WI 20.0 MW  3.6 3
 SPEC SC01BH N T 5 6 5 K 0.020 GD  130 VS 4.50 DE 3.40 Q0400.0 QA 0.70 Q1 0.00 3
 SPEC JIDRBH N MO 14.0 ST  4.0 OM  2.4 f0 3.36 R0.4955 AL-0.00 WI 20.0 MW  3.3 3
 SPEC JIDRBH N T 5 6 5 K 0.020 GD  135 VS 4.50 DE 3.40 Q0400.0 QA 0.70 Q1 0.00 3
 SPEC HMDRBH N MO 13.9 ST 13.0 OM  2.2 f0 5.66 R0.2942 AL-0.00 WI 20.0 MW  3.2 3
 SPEC HMDRBH N T 5 6 9 K 0.020 GD  146 VS 4.50 DE 3.40 Q0400.0 QA 0.70 Q1 0.00 3
 SPEC NADRBH N MO 14.5 ST  6.3 OM  2.8 f0 2.80 R0.5946 AL-0.00 WI 20.0 MW  3.6 3
 SPEC NADRBH N T 5 6 8 K 0.020 GD  147 VS 4.50 DE 3.40 Q0400.0 QA 0.70 Q1 0.00 3
 SPEC MADRBH N MO 14.9 ST  1.3 OM  3.2 f0 1.21 R1.3760 AL-0.00 WI 20.0 MW  3.9 3
 SPEC MADRBH N T 5 611 K 0.020 GD  154 VS 4.50 DE 3.40 Q0400.0 QA 0.70 Q1 0.00 3
 SPEC REDRBH N MO 14.1 ST 95.2 OM  2.4 f0 9.13 R0.1824 AL-0.00 WI 20.0 MW  3.4 3
 SPEC REDRBH N T 5 612 K 0.020 GD  161 VS 4.50 DE 3.40 Q0400.0 QA 0.70 Q1 0.00 3
 SPEC SODRBH N MO 15.2 ST0.151 OM  3.5 f00.453 R3.6755 AL-0.00 WI 20.0 MW  4.1 3
 SPEC SODRBH N T 5 613 K 0.020 GD  165 VS 4.50 DE 3.40 Q0400.0 QA 0.70 Q1 0.00 3
 SPEC SMDRBH N MO 14.0 ST  1.5 OM  2.2 f0 2.54 R0.6555 AL-0.00 WI 20.0 MW  3.3 3
 SPEC SMDRBH N T 5 619 K 0.020 GD  190 VS 4.50 DE 3.40 Q0400.0 QA 0.70 Q1 0.00 3
 SPEC HIDRBH N MO 13.9 ST 26.6 OM  2.1 f0 6.91 R0.2410 AL-0.00 WI 20.0 MW  3.2 3
 SPEC HIDRBH N T 5 624 K 0.020 GD  207 VS 4.50 DE 3.40 Q0400.0 QA 0.70 Q1 0.00 3
 SPEC MCDRBH N MO 14.8 ST0.943 OM  3.0 f0 1.13 R1.4735 AL-0.00 WI 20.0 MW  3.8 3
 SPEC MCDRBH N T 5 623 K 0.020 GD  211 VS 4.50 DE 3.40 Q0400.0 QA 0.70 Q1 0.00 3
 SPEC QMBUHH N MO 15.1 ST0.015 OM  2.9 f00.232 R7.1767 AL-0.00 WI 20.0 MW  4.0 3
 SPEC QMBUHH N T 5 752 K 0.020 GD  488 VS 4.50 DE 3.40 Q0400.0 QA 0.70 Q1 0.00 3
 LOCALITY: 4.9 Km al OSO de Palmar de Ocoa, Mar Caribe.                        3
 2020-03-06-0505-00S.MAN___120                                                 6
 OLDACT:ARG 20-03-06 05:17 OP:cgrs STATUS:               ID:20200306050500     3
 OLDACT:UP  20-03-06 05:28 OP:CGRS STATUS:               ID:20200306050500     3
 OLDACT:UP  20-03-06 05:27 OP:CGRS STATUS:               ID:20200306050500     3
 OLDACT:UP  20-03-06 05:32 OP:CGRS STATUS:               ID:20200306050500     3
 ACTION:UP  22-01-08 17:50 OP:jmlc STATUS:               ID:20200306050534 L   I
 STAT SP IPHASW D HRMM SECON CODA AMPLIT PERI AZIMU VELO AIN AR TRES W  DIS CAZ7
 BADR BZ EPg    C  5 5 41.19   30                        122   -0.5110 31.1  66 
 BADR BN ESg    D  5 5 47.17                             122    0.4410 31.1  66 
 BADR BN  IAML     5 5 47.92     12925.1 0.25                          31.1  66 
 BAN1 HZ EPg    D  5 5 40.85   22                        121   -0.7610 31.4  88 
 BAN1 BN  IAML     5 5 50.23      2073.4 0.24                          31.4  88 
 PODR BZ EPg    D  5 5 46.35   43                         90   -0.1310 70.2 260 
 PODR BN ESg    C  5 5 56.30                              90    1.2510 70.2 260 
 PODR BN  IAML     5 5 58.03       624.6 0.25                          70.2 260 
 SDD  BZ EPg    C  5 5 46.74   43                         90   -0.5110 77.7  75 
 SDD  BN ESg    C  5 5 55.37                              90   -1.0110 77.7  75 
 SDD  BN  IAML     5 6  3.49       182.2 1.80                          77.7  75 
 SD01 HZ EPg    C  5 5 46.54   40                         90   -0.7210 77.9  75 
 NEDR BZ EPg    C  5 5 48.00   49                         90   -0.9510 91.4 284 
 NEDR BN ESg    C  5 5 59.50                              90    0.1510 91.4 284 
 NEDR BN  IAML     5 6  0.88       292.0 0.20                          91.4 284 
 NAVI BZ EPg    D  5 5 48.51   35                         90   -1.3410 98.2  40 
 NAVI BN  IAML     5 6  1.62      7962.3 0.15                          98.2  40 
 SDDR BZ EPg    C  5 5 49.54   46                         90   -1.0410  104 318 
 SDDR BN ESg    D  5 6  1.38                              90   -0.8010  104 318 
 SDDR BN  IAML     5 6  2.53       813.0 0.50                           104 318 
 SFDR BZ EPg    C  5 5 51.31   62                         90   -1.0010  118  20 
 SFDR BN ESg    D  5 6  4.56                              90   -0.6410  118  20 
 SFDR BN  IAML     5 6  5.74       298.2 0.15                           118  20 
 SC01 BZ EPg    C  5 5 53.23   37                         90   -0.1810  127 355 
 SC01 BN  IAML     5 6 11.90       395.8 0.35                           127 355 
 JIDR BZ EPg    D  5 5 54.38   54                         90    0.4510  132 280 
 JIDR BN ESg    C  5 6  7.40                              90   -0.6110  132 280 
 JIDR BN  IAML     5 6 15.10       221.2 0.50                           132 280 
 HMDR BZ EPg    C  5 5 55.21   48                         90   -0.2110  143  67 
 HMDR BN ESg    D  5 6 10.73                              90    0.1310  143  67 
 HMDR BN  IAML     5 6 12.93       275.4 0.20                           143  67 
 NADR BN  IAML     5 6 24.30       432.3 0.25                           144  34 
 NAG1 HZ EPg    C  5 5 54.92   58                         90   -0.5510  144  34 
 NADR BZ EPg    C  5 5 54.90   58                         90   -0.5710  144  34 
 MADR BZ EPg       5 5 55.87   57                         90   -0.4310  151 341 
 MADR BN ESg    C  5 6 12.83                              90    0.6810  151 341 
 MADR BN  IAML     5 6 18.28       366.1 0.40                           151 341 
 REDR BZ EPg    C  5 5 57.18   49                         90   -0.0910  158 314 
 REDR BN ESg    D  5 6 14.36                              90    0.5410  158 314 
 REDR BN  IAML     5 6 16.04       667.9 0.15                           158 314 
 SODR BZ EPg    D  5 5 58.92   56                         90    1.1010  163   2 
 SODR BN ESg    D  5 6 15.07                              90    0.2910  163   2 
 SODR BN  IAML     5 6 22.50       309.1 0.80                           163   2 
 CADR BZ EPg    D  5 5 58.77   52                         90    0.1110  170  25 
 CADR BN ESg    D  5 6 17.05                              90    0.8110  170  25 
 CADR BN  IAML     5 6 22.45       698.3 0.70                           170  25 
 LUDR BZ EPg    D  5 6  1.59   73                         90    1.4410  182 349 
 SMDR BZ EPg    C  5 6  0.90   64                         90   -0.1010  188  53 
 SMDR BN  IAML     5 6 39.70        93.4 1.00                           188  53 
 HIDR BZ EPg    C  5 6  4.31   54                         90    1.2410  205  80 
 HIDR BN ESg    C  5 6 25.59                              90    1.6810  205  80 
 HGY1 HZ EPg       5 6  4.36   50                         90    1.3010  205  80 
 HIDR BN  IAML     5 6 28.79       228.2 0.30                           205  80 
 HGY1 BN  IAML     5 6 34.93        80.1 0.72                           205  80 
 MCDR BZ EPg    D  5 6  4.10   64                         90    0.6110  209 329 
 MCDR BN ESg    D  5 6 24.83                              90    0.1710  209 329 
 MCDR BN  IAML     5 6 33.96        84.0 0.35                           209 329 
 MASC HZ EPg    C  5 6 31.90   45                         90    0.5010  433 300 
 MASC BN  IAML     5 8 14.34        28.7 1.74                           433 300 
 QMBU HZ EPg    C  5 6 37.54  101                         90   -0.7410  488 296 
 QMBU BN  IAML     5 7 56.87        14.8 1.76                           488 296 
                                                                                
