 2020  3 6 0628 56.90L  18.586 -67.792  0.0  DOM  9 0.9 2.8LDOM 2.8CDOM 2.6WDOM1
 SPEC AVERAGE  MO 13.0 ST122.5 OM  2.5 f0 6.49 R0.3177 AL 0.00 WI 20.0 MW  2.6 3
 SPEC SD       MO  0.6 ST242.6 OM  0.8 f0 5.02 R0.2044 AL      WI      MW  0.4 3
 GAP=168        2.35      25.3     8.2 12.0  0.1605E+03 -0.4629E+02 -0.1682E+03E
 SPEC HIDRBH N MO 12.7 ST  2.6 OM  1.7 f0 6.03 R0.2043 AL-0.00 WI 20.0 MW  2.4 3
 SPEC HIDRBH N T 62922 K 0.020 GD 97.4 VS 3.33 DE 2.65 Q0400.0 QA 0.70 Q1 0.00 3
 SPEC HMDRBH N MO 12.4 ST0.142 OM  1.3 f0 2.83 R0.4354 AL-0.00 WI 20.0 MW  2.2 3
 SPEC HMDRBH N T 62941 K 0.020 GD  130 VS 3.33 DE 2.65 Q0400.0 QA 0.70 Q1 0.00 3
 SPEC NADRBH N MO 13.6 ST0.614 OM  2.4 f0 1.88 R0.6554 AL-0.00 WI 20.0 MW  3.0 3
 SPEC NADRBH N T 62955 K 0.020 GD  152 VS 3.33 DE 2.65 Q0400.0 QA 0.70 Q1 0.00 3
 SPEC NAVIBH N MO 13.8 ST607.7 OM  2.6 f0 16.0 R0.0770 AL-0.00 WI 20.0 MW  3.1 3
 SPEC NAVIBH N T 62954 K 0.020 GD  154 VS 3.33 DE 2.65 Q0400.0 QA 0.70 Q1 0.00 3
 SPEC REDRBH N MO 12.5 ST  1.4 OM  1.2 f0 5.69 R0.2165 AL-0.00 WI 20.0 MW  2.3 3
 SPEC REDRBH N T 63036 K 0.020 GD  204 VS 3.33 DE 2.65 Q0400.0 QA 0.70 Q1 0.00 3
 LOCALITY: 61.5 Km al Este de Punta Cana, Canal de la Mona.                    3
 2020-03-06-0628-00S.MAN___117                                                 6
 OLDACT:UP  20-03-06 14:08 OP:JMLC STATUS:               ID:20200306062800     3
 OLDACT:UP  20-03-06 14:07 OP:JMLC STATUS:               ID:20200306062800     3
 OLDACT:UP  20-03-06 14:05 OP:JMLC STATUS:               ID:20200306062800     3
 OLDACT:ARG 20-03-06 12:31 OP:NR   STATUS:               ID:20200306062800     3
 OLDACT:UP  20-03-06 16:31 OP:JAAF STATUS:               ID:20200306062800     3
 OLDACT:UP  20-03-06 16:31 OP:JAAF STATUS:               ID:20200306062800     3
 ACTION:UP  22-01-08 17:50 OP:jmlc STATUS:               ID:20200306062856 L   I
 OLDACT:UP  20-03-06 16:32 OP:JAAF STATUS:               ID:20200306062800     3
 STAT SP IPHASW D HRMM SECON CODA AMPLIT PERI AZIMU VELO AIN AR TRES W  DIS CAZ7
 HIDR BZ IP        629 11.80   33                         90   -0.8110 97.4 271 
 HIDR BE IS        629 24.11                              90   -0.1310 97.4 271 
 HIDR BN  IAML     629 27.29        82.6 0.30                          97.4 271 
 SPM1 BN  IAML     630 12.48       629.4 4.12                           161 265 
 SMDR BZ IP        629 24.53   29                         50    1.5910  166 298 
 SMDR BN IS        629 40.39                              50   -1.8310  166 298 
 SMDR BN  IAML     630 15.32        44.0 1.35                           166 298 
 HMDR BZ IP        629 23.10   44                         50   -0.2210  169 278 
 HMDR BE IS        629 42.57                              50   -0.3010  169 278 
 HMDR BN  IAML     629 46.57        24.7 0.85                           169 278 
 SJG  BZ IP        629 23.42   33                         50   -1.4110  181 107 
 SJG  BN IS        629 46.01                              50    0.5010  181 107 
 NADR BZ IP        629 32.12   25                         50    0.8510  233 292 
 NADR BN IS        629 57.06                              50    0.3510  233 292 
 NADR BN  IAML     630  6.28       145.2 1.60                           233 292 
 NAVI BZ IP     C  629 32.36   31                         50    0.2910  239 280 
 NAVI BN IS     C  629 58.14                              50    0.0410  239 280 
 NAVI BN  IAML     630 20.44       707.2 0.20                           239 280 
 SFDR BZ IP        629 35.87   32                         50    0.0910  270 287 
 SFDR BN IS        630  3.76                              50   -0.8010  270 287 
 SFDR BN  IAML     630 19.51        47.7 1.35                           270 287 
 REDR BZ IP        629 54.84   42                         49    0.7210  419 281 
 REDR BN IS        630 37.54                              49    1.0710  419 281 
 REDR BN  IAML     631 12.47        13.1 3.25                           419 281 
                                                                                
 2020  3 6 0832 16.70L  18.796 -69.410 99.6  DOM 15 0.7 2.9LDOM 3.2CDOM 3.1WDOM1
 SPEC AVERAGE  MO 13.7 ST 18.4 OM  2.2 f0 6.61 R0.4170 AL 0.00 WI 20.0 MW  3.1 3
 SPEC SD       MO  0.4 ST 20.4 OM  0.6 f0 4.29 R0.3042 AL      WI      MW  0.3 3
 GAP=139        1.97       8.0     5.2  9.2  0.1354E+01  0.2294E+02  0.1544E+02E
 SPEC HMDRBH N MO 13.2 ST 15.4 OM  1.7 f0 10.0 R0.1658 AL-0.00 WI 20.0 MW  2.7 3
 SPEC HMDRBH N T 83237 K 0.020 GD 99.7 VS 4.48 DE 3.40 Q0400.0 QA 0.70 Q1 0.00 3
 SPEC SMDRBH N MO 14.4 ST0.719 OM  2.8 f0 1.47 R1.1276 AL-0.00 WI 20.0 MW  3.5 3
 SPEC SMDRBH N T 83242 K 0.020 GD  115 VS 4.48 DE 3.40 Q0400.0 QA 0.70 Q1 0.00 3
 SPEC HIDRBH N MO 13.6 ST 24.9 OM  2.0 f0 8.62 R0.1923 AL-0.00 WI 20.0 MW  3.0 3
 SPEC HIDRBH N T 83245 K 0.020 GD  125 VS 4.48 DE 3.40 Q0400.0 QA 0.70 Q1 0.00 3
 SPEC HGY1HN N MO 13.6 ST  5.3 OM  2.0 f0 5.15 R0.3219 AL-0.00 WI 20.0 MW  3.0 3
 SPEC HGY1HN N T 83243 K 0.020 GD  125 VS 4.48 DE 3.40 Q0400.0 QA 0.70 Q1 0.00 3
 SPEC NADRBH N MO 14.4 ST  5.4 OM  2.8 f0 2.80 R0.5920 AL-0.00 WI 20.0 MW  3.5 3
 SPEC NADRBH N T 83243 K 0.020 GD  126 VS 4.48 DE 3.40 Q0400.0 QA 0.70 Q1 0.00 3
 SPEC SFDRBH N MO 14.0 ST 61.7 OM  2.3 f0 8.87 R0.1869 AL-0.00 WI 20.0 MW  3.3 3
 SPEC SFDRBH N T 83247 K 0.020 GD  143 VS 4.48 DE 3.40 Q0400.0 QA 0.70 Q1 0.00 3
 SPEC BADRBH N MO 13.8 ST 24.1 OM  2.1 f0 7.47 R0.2219 AL-0.00 WI 20.0 MW  3.1 3
 SPEC BADRBH N T 83249 K 0.020 GD  148 VS 4.48 DE 3.40 Q0400.0 QA 0.70 Q1 0.00 3
 SPEC SODRBH N MO 13.8 ST  1.9 OM  2.0 f0 3.17 R0.5229 AL-0.00 WI 20.0 MW  3.1 3
 SPEC SODRBH N T 83257 K 0.020 GD  190 VS 4.48 DE 3.40 Q0400.0 QA 0.70 Q1 0.00 3
 SPEC SDDRBH N MO 13.8 ST0.536 OM  1.9 f0 2.14 R0.7746 AL-0.00 WI 20.0 MW  3.1 3
 SPEC SDDRBH N T 833 5 K 0.020 GD  222 VS 4.48 DE 3.40 Q0400.0 QA 0.70 Q1 0.00 3
 SPEC NEDRBH N MO 12.8 ST 24.3 OM  0.9 f0 16.0 R0.1036 AL-0.00 WI 20.0 MW  2.5 3
 SPEC NEDRBH N T 833 9 K 0.020 GD  241 VS 4.48 DE 3.40 Q0400.0 QA 0.70 Q1 0.00 3
 SPEC REDRBH N MO 13.6 ST 56.5 OM  1.7 f0 11.1 R0.1493 AL-0.00 WI 20.0 MW  3.0 3
 SPEC REDRBH N T 83315 K 0.020 GD  266 VS 4.48 DE 3.40 Q0400.0 QA 0.70 Q1 0.00 3
 SPEC JIDRBH N MO 13.3 ST0.292 OM  1.3 f0 2.57 R0.6450 AL-0.00 WI 20.0 MW  2.8 3
 SPEC JIDRBH N T 83317 K 0.020 GD  278 VS 4.48 DE 3.40 Q0400.0 QA 0.70 Q1 0.00 3
 LOCALITY: 16.9 Km al ONO de Hato Mayor, Hato Mayor.                           3
 2020-03-06-0830-00S.MAN___117                                                 6
 OLDACT:ARG 20-03-06 12:06 OP:cgrs STATUS:               ID:20200306083000     3
 OLDACT:UP  20-03-06 12:17 OP:CGRS STATUS:               ID:20200306083000     3
 ACTION:UP  22-01-08 17:50 OP:jmlc STATUS:               ID:20200306083216 L   I
 STAT SP IPHASW D HRMM SECON CODA AMPLIT PERI AZIMU VELO AIN AR TRES W  DIS CAZ7
 HMDR BZ EPg    C  832 29.01   52                        178   -0.7610 3.20 106 
 HMDR BN ESg    C  832 38.67                             178   -0.7810 3.20 106 
 HMDR BN  IAML     832 38.99       124.5 0.40                          3.20 106 
 SMDR BZ EPg    C  832 31.78   38                        146   -0.0210 59.4  23 
 SMDR BN ESg    C  832 43.66                             146    0.6810 59.4  23 
 SMDR BN  IAML     832 47.96       241.1 0.30                          59.4  23 
 NAVI BZ EPg    D  832 31.96   44                        143   -0.5010 67.6 286 
 NAVI BN ESg    D  832 43.69                             143   -0.4310 67.6 286 
 NAVI BN  IAML     832 45.24      3981.4 0.15                          67.6 286 
 HGY1 BN  IAML     832 46.88       107.8 0.38                          76.7 107 
 HIDR BN  IAML     832 46.94       237.1 0.35                          76.7 107 
 HGY1 HZ EPg    D  832 32.63   36                        139   -0.4210 76.7 107 
 HIDR BZ EPg       832 33.33   34                        139    0.2810 76.7 107 
 HIDR BN ESg    D  832 46.72                             139    1.5610 76.7 107 
 NADR BZ EPg    C  832 31.92   48                        138   -1.2010 77.6 323 
 NADR BN ESg    C  832 45.18                             138   -0.1010 77.6 323 
 NADR BN  IAML     832 48.61       714.4 0.25                          77.6 323 
 SFDR BZ EPg    C  832 36.08   52                        129    0.7610  103 302 
 SFDR BN ESg    D  832 49.00                             129   -0.1110  103 302 
 SFDR BN  IAML     832 51.35       509.5 0.20                           103 302 
 BADR BZ EPg       832 36.50   44                        127    0.4710  110 246 
 BADR BN ESg    C  832 50.61                             127    0.2810  110 246 
 BADR BN  IAML     832 55.39       242.5 0.25                           110 246 
 SODR BZ EPg    C  832 40.41   52                        115   -0.7910  162 311 
 SODR BN  IAML     833  9.38        98.9 0.65                           162 311 
 SDDR BZ EPg       832 45.24   58                        109   -0.0710  199 276 
 SDDR BN ESg    D  833  7.24                             109    0.7510  199 276 
 SDDR BN  IAML     833 12.64        63.2 0.55                           199 276 
 LUDR BZ EPg    C  832 46.25   62                        109    0.6110  203 307 
 PODR BZ EPg    C  832 46.68   65                        108    0.0710  210 251 
 PODR BN ESg    D  833  7.75                             108   -0.9910  210 251 
 PODR BN  IAML     833 20.80        62.6 1.50                           210 251 
 NEDR BZ EPg    D  832 46.34   61                        107   -1.2310  220 261 
 NEDR BN ESg    C  833 10.61                             107    0.1910  220 261 
 NEDR BN  IAML     833 20.81        25.4 1.00                           220 261 
 REDR BZ EPg    D  832 50.42   67                        104   -0.3110  247 283 
 REDR BN ESg    D  833 17.20                             104    1.2810  247 283 
 REDR BN  IAML     833 19.52        77.8 0.20                           247 283 
 JIDR BZ EPg    C  832 51.95   75                        103   -0.1910  260 263 
 JIDR BN ESg    C  833 19.35                             103    0.9810  260 263 
 JIDR BN  IAML     833 29.57        42.3 2.10                           260 263 
                                                                                
 2020  3 6 1011 24.30L  19.266 -69.435 26.8  DOM  7 0.9 2.0LDOM 2.4CDOM        1
 GAP=150        2.36       8.8     7.3 11.4  0.1732E+02  0.4739E+02 -0.4113E+01E
 LOCALITY: 12.4 Km al ESE de Las Terrenas, Samana.                             3
 2020-03-06-1010-00S.MAN___117                                                 6
 OLDACT:ARG 20-03-06 12:31 OP:NR   STATUS:               ID:20200306101000     3
 OLDACT:UP  20-03-06 16:39 OP:JAAF STATUS:               ID:20200306101000     3
 ACTION:UP  22-01-08 17:50 OP:jmlc STATUS:               ID:20200306101124 L   I
 STAT SP IPHASW D HRMM SECON CODA AMPLIT PERI AZIMU VELO AIN AR TRES W  DIS CAZ7
 SMDR BZ IP       1011 31.04   12                        131    1.0310 26.1  84 
 SMDR BN IS       1011 33.21                             131   -1.0510 26.1  84 
 SMDR BN  IAML    1011 53.14        44.4 0.85                          26.1  84 
 NADR BZ IP       1011 32.15                             112   -0.1810 45.3 283 
 NADR BN IS       1011 38.83                             112    0.5310 45.3 283 
 NADR BN  IAML    1011 56.56       106.8 3.05                          45.3 283 
 HMDR BZ IP       1011 34.78   41                        107    1.3610 53.2 174 
 HMDR BN ESg      1011 39.83                             107   -0.3510 53.2 174 
 HMDR BN  IAML    1012 22.93        23.4 2.45                          53.2 174 
 NAVI BZ IP       1011 34.92                             100   -0.9510 71.0 242 
 NAVI BN  IAML    1012 15.91       278.1 0.05                          71.0 242 
 SFDR BZ IP       1011 36.64                              96   -1.1510 85.0 272 
 SFDR BN IS       1011 48.48                              96    0.6910 85.0 272 
 SFDR BN  IAML    1012 24.93        92.7 1.00                          85.0 272 
 LUDR BZ IP       1011 50.09   20                         62    1.2610  174 294 
 MADR BZ IP       1011 48.85   41                         62   -0.5410  178 281 
 MADR BN IS       1012  7.34                              62   -0.6410  178 281 
 MADR BN  IAML    1012 40.06        96.3 2.50                           178 281 
                                                                                
 2020  3 6 1026 23.30L  18.153 -71.382 20.3  DOM 11 0.9 1.9LDOM 2.9CDOM 3.3WDOM1
 SPEC AVERAGE  MO 14.0 ST  1.9 OM  3.2 f0 4.60 R2.5935 AL 0.00 WI 20.0 MW  3.3 3
 SPEC SD       MO  1.4 ST  2.0 OM  1.2 f0 4.29 R2.4657 AL      WI      MW  0.9 3
 GAP=225        2.54      10.2     6.6  7.0  0.3576E+02 -0.1743E+02 -0.2218E+02E
 SPEC PODRBH N MO 12.9 ST  4.9 OM  2.1 f0 8.36 R0.1885 AL-0.00 WI 20.0 MW  2.5 3
 SPEC PODRBH N T102629 K 0.020 GD 22.9 VS 4.26 DE 3.20 Q0400.0 QA 0.70 Q1 0.00 3
 SPEC JIDRBH N MO 12.4 ST  2.5 OM  1.2 f0 9.38 R0.1680 AL-0.00 WI 20.0 MW  2.2 3
 SPEC JIDRBH N T102639 K 0.020 GD 65.7 VS 4.26 DE 3.20 Q0400.0 QA 0.70 Q1 0.00 3
 SPEC NAVIBH N MO 15.4 ST0.066 OM  3.8 f00.276 R5.7109 AL-0.00 WI 20.0 MW  4.2 3
 SPEC NAVIBH N T1027 5 K 0.020 GD  170 VS 4.26 DE 3.20 Q0400.0 QA 0.70 Q1 0.00 3
 SPEC NADRBH N MO 15.2 ST0.095 OM  3.5 f00.366 R4.3066 AL-0.00 WI 20.0 MW  4.1 3
 SPEC NADRBH N T102721 K 0.020 GD  209 VS 4.26 DE 3.20 Q0400.0 QA 0.70 Q1 0.00 3
 LOCALITY: 12.9 Km al NO de Polo, Barahona.                                    3
 2020-03-06-1026-00S.MAN___117                                                 6
 OLDACT:ARG 20-03-06 12:31 OP:NR   STATUS:               ID:20200306102600     3
 OLDACT:UP  20-03-06 17:01 OP:JAAF STATUS:               ID:20200306102600     3
 ACTION:UP  22-01-08 17:50 OP:jmlc STATUS:               ID:20200306102623 L   I
 STAT SP IPHASW D HRMM SECON CODA AMPLIT PERI AZIMU VELO AIN AR TRES W  DIS CAZ7
 PODR BZ IP       1026 26.51   21                        152   -0.6010 10.7  82 
 PODR BN IS       1026 30.54                             152    0.5810 10.7  82 
 PODR BN  IAML    1026 31.92       233.6 0.20                          10.7  82 
 NEDR BZ IP       1026 28.94                             109   -1.0510 37.7 346 
 NEDR BN IS       1026 35.88                             109    0.9110 37.7 346 
 NEDR BN  IAML    1026 43.66        56.9 0.35                          37.7 346 
 JIDR BZ IP       1026 34.46                              92    0.9210 62.5 307 
 JIDR BN IS       1026 40.66                              92   -0.4910 62.5 307 
 JIDR BN  IAML    1026 56.64        30.4 3.10                          62.5 307 
 SDDR BZ IP       1026 37.92   42                         90    0.0410 92.1   6 
 SDDR BN IS       1026 49.20                              90    0.5010 92.1   6 
 SDDR BN  IAML    1027 30.27        14.6 2.70                          92.1   6 
 ABDR BZ IP       1026 38.94   35                         75   -1.3810  108  47 
 ABDR BN IS       1026 51.81                              75   -1.1210  108  47 
 ABDR BN  IAML    1027  4.66         0.3 0.35                           108  47 
 BADR BZ IP       1026 41.30   32                         59    0.6810  111  76 
 BADR BN IS       1026 53.76                              59    0.2910  111  76 
 BADR BN  IAML    1027 31.78        34.8 0.90                           111  76 
 REDR BZ IP       1026 41.87   42                         59   -0.9110  129 345 
 REDR BN  IAML    1026 57.16        15.6 2.95                           129 345 
 REDR BN IS       1026 57.81                              59    0.5910  129 345 
 NAVI BZ IP       1026 48.23   72                         59    0.5410  169  58 
 NAVI BN IS       1027  7.05                              59    1.2810  169  58 
 NAVI BN  IAML    1027 39.48       234.7 0.20                           169  58 
 SFDR BZ IP       1026 46.33                              59   -1.9510  174  44 
 SFDR BN  IAML    1027  7.09       112.0 0.30                           174  44 
 NADR BZ IP       1026 53.15   39                         59    0.5310  209  50 
 NADR BN  IAML    1027 22.65       111.4 2.30                           209  50 
 HMDR BZ IP       1026 55.85   46                         59    1.4510  223  71 
 HMDR BN IS       1027 16.63                              59   -0.8110  223  71 
 HMDR BN  IAML    1027 51.63        21.3 2.60                           223  71 
                                                                                
