 2020  6 5 0348 20.10L  16.548 -69.145 65.7  DOM  6 7.1 2.9LDOM 3.5CDOM 2.7WDOM1
 SPEC AVERAGE  MO 13.1 ST  8.2 OM  1.6 f0 6.78 R0.3306 AL 0.00 WI 20.0 MW  2.7 3
 SPEC SD       MO  0.2 ST 12.8 OM  0.5 f0 4.08 R0.1544 AL      WI      MW  0.1 3
 GAP=281       18.36     210.5    71.7999.9  0.7535E+03  0.4903E+07  0.4950E+08E
 SPEC PCDRBH N MO 13.2 ST0.474 OM  1.3 f0 3.17 R0.5241 AL-0.00 WI 20.0 MW  2.7 3
 SPEC PCDRBH N T 349 4 K 0.020 GD  241 VS 4.49 DE 3.40 Q0400.0 QA 0.70 Q1 0.00 3
 SPEC HIDRBH N MO 13.1 ST 33.7 OM  1.2 f0 14.2 R0.1170 AL-0.00 WI 20.0 MW  2.7 3
 SPEC HIDRBH N T 349 7 K 0.020 GD  240 VS 4.49 DE 3.40 Q0400.0 QA 0.70 Q1 0.00 3
 SPEC HMDRBH N MO 12.9 ST  4.0 OM  1.0 f0 7.97 R0.2084 AL-0.00 WI 20.0 MW  2.6 3
 SPEC HMDRBH N T 34919 K 0.020 GD  257 VS 4.49 DE 3.40 Q0400.0 QA 0.70 Q1 0.00 3
 SPEC LADRBH N MO 13.5 ST  1.4 OM  1.5 f0 3.49 R0.4760 AL-0.00 WI 20.0 MW  3.0 3
 SPEC LADRBH N T 34922 K 0.020 GD  327 VS 4.49 DE 3.40 Q0400.0 QA 0.70 Q1 0.00 3
 SPEC SMDRBH N MO 13.0 ST  1.3 OM  1.0 f0 5.07 R0.3277 AL-0.00 WI 20.0 MW  2.6 3
 SPEC SMDRBH N T 34924 K 0.020 GD  311 VS 4.49 DE 3.40 Q0400.0 QA 0.70 Q1 0.00 3
 LOCALITY: 70.1 Km al SE de Mano Juan Isla Saona, Mar Caribe.                  3
 2020-06-05-0348-00S.MAN___126                                                 6
 OLDACT:UP  20-06-05 11:08 OP:AMMR STATUS:               ID:20200605034800     3
 OLDACT:ARG 20-06-05 11:04 OP:plst STATUS:               ID:20200605034800     3
 OLDACT:UP  20-06-05 11:10 OP:AMMR STATUS:               ID:20200605034800     3
 OLDACT:UP  20-06-05 11:09 OP:AMMR STATUS:               ID:20200605034800     3
 ACTION:UP  22-01-18 18:54 OP:JMLC STATUS:               ID:20200605034820 L   I
 STAT SP IPHASW D HRMM SECON CODA AMPLIT PERI AZIMU VELO AIN AR TRES W  DIS CAZ7
 SDD  BN ESg       349 24.89                              99   10.9310  227 339 
 SDD  BN  IAML     349 46.59       121.2 1.85                           227 339 
 HIDR BZ EPg    C  348 55.30   63                         98    3.8110  231  11 
 HIDR BN ESg    C  349  8.88                              98   -5.8210  231  11 
 HIDR BN  IAML     349 10.63        42.6 0.25                           231  11 
 PCDR BZ EPg    C  348 53.19   62                         98    1.5310  232  20 
 PCDR BN ESg    C  349  6.18                              98   -8.8210  232  20 
 PCDR BN  IAML     349  8.93       111.9 1.75                           232  20 
 HMDR BZ EPg    C  349  3.41   82                         97    9.6710  249 354 
 HMDR BN ESg    C  349 20.70                              97    2.0910  249 354 
 HMDR BN  IAML     349 26.77        27.6 1.90                           249 354 
 SMDR BN ESg    C  349 25.95                              95   -3.9710  304 359 
 SMDR BN  IAML     349 36.10        87.7 0.75                           304 359 
 LADR BE ESg    C  349 24.18                              95   -9.4110  321 301 
 LADR BN  IAML     349 47.36        38.6 3.00                           321 301 
                                                                                
 2020  6 5 0405 36.50L  19.930 -72.402 31.1  DOM 12 0.8 3.0LDOM 3.1CDOM 3.1WDOM1
 SPEC AVERAGE  MO 13.7 ST 31.1 OM  2.1 f0 5.35 R0.5472 AL 0.00 WI 20.0 MW  3.1 3
 SPEC SD       MO  0.4 ST 69.5 OM  0.5 f0 4.60 R0.3475 AL      WI      MW  0.3 3
 GAP=183        2.21       8.4     4.6 13.9  0.1178E+02  0.1241E+02  0.2826E+02E
 SPEC MCDRBH N MO 13.7 ST 28.0 OM  2.3 f0 8.17 R0.2015 AL-0.00 WI 20.0 MW  3.1 3
 SPEC MCDRBH N T 4 558 K 0.020 GD 84.1 VS 4.45 DE 3.36 Q0400.0 QA 0.70 Q1 0.00 3
 SPEC REDRBH N MO 13.7 ST213.5 OM  2.2 f0 16.0 R0.1029 AL-0.00 WI 20.0 MW  3.1 3
 SPEC REDRBH N T 4 6 0 K 0.020 GD  107 VS 4.45 DE 3.36 Q0400.0 QA 0.70 Q1 0.00 3
 SPEC SDDRBH N MO 14.1 ST0.316 OM  2.4 f0 1.37 R1.2018 AL-0.00 WI 20.0 MW  3.3 3
 SPEC SDDRBH N T 4 616 K 0.020 GD  160 VS 4.45 DE 3.36 Q0400.0 QA 0.70 Q1 0.00 3
 SPEC JIDRBH N MO 13.7 ST0.763 OM  2.0 f0 2.44 R0.6748 AL-0.00 WI 20.0 MW  3.1 3
 SPEC JIDRBH N T 4 618 K 0.020 GD  171 VS 4.45 DE 3.36 Q0400.0 QA 0.70 Q1 0.00 3
 SPEC NEDRBH N MO 13.6 ST0.335 OM  1.8 f0 2.09 R0.7878 AL-0.00 WI 20.0 MW  3.0 3
 SPEC NEDRBH N T 4 625 K 0.020 GD  190 VS 4.45 DE 3.36 Q0400.0 QA 0.70 Q1 0.00 3
 SPEC NADRBH N MO 14.3 ST  2.3 OM  2.4 f0 2.20 R0.7484 AL-0.00 WI 20.0 MW  3.5 3
 SPEC NADRBH N T 4 644 K 0.020 GD  275 VS 4.45 DE 3.36 Q0400.0 QA 0.70 Q1 0.00 3
 SPEC GTBYBH N MO 12.9 ST  2.4 OM  1.0 f0 6.49 R0.2537 AL-0.00 WI 20.0 MW  2.6 3
 SPEC GTBYBH N T 4 648 K 0.020 GD  285 VS 4.45 DE 3.36 Q0400.0 QA 0.70 Q1 0.00 3
 SPEC HMDRBH N MO 13.2 ST  1.1 OM  1.2 f0 4.05 R0.4065 AL-0.00 WI 20.0 MW  2.8 3
 SPEC HMDRBH N T 4 7 1 K 0.020 GD  343 VS 4.45 DE 3.36 Q0400.0 QA 0.70 Q1 0.00 3
 LOCALITY: 78.9 Km al Oeste de San Fernando de Montecristi, Oceano Atlantico.  3
 2020-06-05-0405-00S.MAN___126                                                 6
 OLDACT:UP  20-06-05 11:24 OP:AMMR STATUS:               ID:20200605040500     3
 OLDACT:ARG 20-06-05 11:11 OP:plst STATUS:               ID:20200605040500     3
 OLDACT:UP  20-06-05 11:34 OP:AMMR STATUS:               ID:20200605040500     3
 OLDACT:UP  20-06-05 11:28 OP:AMMR STATUS:               ID:20200605040500     3
 OLDACT:UP  20-06-05 11:28 OP:AMMR STATUS:               ID:20200605040500     3
 OLDACT:UP  20-06-05 11:25 OP:AMMR STATUS:               ID:20200605040500     3
 ACTION:UP  22-01-18 18:54 OP:JMLC STATUS:               ID:20200605040536 L   I
 OLDACT:UP  22-01-18 13:00 OP:AMMR STATUS:               ID:20200605040500     3
 OLDACT:UP  20-06-05 11:34 OP:AMMR STATUS:               ID:20200605040500     3
 STAT SP IPHASW D HRMM SECON CODA AMPLIT PERI AZIMU VELO AIN AR TRES W  DIS CAZ7
 MCDR BZ EPg    C  4 5 48.11   28                        105   -1.1110 78.1  93 
 MCDR BN ESg    C  4 5 59.60                             105    0.9910 78.1  93 
 MCDR BN  IAML     4 6  0.28       426.1 0.20                          78.1  93 
 LODA EN ESg    C  4 5 59.18                             103   -0.9810 84.6 120 
 LODA BN  IAML     4 6  8.75      2003.8 4.14                          84.6 120 
 REDR BZ IP        4 5 51.52                              62   -0.5110  103 134 
 REDR BN IS        4 6  2.27                              62   -1.2310  103 134 
 REDR BN  IAML     4 6  5.29       482.7 0.15                           103 134 
 MADR BE ESg    C  4 6 14.68                              96    0.6110  142 106 
 MADR BN  IAML     4 6 32.75       161.2 2.45                           142 106 
 SDDR BZ EPg    C  4 5 59.71   41                         95   -0.5510  157 132 
 SDDR BN ESg    C  4 6 17.50                              95   -0.3210  157 132 
 SDDR BN  IAML     4 6 22.15        57.0 0.35                           157 132 
 JIDR BZ EPg    C  4 6  2.00   54                         94    0.0910  169 160 
 JIDR BN ESg    C  4 6 20.27                              94   -0.4110  169 160 
 JIDR BN  IAML     4 6 22.72       114.9 0.30                           169 160 
 SC01 BZ EPg       4 6  5.18   52                         94    1.1510  184 107 
 SC01 BN  IAML     4 6 42.54        59.9 1.40                           184 107 
 NEDR BZ EPg       4 6  5.87   46                         94    1.3410  188 148 
 NEDR BN ESg    C  4 6 26.65                              94    1.4010  188 148 
 NEDR BN  IAML     4 6 31.83        28.3 0.45                           188 148 
 NAVI BE ESg       4 6 45.68                              92   -0.1310  271 113 
 NAVI BN  IAML     4 6 53.50       529.8 0.10                           271 113 
 NADR BN ESg    C  4 6 46.03                              92   -0.4310  274 103 
 NADR BN  IAML     4 6 48.48       230.6 2.35                           274 103 
 GTBY BZ EPg    C  4 6 17.31   69                         92   -0.7110  284 270 
 GTBY BN ESg    C  4 6 49.20                              92    0.4910  284 270 
 HMDR BN ESg    C  4 7  3.29                              92    0.3310  342 111 
                                                                                
 2020  6 5 1627 10.00L  18.858 -70.165  4.2  DOM  7 0.9 1.6LDOM 3.3CDOM 2.2WDOM1
 SPEC AVERAGE  MO 12.4 ST 92.4 OM  2.9 f0 13.1 R0.0965 AL 0.00 WI 20.0 MW  2.2 3
 SPEC SD       MO  0.9 ST 91.6 OM  1.6 f0 2.85 R0.0209 AL      WI      MW  0.6 3
 GAP=126        2.41       7.2     4.4 41.4  0.1958E-01  0.4480E+02  0.8015E+02E
 SPEC NAVIBH N MO 13.3 ST184.0 OM  3.0 f0 16.0 R0.0756 AL-0.00 WI 20.0 MW  2.8 3
 SPEC NAVIBH N T162713 K 0.020 GD 18.8 VS 3.27 DE 2.63 Q0400.0 QA 0.70 Q1 0.00 3
 SPEC HMDRBH N MO 11.5 ST0.865 OM  0.6 f0 10.3 R0.1175 AL-0.00 WI 20.0 MW  1.6 3
 SPEC HMDRBH N T162732 K 0.020 GD 83.1 VS 3.27 DE 2.63 Q0400.0 QA 0.70 Q1 0.00 3
 LOCALITY: 17.5 Km al ONO de Yamasa, Monte Plata.                              3
 2020-06-05-1626-00S.MAN___126                                                 6
 OLDACT:UP  20-06-05 17:36 OP:AMMR STATUS:               ID:20200605162600     3
 OLDACT:UP  20-06-05 17:34 OP:AMMR STATUS:               ID:20200605162600     3
 OLDACT:ARG 20-06-05 17:26 OP:plst STATUS:               ID:20200605162600     3
 OLDACT:UP  20-06-05 17:38 OP:AMMR STATUS:               ID:20200605162600     3
 OLDACT:UP  20-06-05 17:37 OP:AMMR STATUS:               ID:20200605162600     3
 ACTION:UP  22-01-18 18:54 OP:JMLC STATUS:               ID:20200605162710 L   I
 STAT SP IPHASW D HRMM SECON CODA AMPLIT PERI AZIMU VELO AIN AR TRES W  DIS CAZ7
 NAVI BN ESg    C 1627 14.68                             105   -0.5910 18.3  52 
 NAVI BN  IAML    1627 15.08      2727.3 0.10                          18.3  52 
 ABDR BE ESg    C 1627 25.24                              98    1.4010 48.9 264 
 ABDR BN  IAML    1627 53.24         0.3 0.95                          48.9 264 
 SDD  BZ EPg    C 1627 16.79   66                         95   -1.4210 50.9 149 
 SDD  BN  IAML    1627 21.71        86.8 1.80                          50.9 149 
 BADR BE ESg    C 1627 25.24                              95   -0.2210 54.9 202 
 BADR BN  IAML    1628  3.74       106.7 1.95                          54.9 202 
 HMDR BZ EPg    C 1627 24.82   73                         93    1.4410 83.0  95 
 HMDR BN ESg    C 1627 33.70                              93    0.4010 83.0  95 
 HMDR BN  IAML    1627 48.05        23.8 1.70                          83.0  95 
 SDDR BZ EPg      1627 29.44   57                         92    0.2210  119 277 
 SDDR BN  IAML    1628 11.73        20.3 3.40                           119 277 
 REDR BZ EPg    C 1627 36.83   59                         92   -0.2810  168 286 
 REDR BN ESg    C 1627 56.24                              92   -0.9510  168 286 
 REDR BN  IAML    1628  0.32        16.5 1.85                           168 286 
                                                                                
 2020  6 6 0451 22.60L  19.699 -69.747 15.0  DOM  8 0.7 2.3LDOM 2.6CDOM 2.1WDOM1
 SPEC AVERAGE  MO 12.2 ST  4.9 OM  2.3 f0 9.93 R0.1416 AL 0.00 WI 20.0 MW  2.1 3
 SPEC SD       MO  0.5 ST  4.1 OM  1.5 f00.170 R0.0024 AL      WI      MW  0.3 3
 GAP=228        1.83       6.8     4.0  7.4  0.1292E+02 -0.3388E+00  0.7623E+01E
 SPEC HMDRBH N MO 11.8 ST0.834 OM  0.5 f0 9.76 R0.1441 AL-0.00 WI 20.0 MW  1.8 3
 SPEC HMDRBH N T 45149 K 0.020 GD  109 VS 3.80 DE 2.86 Q0400.0 QA 0.70 Q1 0.00 3
 SPEC REDRBH N MO 12.7 ST  8.9 OM  1.2 f0 10.1 R0.1392 AL-0.00 WI 20.0 MW  2.4 3
 SPEC REDRBH N T 45218 K 0.020 GD  210 VS 3.80 DE 2.86 Q0400.0 QA 0.70 Q1 0.00 3
 LOCALITY: 18.3 Km al ENE de Cabrera, Oceano Atlantico.                        3
 2020-06-06-0451-00S.MAN___126                                                 6
 OLDACT:UP  20-06-06 09:48 OP:AMMR STATUS:               ID:20200606045100     3
 OLDACT:UP  20-06-06 09:47 OP:AMMR STATUS:               ID:20200606045100     3
 OLDACT:UP  20-06-06 09:47 OP:AMMR STATUS:               ID:20200606045100     3
 OLDACT:ARG 20-06-06 09:43 OP:plst STATUS:               ID:20200606045100     3
 OLDACT:UP  20-06-06 09:50 OP:AMMR STATUS:               ID:20200606045100     3
 OLDACT:UP  20-06-06 09:50 OP:AMMR STATUS:               ID:20200606045100     3
 ACTION:UP  22-01-18 18:54 OP:JMLC STATUS:               ID:20200606045122 L   I
 OLDACT:UP  20-06-06 09:51 OP:AMMR STATUS:               ID:20200606045100     3
 STAT SP IPHASW D HRMM SECON CODA AMPLIT PERI AZIMU VELO AIN AR TRES W  DIS CAZ7
 CADR BZ IP        451 26.20    7                        122   -0.4910 20.6 260 
 CADR BN IS        451 29.48                             122   -0.2110 20.6 260 
 NADR BZ EPg    C  451 28.85   33                        103   -0.5510 39.9 197 
 NADR BN ESg    C  451 33.82                             103   -0.5910 39.9 197 
 SMDR BZ IP        451 34.62                              94    0.0810 74.1 128 
 SMDR BN ESg    C  451 44.03                              94    0.6710 74.1 128 
 SMDR BN  IAML     451 48.46        62.8 1.20                          74.1 128 
 NAVI BZ EPg    C  451 35.23   36                         93   -1.3110 87.1 200 
 NAVI BE ESg    C  451 47.20                              93    0.3610 87.1 200 
 NAVI BN  IAML     452  7.10       869.1 0.10                          87.1 200 
 SC01 BE ESg       451 52.49                              92    0.3910  107 254 
 SC01 BN  IAML     452  1.47        50.8 2.00                           107 254 
 HMDR BZ EPg       451 40.16   37                         92    0.4710  108 159 
 HMDR BN ESg    C  451 51.39                              92   -0.9210  108 159 
 BADR BZ IP        451 46.87   43                         55    0.6410  158 204 
 BADR BE IS        452  5.08                              55    1.3910  158 204 
 REDR BZ EPg    C  451 55.01   47                         91   -0.2210  210 257 
 REDR BN ESg       452 19.66                              91    0.3010  210 257 
 REDR BN  IAML     452 23.06        19.9 1.25                           210 257 
                                                                                
 2020  6 6 0523 30.60L  20.112 -70.810 23.1  DOM 11 3.0 2.3LDOM 3.4CDOM 3.1WDOM1
 SPEC AVERAGE  MO 13.7 ST 78.6 OM  2.5 f0 6.13 R2.6524 AL 0.00 WI 20.0 MW  3.1 3
 SPEC SD       MO  0.8 ST151.6 OM  1.0 f0 6.05 R4.3769 AL      WI      MW  0.6 3
 GAP=146        7.96      18.5    20.0 56.5  0.3179E+01 -0.1307E+03 -0.8794E+02E
 SPEC SC01BH N MO 15.2 ST0.005 OM  3.8 f00.144 R 11.38 AL-0.00 WI 20.0 MW  4.1 3
 SPEC SC01BH N T 52351 K 0.020 GD 79.7 VS 4.43 DE 3.34 Q0400.0 QA 0.70 Q1 0.00 3
 SPEC REDRBH N MO 13.0 ST 11.1 OM  1.4 f0 10.3 R0.1591 AL-0.00 WI 20.0 MW  2.6 3
 SPEC REDRBH N T 524 5 K 0.020 GD  133 VS 4.43 DE 3.34 Q0400.0 QA 0.70 Q1 0.00 3
 SPEC SDDRBH N MO 12.8 ST0.107 OM  1.2 f0 2.53 R0.6479 AL-0.00 WI 20.0 MW  2.5 3
 SPEC SDDRBH N T 524 7 K 0.020 GD  136 VS 4.43 DE 3.34 Q0400.0 QA 0.70 Q1 0.00 3
 SPEC NAVIBH N MO 14.0 ST381.8 OM  2.3 f0 16.0 R0.1024 AL-0.00 WI 20.0 MW  3.3 3
 SPEC NAVIBH N T 52410 K 0.020 GD  153 VS 4.43 DE 3.34 Q0400.0 QA 0.70 Q1 0.00 3
 SPEC LADRBH N MO 13.6 ST0.185 OM  1.7 f0 1.69 R0.9699 AL-0.00 WI 20.0 MW  3.0 3
 SPEC LADRBH N T 52423 K 0.020 GD  251 VS 4.43 DE 3.34 Q0400.0 QA 0.70 Q1 0.00 3
 LOCALITY: 37.5 Km al NE de Luperon, Oceano Atlantico.                         3
 2020-06-06-0523-00S.MAN___126                                                 6
 OLDACT:UP  20-06-06 09:59 OP:AMMR STATUS:               ID:20200606052300     3
 OLDACT:ARG 20-06-06 09:52 OP:plst STATUS:               ID:20200606052300     3
 OLDACT:UP  20-06-06 10:01 OP:AMMR STATUS:               ID:20200606052300     3
 OLDACT:UP  20-06-06 10:01 OP:AMMR STATUS:               ID:20200606052300     3
 ACTION:UP  22-01-18 18:54 OP:JMLC STATUS:               ID:20200606052330 L   I
 STAT SP IPHASW D HRMM SECON CODA AMPLIT PERI AZIMU VELO AIN AR TRES W  DIS CAZ7
 LUDR BZ EPg    C  523 35.58   52                        121   -0.6910 28.4 212 
 LUDR BE ESg    C  523 40.16                             121   -0.3310 28.4 212 
 SODR BN ESg    C  523 44.74                             102    0.1010 46.7 148 
 SODR BN  IAML     523 47.57       143.5 2.45                          46.7 148 
 MADR BE ESg    C  523 52.49                              91    2.7110 67.7 207 
 MADR BN  IAML     523 53.04        91.5 2.45                          67.7 207 
 SC01 BZ EPg       523 42.62   64                         90   -0.2010 76.3 173 
 SC01 BN  IAML     523 57.78        69.1 2.25                          76.3 173 
 REDR BZ EPg       523 50.12   64                         90   -0.5110  131 225 
 REDR BN ESg    C  524  7.33                              90    1.8510  131 225 
 REDR BN  IAML     524 10.88        48.2 0.15                           131 225 
 SDDR BZ EPg    C  523 50.37   72                         90   -0.7510  135 202 
 SDDR BN ESg    C  524  8.69                              90    2.3510  135 202 
 SDDR BN  IAML     524  9.22        26.5 2.45                           135 202 
 NAVI BZ EPg    C  523 52.49   75                         90   -0.9910  152 147 
 NAVI BE ESg       524 11.86                              90    1.4110  152 147 
 NAVI BN  IAML     524 40.29       293.2 0.10                           152 147 
 GRTK BN ESg    C  524 12.56                              90    0.5410  159 348 
 GRTK BN  IAML     524 51.53        84.8 3.30                           159 348 
 HMDR BZ EPg    C  524  0.11   69                         90   -1.5310  210 134 
 HMDR BN ESg    C  524 26.42                              90    1.7810  210 134 
 HMDR BN  IAML     524 42.19        18.9 2.25                           210 134 
 JIDR BN ESg    C  524 28.77                              90    4.1310  210 212 
 JIDR BN  IAML     524 57.60        37.7 2.55                           210 212 
 LADR BN ESg    C  524 24.54                              90   -9.8510  250 203 
 LADR BN  IAML     524 48.69        32.3 2.95                           250 203 
                                                                                
