 2020  9 5 0513 59.4 L  19.027 -67.658 31.7  DOM  9 1.0 1.9LDOM 3.4CDOM 2.0WDOM1
 SPEC AVERAGE  MO 12.1 ST  1.3 OM  1.3 f0 6.40 R0.2111 AL 0.00 WI 20.0 MW  2.0 3
 SPEC SD       MO  0.3 ST  1.7 OM  0.4 f0 2.61 R0.0706 AL      WI      MW  0.2 3
 GAP=208        2.67      13.5     6.5 14.9  0.5542E+02 -0.8076E+01 -0.4281E+02E
 LOCALITY: 150.7 Km al Este de Miches. Oceano Atlantico.                       3
 SPEC AGPRBH N MO 12.4 ST0.910 OM  1.5 f0 5.13 R0.2308 AL-0.00 WI 20.0 MW  2.2 3
 SPEC AGPRBH N T 51424 K 0.020 GD 90.2 VS 3.20 DE 2.60 Q0400.0 QA 0.70 Q1 1.00 3
 SPEC PCDRBH N MO 12.3 ST0.193 OM  1.3 f0 3.44 R0.3442 AL-0.00 WI 20.0 MW  2.1 3
 SPEC PCDRBH N T 51428 K 0.020 GD  100 VS 3.20 DE 2.60 Q0400.0 QA 0.70 Q1 1.00 3
 SPEC AOPRBH N MO 12.5 ST  1.1 OM  1.5 f0 4.88 R0.2426 AL-0.00 WI 20.0 MW  2.3 3
 SPEC AOPRBH N T 51434 K 0.020 GD  125 VS 3.20 DE 2.60 Q0400.0 QA 0.70 Q1 1.00 3
 SPEC HIDRBH N MO 12.0 ST  5.4 OM  1.0 f0 12.2 R0.0970 AL-0.00 WI 20.0 MW  2.0 3
 SPEC HIDRBH N T 51435 K 0.020 GD  125 VS 3.20 DE 2.60 Q0400.0 QA 0.70 Q1 1.00 3
 SPEC CRPRBH N MO 12.3 ST0.911 OM  1.2 f0 5.69 R0.2081 AL-0.00 WI 20.0 MW  2.1 3
 SPEC CRPRBH N T 51438 K 0.020 GD  131 VS 3.20 DE 2.60 Q0400.0 QA 0.70 Q1 1.00 3
 SPEC MLPRBH N MO 11.6 ST0.236 OM  0.5 f0 6.12 R0.1935 AL-0.00 WI 20.0 MW  1.7 3
 SPEC MLPRBH N T 51437 K 0.020 GD  137 VS 3.20 DE 2.60 Q0400.0 QA 0.70 Q1 1.00 3
 SPEC CELPBH N MO 11.7 ST0.584 OM  0.6 f0 7.32 R0.1617 AL-0.00 WI 20.0 MW  1.8 3
 SPEC CELPBH N T 51442 K 0.020 GD  158 VS 3.20 DE 2.60 Q0400.0 QA 0.70 Q1 1.00 3
 2020-09-05-0513-00S.MAN___123                                                 6
 OLDACT:ARG 20-09-05 12:16 OP:plst STATUS:               ID:20200905051300     3
 ACTION:UP  22-06-23 12:36 OP:jmlc STATUS:               ID:20200905051359 L   I
 OLDACT:UP  20-09-05 13:33 OP:CGRS STATUS:               ID:20200905051300     3
 OLDACT:UP  20-09-05 13:33 OP:CGRS STATUS:               ID:20200905051300     3
 OLDACT:UP  20-09-05 13:32 OP:CGRS STATUS:               ID:20200905051300     3
 STAT SP IPHASW D HRMM SECON CODA AMPLIT PERI AZIMU VELO AIN AR TRES W  DIS CAZ7
 AGPR BZ IP     C  514 15.40   65                         92    0.0210 84.4 137 
 AGPR BN IS     C  514 25.51                              92   -1.9910 84.4 137 
 AGPR BN  IAML     514 41.59        52.7 1.68                          84.4 137 
 PCDR BZ IP     C  514 17.93   65                         92    0.9910 95.1 233 
 PCDR BN IS     C  514 29.60                              92   -0.6510 95.1 233 
 PCDR BN  IAML     515  4.20        71.6 1.25                          95.1 233 
 PRSN BN IS     C  514 33.35                              92    0.6610  105 149 
 PRSN BN  IAML     514 40.65        52.4 0.32                           105 149 
 HIDR BZ IP     C  514 20.26   57                         65   -0.5210  121 247 
 HIDR BN IS        514 37.22                              65    0.2110  121 247 
 HIDR BN  IAML     514 43.22        27.8 0.60                           121 247 
 AOPR BZ IP     C  514 20.67   67                         65   -0.1510  121 128 
 AOPR BN  IAML     514 39.55        33.3 0.24                           121 128 
 CRPR BZ IP     C  514 23.34   70                         65    1.7110  128 152 
 CRPR BN IS     C  514 39.69                              65    1.1810  128 152 
 CRPR BN  IAML     514 47.75        29.3 1.40                           128 152 
 MLPR BZ IP     C  514 23.48   78                         65    1.0810  134 151 
 MLPR BN IS     C  514 38.81                              65   -1.0610  134 151 
 MLPR BN  IAML     514 42.61         5.6 1.36                           134 151 
 CELP BZ IP     C  514 25.79   65                         65    0.4710  155 133 
 CELP BN IS     C  514 43.91                              65   -1.0910  155 133 
 CELP BN  IAML     515  9.19         8.1 2.64                           155 133 
 SMDR BN IS     C  514 46.03                              65   -0.8610  164 280 
 SMDR BN  IAML     514 47.78        49.8 1.95                           164 280 
                                                                                
 2020  9 5 0551 10.5 L  19.752 -70.853 17.3  DOM  9 1.6 1.9LDOM 3.1CDOM 2.1WDOM1
 SPEC AVERAGE  MO 12.2 ST  5.5 OM  1.6 f0 9.81 R0.1402 AL 0.00 WI 20.0 MW  2.1 3
 SPEC SD       MO  0.2 ST  5.2 OM  0.4 f0 3.81 R0.0521 AL      WI      MW  0.1 3
 GAP= 98        4.24       7.4     6.5  8.1  0.1269E+01  0.1399E+01  0.3176E+01E
 LOCALITY: 3.6 Km al NNE de Guananico. Puerto Plata.                           3
 SPEC MCDRBH N MO 12.1 ST  2.2 OM  1.2 f0 8.80 R0.1345 AL-0.00 WI 20.0 MW  2.0 3
 SPEC MCDRBH N T 55137 K 0.020 GD 87.3 VS 3.20 DE 2.60 Q0400.0 QA 0.70 Q1 1.00 3
 SPEC REDRBH N MO 12.2 ST 13.0 OM  1.2 f0 14.9 R0.0795 AL-0.00 WI 20.0 MW  2.1 3
 SPEC REDRBH N T 55142 K 0.020 GD  104 VS 3.20 DE 2.60 Q0400.0 QA 0.70 Q1 1.00 3
 SPEC HIDRBH N MO 12.5 ST  1.5 OM  1.1 f0 5.73 R0.2066 AL-0.00 WI 20.0 MW  2.3 3
 SPEC HIDRBH N T 55221 K 0.020 GD  259 VS 3.20 DE 2.60 Q0400.0 QA 0.70 Q1 1.00 3
 2020-09-05-0550-00S.MAN___123                                                 6
 OLDACT:ARG 20-09-05 12:19 OP:plst STATUS:               ID:20200905055000     3
 ACTION:UP  22-06-23 12:36 OP:jmlc STATUS:               ID:20200905055110 L   I
 OLDACT:UP  20-09-05 14:00 OP:CGRS STATUS:               ID:20200905055000     3
 OLDACT:UP  20-09-05 13:59 OP:CGRS STATUS:               ID:20200905055000     3
 OLDACT:UP  20-09-05 13:59 OP:CGRS STATUS:               ID:20200905055000     3
 STAT SP IPHASW D HRMM SECON CODA AMPLIT PERI AZIMU VELO AIN AR TRES W  DIS CAZ7
 LUDR BZ IP     C  551 17.47   42                        127    1.8010 18.8 326 
 LUDR BE IS     C  551 18.97                             127   -0.6410 18.8 326 
 MADR BZ IP     C  551 21.02   45                        110    2.9710 33.3 232 
 MADR BN IS     C  551 22.66                             110   -1.1410 33.3 232 
 MADR BN  IAML     551 33.49        59.9 0.55                          33.3 232 
 SC01 BN IS     C  551 26.30                             107    0.9110 38.3 160 
 SC01 BN  IAML     551 35.58        38.2 1.10                          38.3 160 
 SODR BZ IP     C  551 19.61   52                        102   -1.2610 49.1  90 
 SODR BN IS     C  551 26.06                             102   -2.7010 49.1  90 
 SODR BN  IAML     551 43.78        83.5 1.50                          49.1  90 
 MCDR BZ IP     C  551 28.06   46                         64    0.8910 85.6 281 
 MCDR BN IS     D  551 38.64                              64   -1.2110 85.6 281 
 MCDR BN  IAML     552 15.79        46.7 0.90                          85.6 281 
 SDDR BN IS     C  551 41.45                              64   -1.8910 97.0 208 
 SDDR BN  IAML     551 58.72        16.9 2.70                          97.0 208 
 REDR BZ IP        551 30.92   67                         64    0.6910  103 240 
 REDR BN IS     C  551 43.85                              64   -1.4010  103 240 
 REDR BN  IAML     551 45.53        27.9 0.15                           103 240 
 GRTK BN IS     C  552  7.87                              42   -0.2710  197 352 
 GRTK BN  IAML     552 49.30        45.2 2.30                           197 352 
 HIDR BZ IP     C  551 53.07   78                         42    2.1010  259 119 
 HIDR BN IS     C  552 22.90                              42    1.1610  259 119 
 HIDR BN  IAML     552 28.97        29.4 3.10                           259 119 
                                                                                
 2020  9 5 0806 34.2 L  19.180 -70.806 15.4  DOM  7 0.6 1.6LDOM 3.2CDOM 2.6WDOM1
 SPEC AVERAGE  MO 12.9 ST0.302 OM  2.6 f0 3.46 R2.0346 AL 0.00 WI 20.0 MW  2.6 3
 SPEC SD       MO  1.2 ST0.271 OM  1.2 f0 2.30 R2.5481 AL      WI      MW  0.8 3
 GAP=135        1.44       2.5     3.9  5.2  0.1905E+01  0.3817E+01 -0.1921E+01E
 LOCALITY: 16.5 Km al Sur de Sabana Iglesia, Santiago.                         3
 SPEC MADRBH N MO 12.3 ST0.663 OM  1.6 f0 5.04 R0.2349 AL-0.00 WI 20.0 MW  2.1 3
 SPEC MADRBH N T 8 652 K 0.020 GD 55.0 VS 3.20 DE 2.60 Q0400.0 QA 0.70 Q1 1.00 3
 SPEC SDDRBH N MO 11.8 ST0.232 OM  1.1 f0 5.13 R0.2308 AL-0.00 WI 20.0 MW  1.8 3
 SPEC SDDRBH N T 8 652 K 0.020 GD 57.7 VS 3.20 DE 2.60 Q0400.0 QA 0.70 Q1 1.00 3
 SPEC MCDRBH N MO 14.6 ST0.010 OM  3.6 f00.210 R5.6381 AL-0.00 WI 20.0 MW  3.7 3
 SPEC MCDRBH N T 8 711 K 0.020 GD  119 VS 3.20 DE 2.60 Q0400.0 QA 0.70 Q1 1.00 3
 2020-09-05-0806-00S.MAN___123                                                 6
 OLDACT:UP  20-09-05 14:09 OP:CGRS STATUS:               ID:20200905080600     3
 OLDACT:UP  20-09-05 14:07 OP:CGRS STATUS:               ID:20200905080600     3
 OLDACT:ARG 20-09-05 12:25 OP:plst STATUS:               ID:20200905080600     3
 ACTION:UP  22-06-23 12:36 OP:jmlc STATUS:               ID:20200905080634 L   I
 OLDACT:UP  20-09-05 14:11 OP:CGRS STATUS:               ID:20200905080600     3
 OLDACT:UP  20-09-05 14:11 OP:CGRS STATUS:               ID:20200905080600     3
 OLDACT:UP  20-09-05 14:11 OP:CGRS STATUS:               ID:20200905080600     3
 OLDACT:UP  20-09-05 14:10 OP:CGRS STATUS:               ID:20200905080600     3
 OLDACT:UP  20-09-05 14:10 OP:CGRS STATUS:               ID:20200905080600     3
 STAT SP IPHASW D HRMM SECON CODA AMPLIT PERI AZIMU VELO AIN AR TRES W  DIS CAZ7
 SC01 BN IS     C  8 6 45.79                             110   -0.0910 28.5  17 
 SC01 BN  IAML     8 7  1.79        41.9 1.65                          28.5  17 
 ABDR BN IS     C  8 6 51.08                             102   -0.5110 44.9 155 
 ABDR BN  IAML     8 7 33.93        79.8 0.75                          44.9 155 
 MADR BN IS     C  8 6 54.25                              98    0.6810 52.8 324 
 MADR BN  IAML     8 7 19.20        74.4 0.65                          52.8 324 
 SDDR BN IS     C  8 6 54.25                              98   -0.3010 55.6 247 
 SDDR BN  IAML     8 6 57.32        15.2 0.80                          55.6 247 
 LUDR BE IS     C  8 7  1.64                              64   -0.6810 80.4 349 
 BADR BZ IP     C  8 6 54.25   59                         64    0.9310 98.4 151 
 MCDR BN IS     C  8 7 13.49                              53   -0.0210  119 312 
 MCDR BN  IAML     8 7 41.17        52.9 1.55                           119 312 
                                                                                
 2020  9 5 0851 45.7 L  19.254 -70.306 40.0  DOM  7 1.0 2.2LDOM 3.3CDOM 3.2WDOM1
 SPEC AVERAGE  MO 13.9 ST  5.2 OM  3.6 f0 5.45 R4.9194 AL 0.00 WI 20.0 MW  3.2 3
 SPEC SD       MO  1.2 ST  7.4 OM  1.5 f0 7.46 R3.4205 AL      WI      MW  0.8 3
 GAP=140        2.68      11.0     6.9 18.6  0.3230E+02  0.4774E+02  0.1075E+03E
 LOCALITY: 5.2 Km al Oeste de San Francisco de Macoris. Duarte.                3
 SPEC BADRBH N MO 15.0 ST0.012 OM  3.9 f00.179 R7.3380 AL-0.00 WI 20.0 MW  4.0 3
 SPEC BADRBH N T 85215 K 0.020 GD  102 VS 3.55 DE 2.75 Q0400.0 QA 0.70 Q1 1.00 3
 SPEC SDD BH N MO 14.5 ST0.004 OM  3.4 f00.179 R7.3380 AL-0.00 WI 20.0 MW  3.6 3
 SPEC SDD BH N T 85213 K 0.020 GD  104 VS 3.55 DE 2.75 Q0400.0 QA 0.70 Q1 1.00 3
 SPEC REDRBH N MO 12.3 ST 15.6 OM  1.0 f0 16.0 R0.0821 AL-0.00 WI 20.0 MW  2.1 3
 SPEC REDRBH N T 85226 K 0.020 GD  152 VS 3.55 DE 2.75 Q0400.0 QA 0.70 Q1 1.00 3
 2020-09-05-0851-00S.MAN___123                                                 6
 OLDACT:ARG 20-09-05 12:27 OP:plst STATUS:               ID:20200905085100     3
 ACTION:UP  22-06-23 12:36 OP:jmlc STATUS:               ID:20200905085145 L   I
 OLDACT:UP  20-09-05 14:24 OP:CGRS STATUS:               ID:20200905085100     3
 OLDACT:UP  20-09-05 14:23 OP:CGRS STATUS:               ID:20200905085100     3
 STAT SP IPHASW D HRMM SECON CODA AMPLIT PERI AZIMU VELO AIN AR TRES W  DIS CAZ7
 NADR BZ IP     C  851 56.01   83                        118   -0.7810 48.6  77 
 NADR BN  IAML     852 21.58       178.7 0.25                          48.6  77 
 BADR BZ IP     C  852  3.76   48                         65    0.6310 94.9 184 
 BADR BN IS     C  852 17.14                              65    0.7510 94.9 184 
 SDD  BN IS     C  852 15.38                              65   -1.1310 96.7 155 
 SDD  BN  IAML     852 17.63        48.9 2.85                          96.7 155 
 SDDR BN IS     C  852 18.20                              65   -1.1110  108 254 
 SDDR BN  IAML     852 52.17        12.4 1.00                           108 254 
 REDR BZ IP     C  852 12.21   58                         65    2.2210  147 271 
 REDR BN IS     C  852 27.61                              65   -0.8710  147 271 
 REDR BN  IAML     852 32.68        19.4 0.10                           147 271 
 MCDR BE IP     C  852 11.15   56                         58   -0.2310  158 297 
 MCDR BN  IAML     852 52.36        54.5 1.05                           158 297 
 PCDR BZ IP     C  852 19.61   67                         58    0.7310  219 112 
 PCDR BN IS     C  852 43.91                              58   -0.2110  219 112 
 PCDR BN  IAML     853 19.91       119.3 1.45                           219 112 
                                                                                
 2020  9 5 1410 15.2 L  18.474 -70.693 17.8  DOM  8 1.1 2.2LDOM 3.2CDOM 3.4WDOM1
 SPEC AVERAGE  MO 14.1 ST 10.7 OM  4.2 f0 4.12 R5.7145 AL 0.00 WI 20.0 MW  3.4 3
 SPEC SD       MO  0.9 ST 18.5 OM  1.4 f0 6.86 R3.3298 AL      WI      MW  0.6 3
 GAP=167        2.78       8.3     6.5  9.1  0.6113E+01  0.2789E+02 -0.1020E+01E
 LOCALITY: 3.0 Km al ESE de Azua de Compostela. Azua.                          3
 SPEC BADRBH N MO 14.6 ST0.003 OM  4.0 f00.138 R8.5797 AL-0.00 WI 20.0 MW  3.6 3
 SPEC BADRBH N T141027 K 0.020 GD 40.2 VS 3.20 DE 2.60 Q0400.0 QA 0.70 Q1 1.00 3
 SPEC ABDRBH N MO 14.5 ST0.005 OM  3.9 f00.179 R6.6145 AL-0.00 WI 20.0 MW  3.6 3
 SPEC ABDRBH N T141029 K 0.020 GD 42.0 VS 3.20 DE 2.60 Q0400.0 QA 0.70 Q1 1.00 3
 SPEC REDRBH N MO 12.6 ST 42.6 OM  1.5 f0 16.0 R0.0740 AL-0.00 WI 20.0 MW  2.3 3
 SPEC REDRBH N T141055 K 0.020 GD  139 VS 3.20 DE 2.60 Q0400.0 QA 0.70 Q1 1.00 3
 SPEC MCDRBH N MO 14.9 ST0.008 OM  3.7 f00.156 R7.5897 AL-0.00 WI 20.0 MW  3.9 3
 SPEC MCDRBH N T1411 8 K 0.020 GD  187 VS 3.20 DE 2.60 Q0400.0 QA 0.70 Q1 1.00 3
 2020-09-05-1410-00S.MAN___123                                                 6
 OLDACT:ARG 20-09-05 14:41 OP:plst STATUS:               ID:20200905141000     3
 ACTION:UP  22-06-23 12:36 OP:jmlc STATUS:               ID:20200905141015 L   I
 OLDACT:UP  20-09-05 14:59 OP:CGRS STATUS:               ID:20200905141000     3
 OLDACT:UP  20-09-05 14:58 OP:CGRS STATUS:               ID:20200905141000     3
 STAT SP IPHASW D HRMM SECON CODA AMPLIT PERI AZIMU VELO AIN AR TRES W  DIS CAZ7
 BADR BE IS     C 1410 28.62                             110   -1.0210 36.1 103 
 BADR BN  IAML    1411 13.47       100.2 4.35                          36.1 103 
 ABDR BN IS     C 1410 31.35                             110    0.6910 38.0  11 
 ABDR BN  IAML    1410 46.78       154.8 0.55                          38.0  11 
 NEDR BE IS     C 1410 42.27                              64    0.4210 76.5 271 
 NEDR BN  IAML    1411 23.65        38.5 0.15                          76.5 271 
 SC01 BN IS     C 1410 49.32                              64   -1.0710  106 358 
 SC01 BN  IAML    1410 55.77        45.5 1.25                           106 358 
 REDR BN IS     C 1410 57.39                              53   -1.8410  138 310 
 REDR BN  IAML    1411  2.17       111.9 0.20                           138 310 
 LUDR BZ IP     C 1410 44.38   54                         46    1.3910  159 350 
 SMDR BN IS     C 1411 10.05                              46    0.5210  182  60 
 SMDR BN  IAML    1411 18.25        65.5 1.20                           182  60 
 MCDR BZ IP     C 1410 47.55                              42    0.9110  187 327 
 MCDR BN  IAML    1411 17.32        39.9 1.30                           187 327 
                                                                                
 2020  9 5 1544 13.9 L  18.698 -68.577 45.2  DOM  8 0.6 2.1LDOM 3.2CDOM 2.1WDOM1
 SPEC AVERAGE  MO 12.2 ST  5.4 OM  1.7 f0 9.47 R0.1693 AL 0.00 WI 20.0 MW  2.1 3
 SPEC SD       MO  0.5 ST  7.8 OM  0.8 f0 4.98 R0.0877 AL      WI      MW  0.3 3
 GAP=143        1.67      16.0    12.4 11.5  0.1806E+03 -0.1276E+03 -0.1567E+03E
 LOCALITY: 15.9 Km al OSO de San Rafael del Yuma. La Altagracia.               3
 SPEC SMDRBH N MO 12.4 ST0.425 OM  1.4 f0 4.12 R0.2874 AL-0.00 WI 20.0 MW  2.2 3
 SPEC SMDRBH N T154442 K 0.020 GD  102 VS 3.20 DE 2.60 Q0400.0 QA 0.70 Q1 1.00 3
 SPEC AOPRBH N MO 13.1 ST  2.3 OM  1.8 f0 4.22 R0.2806 AL-0.00 WI 20.0 MW  2.6 3
 SPEC AOPRBH N T1545 5 K 0.020 GD  201 VS 3.20 DE 2.60 Q0400.0 QA 0.70 Q1 1.00 3
 SPEC CELPBH N MO 11.8 ST0.698 OM  0.5 f0 7.44 R0.1591 AL-0.00 WI 20.0 MW  1.8 3
 SPEC CELPBH N T154522 K 0.020 GD  226 VS 3.20 DE 2.60 Q0400.0 QA 0.70 Q1 1.00 3
 SPEC CRPRBH N MO 12.0 ST  7.2 OM  0.8 f0 13.9 R0.0852 AL-0.00 WI 20.0 MW  1.9 3
 SPEC CRPRBH N T154511 K 0.020 GD  180 VS 3.20 DE 2.60 Q0400.0 QA 0.70 Q1 1.00 3
 SPEC HIDRBH N MO 12.3 ST 23.7 OM  1.7 f0 16.0 R0.0740 AL-0.00 WI 20.0 MW  2.2 3
 SPEC HIDRBH N T154427 K 0.020 GD 48.9 VS 3.20 DE 2.60 Q0400.0 QA 0.70 Q1 1.00 3
 SPEC MLPRBH N MO 11.5 ST  3.2 OM  0.3 f0 15.3 R0.0774 AL-0.00 WI 20.0 MW  1.6 3
 SPEC MLPRBH N T154512 K 0.020 GD  186 VS 3.20 DE 2.60 Q0400.0 QA 0.70 Q1 1.00 3
 SPEC PCDRBH N MO 12.1 ST0.486 OM  1.4 f0 5.34 R0.2217 AL-0.00 WI 20.0 MW  2.0 3
 SPEC PCDRBH N T154428 K 0.020 GD 53.7 VS 3.20 DE 2.60 Q0400.0 QA 0.70 Q1 1.00 3
 2020-09-05-1544-00S.MAN___123                                                 6
 ACTION:UP  22-06-23 12:36 OP:jmlc STATUS:               ID:20200905154413 L   I
 OLDACT:UP  20-09-05 22:13 OP:CGRS STATUS:               ID:20200905154400     3
 OLDACT:UP  20-09-05 22:13 OP:CGRS STATUS:               ID:20200905154400     3
 OLDACT:ARG 20-09-05 21:34 OP:plst STATUS:               ID:20200905154400     3
 STAT SP IPHASW D HRMM SECON CODA AMPLIT PERI AZIMU VELO AIN AR TRES W  DIS CAZ7
 HIDR BZ IP     C 1544 23.34   61                        151    0.9610 18.7 231 
 HIDR BN IS     C 1544 29.13                             151    0.2810 18.7 231 
 HIDR BN  IAML    1544 30.45       152.2 0.15                          18.7 231 
 PCDR BZ IP     C 1544 21.84   40                        138   -1.3310 29.0 135 
 PCDR BN IS     C 1544 30.29                             138    0.0510 29.0 135 
 PCDR BN  IAML    1544 33.22       118.8 1.60                          29.0 135 
 SMDR BZ IP     C 1544 30.65   57                         97   -0.1510 91.8 316 
 SMDR BN IS     C 1544 43.51                              97   -0.1510 91.8 316 
 SMDR BN  IAML    1544 52.96        45.2 2.25                          91.8 316 
 AGPR BN IS     C 1544 58.83                              69    0.4510  157  99 
 AGPR BN  IAML    1545 24.95        65.7 3.04                           157  99 
 CRPR BZ IP     C 1544 40.87   24                         69   -0.5210  175 116 
 CRPR BN  IAML    1545 46.99        31.3 1.68                           175 116 
 MLPR BZ IP     C 1544 41.51   59                         69   -0.6310  181 116 
 MLPR BN  IAML    1545 23.23        11.0 2.80                           181 116 
 AOPR BZ IP     C 1544 45.09   74                         69    0.9810  196 101 
 AOPR BN IS     C 1545  7.28                              69    0.1910  196 101 
 AOPR BN  IAML    1545 15.74        40.8 0.28                           196 101 
 CELP BZ IP     C 1544 47.20   70                         69   -0.1210  222 108 
 CELP BN  IAML    1545 40.04         5.4 2.20                           222 108 
                                                                                
