 2020  9 3 0155  7.9 L  18.885 -70.041102.6  DOM 13 0.8 2.9LDOM 3.1CDOM 3.2WDOM1
 SPEC AVERAGE  MO 13.9 ST 61.5 OM  2.5 f0 7.23 R1.2441 AL 0.00 WI 20.0 MW  3.2 3
 SPEC SD       MO  0.5 ST 92.7 OM  0.5 f0 4.73 R2.9587 AL      WI      MW  0.3 3
 GAP= 61        1.99       7.2     4.1 10.8  0.1033E+02  0.5835E+01  0.3302E+01E
 LOCALITY: 10.4 Km al Norte de Yamasa. Monte Plata.                            3
 SPEC SDD BH N MO 13.3 ST 18.7 OM  1.7 f0 10.2 R0.1618 AL-0.00 WI 20.0 MW  2.8 3
 SPEC SDD BH N T 15532 K 0.020 GD  113 VS 4.46 DE 3.40 Q0400.0 QA 0.70 Q1 1.00 3
 SPEC NADRBH N MO 14.3 ST 70.3 OM  2.7 f0 7.30 R0.2261 AL-0.00 WI 20.0 MW  3.5 3
 SPEC NADRBH N T 15535 K 0.020 GD  116 VS 4.46 DE 3.40 Q0400.0 QA 0.70 Q1 1.00 3
 SPEC BADRBH N MO 14.0 ST 42.0 OM  2.4 f0 7.65 R0.2157 AL-0.00 WI 20.0 MW  3.3 3
 SPEC BADRBH N T 15536 K 0.020 GD  120 VS 4.46 DE 3.40 Q0400.0 QA 0.70 Q1 1.00 3
 SPEC SC01BH N MO 13.9 ST 11.7 OM  2.3 f0 5.15 R0.3204 AL-0.00 WI 20.0 MW  3.2 3
 SPEC SC01BH N T 15541 K 0.020 GD  139 VS 4.46 DE 3.40 Q0400.0 QA 0.70 Q1 1.00 3
 SPEC SMDRBH N MO 13.7 ST  2.9 OM  2.0 f0 4.04 R0.4085 AL-0.00 WI 20.0 MW  3.0 3
 SPEC SMDRBH N T 15543 K 0.020 GD  143 VS 4.46 DE 3.40 Q0400.0 QA 0.70 Q1 1.00 3
 SPEC SDDRBH N MO 13.8 ST0.934 OM  2.1 f0 2.43 R0.6791 AL-0.00 WI 20.0 MW  3.2 3
 SPEC SDDRBH N T 15549 K 0.020 GD  167 VS 4.46 DE 3.40 Q0400.0 QA 0.70 Q1 1.00 3
 SPEC HIDRBH N MO 13.7 ST101.8 OM  2.0 f0 12.3 R0.1342 AL-0.00 WI 20.0 MW  3.1 3
 SPEC HIDRBH N T 15549 K 0.020 GD  176 VS 4.46 DE 3.40 Q0400.0 QA 0.70 Q1 1.00 3
 SPEC PCDRBH N MO 13.8 ST0.770 OM  2.0 f0 2.29 R0.7206 AL-0.00 WI 20.0 MW  3.2 3
 SPEC PCDRBH N T 15557 K 0.020 GD  207 VS 4.46 DE 3.40 Q0400.0 QA 0.70 Q1 1.00 3
 SPEC REDRBH N MO 13.9 ST330.4 OM  2.1 f0 16.0 R0.1031 AL-0.00 WI 20.0 MW  3.2 3
 SPEC REDRBH N T 15557 K 0.020 GD  207 VS 4.46 DE 3.40 Q0400.0 QA 0.70 Q1 1.00 3
 SPEC JIDRBH N MO 15.2 ST0.007 OM  3.4 f00.156 R 10.58 AL-0.00 WI 20.0 MW  4.1 3
 SPEC JIDRBH N T 156 0 K 0.020 GD  221 VS 4.46 DE 3.40 Q0400.0 QA 0.70 Q1 1.00 3
 SPEC MCDRBH N MO 13.8 ST 96.6 OM  1.9 f0 12.0 R0.1375 AL-0.00 WI 20.0 MW  3.1 3
 SPEC MCDRBH N T 156 0 K 0.020 GD  227 VS 4.46 DE 3.40 Q0400.0 QA 0.70 Q1 1.00 3
 2020-09-03-0154-00S.MAN___126                                                 6
 OLDACT:UP  20-09-03 04:41 OP:AMMR STATUS:               ID:20200903015400     3
 OLDACT:UP  20-09-03 04:39 OP:AMMR STATUS:               ID:20200903015400     3
 OLDACT:UP  20-09-03 04:38 OP:AMMR STATUS:               ID:20200903015400     3
 OLDACT:UP  20-09-03 04:38 OP:AMMR STATUS:               ID:20200903015400     3
 OLDACT:UP  20-09-03 04:37 OP:AMMR STATUS:               ID:20200903015400     3
 OLDACT:UP  20-09-03 04:37 OP:AMMR STATUS:               ID:20200903015400     3
 OLDACT:UP  20-09-03 04:36 OP:AMMR STATUS:               ID:20200903015400     3
 OLDACT:UP  20-09-03 04:35 OP:AMMR STATUS:               ID:20200903015400     3
 OLDACT:UP  20-09-03 04:34 OP:AMMR STATUS:               ID:20200903015400     3
 OLDACT:UP  20-09-03 04:33 OP:AMMR STATUS:               ID:20200903015400     3
 OLDACT:UP  20-09-03 04:20 OP:AMMR STATUS:               ID:20200903015400     3
 OLDACT:ARG 20-09-03 04:11 OP:njm  STATUS:               ID:20200903015400     3
 ACTION:UP  22-06-23 12:36 OP:jmlc STATUS:               ID:20200903015507 L   I
 OLDACT:UP  20-09-03 04:41 OP:AMMR STATUS:               ID:20200903015400     3
 STAT SP IPHASW D HRMM SECON CODA AMPLIT PERI AZIMU VELO AIN AR TRES W  DIS CAZ7
 SDD  BZ IP     D  155 23.31   43                        150   -0.9610 48.5 164 
 SDD  BE IS   3 D  155 33.50                             150   -3.20 2 48.5 164 
 SDD  BN  IAML     155 33.80       103.8 0.30                          48.5 164 
 NADR BZ IP     C  155 24.31   42                        146   -0.3810 55.4  21 
 NADR BE IS     D  155 36.94                             146   -0.5010 55.4  21 
 NADR BN  IAML     155 40.22       806.5 0.15                          55.4  21 
 BADR BZ IP     C  155 25.65   44                        142    0.1910 63.6 212 
 BADR BE IS     C  155 38.49                             142   -0.3110 63.6 212 
 BADR BN  IAML     155 40.72       565.2 0.20                          63.6 212 
 SC01 BZ IP     D  155 28.18   40                        129    0.4010 93.9 310 
 SC01 BE IS     D  155 43.26                             129    0.3910 93.9 310 
 SC01 BN  IAML     155 45.03       247.0 0.50                          93.9 310 
 SMDR BZ IP     C  155 27.99   42                        126   -0.3410  100  63 
 SMDR BE IS     C  155 45.08                             126    1.2410  100  63 
 SMDR BN  IAML     155 48.71       101.8 0.35                           100  63 
 SDDR BZ IP     C  155 32.27   49                        117    0.7010  132 275 
 SDDR BE IS     C  155 50.59                             117    1.0510  132 275 
 SDDR BN  IAML     155 53.59       113.0 0.65                           132 275 
 MADR BZ IP     C  155 31.73   49                        116   -0.0210  135 304 
 MADR BE IS     D  155 50.30                             116    0.4410  135 304 
 MADR BN  IAML     155 55.98       276.5 0.35                           135 304 
 HIDR BZ IP     C  155 32.70   50                        114    0.0210  144 103 
 HIDR BE IS     D  155 50.54                             114   -0.9710  144 103 
 HIDR BN  IAML     155 54.32       279.8 0.25                           144 103 
 LUDR BZ IP     C  155 33.13   52                        113    0.0810  147 319 
 REDR BZ IP     C  155 36.56   55                        107   -0.2110  180 284 
 REDR BE IS     D  155 58.58                             107   -0.1110  180 284 
 REDR BN  IAML     155 59.53       219.6 0.15                           180 284 
 PCDR BZ IP     C  155 37.40   63                        107    0.7810  180 103 
 PCDR BE IS     C  155 59.06                             107    0.6310  180 103 
 PCDR BN  IAML     156  4.58       106.7 1.90                           180 103 
 JIDR BZ IP     C  155 39.15   39                        105    0.7310  196 258 
 JIDR BN  IAML     156 19.96        22.6 1.50                           196 258 
 MCDR BZ IP     D  155 37.21   58                        104   -2.0010  203 304 
 MCDR BE IS     C  156  2.33                             104   -0.6610  203 304 
 MCDR BN  IAML     156 10.08       123.9 0.65                           203 304 
                                                                                
 2020  9 3 0416 54.0 L  19.302 -67.564 27.7  DOM  7 0.7 2.0LDOM 3.0CDOM 2.1WDOM1
 SPEC AVERAGE  MO 12.3 ST0.652 OM  1.6 f0 4.28 R0.3284 AL 0.00 WI 20.0 MW  2.1 3
 SPEC SD       MO  0.4 ST0.963 OM  0.7 f0 1.91 R0.1258 AL      WI      MW  0.3 3
 GAP=264        1.90      17.5     5.7 22.0  0.4845E+02  0.4364E+02  0.2951E+03E
 LOCALITY: 168.4 Km al ENE de Miches. Oceano Atlantico.                        3
 SPEC AGPRBH N MO 12.8 ST0.198 OM  1.8 f0 2.31 R0.5126 AL-0.00 WI 20.0 MW  2.5 3
 SPEC AGPRBH N T 41726 K 0.020 GD  107 VS 3.20 DE 2.60 Q0400.0 QA 0.70 Q1 1.00 3
 SPEC HIDRBH N MO 12.3 ST  2.6 OM  1.2 f0 7.75 R0.1528 AL-0.00 WI 20.0 MW  2.2 3
 SPEC HIDRBH N T 41736 K 0.020 GD  147 VS 3.20 DE 2.60 Q0400.0 QA 0.70 Q1 1.00 3
 SPEC CRPRBH N MO 12.5 ST0.201 OM  1.4 f0 2.80 R0.4229 AL-0.00 WI 20.0 MW  2.3 3
 SPEC CRPRBH N T 41736 K 0.020 GD  154 VS 3.20 DE 2.60 Q0400.0 QA 0.70 Q1 1.00 3
 SPEC MLPRBH N MO 11.8 ST0.107 OM  0.6 f0 4.15 R0.2853 AL-0.00 WI 20.0 MW  1.8 3
 SPEC MLPRBH N T 41738 K 0.020 GD  159 VS 3.20 DE 2.60 Q0400.0 QA 0.70 Q1 1.00 3
 SPEC CELPBH N MO 11.9 ST0.176 OM  0.7 f0 4.41 R0.2685 AL-0.00 WI 20.0 MW  1.9 3
 SPEC CELPBH N T 41743 K 0.020 GD  173 VS 3.20 DE 2.60 Q0400.0 QA 0.70 Q1 1.00 3
 2020-09-03-0415-00S.MAN___126                                                 6
 OLDACT:ARG 20-09-03 04:46 OP:njm  STATUS:               ID:20200903041500     3
 ACTION:UP  22-06-23 12:36 OP:jmlc STATUS:               ID:20200903041654 L   I
 OLDACT:UP  20-09-03 04:53 OP:AMMR STATUS:               ID:20200903041500     3
 STAT SP IPHASW D HRMM SECON CODA AMPLIT PERI AZIMU VELO AIN AR TRES W  DIS CAZ7
 AGPR BZ IP        417 13.50   38                         62    0.5010  104 152 
 AGPR BE IS        417 28.30                              62    0.8810  104 152 
 AGPR BN  IAML     417 40.06        67.9 2.00                           104 152 
 PCDR BZ IP        417 16.32   40                         62    0.5510  123 225 
 PCDR BE IS        417 32.17                              62   -0.1110  123 225 
 PCDR BN  IAML     417 49.97        77.1 1.95                           123 225 
 AOPR BZ IP        417 17.73   55                         53    0.0310  136 141 
 AOPR BN  IAML     417 43.57        22.7 1.20                           136 141 
 HIDR BZ IP        417 18.43   33                         53   -0.3810  145 237 
 HIDR BN  IAML     417 37.66        35.4 0.30                           145 237 
 HIDR BE IS        417 38.16                              53    0.5210  145 237 
 CRPR BZ IP        417 19.14   48                         53   -0.6510  152 161 
 CRPR BE IS        417 37.81                              53   -1.5510  152 161 
 CRPR BN  IAML     418 18.47        34.6 3.12                           152 161 
 MLPR BZ IP        417 20.20   51                         53   -0.3010  157 160 
 MLPR BE IS        417 40.27                              53   -0.3510  157 160 
 MLPR BN  IAML     417 44.01         9.2 1.68                           157 160 
 CELP BZ IP        417 21.96   49                         53   -0.4310  171 142 
 CELP BE IS        417 45.21                              53    1.2810  171 142 
 CELP BN  IAML     417 48.13         5.7 0.44                           171 142 
                                                                                
 2020  9 4 0358  5.8 L  20.060 -70.222 40.2  DOM 11 0.8 2.6LDOM 3.1CDOM 3.1WDOM1
 SPEC AVERAGE  MO 13.7 ST  4.0 OM  2.2 f0 3.40 R0.6706 AL 0.00 WI 20.0 MW  3.1 3
 SPEC SD       MO  0.1 ST  5.9 OM  0.4 f0 1.95 R0.3555 AL      WI      MW  0.1 3
 GAP=232        2.24      11.3     7.5 21.3  0.4128E+02 -0.3445E+02 -0.8393E+02E
 LOCALITY: 42.2 Km al NE de Cabarete. Oceano Atlantico.                        3
 SPEC SODRBH N MO 14.0 ST0.202 OM  2.8 f0 1.24 R1.3219 AL-0.00 WI 20.0 MW  3.3 3
 SPEC SODRBH N T 35821 K 0.020 GD 55.4 VS 4.43 DE 3.34 Q0400.0 QA 0.70 Q1 1.00 3
 SPEC SC01BH N MO 13.7 ST0.205 OM  2.2 f0 1.64 R0.9995 AL-0.00 WI 20.0 MW  3.1 3
 SPEC SC01BH N T 35829 K 0.020 GD 96.7 VS 4.43 DE 3.34 Q0400.0 QA 0.70 Q1 1.00 3
 SPEC MCDRBH N MO 13.7 ST  5.8 OM  2.0 f0 4.95 R0.3311 AL-0.00 WI 20.0 MW  3.1 3
 SPEC MCDRBH N T 35847 K 0.020 GD  156 VS 4.43 DE 3.34 Q0400.0 QA 0.70 Q1 1.00 3
 SPEC SDDRBH N MO 13.7 ST0.299 OM  2.0 f0 1.80 R0.9106 AL-0.00 WI 20.0 MW  3.1 3
 SPEC SDDRBH N T 35850 K 0.020 GD  168 VS 4.43 DE 3.34 Q0400.0 QA 0.70 Q1 1.00 3
 SPEC REDRBH N MO 13.7 ST 19.6 OM  2.0 f0 7.07 R0.2318 AL-0.00 WI 20.0 MW  3.1 3
 SPEC REDRBH N T 35854 K 0.020 GD  182 VS 4.43 DE 3.34 Q0400.0 QA 0.70 Q1 1.00 3
 SPEC BADRBH N MO 13.8 ST  4.6 OM  2.0 f0 4.32 R0.3794 AL-0.00 WI 20.0 MW  3.1 3
 SPEC BADRBH N T 35855 K 0.020 GD  189 VS 4.43 DE 3.34 Q0400.0 QA 0.70 Q1 1.00 3
 SPEC NEDRBH N MO 13.7 ST0.510 OM  1.9 f0 2.13 R0.7695 AL-0.00 WI 20.0 MW  3.1 3
 SPEC NEDRBH N T 359 4 K 0.020 GD  218 VS 4.43 DE 3.34 Q0400.0 QA 0.70 Q1 1.00 3
 SPEC HIDRBH N MO 13.4 ST  4.2 OM  1.6 f0 5.34 R0.3069 AL-0.00 WI 20.0 MW  2.9 3
 SPEC HIDRBH N T 359 5 K 0.020 GD  230 VS 4.43 DE 3.34 Q0400.0 QA 0.70 Q1 1.00 3
 SPEC JIDRBH N MO 13.8 ST0.545 OM  1.9 f0 2.09 R0.7843 AL-0.00 WI 20.0 MW  3.1 3
 SPEC JIDRBH N T 35915 K 0.020 GD  247 VS 4.43 DE 3.34 Q0400.0 QA 0.70 Q1 1.00 3
 2020-09-04-0357-00S.MAN___123                                                 6
 OLDACT:ARG 20-09-04 09:15 OP:cgrs STATUS:               ID:20200904035700     3
 ACTION:UP  22-06-23 12:36 OP:jmlc STATUS:               ID:20200904035805 L   I
 OLDACT:UP  20-09-04 09:24 OP:CGRS STATUS:               ID:20200904035700     3
 STAT SP IPHASW D HRMM SECON CODA AMPLIT PERI AZIMU VELO AIN AR TRES W  DIS CAZ7
 SODR BZ EPg    D  358 15.91   37                        119    0.2810 38.1 207 
 SODR BN ESg    C  358 22.78                             119   -0.3110 38.1 207 
 SODR BN  IAML     358 29.58       276.8 0.40                          38.1 207 
 LUDR BZ EPg       358 19.63   36                         90   -1.3210 78.7 257 
 SC01 BZ EPg    C  358 20.54   50                         90   -1.6610 87.9 217 
 SC01 BN  IAML     358 41.87        87.2 0.70                          87.9 217 
 ABDR BZ EPg    D  358 30.00   45                         90   -0.2110  145 197 
 ABDR BN  IAML     359 24.90        97.0 1.35                           145 197 
 MCDR BZ EPg    C  358 31.07   43                         90    0.4310  151 263 
 MCDR BN ESg    D  358 49.10                              90   -0.4110  151 263 
 MCDR BN  IAML     358 51.28       116.1 1.30                           151 263 
 SDDR BZ EPg    C  358 31.95   58                         90   -0.4610  164 223 
 SDDR BN  IAML     359  0.85        41.4 0.60                           164 223 
 REDR BZ EPg    C  358 34.14   47                         90   -0.1410  178 241 
 REDR BN  IAML     358 57.32       282.2 0.20                           178 241 
 BADR BZ EPg    D  358 35.91   49                         90    0.6710  185 185 
 BADR BN ESg    D  358 56.85                              90   -0.7610  185 185 
 BADR BN  IAML     359  3.67       102.2 0.30                           185 185 
 NEDR BZ EPg    C  358 40.34   51                         90    1.1910  215 216 
 NEDR BN ESg    D  359  5.60                              90    1.1110  215 216 
 NEDR BN  IAML     359  8.30        34.2 0.35                           215 216 
 HIDR BZ EPg       358 41.32   63                         90    0.5910  227 136 
 HIDR BN ESg    D  359  6.99                              90   -0.2810  227 136 
 HIDR BN  IAML     359 11.04        72.6 0.30                           227 136 
 JIDR BZ EPg    D  358 44.29   62                         90    1.2910  244 225 
 JIDR BN  IAML     359 31.97        38.7 3.40                           244 225 
                                                                                
 2020  9 4 1009 46.6 L  19.174 -70.045 17.2  DOM  7 1.5 2.2LDOM 2.5CDOM 2.8WDOM1
 SPEC AVERAGE  MO 13.2 ST  8.7 OM  2.7 f0 6.35 R1.4927 AL 0.00 WI 20.0 MW  2.8 3
 SPEC SD       MO  0.9 ST 10.6 OM  1.0 f0 5.66 R1.9121 AL      WI      MW  0.6 3
 GAP=119        3.86       8.5     7.0 38.4 -0.1328E+02  0.1041E+03  0.8893E+02E
 LOCALITY: 1.1 Km al Norte de Eugenio Maria de Hostos. Duarte.                 3
 SPEC NADRBH N MO 13.4 ST  6.9 OM  2.9 f0 4.81 R0.2462 AL-0.00 WI 20.0 MW  2.9 3
 SPEC NADRBH N T10 957 K 0.020 GD 32.9 VS 3.20 DE 2.60 Q0400.0 QA 0.70 Q1 1.00 3
 SPEC ABDRBH N MO 12.4 ST 29.0 OM  1.6 f0 16.0 R0.0740 AL-0.00 WI 20.0 MW  2.2 3
 SPEC ABDRBH N T101011 K 0.020 GD 75.2 VS 3.20 DE 2.60 Q0400.0 QA 0.70 Q1 1.00 3
 SPEC SMDRBH N MO 14.1 ST0.012 OM  3.2 f00.327 R3.6208 AL-0.00 WI 20.0 MW  3.4 3
 SPEC SMDRBH N T101014 K 0.020 GD 92.6 VS 3.20 DE 2.60 Q0400.0 QA 0.70 Q1 1.00 3
 SPEC BADRBH N MO 12.6 ST 15.2 OM  1.7 f0 11.1 R0.1067 AL-0.00 WI 20.0 MW  2.4 3
 SPEC BADRBH N T101015 K 0.020 GD 93.7 VS 3.20 DE 2.60 Q0400.0 QA 0.70 Q1 1.00 3
 SPEC MADRBH N MO 14.6 ST0.018 OM  3.6 f00.252 R4.6984 AL-0.00 WI 20.0 MW  3.7 3
 SPEC MADRBH N T101023 K 0.020 GD  120 VS 3.20 DE 2.60 Q0400.0 QA 0.70 Q1 1.00 3
 SPEC SDDRBH N MO 12.3 ST0.897 OM  1.2 f0 5.63 R0.2103 AL-0.00 WI 20.0 MW  2.1 3
 SPEC SDDRBH N T101028 K 0.020 GD  134 VS 3.20 DE 2.60 Q0400.0 QA 0.70 Q1 1.00 3
 2020-09-04-1009-00S.MAN___123                                                 6
 OLDACT:ARG 20-09-04 10:37 OP:cgrs STATUS:               ID:20200904100900     3
 ACTION:UP  22-06-23 12:36 OP:jmlc STATUS:               ID:20200904100946 L   I
 OLDACT:UP  20-09-04 10:51 OP:CGRS STATUS:               ID:20200904100900     3
 STAT SP IPHASW D HRMM SECON CODA AMPLIT PERI AZIMU VELO AIN AR TRES W  DIS CAZ7
 NADR BZ EPg    C 10 9 53.66   23                        114    0.3810 28.1  45 
 NADR BN ESg    D 10 9 58.83                             114    0.4810 28.1  45 
 NADR BN  IAML    10 9 59.71      1465.6 0.25                          28.1  45 
 ABDR BZ EPg    C 1010  3.63   16                         98    1.9010 73.2 237 
 ABDR BN ESg    D 1010 12.65                              98   -0.5710 73.2 237 
 ABDR BN  IAML    1010 33.20       104.7 0.45                          73.2 237 
 SMDR BZ EPg    C 1010  6.18   32                         95    1.5210 91.0  82 
 SMDR BN ESg    C 1010 15.69                              95   -2.6910 91.0  82 
 SMDR BN  IAML    1010 36.49        57.5 0.70                          91.0  82 
 BADR BZ EPg    C 1010  6.54   31                         95    1.5510 92.1 201 
 BADR BN ESg    D 1010 17.33                              95   -1.6410 92.1 201 
 BADR BN  IAML    1010 22.06       132.9 0.35                          92.1 201 
 MADR BZ EPg    C 1010 10.52   30                         94    0.6310  119 291 
 MADR BN ESg    D 1010 25.17                              94   -2.4210  119 291 
 MADR BN  IAML    1010 32.17        86.3 1.50                           119 291 
 LUDR BZ EPg    D 1010 11.26   38                         94    0.4710  124 310 
 SDDR BZ EPg    C 1010 12.83   27                         94    0.3810  133 261 
 SDDR BN  IAML    1010 33.68        14.8 0.50                           133 261 
                                                                                
