 2020  2 1 0016 55.30L  18.833 -67.699 19.5  DOM  6 0.8 1.9LDOM 2.9CDOM 2.4WDOM1
 SPEC AVERAGE  MO 12.7 ST0.516 OM  1.0 f0 4.73 R0.3468 AL 0.00 WI 20.0 MW  2.4 3
 SPEC SD       MO  9.0 ST0.365 OM  0.7 f0 3.35 R0.2453 AL      WI      MW  1.7 3
 GAP=195        2.10      21.4     6.9115.1  0.5073E+02  0.7379E+02 -0.1893E+04E
 SPEC PRSNBH N MO 13.1 ST  6.4 OM  1.6 f0 8.28 R0.1980 AL-0.00 WI 20.0 MW  2.6 3
 SPEC PRSNBH N T 01719 K 0.020 GD 93.4 VS 4.43 DE 3.34 Q0400.0 QA 0.70 Q1 1.00 3
 SPEC MIDRHH N MO 12.7 ST0.541 OM  1.1 f0 4.61 R0.3556 AL-0.00 WI 20.0 MW  2.4 3
 SPEC MIDRHH N T 01733 K 0.020 GD  144 VS 4.43 DE 3.34 Q0400.0 QA 0.70 Q1 1.00 3
 SPEC HMDRBH N MO 12.6 ST0.490 OM  0.9 f0 4.85 R0.3380 AL-0.00 WI 20.0 MW  2.4 3
 SPEC HMDRBH N T 01743 K 0.020 GD  178 VS 4.43 DE 3.34 Q0400.0 QA 0.70 Q1 1.00 3
 LOCALITY: 78.9 Km al ENE de Punta Cana, Canal de la Mona.                     3
 2020-02-01-0016-00S.MAN___147                                                 6
 OLDACT:ARG 20-02-01 00:43 OP:plst STATUS:               ID:20200201001600     3
 OLDACT:UP  20-02-01 00:47 OP:AMMR STATUS:               ID:20200201001600     3
 OLDACT:UP  21-11-14 22:46 OP:CGRS STATUS:               ID:20200201001655 L   3
 OLDACT:UP  21-11-14 22:45 OP:CGRS STATUS:               ID:20200201001655 L   3
 OLDACT:UP  21-11-07 16:39 OP:CGRS STATUS:               ID:20200201001655 L   3
 OLDACT:UP  20-04-19 16:58 OP:JMLC STATUS:               ID:20200201001655 L   3
 ACTION:UP  22-01-05 18:33 OP:JMLC STATUS:               ID:20200201001655 L   I
 OLDACT:UP  21-12-19 17:54 OP:JAAF STATUS:               ID:20200201001655 L   3
 STAT SP IPHASW D HRMM SECON CODA AMPLIT PERI AZIMU VELO AIN AR TRES W  DIS CAZ7
 PRSN BE ESg    C  017 20.67                             100                    
 PRSN BN  IAML     017 27.89        86.2 0.20                                   
 AGPR BN ESg    C  017 16.75                             100    0.6310 74.0 123 
 AGPR BN  IAML     017 22.38        60.4 0.30                          74.0 123 
 PCDR HZ EPg    C  017  7.28   39                         99   -0.9110 80.2 244 
 PCDR HN ESg    C  017 17.50                              99   -0.2510 80.2 244 
 PCDR BN  IAML     017 20.52        47.8 1.60                          80.2 244 
 PCDR HN  IAML     017 20.95        36.8 0.74                          80.2 244 
 MIDR HZ EPg    C  017 16.79   41                         94   -0.9110  143 277 
 MIDR HN ESg    C  017 34.76                              94    0.4710  143 277 
 MIDR HN  IAML     017 36.78        23.3 0.28                           143 277 
 MIDR BN  IAML     017 36.78        23.3 0.28                           143 277 
 SMDR BN ESg    C  017 40.04                              93    0.1210  165 288 
 SMDR BN  IAML     017 53.86        38.7 1.00                           165 288 
 HMDR BZ EPg    C  017 22.17   43                         93   -0.7110  177 269 
 HMDR BN ESg    C  017 44.85                              93    1.5510  177 269 
 HMDR BN  IAML     017 46.80        11.8 1.20                           177 269 
                                                                                
 2020  2 1 0115 26.00L  17.949 -66.842 12.2  DOM  7 0.7 2.7LDOM 3.6CDOM 3.2WDOM1
 SPEC AVERAGE  MO 13.8 ST  5.8 OM  2.8 f0 2.96 R1.1775 AL 0.00 WI 20.0 MW  3.2 3
 SPEC SD       MO  0.6 ST  7.8 OM  0.8 f0 2.58 R1.1212 AL      WI      MW  0.4 3
 GAP=207        1.73      10.0     3.9 28.1  0.1105E+02 -0.4256E+02 -0.9751E+02E
 LOCALITY: 25.1 Km al OSO de Ponce, Region de Puerto Rico.                     3
 SPEC CRPRBH N MO 13.5 ST 20.0 OM  2.8 f0 7.47 R0.1848 AL-0.00 WI 20.0 MW  2.9 3
 SPEC CRPRBH N T 11532 K 0.020 GD 29.5 VS 3.73 DE 2.83 Q0400.0 QA 0.70 Q1 0.00 3
 SPEC PRSNBH N MO 13.3 ST 52.9 OM  2.5 f0 11.3 R0.1221 AL-0.00 WI 20.0 MW  2.8 3
 SPEC PRSNBH N T 11536 K 0.020 GD 45.1 VS 3.73 DE 2.83 Q0400.0 QA 0.70 Q1 0.00 3
 SPEC AGPRBH N MO 13.8 ST  8.7 OM  2.8 f0 4.34 R0.3180 AL-0.00 WI 20.0 MW  3.1 3
 SPEC AGPRBH N T 11542 K 0.020 GD 65.3 VS 3.73 DE 2.83 Q0400.0 QA 0.70 Q1 0.00 3
 SPEC PCDRHN N MO 13.7 ST0.286 OM  2.3 f0 1.53 R0.9020 AL-0.00 WI 20.0 MW  3.1 3
 SPEC PCDRHN N T 11614 K 0.020 GD  155 VS 3.73 DE 2.83 Q0400.0 QA 0.70 Q1 0.00 3
 SPEC MIDRHH N MO 14.4 ST0.038 OM  2.9 f00.441 R3.1295 AL-0.00 WI 20.0 MW  3.6 3
 SPEC MIDRHH N T 11635 K 0.020 GD  215 VS 3.73 DE 2.83 Q0400.0 QA 0.70 Q1 0.00 3
 SPEC HMDRBH N MO 13.9 ST0.127 OM  2.3 f0 1.02 R1.3530 AL-0.00 WI 20.0 MW  3.2 3
 SPEC HMDRBH N T 11639 K 0.020 GD  232 VS 3.73 DE 2.83 Q0400.0 QA 0.70 Q1 0.00 3
 2020-02-01-0115-00S.MAN___147                                                 6
 OLDACT:ARG 20-02-01 01:28 OP:plst STATUS:               ID:20200201011500     3
 OLDACT:UP  20-02-01 01:30 OP:AMMR STATUS:               ID:20200201011500     3
 ACTION:UP  22-01-05 18:33 OP:JMLC STATUS:               ID:20200201011526 L   I
 OLDACT:UP  21-11-14 22:46 OP:CGRS STATUS:               ID:20200201011526 L   3
 OLDACT:UP  20-04-19 16:58 OP:JMLC STATUS:               ID:20200201011526 L   3
 STAT SP IPHASW D HRMM SECON CODA AMPLIT PERI AZIMU VELO AIN AR TRES W  DIS CAZ7
 PRSN BZ EPg    C  115 32.62   63                         91                    
 PRSN BN ESg    C  115 38.45                              91                    
 PRSN BN  IAML     115 40.13      2371.6 0.20                                   
 CRPR BZ EPg    C  115 30.46   79                        105   -0.3010 26.9 284 
 CRPR BN ESg    C  115 34.26                             105   -0.0310 26.9 284 
 CRPR BN  IAML     115 34.76      1619.9 0.20                          26.9 284 
 AGPR BZ EPg    C  115 35.89   81                         90   -0.5010 64.2 334 
 AGPR BN ESg       115 43.99                              90   -0.1010 64.2 334 
 AGPR BN  IAML     115 44.37       782.8 0.25                          64.2 334 
 SJG  BZ EPg    C  115 37.77   97                         90   -0.3410 75.4  76 
 SJG  BN ESg    C  115 47.36                              90    0.2910 75.4  76 
 PCDR HZ EPg    C  115 53.89   69                         90    0.8010  174 291 
 PCDR BN  IAML     116 22.14        89.0 0.54                           174 291 
 MIDR HZ EPg    C  116  6.58   67                         90    0.5610  260 296 
 MIDR HN ESg    C  116 36.87                              90    1.2310  260 296 
 MIDR BN  IAML     116 40.76        21.6 0.38                           260 296 
 HMDR BZ EPg    C  116  9.32   90                         90   -0.3810  284 289 
 HMDR BN ESg    C  116 40.82                              90   -1.2310  284 289 
 HMDR BN  IAML     116 51.37        25.6 1.50                           284 289 
                                                                                
 2020  2 1 0135 18.60L  17.964 -66.957 12.3  DOM  7 0.5 2.5LDOM 2.9CDOM 2.8WDOM1
 SPEC AVERAGE  MO 13.2 ST  5.6 OM  2.9 f0 4.49 R0.3754 AL 0.00 WI 20.0 MW  2.8 3
 SPEC SD       MO  0.3 ST  6.3 OM  1.0 f0 1.75 R0.1778 AL      WI      MW  0.2 3
 GAP=210        1.46       7.6     3.1  9.7  0.5930E+01 -0.7939E+01 -0.1936E+02E
 LOCALITY: 32.5 Km al SE de Mayaguez, Region de Puerto Rico.                   3
 SPEC CRPRBH N MO 13.4 ST  6.0 OM  2.9 f0 5.34 R0.2591 AL-0.00 WI 20.0 MW  2.9 3
 SPEC CRPRBH N T 13522 K 0.020 GD 19.2 VS 3.74 DE 2.83 Q0400.0 QA 0.70 Q1 0.00 3
 SPEC PRSNBH N MO 13.7 ST 26.2 OM  2.9 f0 7.07 R0.1957 AL-0.00 WI 20.0 MW  3.0 3
 SPEC PRSNBH N T 13527 K 0.020 GD 36.3 VS 3.74 DE 2.83 Q0400.0 QA 0.70 Q1 0.00 3
 SPEC AGPRBH N MO 13.5 ST 15.8 OM  2.5 f0 6.88 R0.2011 AL-0.00 WI 20.0 MW  2.9 3
 SPEC AGPRBH N T 13533 K 0.020 GD 59.6 VS 3.74 DE 2.83 Q0400.0 QA 0.70 Q1 0.00 3
 SPEC PCDRHN N MO 13.3 ST0.275 OM  1.9 f0 2.09 R0.6621 AL-0.00 WI 20.0 MW  2.8 3
 SPEC PCDRHN N T 136 1 K 0.020 GD  147 VS 3.74 DE 2.83 Q0400.0 QA 0.70 Q1 0.00 3
 SPEC MIDRHH N MO 12.8 ST0.524 OM  1.3 f0 3.65 R0.3791 AL-0.00 WI 20.0 MW  2.5 3
 SPEC MIDRHH N T 13624 K 0.020 GD  209 VS 3.74 DE 2.83 Q0400.0 QA 0.70 Q1 0.00 3
 2020-02-01-0135-00S.MAN___147                                                 6
 OLDACT:ARG 20-02-01 01:44 OP:plst STATUS:               ID:20200201013500     3
 OLDACT:UP  20-02-01 01:47 OP:AMMR STATUS:               ID:20200201013500     3
 ACTION:UP  22-01-05 18:33 OP:JMLC STATUS:               ID:20200201013518 L   I
 OLDACT:UP  21-11-07 23:17 OP:CGRS STATUS:               ID:20200201013518 L   3
 OLDACT:UP  21-11-07 16:42 OP:CGRS STATUS:               ID:20200201013518 L   3
 OLDACT:UP  21-11-07 16:42 OP:CGRS STATUS:               ID:20200201013518 L   3
 OLDACT:UP  20-04-19 16:58 OP:JMLC STATUS:               ID:20200201013518 L   3
 STAT SP IPHASW D HRMM SECON CODA AMPLIT PERI AZIMU VELO AIN AR TRES W  DIS CAZ7
 PRSN BZ EPg    C  135 23.90   21                         95                    
 PRSN BN ESg    C  135 28.62                              95                    
 PRSN BN  IAML     135 29.75      3443.7 0.25                                   
 CRPR BZ EPg    C  135 21.02   25                        125   -0.6510 14.7 289 
 CRPR BN ESg    C  135 23.71                             125   -0.2510 14.7 289 
 CRPR BN  IAML     135 23.99      2153.2 0.10                          14.7 289 
 AGPR BZ EPg    D  135 27.73   33                         91   -0.3510 58.3 344 
 AGPR BN ESg    C  135 34.84                              91   -0.2810 58.3 344 
 AGPR BN  IAML     135 37.56       497.9 0.30                          58.3 344 
 SJG  BZ EPg    C  135 32.03   35                         90   -0.4210 87.0  79 
 SJG  BN ESg    C  135 43.07                              90    0.3510 87.0  79 
 PCDR HZ EPg    C  135 44.74   50                         90    0.8810  162 292 
 PCDR HE ESg    C  136  2.70                              90    0.1310  162 292 
 PCDR BN  IAML     136 20.15        73.3 2.00                           162 292 
 MIDR HZ EPg    C  135 57.06   50                         90    0.2210  248 297 
 MIDR HN ESg    C  136 25.60                              90    0.4410  248 297 
 MIDR BN  IAML     136 30.33        17.2 0.48                           248 297 
 MIDR HN  IAML     136 31.50        19.0 1.20                           248 297 
 HMDR BZ EPg    C  135 59.53   68                         90   -0.9310  272 290 
 HMDR BN ESg    C  136 32.29                              90    0.8410  272 290 
 HMDR BN  IAML     136 39.64        15.3 1.05                           272 290 
                                                                                
 2020  2 1 0219 14.70L  18.897 -71.097 18.7  DOM  6 0.8 2.1LDOM 2.9CDOM 2.4WDOM1
 SPEC AVERAGE  MO 12.7 ST  6.3 OM  2.1 f0 7.11 R0.2804 AL 0.00 WI 20.0 MW  2.4 3
 SPEC SD       MO  0.3 ST  9.5 OM  0.9 f0 3.95 R0.1284 AL      WI      MW  0.2 3
 GAP=201        2.25       9.5     5.7 17.8  0.2849E+02 -0.5665E+02 -0.3738E+02E
 LOCALITY: 17.0 Km al NE de San Juan de la Maguana, San Juan de la Maguana.    3
 SPEC SDDRBH N MO 12.8 ST0.283 OM  2.0 f0 3.25 R0.4725 AL-0.00 WI 20.0 MW  2.5 3
 SPEC SDDRBH N T 21921 K 0.020 GD 29.1 VS 4.15 DE 3.11 Q0400.0 QA 0.70 Q1 0.00 3
 SPEC REDRBH N MO 12.9 ST 22.8 OM  1.6 f0 13.7 R0.1121 AL-0.00 WI 20.0 MW  2.5 3
 SPEC REDRBH N T 21935 K 0.020 GD 78.6 VS 4.15 DE 3.11 Q0400.0 QA 0.70 Q1 0.00 3
 SPEC MCDRBH N MO 12.9 ST  2.0 OM  1.4 f0 6.04 R0.2542 AL-0.00 WI 20.0 MW  2.5 3
 SPEC MCDRBH N T 21948 K 0.020 GD  126 VS 4.15 DE 3.11 Q0400.0 QA 0.70 Q1 0.00 3
 SPEC HMDRBH N MO 12.2 ST0.328 OM  0.6 f0 5.43 R0.2828 AL-0.00 WI 20.0 MW  2.1 3
 SPEC HMDRBH N T 220 3 K 0.020 GD  181 VS 4.15 DE 3.11 Q0400.0 QA 0.70 Q1 0.00 3
 2020-02-01-0219-00S.MAN___147                                                 6
 OLDACT:UP  20-02-01 11:10 OP:AMMR STATUS:               ID:20200201021900     3
 OLDACT:ARG 20-02-01 05:34 OP:njm  STATUS:               ID:20200201021900     3
 OLDACT:UP  20-02-01 11:16 OP:AMMR STATUS:               ID:20200201021900     3
 ACTION:UP  22-01-05 18:33 OP:JMLC STATUS:               ID:20200201021914 L   I
 OLDACT:UP  21-11-07 23:18 OP:CGRS STATUS:               ID:20200201021914 L   3
 OLDACT:UP  20-04-19 16:58 OP:JMLC STATUS:               ID:20200201021914 L   3
 STAT SP IPHASW D HRMM SECON CODA AMPLIT PERI AZIMU VELO AIN AR TRES W  DIS CAZ7
 SDDR BZ EPg    D  219 18.39   20                        128   -0.9910 22.3 294 
 SDDR BE ESg    C  219 23.41                             128    0.5810 22.3 294 
 SDDR BN  IAML     219 24.21       224.6 0.25                          22.3 294 
 SC01 BZ EPg    C  219 27.40   48                         99    1.2610 70.4  33 
 SC01 BE ESg    C  219 33.39                              99   -1.2110 70.4  33 
 SC01 BN  IAML     219 42.74       106.3 0.10                          70.4  33 
 REDR BZ EPg    C  219 26.24   53                         99   -0.8210 76.3 304 
 REDR BE ESg    C  219 36.61                              99    0.4210 76.3 304 
 REDR BN  IAML     219 37.04       180.6 0.20                          76.3 304 
 MCDR BZ EPg       219 34.17   34                         94   -0.1810  125 332 
 MCDR BE ESg    C  219 49.61                              94    0.7410  125 332 
 MCDR BN  IAML     220 17.18        51.5 0.65                           125 332 
 HMDR BZ EPg    D  219 42.93   60                         93    0.0410  181  94 
 HMDR BE ESg    C  220  5.14                              93    1.4010  181  94 
 HMDR BN  IAML     220  7.89        13.1 1.85                           181  94 
 MIDR HZ EPg    C  219 47.25   51                         92   -0.8510  216  87 
 MIDR HE ESg    D  220 12.40                              92   -0.4010  216  87 
 MIDR BN  IAML     220 36.37        14.0 1.94                           216  87 
                                                                                
 2020  2 1 0256 26.60L  18.987 -67.641  0.0  DOM  5 1.0 1.9LDOM 2.9CDOM 2.5WDOM1
 SPEC AVERAGE  MO 12.8 ST0.770 OM  2.2 f0 3.65 R0.4455 AL 0.00 WI 20.0 MW  2.5 3
 SPEC SD       MO  0.3 ST0.790 OM  0.6 f0 1.56 R0.1818 AL      WI      MW  0.2 3
 GAP=226        2.53      18.2     7.8 19.1  0.6061E+02  0.2163E+02 -0.2323E+03E
 LOCALITY: 148.3 Km al Este de Miches, Oceano Atlantico.                       3
 SPEC AGPRBH N MO 13.0 ST0.721 OM  1.9 f0 3.54 R0.3857 AL-0.00 WI 20.0 MW  2.6 3
 SPEC AGPRBH N T 25647 K 0.020 GD 80.1 VS 3.69 DE 2.81 Q0400.0 QA 0.70 Q1 0.00 3
 SPEC PCDRHN N MO 13.1 ST0.160 OM  2.0 f0 1.88 R0.7262 AL-0.00 WI 20.0 MW  2.7 3
 SPEC PCDRHN N T 25651 K 0.020 GD 94.0 VS 3.69 DE 2.81 Q0400.0 QA 0.70 Q1 0.00 3
 SPEC CRPRBH N MO 12.7 ST  2.1 OM  1.5 f0 6.14 R0.2224 AL-0.00 WI 20.0 MW  2.4 3
 SPEC CRPRBH N T 257 1 K 0.020 GD  110 VS 3.69 DE 2.81 Q0400.0 QA 0.70 Q1 0.00 3
 SPEC HMDRBH N MO 12.4 ST0.124 OM  1.1 f0 3.05 R0.4476 AL-0.00 WI 20.0 MW  2.2 3
 SPEC HMDRBH N T 25716 K 0.020 GD  136 VS 3.69 DE 2.81 Q0400.0 QA 0.70 Q1 0.00 3
 2020-02-01-0256-00S.MAN___147                                                 6
 OLDACT:ARG 20-02-01 05:35 OP:njm  STATUS:               ID:20200201025600     3
 OLDACT:UP  20-02-01 11:21 OP:AMMR STATUS:               ID:20200201025600     3
 ACTION:UP  22-01-05 18:33 OP:JMLC STATUS:               ID:20200201025625 L   I
 OLDACT:UP  21-11-07 23:20 OP:CGRS STATUS:               ID:20200201025625 L   3
 OLDACT:UP  21-11-07 23:20 OP:CGRS STATUS:               ID:20200201025625 L   3
 OLDACT:UP  21-11-07 16:52 OP:CGRS STATUS:               ID:20200201025625 L   3
 OLDACT:UP  21-11-07 16:45 OP:CGRS STATUS:               ID:20200201025625 L   3
 OLDACT:UP  20-04-19 16:58 OP:JMLC STATUS:               ID:20200201025625 L   3
 STAT SP IPHASW D HRMM SECON CODA AMPLIT PERI AZIMU VELO AIN AR TRES W  DIS CAZ7
 AGPR BZ IP     C  256 39.08   39                         90   -0.4410 80.1 136 
 AGPR BN IS     C  256 49.44                              90    0.3610 80.1 136 
 AGPR BN  IAML     256 49.92        55.1 0.95                          80.1 136 
 AGPR BE  IAML     256 51.75        59.7 0.25                          80.1 136 
 PCDR HZ IP     C  256 40.23   36                         90   -1.5410 94.0 236 
 PCDR HN IS     C  256 52.40                              90   -0.6010 94.0 236 
 PCDR HE  IAML     256 53.12        61.1 1.70                          94.0 236 
 PCDR HN  IAML     256 54.17        24.6 0.40                          94.0 236 
 PCDR BN  IAML     257 21.11        65.1 1.04                          94.0 236 
 CRPR BZ IP     C  256 46.41   38                         90   -0.0710  123 152 
 CRPR BN IS     C  257  1.91                              90    0.7210  123 152 
 CRPR BN  IAML     257  6.27        51.6 0.50                           123 152 
 CRPR BE  IAML     257  6.35        34.8 0.45                           123 152 
 MIDR HZ IP     C  256 49.39   43                         50   -1.0210  148 270 
 MIDR HN IS     C  257  9.12                              50    1.1010  148 270 
 MIDR HE  IAML     257  9.63        17.7 0.70             94            148 270 
 MIDR HN  IAML     257 10.14        28.3 0.30                           148 270 
 MIDR BN  IAML     257 10.14        28.3 0.30                           148 270 
 HMDR BZ IP        256 54.62   44                         50   -0.3410  185 263 
 HMDR BN IS     C  257 17.76                              50    1.8210  185 263 
 HMDR BE  IAML     257 18.07        11.2 1.55             94            185 263 
 HMDR BN  IAML     257 18.67         6.2 0.50                           185 263 
                                                                                
