 2020 10 2 2014 53.60L  19.218 -69.627 97.0  DOM 16 0.8 3.2LDOM 3.5CDOM 3.4WDOM1
 SPEC AVERAGE  MO 14.3 ST134.6 OM  2.7 f0 6.86 R0.9242 AL 0.00 WI 20.0 MW  3.4 3
 SPEC SD       MO  0.5 ST255.0 OM  0.6 f0 5.20 R1.9807 AL      WI      MW  0.4 3
 GAP=114        2.25       7.3     4.7  9.1  0.1434E+02  0.1006E+02  0.4132E+01E
 SPEC NADRBH N MO 14.4 ST 84.1 OM  2.9 f0 6.97 R0.2378 AL-0.00 WI 20.0 MW  3.6 3
 SPEC NADRBH N T201515 K 0.020 GD  101 VS 4.48 DE 3.40 Q0400.0 QA 0.70 Q1 0.00 3
 SPEC SMDRBH N MO 14.2 ST  3.1 OM  2.7 f0 2.64 R0.6279 AL-0.00 WI 20.0 MW  3.4 3
 SPEC SMDRBH N T201517 K 0.020 GD  107 VS 4.48 DE 3.40 Q0400.0 QA 0.70 Q1 0.00 3
 SPEC NAVIBH N MO 15.0 ST999.9 OM  3.5 f0 12.9 R0.1285 AL-0.00 WI 20.0 MW  4.0 3
 SPEC NAVIBH N T201516 K 0.020 GD  109 VS 4.48 DE 3.40 Q0400.0 QA 0.70 Q1 0.00 3
 SPEC HMDRBH N MO 13.7 ST 20.8 OM  2.1 f0 7.83 R0.2117 AL-0.00 WI 20.0 MW  3.0 3
 SPEC HMDRBH N T201516 K 0.020 GD  111 VS 4.48 DE 3.40 Q0400.0 QA 0.70 Q1 0.00 3
 SPEC CADRBH N MO 15.9 ST0.057 OM  4.3 f00.201 R8.2468 AL-0.00 WI 20.0 MW  4.5 3
 SPEC CADRBH N T201518 K 0.020 GD  113 VS 4.48 DE 3.40 Q0400.0 QA 0.70 Q1 0.00 3
 SPEC MIDRHH N MO 13.8 ST235.7 OM  2.2 f0 16.0 R0.1036 AL-0.00 WI 20.0 MW  3.1 3
 SPEC MIDRHH N T201518 K 0.020 GD  117 VS 4.48 DE 3.40 Q0400.0 QA 0.70 Q1 0.00 3
 SPEC ABDRBH N MO 13.9 ST  9.1 OM  2.2 f0 4.99 R0.3322 AL-0.00 WI 20.0 MW  3.2 3
 SPEC ABDRBH N T201527 K 0.020 GD  149 VS 4.48 DE 3.40 Q0400.0 QA 0.70 Q1 0.00 3
 SPEC SC01BH N MO 13.9 ST  1.7 OM  2.2 f0 2.85 R0.5816 AL-0.00 WI 20.0 MW  3.2 3
 SPEC SC01BH N T201525 K 0.020 GD  152 VS 4.48 DE 3.40 Q0400.0 QA 0.70 Q1 0.00 3
 SPEC HIDRBH N MO 14.6 ST 43.0 OM  2.9 f0 4.85 R0.3418 AL-0.00 WI 20.0 MW  3.7 3
 SPEC HIDRBH N T201526 K 0.020 GD  153 VS 4.48 DE 3.40 Q0400.0 QA 0.70 Q1 0.00 3
 SPEC BADRBH N MO 14.0 ST 48.9 OM  2.3 f0 8.02 R0.2067 AL-0.00 WI 20.0 MW  3.3 3
 SPEC BADRBH N T201528 K 0.020 GD  153 VS 4.48 DE 3.40 Q0400.0 QA 0.70 Q1 0.00 3
 SPEC SADRBH N MO 14.2 ST  1.8 OM  2.5 f0 2.20 R0.7535 AL-0.00 WI 20.0 MW  3.4 3
 SPEC SADRBH N T201532 K 0.020 GD  174 VS 4.48 DE 3.40 Q0400.0 QA 0.70 Q1 0.00 3
 SPEC PCDRBH N MO 14.1 ST  2.1 OM  2.3 f0 2.64 R0.6279 AL-0.00 WI 20.0 MW  3.3 3
 SPEC PCDRBH N T201534 K 0.020 GD  181 VS 4.48 DE 3.40 Q0400.0 QA 0.70 Q1 0.00 3
 SPEC SDDRBH N MO 14.3 ST0.475 OM  2.5 f0 1.34 R1.2370 AL-0.00 WI 20.0 MW  3.5 3
 SPEC SDDRBH N T201537 K 0.020 GD  201 VS 4.48 DE 3.40 Q0400.0 QA 0.70 Q1 0.00 3
 SPEC REDRBH N MO 14.0 ST380.5 OM  2.1 f0 16.0 R0.1036 AL-0.00 WI 20.0 MW  3.3 3
 SPEC REDRBH N T201545 K 0.020 GD  238 VS 4.48 DE 3.40 Q0400.0 QA 0.70 Q1 0.00 3
 SPEC MCDRBH N MO 13.9 ST187.1 OM  2.0 f0 13.5 R0.1228 AL-0.00 WI 20.0 MW  3.2 3
 SPEC MCDRBH N T201548 K 0.020 GD  245 VS 4.48 DE 3.40 Q0400.0 QA 0.70 Q1 0.00 3
 LOCALITY: 2.2 Km al SO de Sanchez. Bahia de Samana.                           3
 2020-10-02-2014-00S.MAN___126                                                 6
 OLDACT:UP  20-10-02 21:22 OP:CGRS STATUS:               ID:20201002201400     3
 OLDACT:UP  20-10-02 21:22 OP:CGRS STATUS:               ID:20201002201400     3
 OLDACT:ARG 20-10-02 21:13 OP:plst STATUS:               ID:20201002201400     3
 OLDACT:UP  20-10-02 21:23 OP:CGRS STATUS:               ID:20201002201400     3
 OLDACT:UP  20-10-02 21:23 OP:CGRS STATUS:               ID:20201002201400     3
 OLDACT:UP  20-10-02 21:23 OP:CGRS STATUS:               ID:20201002201400     3
 OLDACT:UP  20-10-02 21:22 OP:CGRS STATUS:               ID:20201002201400     3
 ACTION:UP  22-01-06 16:15 OP:jmlc STATUS:               ID:20201002201453 L   I
 STAT SP IPHASW D HRMM SECON CODA AMPLIT PERI AZIMU VELO AIN AR TRES W  DIS CAZ7
 NADR BZ IP     C 2015  6.22   51                        162   -0.6410 28.4 302 
 NADR BN IS     C 2015 17.14                             162    0.5010 28.4 302 
 NADR BN  IAML    2015 18.21      1583.4 0.55                          28.4 302 
 SMDR BZ IP     C 2015  7.31   66                        152   -0.4110 46.8  80 
 SMDR BN IS     C 2015 18.57                             152    0.4410 46.8  80 
 SMDR BN  IAML    2015 19.19       610.3 0.35                          46.8  80 
 NAVI BZ IP     C 2015  7.76   58                        150   -0.2910 51.0 236 
 NAVI BN IS     C 2015 17.81                             150   -0.9110 51.0 236 
 NAVI BN  IAML    2015 19.08      7783.7 0.15                          51.0 236 
 HMDR BZ IP     C 2015  7.43   88                        148   -0.7910 54.2 151 
 HMDR BN IS     C 2015 17.90                             148   -1.1010 54.2 151 
 HMDR BN  IAML    2015 18.40       340.5 0.60                          54.2 151 
 CADR BZ IP     C 2015  9.04   44                        145    0.5410 59.5 327 
 CADR BN IS     C 2015 20.49                             145    1.0010 59.5 327 
 CADR BN  IAML    2015 22.26       646.5 0.25                          59.5 327 
 MIDR HZ IP     C 2015  8.67   85                        142   -0.2910 66.1 113 
 MIDR HN IS     C 2015 20.25                             142   -0.0410 66.1 113 
 MIDR BN  IAML    2015 20.65       450.4 0.12                          66.1 113 
 SDD  BN IS     C 2015 22.78                             133   -0.7010 89.0 200 
 SDD  BN  IAML    2016  3.28       102.7 0.90                          89.0 200 
 ABDR BZ IP     C 2015 13.24   71                        125   -0.2510  114 247 
 ABDR BN IS     C 2015 28.60                             125    0.4310  114 247 
 ABDR BN  IAML    2015 29.07       196.7 0.25                           114 247 
 SC01 BZ IP     C 2015 13.27   68                        124   -0.2210  118 281 
 SC01 BN IS     C 2015 27.01                             124   -1.1610  118 281 
 SC01 BN  IAML    2015 32.33       158.7 0.20                           118 281 
 HIDR BN  IAML    2015 30.03      2925.5 0.25                           119 126 
 BADR BN  IAML    2015 33.03       351.6 0.60                           119 221 
 HIDR BZ IP     C 2015 11.84   75                        124   -1.6910  119 126 
 HIDR BN IS     C 2015 28.46                             124    0.2210  119 126 
 BADR BZ IP     C 2015 14.54   77                        124    0.8210  119 221 
 BADR BN IS     C 2015 29.71                             124    1.1310  119 221 
 SADR BZ IP     C 2015 16.11   78                        117   -0.0510  145 142 
 SADR BN IS       2015 34.12                             117    1.3010  145 142 
 SADR BN  IAML    2015 42.07       195.0 0.60                           145 142 
 PCDR BZ IP     C 2015 16.44   71                        116   -0.5910  153 120 
 PCDR BN IS     C 2015 36.16                             116    1.8310  153 120 
 PCDR BN  IAML    2015 37.56       149.0 0.50                           153 120 
 SDDR BZ IP     C 2015 20.21   80                        111    0.5010  177 262 
 SDDR BN IS     C 2015 39.29                             111    0.3010  177 262 
 SDDR BN  IAML    2015 43.34       137.9 0.60                           177 262 
 REDR BZ IP     C 2015 23.73   94                        106   -0.5910  218 272 
 REDR BN IS     C 2015 46.77                             106   -0.2510  218 272 
 REDR BN  IAML    2015 49.20       267.4 0.15                           218 272 
 MCDR BZ IP     C 2015 24.54   86                        105   -0.5610  226 290 
 MCDR BN IS     C 2015 49.90                             105    1.5310  226 290 
 MCDR BN  IAML    2015 52.25       141.3 0.45                           226 290 
                                                                                
 2020 10 2 2051 58.90L  20.157 -70.876  1.2  DOM  7 0.5 2.4LDOM 3.0CDOM 2.7WDOM1
 SPEC AVERAGE  MO 13.1 ST0.416 OM  3.0 f0 2.99 R4.5204 AL 0.00 WI 20.0 MW  2.7 3
 SPEC SD       MO  1.1 ST0.443 OM  1.5 f0 2.14 R6.0039 AL      WI      MW  0.7 3
 GAP=144        1.30       6.4    13.2 16.7  0.6552E+02 -0.2014E+03 -0.8849E+02E
 SPEC REDRBH N MO 14.7 ST0.001 OM  3.7 f00.091 R 13.01 AL-0.00 WI 20.0 MW  3.7 3
 SPEC REDRBH N T205236 K 0.020 GD  114 VS 3.20 DE 2.60 Q0400.0 QA 0.70 Q1 0.00 3
 SPEC GRTKBH N MO 12.4 ST  1.0 OM  1.4 f0 5.20 R0.2277 AL-0.00 WI 20.0 MW  2.2 3
 SPEC GRTKBH N T205239 K 0.020 GD  123 VS 3.20 DE 2.60 Q0400.0 QA 0.70 Q1 0.00 3
 SPEC HMDRBH N MO 12.2 ST0.217 OM  1.1 f0 3.67 R0.3226 AL-0.00 WI 20.0 MW  2.1 3
 SPEC HMDRBH N T205253 K 0.020 GD  147 VS 3.20 DE 2.60 Q0400.0 QA 0.70 Q1 0.00 3
 LOCALITY: 34.5 Km al NNE de Luperon. Oceano Atlantico.                        3
 2020-10-02-2052-00S.MAN___126                                                 6
 OLDACT:UP  20-10-02 21:31 OP:CGRS STATUS:               ID:20201002205200     3
 OLDACT:ARG 20-10-02 21:25 OP:plst STATUS:               ID:20201002205200     3
 OLDACT:UP  20-10-02 21:35 OP:CGRS STATUS:               ID:20201002205200     3
 OLDACT:UP  20-10-02 21:34 OP:CGRS STATUS:               ID:20201002205200     3
 OLDACT:UP  20-10-02 21:34 OP:CGRS STATUS:               ID:20201002205200     3
 ACTION:UP  22-01-06 16:15 OP:jmlc STATUS:               ID:20201002205158 L   I
 OLDACT:UP  21-11-12 21:01 OP:AMMR STATUS:               ID:20201002205200     3
 OLDACT:UP  20-10-02 21:36 OP:CGRS STATUS:               ID:20201002205200     3
 STAT SP IPHASW D HRMM SECON CODA AMPLIT PERI AZIMU VELO AIN AR TRES W  DIS CAZ7
 SC01 BN  IAML    2052 28.22        67.6 2.45                          82.2 169 
 MCDR BN  IAML    2052 34.78        61.9 1.40                          86.7 250 
 REDR BZ IP     C 2052 20.78   39                         91    0.9110  130 222 
 REDR BN  IAML    2052 42.62        54.3 0.25                           130 222 
 SDDR BZ IP     C 2052 20.43   39                         70   -0.5210  137 198 
 SDDR BE IS     C 2052 36.99                              70   -0.3110  137 198 
 SDDR BN  IAML    2052 40.47        25.9 1.50                           137 198 
 GRTK BN IS     C 2052 40.86                              50   -0.0610  152 350 
 GRTK BN  IAML    2052 42.66        70.4 4.20                           152 350 
 NAVI BN ES     C 2052 42.97                              50    0.3410  160 146 
 NAVI BN  IAML    2052 45.79       870.8 0.20                           160 146 
 HMDR BZ IP     C 2052 30.65   50                         50   -0.6110  218 134 
 HMDR BN IS     C 2052 55.47                              50    0.2410  218 134 
                                                                                
 2020 10 2 2119 44.80L  18.560 -68.874189.0  DOM 11 0.9 2.9LDOM 3.1CDOM 2.9WDOM1
 SPEC AVERAGE  MO 13.4 ST162.1 OM  1.9 f0 11.5 R0.2057 AL 0.00 WI 20.0 MW  2.9 3
 SPEC SD       MO  0.6 ST322.2 OM  0.8 f0 4.78 R0.1593 AL      WI      MW  0.4 3
 GAP=100        2.34      28.0    10.3 16.2  0.1943E+03  0.3060E+02  0.2401E+03E
 SPEC HIDRBH N MO 13.7 ST191.0 OM  1.9 f0 16.0 R0.1034 AL-0.00 WI 20.0 MW  3.1 3
 SPEC HIDRBH N T212023 K 0.020 GD  189 VS 4.47 DE 3.40 Q0400.0 QA 0.70 Q1 0.00 3
 SPEC SADRBH N MO 14.0 ST  2.2 OM  2.2 f0 2.86 R0.5783 AL-0.00 WI 20.0 MW  3.3 3
 SPEC SADRBH N T212025 K 0.020 GD  193 VS 4.47 DE 3.40 Q0400.0 QA 0.70 Q1 0.00 3
 SPEC MIDRHH N MO 13.2 ST 62.2 OM  1.4 f0 16.0 R0.1034 AL-0.00 WI 20.0 MW  2.7 3
 SPEC MIDRHH N T212025 K 0.020 GD  195 VS 4.47 DE 3.40 Q0400.0 QA 0.70 Q1 0.00 3
 SPEC HMDRBH N MO 13.1 ST 22.2 OM  1.3 f0 12.2 R0.1356 AL-0.00 WI 20.0 MW  2.7 3
 SPEC HMDRBH N T212024 K 0.020 GD  198 VS 4.47 DE 3.40 Q0400.0 QA 0.70 Q1 0.00 3
 SPEC SMDRBH N MO 13.4 ST  2.9 OM  1.6 f0 4.82 R0.3431 AL-0.00 WI 20.0 MW  2.9 3
 SPEC SMDRBH N T212027 K 0.020 GD  208 VS 4.47 DE 3.40 Q0400.0 QA 0.70 Q1 0.00 3
 SPEC NAVIBH N MO 14.6 ST999.9 OM  2.7 f0 16.0 R0.1034 AL-0.00 WI 20.0 MW  3.7 3
 SPEC NAVIBH N T212034 K 0.020 GD  228 VS 4.47 DE 3.40 Q0400.0 QA 0.70 Q1 0.00 3
 SPEC MLPRBH N MO 12.4 ST  3.6 OM  0.5 f0 11.0 R0.1504 AL-0.00 WI 20.0 MW  2.2 3
 SPEC MLPRBH N T212043 K 0.020 GD  278 VS 4.47 DE 3.40 Q0400.0 QA 0.70 Q1 0.00 3
 SPEC CELPBH N MO 12.8 ST 13.1 OM  0.8 f0 12.9 R0.1282 AL-0.00 WI 20.0 MW  2.5 3
 SPEC CELPBH N T212052 K 0.020 GD  312 VS 4.47 DE 3.40 Q0400.0 QA 0.70 Q1 0.00 3
 LOCALITY: 18.1 Km al NE de La Romana. La Romana.                              3
 2020-10-02-2119-00S.MAN___126                                                 6
 OLDACT:ARG 20-10-02 21:36 OP:plst STATUS:               ID:20201002211900     3
 OLDACT:UP  20-10-02 22:13 OP:CGRS STATUS:               ID:20201002211900     3
 OLDACT:UP  20-10-02 22:13 OP:CGRS STATUS:               ID:20201002211900     3
 OLDACT:UP  20-10-02 22:12 OP:CGRS STATUS:               ID:20201002211900     3
 ACTION:UP  22-01-06 16:15 OP:jmlc STATUS:               ID:20201002211944 L   I
 OLDACT:UP  20-10-02 22:14 OP:CGRS STATUS:               ID:20201002211900     3
 STAT SP IPHASW D HRMM SECON CODA AMPLIT PERI AZIMU VELO AIN AR TRES W  DIS CAZ7
 HIDR BZ IP     C 2120  8.34   42                        175   -0.0810 17.1  78 
 HIDR BN IS     C 2120 25.24                             175   -0.6610 17.1  78 
 HIDR BN  IAML    2120 26.01       214.8 0.25                          17.1  78 
 SADR BZ IP     C 2120  8.34   36                        167   -0.5410 41.9 166 
 SADR BN  IAML    2120 28.40       116.7 0.29                          41.9 166 
 MIDR HZ IP     C 2120  9.44   40                        164    0.3110 50.4 338 
 MIDR HN IS     C 2120 27.47                             164    0.3410 50.4 338 
 MIDR BN  IAML    2120 28.68        78.3 0.12                          50.4 338 
 PCDR BN IS     C 2120 27.36                             164    0.1110 52.2  96 
 PCDR BN  IAML    2120 27.46       135.9 1.45                          52.2  96 
 HMDR BZ IP     C 2120  8.68   40                        162   -0.8110 59.1 295 
 HMDR BN IS     C 2120 26.36                             162   -1.4110 59.1 295 
 HMDR BN  IAML    2120 28.76        39.6 0.15                          59.1 295 
 SMDR BN IS     C 2120 29.37                             154   -0.4610 87.3 338 
 NAVI BE IS     C 2120 35.81                             144    1.3410  129 290 
 NAVI BN  IAML    2120 44.86       755.7 0.20                           129 290 
 BADR BZ IP     C 2120 15.03   57                        138   -0.4810  158 264 
 ABDR BE IS     C 2120 44.27                             133    1.4510  187 279 
 ABDR BN  IAML    2121 13.55        39.7 1.65                           187 279 
 MLPR BZ IP     C 2120 18.20   54                        130   -1.0610  204 108 
 MLPR BN IS     C 2120 44.97                             130    0.2010  204 108 
 CELP BN IP     C 2120 23.48   59                        125    0.0310  249 102 
 CELP BE IS     C 2120 53.78                             125    1.7210  249 102 
 CELP BN  IAML    2121  0.32        11.4 3.04                           249 102 
                                                                                
 2020 10 2 2159 42.90L  19.165 -69.351 20.0  DOM  6 0.3 2.1LDOM 2.5CDOM 2.6WDOM1
 SPEC AVERAGE  MO 13.0 ST  2.0 OM  2.9 f0 7.98 R4.4119 AL 0.00 WI 20.0 MW  2.6 3
 SPEC SD       MO  1.8 ST  2.3 OM  1.7 f0 6.50 R6.0805 AL      WI      MW  1.2 3
 GAP=138        0.79       2.6     3.3 12.9  0.3202E+01  0.3543E+02  0.1566E+02E
 SPEC BADRBH N MO 15.6 ST0.008 OM  4.5 f00.091 R 13.01 AL-0.00 WI 20.0 MW  4.3 3
 SPEC BADRBH N T22 017 K 0.020 GD  137 VS 3.20 DE 2.60 Q0400.0 QA 0.70 Q1 0.00 3
 SPEC HMDRBH N MO 11.8 ST0.842 OM  1.2 f0 7.85 R0.1508 AL-0.00 WI 20.0 MW  1.8 3
 SPEC HMDRBH N T215953 K 0.020 GD 46.4 VS 3.20 DE 2.60 Q0400.0 QA 0.70 Q1 0.00 3
 SPEC MIDRHH N MO 11.7 ST  5.2 OM  1.1 f0 16.0 R0.0740 AL-0.00 WI 20.0 MW  1.7 3
 SPEC MIDRHH N T215953 K 0.020 GD 42.5 VS 3.20 DE 2.60 Q0400.0 QA 0.70 Q1 0.00 3
 LOCALITY: 8.7 Km al NE de Sabana de la Mar. Bahia de Samana.                  3
 2020-10-02-2159-00S.MAN___126                                                 6
 OLDACT:ARG 20-10-03 00:06 OP:plst STATUS:               ID:20201002215900     3
 OLDACT:UP  20-10-03 00:19 OP:AMMR STATUS:               ID:20201002215900     3
 OLDACT:UP  20-10-03 00:19 OP:AMMR STATUS:               ID:20201002215900     3
 OLDACT:UP  20-10-03 00:18 OP:AMMR STATUS:               ID:20201002215900     3
 ACTION:UP  22-01-06 16:15 OP:jmlc STATUS:               ID:20201002215942 L   I
 OLDACT:UP  20-10-03 00:31 OP:AMMR STATUS:               ID:20201002215900     3
 STAT SP IPHASW D HRMM SECON CODA AMPLIT PERI AZIMU VELO AIN AR TRES W  DIS CAZ7
 SMDR BZ EPg    D 2159 47.25   17                        130   -0.3610 21.9  51 
 SMDR BN ESg      2159 51.40                             130    0.3410 21.9  51 
 SMDR BN  IAML    2159 52.48       107.1 0.40                          21.9  51 
 MIDR HZ EPg      2159 49.19   22                        114   -0.4310 37.5 122 
 MIDR HN ESg    C 2159 54.61                             114    0.0510 37.5 122 
 MIDR BN  IAML    2159 54.69        70.5 0.38                          37.5 122 
 HMDR BZ EPg    C 2159 50.02   26                        112   -0.2410 41.9 184 
 HMDR BN ESg      2159 56.05                             112    0.3710 41.9 184 
 HMDR BN  IAML    2159 56.30        56.5 0.40                          41.9 184 
 NAVI BN  IAML    22 0  5.18       509.0 0.20                          74.8 252 
 BADR BN  IAML    22 0 36.62       117.4 1.05                           136 232 
 REDR BZ EPg      22 0 21.41   54                         92    0.2510  247 273 
 REDR BN ESg      22 0 49.48                              92    0.0310  247 273 
 REDR BN  IAML    22 0 52.00        16.6 0.55                           247 273 
                                                                                
