 2020 12 1 0857 43.90L  19.704 -64.164 34.5  DOM  8 0.7 3.3LDOM 3.8CDOM 3.4WDOM1
 SPEC AVERAGE  MO 14.2 ST 20.5 OM  3.6 f0 5.05 R0.3531 AL 0.00 WI 20.0 MW  3.4 3
 SPEC SD       MO  0.2 ST  7.7 OM  1.5 f0 1.30 R0.0909 AL      WI      MW  0.1 3
 GAP=339        1.85      32.9   102.1423.5 -0.1949E+04  0.4167E+05 -0.5448E+04E
 LOCALITY: Distante.                                                           3
 SPEC AOPRBH N MO 14.4 ST 12.8 OM  2.4 f0 3.75 R0.4440 AL-0.00 WI 20.0 MW  3.5 3
 SPEC AOPRBH N T 85854 K 0.020 GD  312 VS 4.50 DE 3.40 Q0400.0 QA 0.70 Q1 0.00 3
 SPEC PRSNBH N MO 14.1 ST 28.2 OM  2.0 f0 6.35 R0.2622 AL-0.00 WI 20.0 MW  3.3 3
 SPEC PRSNBH N T 859 2 K 0.020 GD  355 VS 4.50 DE 3.40 Q0400.0 QA 0.70 Q1 0.00 3
 2020-12-01-0857-00S.MAN___123                                                 6
 OLDACT:ARG 20-12-01 10:17 OP:njm  STATUS:               ID:20201201085700     3
 OLDACT:UP  20-12-01 10:46 OP:JMLC STATUS:               ID:20201201085700     3
 ACTION:UP  22-01-13 17:41 OP:jmlc STATUS:               ID:20201201085743 L   I
 OLDACT:UP  21-11-09 11:03 OP:CGRS STATUS:               ID:20201201085700     3
 OLDACT:UP  21-11-09 11:03 OP:CGRS STATUS:               ID:20201201085700     3
 OLDACT:UP  21-11-09 10:54 OP:CGRS STATUS:               ID:20201201085700     3
 OLDACT:UP  20-12-01 10:46 OP:JMLC STATUS:               ID:20201201085700     3
 STAT SP IPHASW D HRMM SECON CODA AMPLIT PERI AZIMU VELO AIN AR TRES W  DIS CAZ7
 AOPR BZ IP     C  858 24.84   70                         80   -0.2210  311 242 
 AOPR BE IS     D  858 56.38                              80    0.8310  311 242 
 AOPR BN  IAML     859  1.84       150.7 0.28                           311 242 
 CELP BZ IP     C  858 24.97   68                         80   -0.1110  312 235 
 CELP BE IS     C  858 54.56                              80   -1.0210  312 235 
 CELP BN  IAML     859  0.48        20.4 2.00                           312 235 
 PRSN BZ IP     D  858 30.73   67                         80    0.4310  354 243 
 PRSN BE IS     C  859  4.38                              80   -0.2710  354 243 
 PRSN BN  IAML     859  8.04       221.0 0.28                           354 243 
 MLPR BZ IP     C  858 30.87   74                         80   -0.0110  359 238 
 MLPR BE IS     C  859  6.83                              80    1.1710  359 238 
 MLPR BN  IAML     859 17.79        12.3 1.48                           359 238 
 CRPR BZ IP     D  858 31.35   69                         80    0.2410  361 239 
 CRPR BE IS     D  859  5.31                              80   -0.7510  361 239 
 CRPR BN  IAML     859 25.45        48.2 2.92                           361 239 
 PCDR BZ IP     C  858 43.29   92                         77   -0.2310  463 254 
 PCDR BN  IAML     9 0  6.41        71.3 2.10                           463 254 
 HIDR BZ IP     C  858 46.28   70                         77   -1.0610  494 256 
 HIDR BN  IAML     9 0 45.42        23.9 0.55                           494 256 
 SADR BZ IP     C  858 50.73   78                         77    1.0110  514 252 
 SADR BN  IAML     9 0 19.36       116.1 1.25                           514 252 
                                                                                
 2020 12 1 0906 11.40L  18.072 -71.505 12.9  DOM  6 0.7 2.5LDOM 2.6CDOM 2.8WDOM1
 SPEC AVERAGE  MO 13.3 ST  5.7 OM  3.0 f0 5.81 R0.2642 AL 0.00 WI 20.0 MW  2.8 3
 SPEC SD       MO  0.2 ST  2.7 OM  1.0 f0 1.75 R0.0663 AL      WI      MW  0.2 3
 GAP=249        1.53       7.9     6.1  7.8  0.1539E+02  0.2266E+02  0.1544E+00E
 SPEC NEDRBH N MO 13.6 ST  7.4 OM  2.7 f0 4.93 R0.2882 AL-0.00 WI 20.0 MW  3.0 3
 SPEC NEDRBH N T 9 622 K 0.020 GD 47.5 VS 3.84 DE 2.87 Q0400.0 QA 0.70 Q1 0.00 3
 SPEC JIDRBH N MO 13.2 ST  4.2 OM  2.2 f0 5.49 R0.2588 AL-0.00 WI 20.0 MW  2.8 3
 SPEC JIDRBH N T 9 629 K 0.020 GD 60.9 VS 3.84 DE 2.87 Q0400.0 QA 0.70 Q1 0.00 3
 SPEC BADRBH N MO 13.3 ST  2.2 OM  2.0 f0 4.10 R0.3465 AL-0.00 WI 20.0 MW  2.8 3
 SPEC BADRBH N T 9 646 K 0.020 GD  122 VS 3.84 DE 2.87 Q0400.0 QA 0.70 Q1 0.00 3
 SPEC REDRBH N MO 12.9 ST  8.9 OM  1.6 f0 8.71 R0.1631 AL-0.00 WI 20.0 MW  2.6 3
 SPEC REDRBH N T 9 646 K 0.020 GD  130 VS 3.84 DE 2.87 Q0400.0 QA 0.70 Q1 0.00 3
 LOCALITY: 21.7 Km al NE de Cabo Rojo. Pedernales.                             3
 2020-12-01-0905-00S.MAN___123                                                 6
 OLDACT:ARG 20-12-01 10:18 OP:njm  STATUS:               ID:20201201090500     3
 OLDACT:UP  20-12-01 10:58 OP:JMLC STATUS:               ID:20201201090500     3
 OLDACT:UP  20-12-01 10:58 OP:JMLC STATUS:               ID:20201201090500     3
 ACTION:UP  22-01-13 17:41 OP:jmlc STATUS:               ID:20201201090611 L   I
 OLDACT:UP  20-12-01 11:30 OP:JMLC STATUS:               ID:20201201090500     3
 STAT SP IPHASW D HRMM SECON CODA AMPLIT PERI AZIMU VELO AIN AR TRES W  DIS CAZ7
 PODR BZ IP     C  9 6 15.76   21                        113   -0.4510 25.8  66 
 PODR BE IS     C  9 6 19.61                             113   -0.1210 25.8  66 
 PODR BN  IAML     9 6 21.31      2134.7 0.45                          25.8  66 
 NEDR BZ IP     D  9 6 18.23   24                         94   -0.8110 45.7   5 
 NEDR BN IS     C  9 6 24.48                              94   -0.1910 45.7   5 
 NEDR BN  IAML     9 6 24.63       877.2 0.20                          45.7   5 
 JIDR BZ IP     C  9 6 21.73   31                         92    0.6010 59.5 322 
 JIDR BE IS   3 C  9 6 31.21                              92    2.92 2 59.5 322 
 JIDR BN  IAML     9 6 32.49       192.7 0.15                          59.5 322 
 ABDR BZ IP     C  9 6 31.02   41                         91    0.0010  124  48 
 ABDR BE IS     C  9 6 46.68                              91    1.1810  124  48 
 ABDR BN  IAML     9 6 49.06        65.0 0.70                           124  48 
 BADR BZ IP     C  9 6 31.61   42                         55    0.3210  126  73 
 BADR BN  IAML     9 6 51.28       109.3 0.80                           126  73 
 REDR BZ IP     C  9 6 31.77   45                         55   -0.5810  135 351 
 REDR BE IS     C  9 6 47.68                              55   -0.1310  135 351 
 REDR BN  IAML     9 6 49.88        86.2 0.25                           135 351 
                                                                                
 2020 12 1 0959 13.80L  18.594 -72.591 12.5  DOM  7 0.7 3.1LDOM 3.0CDOM 2.8WDOM1
 SPEC AVERAGE  MO 13.3 ST  2.3 OM  2.7 f0 3.78 R1.7616 AL 0.00 WI 20.0 MW  2.8 3
 SPEC SD       MO  1.0 ST  3.0 OM  1.0 f0 3.24 R3.0551 AL      WI      MW  0.6 3
 GAP=199        1.78       6.6    11.3 33.6  0.3121E+02  0.3208E+03  0.7291E+02E
 SPEC JIDRBH N MO 12.9 ST  5.0 OM  2.0 f0 6.42 R0.1844 AL-0.00 WI 20.0 MW  2.5 3
 SPEC JIDRBH N T 95933 K 0.020 GD 79.6 VS 3.20 DE 2.60 Q0400.0 QA 0.70 Q1 0.00 3
 SPEC NEDRBH N MO 13.0 ST0.388 OM  2.0 f0 2.42 R0.4893 AL-0.00 WI 20.0 MW  2.6 3
 SPEC NEDRBH N T 95947 K 0.020 GD  115 VS 3.20 DE 2.60 Q0400.0 QA 0.70 Q1 0.00 3
 SPEC REDRBH N MO 12.5 ST  7.9 OM  1.5 f0 9.66 R0.1226 AL-0.00 WI 20.0 MW  2.3 3
 SPEC REDRBH N T 95945 K 0.020 GD  116 VS 3.20 DE 2.60 Q0400.0 QA 0.70 Q1 0.00 3
 SPEC PODRBH N MO 13.4 ST0.364 OM  2.3 f0 1.78 R0.6652 AL-0.00 WI 20.0 MW  2.9 3
 SPEC PODRBH N T 95952 K 0.020 GD  136 VS 3.20 DE 2.60 Q0400.0 QA 0.70 Q1 0.00 3
 SPEC BADRBH N MO 15.4 ST0.016 OM  4.1 f00.138 R8.5797 AL-0.00 WI 20.0 MW  4.2 3
 SPEC BADRBH N T10 020 K 0.020 GD  205 VS 3.20 DE 2.60 Q0400.0 QA 0.70 Q1 0.00 3
 SPEC QMBUHH N MO 12.6 ST0.131 OM  1.3 f0 2.24 R0.5286 AL-0.00 WI 20.0 MW  2.4 3
 SPEC QMBUHH N T10 035 K 0.020 GD  247 VS 3.20 DE 2.60 Q0400.0 QA 0.70 Q1 0.00 3
 LOCALITY: 81.5 Km al Oeste de Jimani. Canal du Sud.                           3
 2020-12-01-0958-00S.MAN___123                                                 6
 OLDACT:UP  20-12-01 11:04 OP:JMLC STATUS:               ID:20201201095800     3
 OLDACT:ARG 20-12-01 10:18 OP:njm  STATUS:               ID:20201201095800     3
 OLDACT:UP  20-12-01 11:05 OP:JMLC STATUS:               ID:20201201095800     3
 OLDACT:UP  20-12-01 11:04 OP:JMLC STATUS:               ID:20201201095800     3
 OLDACT:UP  20-12-01 11:04 OP:JMLC STATUS:               ID:20201201095800     3
 ACTION:UP  22-01-13 17:41 OP:jmlc STATUS:               ID:20201201095913 L   I
 OLDACT:UP  21-11-09 11:20 OP:CGRS STATUS:               ID:20201201095800     3
 OLDACT:UP  20-12-01 11:32 OP:JMLC STATUS:               ID:20201201095800     3
 STAT SP IPHASW D HRMM SECON CODA AMPLIT PERI AZIMU VELO AIN AR TRES W  DIS CAZ7
 JIDR BZ IP     C  959 25.30   39                         91   -1.1310 78.6  98 
 JIDR BE ESg    D  959 34.87                              91   -0.8610 78.6  98 
 JIDR BN  IAML     959 38.81      1055.0 0.30                          78.6  98 
 NEDR BZ EPg    C  959 33.29   33                         90    0.7210  119  96 
 NEDR BE ESg    D  959 47.65                              90    1.2310  119  96 
 NEDR BN  IAML     959 53.91       321.3 0.30                           119  96 
 REDR BZ IP     C  959 32.45   40                         90   -0.3410  120  51 
 REDR BE ESg    D  959 47.12                              90    0.3110  120  51 
 REDR BN  IAML     959 56.95       370.0 0.30                           120  51 
 PODR BZ IP   3 C  959 36.20   47                         55   -0.08 2  146 109 
 PODR BN  IAML    10 0  0.96       767.7 0.25                           146 109 
 MCDR BZ EPg    C  959 41.48   39                         90    0.5910  174  34 
 MCDR BE ESg    D 10 0  0.35                              90   -0.5510  174  34 
 MCDR BN  IAML    10 0  6.63       545.9 0.30                           174  34 
 BADR BZ EPg    C  959 50.24   44                         90   -0.1610  236  95 
 QMBU HZ IP     C  959 54.56   69                         54    0.1810  293 308 
 QMBU BN  IAML    10 1 15.79        12.5 2.10                           293 308 
                                                                                
 2020 12 1 1004 31.00L  17.998 -71.395 17.2  DOM  3 0.5 2.5LDOM 2.5CDOM 2.7WDOM1
 SPEC AVERAGE  MO 13.2 ST0.363 OM  2.9 f0 3.49 R2.4399 AL 0.00 WI 20.0 MW  2.7 3
 SPEC SD       MO  1.0 ST0.254 OM  1.4 f0 2.53 R3.0080 AL      WI      MW  0.6 3
 GAP=286        1.19      11.8     6.1  5.4  0.1147E+02  0.1432E+02 -0.8964E+01E
 SPEC PODRBH N MO 12.9 ST0.556 OM  2.1 f0 3.85 R0.3911 AL-0.00 WI 20.0 MW  2.5 3
 SPEC PODRBH N T10 437 K 0.020 GD 28.0 VS 4.07 DE 3.04 Q0400.0 QA 0.70 Q1 0.00 3
 SPEC JIDRBH N MO 14.5 ST0.005 OM  3.3 f00.225 R6.6929 AL-0.00 WI 20.0 MW  3.6 3
 SPEC JIDRBH N T10 450 K 0.020 GD 75.2 VS 4.07 DE 3.04 Q0400.0 QA 0.70 Q1 0.00 3
 SPEC REDRBH N MO 12.2 ST0.528 OM  0.7 f0 6.39 R0.2357 AL-0.00 WI 20.0 MW  2.1 3
 SPEC REDRBH N T10 5 6 K 0.020 GD  146 VS 4.07 DE 3.04 Q0400.0 QA 0.70 Q1 0.00 3
 LOCALITY: 15.7 Km al SO de Polo. Barahona.                                    3
 2020-12-01-1003-00S.MAN___123                                                 6
 OLDACT:ARG 20-12-01 11:08 OP:njm  STATUS:               ID:20201201100300     3
 OLDACT:UP  20-12-01 11:13 OP:JMLC STATUS:               ID:20201201100300     3
 OLDACT:UP  20-12-01 11:12 OP:JMLC STATUS:               ID:20201201100300     3
 ACTION:UP  22-01-13 17:41 OP:jmlc STATUS:               ID:20201201100431 L   I
 OLDACT:UP  20-12-01 11:35 OP:JMLC STATUS:               ID:20201201100300     3
 STAT SP IPHASW D HRMM SECON CODA AMPLIT PERI AZIMU VELO AIN AR TRES W  DIS CAZ7
 PODR BZ IP     C 10 4 35.27   20                        127   -0.3510 22.1  33 
 PODR BE IS     D 10 4 39.24                             127    0.2010 22.1  33 
 PODR BN  IAML    10 4 43.00      1679.5 0.35                          22.1  33 
 JIDR BZ IP     C 10 4 42.37   31                         97   -0.4510 73.2 319 
 JIDR BE IS     C 10 4 51.81                              97    0.2610 73.2 319 
 JIDR BN  IAML    10 4 54.30       188.1 0.30                          73.2 319 
 REDR BZ IP     C 10 4 53.61   36                         55    0.8010  145 347 
 REDR BE IS     C 10 5  8.48                              55   -0.4610  145 347 
 REDR BN  IAML    10 5  9.07        37.8 0.25                           145 347 
                                                                                
 2020 12 1 1054 23.80L  18.516 -68.700116.0  DOM  9 0.8 2.9LDOM 3.2CDOM 3.1WDOM1
 SPEC AVERAGE  MO 13.8 ST 44.2 OM  2.4 f0 5.78 R0.3670 AL 0.00 WI 20.0 MW  3.1 3
 SPEC SD       MO  0.4 ST 99.2 OM  0.5 f0 3.63 R0.1953 AL      WI      MW  0.3 3
 GAP=101        1.97      22.6     6.1  9.6  0.6896E+02 -0.1939E+01 -0.1684E+02E
 SPEC HIDRBH N MO 14.1 ST305.5 OM  2.5 f0 13.9 R0.1185 AL-0.00 WI 20.0 MW  3.3 3
 SPEC HIDRBH N T105448 K 0.020 GD  116 VS 4.45 DE 3.40 Q0400.0 QA 0.70 Q1 0.00 3
 SPEC SADRBH N MO 14.2 ST  3.6 OM  2.6 f0 2.88 R0.5717 AL-0.00 WI 20.0 MW  3.4 3
 SPEC SADRBH N T105449 K 0.020 GD  121 VS 4.45 DE 3.40 Q0400.0 QA 0.70 Q1 0.00 3
 SPEC PCDRBH N MO 14.0 ST  1.3 OM  2.4 f0 2.42 R0.6804 AL-0.00 WI 20.0 MW  3.3 3
 SPEC PCDRBH N T105451 K 0.020 GD  120 VS 4.45 DE 3.40 Q0400.0 QA 0.70 Q1 0.00 3
 SPEC SMDRBH N MO 14.0 ST  3.6 OM  2.3 f0 3.30 R 0.499 AL-0.00 WI 20.0 MW  3.3 3
 SPEC SMDRBH N T105459 K 0.020 GD16.30 VS 4.45 DE 3.40 Q0400.0 QA 0.70 Q1      3
 SPEC BADRBH N MO 14.0 ST 20.0 OM  2.2 f0 5.78 R0.2849 AL-0.00 WI 20.0 MW  3.3 3
 SPEC BADRBH N T105510 K 0.020 GD  210 VS 4.45 DE 3.40 Q0400.0 QA 0.70 Q1 0.00 3
 SPEC CRPRBH N MO 13.5 ST  5.0 OM  1.7 f0 5.31 R0.3101 AL-0.00 WI 20.0 MW  3.0 3
 SPEC CRPRBH N T105513 K 0.020 GD  213 VS 4.45 DE 3.40 Q0400.0 QA 0.70 Q1 0.00 3
 SPEC MLPRBH N MO 12.9 ST  1.2 OM  1.1 f0 5.21 R0.3160 AL-0.00 WI 20.0 MW  2.6 3
 SPEC MLPRBH N T105511 K 0.020 GD  218 VS 4.45 DE 3.40 Q0400.0 QA 0.70 Q1 0.00 3
 SPEC AOPRBH N MO 14.3 ST 11.9 OM  2.4 f0 4.01 R0.4106 AL-0.00 WI 20.0 MW  3.5 3
 SPEC AOPRBH N T105517 K 0.020 GD  237 VS 4.45 DE 3.40 Q0400.0 QA 0.70 Q1 0.00 3
 SPEC CELPBH N MO 13.2 ST  4.9 OM  1.3 f0 6.74 R0.2443 AL-0.00 WI 20.0 MW  2.7 3
 SPEC CELPBH N T105522 K 0.020 GD  257 VS 4.45 DE 3.40 Q0400.0 QA 0.70 Q1 0.00 3
 LOCALITY: 5.0 Km al OSO de San Rafael del Yuma, La Altagracia.                3
 2020-12-01-1053-00S.MAN___123                                                 6
 OLDACT:UP  20-12-01 11:18 OP:JMLC STATUS:               ID:20201201105300     3
 OLDACT:ARG 20-12-01 11:09 OP:njm  STATUS:               ID:20201201105300     3
 OLDACT:UP  20-12-01 11:21 OP:JMLC STATUS:               ID:20201201105300     3
 OLDACT:UP  20-12-01 11:20 OP:JMLC STATUS:               ID:20201201105300     3
 ACTION:UP  22-01-13 17:41 OP:jmlc STATUS:               ID:20201201105423 L   I
 OLDACT:UP  21-11-09 11:48 OP:CGRS STATUS:               ID:20201201105300     3
 OLDACT:UP  20-12-01 11:39 OP:JMLC STATUS:               ID:20201201105300     3
 STAT SP IPHASW D HRMM SECON CODA AMPLIT PERI AZIMU VELO AIN AR TRES W  DIS CAZ7
 HIDR BZ IP     D 1054 37.64   32                        175   -1.1110 8.56 350 
 HIDR BE IS     D 1054 49.97                             175    0.1310 8.56 350 
 HIDR BN  IAML    1054 50.77      1676.7 0.25                          8.56 350 
 PCDR BZ IP     C 1054 38.56   45                        162   -0.7610 33.7  90 
 PCDR BE ISg    C 1054 51.42                             162    0.6010 33.7  90 
 PCDR BN  IAML    1054 53.82       227.8 0.65                          33.7  90 
 SADR BZ IP     C 1054 38.01   36                        161   -1.4110 36.7 193 
 SADR BE IS     D 1054 51.30                             161    0.3010 36.7 193 
 SADR BN  IAML    1054 52.03       410.5 0.75                          36.7 193 
 BADR BZ IP     C 1054 50.56   62                        118   -0.1610  176 266 
 BADR BE IS     C 1055 11.51                             118    0.8510  176 266 
 BADR BN  IAML    1055 15.33       147.3 0.25                           176 266 
 CRPR BZ IP     D 1054 50.62   67                        118   -0.3510  179 108 
 CRPR BE ESg    C 1055 11.18                             118    0.0810  179 108 
 CRPR BN  IAML    1055 23.76        58.1 0.52                           179 108 
 MLPR BZ IP   3 C 1054 51.38   73                        117   -0.20 2  185 109 
 MLPR BN  IAML    1055 20.30        16.6 0.24                           185 109 
 ABDR BZ IP     C 1054 53.34   55                        114   -0.7710  206 279 
 ABDR BE IS     C 1055 17.31                             114    0.7610  206 279 
 ABDR BN  IAML    1055 21.46        94.5 0.20                           206 279 
 AOPR BZ IP     C 1054 54.57   61                        114    0.6910  207  95 
 AOPR BN  IAML    1055 25.52       236.4 0.28                           207  95 
 CELP BZ IP     C 1054 57.55   66                        111    1.1510  230 102 
 CELP BN  IAML    1055 29.64        27.7 0.28                           230 102 
                                                                                
