 2020  3 4 0918 11.80L  17.788 -66.866 19.6  DOM  3 0.2 2.9LDOM 3.2CDOM 3.1WDOM1
 SPEC AVERAGE  MO 13.7 ST 10.8 OM  3.3 f0 4.04 R0.5483 AL 0.00 WI 20.0 MW  3.1 3
 SPEC SD       MO  0.3 ST 10.6 OM  1.3 f0 2.06 R0.2796 AL      WI      MW  0.2 3
 GAP=228        0.57      18.5     2.3 27.0 -0.2391E+02 -0.4273E+02  0.4659E+03E
 SPEC CRPRBH N MO 14.0 ST 21.4 OM  2.9 f0 6.10 R0.2687 AL-0.00 WI 20.0 MW  3.3 3
 SPEC CRPRBH N T 91820 K 0.020 GD 39.1 VS 4.43 DE 3.34 Q0400.0 QA 0.70 Q1 0.00 3
 SPEC HMDRBH N MO 13.4 ST0.215 OM  1.5 f0 1.98 R0.8278 AL-0.00 WI 20.0 MW  2.9 3
 SPEC HMDRBH N T 91932 K 0.020 GD  288 VS 4.43 DE 3.34 Q0400.0 QA 0.70 Q1 0.00 3
 LOCALITY: 33.8 Km al SO de Ponce, Region de Puerto Rico.                      3
 2020-03-04-0918-00S.MAN___120                                                 6
 OLDACT:UP  20-03-04 10:19 OP:JAAF STATUS:               ID:20200304091800     3
 OLDACT:UP  20-03-04 10:19 OP:JAAF STATUS:               ID:20200304091800     3
 OLDACT:ARG 20-03-04 09:44 OP:njm  STATUS:               ID:20200304091800     3
 OLDACT:UP  20-03-04 10:19 OP:JAAF STATUS:               ID:20200304091800     3
 ACTION:UP  22-01-08 17:50 OP:jmlc STATUS:               ID:20200304091811 L   I
 STAT SP IPHASW D HRMM SECON CODA AMPLIT PERI AZIMU VELO AIN AR TRES W  DIS CAZ7
 CRPR BZ EPg    D  918 18.35   33                        117    0.3610 33.8 316 
 CRPR BE ESg    D  918 22.40                             117   -0.1510 33.8 316 
 CRPR BN  IAML     918 22.65      3406.9 0.20                          33.8 316 
 SJG  BZ EPg       918 25.36   52                         98    0.0410 83.9  65 
 SJG  BE ESg       918 35.23                              98   -0.0710 83.9  65 
 HMDR BZ EPg       918 56.01   82                         92   -0.1810  288 293 
 HMDR BN  IAML     919 36.84        23.5 1.05                           288 293 
                                                                                
 2020  3 4 1111  2.20L  17.898 -66.771 20.2  DOM  3 0.2 2.6LDOM 3.2CDOM 3.0WDOM1
 SPEC AVERAGE  MO 13.6 ST  9.3 OM  3.7 f0 4.68 R0.4887 AL 0.00 WI 20.0 MW  3.0 3
 SPEC SD       MO  0.1 ST  8.9 OM  1.7 f0 2.48 R0.2598 AL      WI      MW  0.0 3
 GAP=219        0.59      20.5     2.8 13.2 -0.3594E+02 -0.3047E+02  0.1672E+03E
 SPEC CRPRBH N MO 13.7 ST 18.2 OM  2.6 f0 7.16 R0.2289 AL-0.00 WI 20.0 MW  3.1 3
 SPEC CRPRBH N T111111 K 0.020 GD 41.0 VS 4.43 DE 3.34 Q0400.0 QA 0.70 Q1 0.00 3
 SPEC HMDRBH N MO 13.6 ST0.373 OM  1.6 f0 2.19 R0.7484 AL-0.00 WI 20.0 MW  3.0 3
 SPEC HMDRBH N T111224 K 0.020 GD  293 VS 4.43 DE 3.34 Q0400.0 QA 0.70 Q1 0.00 3
 LOCALITY: 28.1 Km al SO de Ponce, Region de Puerto Rico.                      3
 2020-03-04-1110-00S.MAN___120                                                 6
 OLDACT:ARG 20-03-04 11:43 OP:njm  STATUS:               ID:20200304111000     3
 OLDACT:UP  20-03-04 11:44 OP:JAAF STATUS:               ID:20200304111000     3
 ACTION:UP  22-01-08 17:50 OP:jmlc STATUS:               ID:20200304111102 L   I
 STAT SP IPHASW D HRMM SECON CODA AMPLIT PERI AZIMU VELO AIN AR TRES W  DIS CAZ7
 CRPR BZ EPg    D 1111  8.57   44                        111   -0.0810 35.7 290 
 CRPR BE ESg    C 1111 13.26                             111   -0.1610 35.7 290 
 CRPR BN  IAML    1111 14.74       835.9 0.20                          35.7 290 
 SJG  BZ EPg    D 1111 13.36   49                         91   -0.2210 69.9  70 
 SJG  BE ESg    C 1111 22.12                              91    0.1210 69.9  70 
 HMDR BZ EPg      1111 46.38   88                         90    0.3410  293 290 
 HMDR BN  IAML    1112 35.55        24.4 4.05                           293 290 
                                                                                
 2020  3 4 1832 18.50L  19.235 -70.909 40.1  DOM  5 0.2 2.4LDOM 2.9CDOM 3.3WDOM1
 SPEC AVERAGE  MO 14.1 ST0.214 OM  4.3 f0 3.20 R9.2805 AL 0.00 WI 20.0 MW  3.3 3
 SPEC SD       MO  1.8 ST0.209 OM  2.7 f0 3.10 R9.0162 AL      WI      MW  1.2 3
 GAP=165        0.54       4.9     5.4 26.3  0.2362E+02  0.9852E+02  0.1081E+03E
 SPEC HMDRBH N MO 12.2 ST0.422 OM  0.5 f0 6.30 R0.2643 AL-0.00 WI 20.0 MW  2.1 3
 SPEC HMDRBH N T183260 K 0.020 GD  172 VS 4.50 DE 3.40 Q0400.0 QA 0.70 Q1 0.00 3
 SPEC MCDRBH N MO 15.9 ST0.005 OM  4.3 f00.091 R 18.30 AL-0.00 WI 20.0 MW  4.5 3
 SPEC MCDRBH N T183244 K 0.020 GD  114 VS 4.50 DE 3.40 Q0400.0 QA 0.70 Q1 0.00 3
 LOCALITY: 15.5 Km al Sur de San Jose de las Matas, Santiago.                  3
 2020-03-04-1832-00S.MAN___120                                                 6
 OLDACT:UP  20-03-04 20:03 OP:AMMR STATUS:               ID:20200304183200     3
 OLDACT:ARG 20-03-04 19:53 OP:AMMR STATUS:               ID:20200304183200     3
 OLDACT:UP  20-03-04 20:04 OP:AMMR STATUS:               ID:20200304183200     3
 ACTION:UP  22-01-08 17:50 OP:jmlc STATUS:               ID:20200304183218 L   I
 STAT SP IPHASW D HRMM SECON CODA AMPLIT PERI AZIMU VELO AIN AR TRES W  DIS CAZ7
 LUDR BE ESg      1832 39.04                             102   -0.1610 73.0 356 
 LUDR BE  IAML    1832 43.73       136.6 0.23                          73.0 356 
 NAVI BZ EP     C 1832 31.43   33                         62           97.6 108 
 NAVI BE  IAML    1832 32.89      1927.2 0.10                          97.6 108 
 NAVI BN  IAML    1832 48.98       375.3 0.20                          97.6 108 
 MCDR BE ESg      1832 46.48                              90    0.0810  107 313 
 MCDR BN  IAML    1832 46.63        66.6 0.25                           107 313 
 BADR BE ESg      1832 46.87                              90   -0.1710  109 148 
 BADR BN  IAML    1832 52.94        49.4 1.50                           109 148 
 HMDR BZ EPg      1832 42.31   52                         90    0.2610  168 107 
 HMDR BE  IAML    1833  4.19         7.6 0.36                           168 107 
 HMDR BN  IAML    1833 20.42        26.1 2.30                           168 107 
                                                                                
 2020  3 5 0043 20.90L  18.381 -69.374 96.2  DOM  5 0.7 2.7LDOM 3.4CDOM 2.9WDOM1
 SPEC AVERAGE  MO 13.5 ST179.7 OM  3.3 f0 15.3 R0.1091 AL 0.00 WI 20.0 MW  2.9 3
 SPEC SD       MO  0.6 ST182.0 OM  1.5 f0 1.04 R0.0078 AL      WI      MW  0.4 3
 GAP=242        1.90      17.9    11.4 20.5  0.7731E+02  0.7388E+02  0.5976E+02E
 SPEC HMDRBH N MO 12.8 ST 26.8 OM  1.3 f0 16.0 R0.1036 AL-0.00 WI 20.0 MW  2.5 3
 SPEC HMDRBH N T 04342 K 0.020 GD  106 VS 4.48 DE 3.40 Q0400.0 QA 0.70 Q1 0.00 3
 SPEC HIDRBH N MO 13.3 ST 76.8 OM  1.7 f0 16.0 R0.1036 AL-0.00 WI 20.0 MW  2.8 3
 SPEC HIDRBH N T 04347 K 0.020 GD  121 VS 4.48 DE 3.40 Q0400.0 QA 0.70 Q1 0.00 3
 SPEC NAVIBH N MO 14.2 ST435.5 OM  2.6 f0 13.8 R0.1201 AL-0.00 WI 20.0 MW  3.4 3
 SPEC NAVIBH N T 04350 K 0.020 GD  134 VS 4.48 DE 3.40 Q0400.0 QA 0.70 Q1 0.00 3
 LOCALITY: 9.8 Km al ESE de Guayacanes, Mar Caribe.                            3
 2020-03-05-0043-00S.MAN___120                                                 6
 OLDACT:UP  20-03-05 01:25 OP:AMMR STATUS:               ID:20200305004300     3
 OLDACT:ARG 20-03-05 01:21 OP:plst STATUS:               ID:20200305004300     3
 OLDACT:UP  20-03-05 01:28 OP:AMMR STATUS:               ID:20200305004300     3
 OLDACT:UP  20-03-05 01:26 OP:AMMR STATUS:               ID:20200305004300     3
 ACTION:UP  22-01-08 17:50 OP:jmlc STATUS:               ID:20200305004320 L   I
 STAT SP IPHASW D HRMM SECON CODA AMPLIT PERI AZIMU VELO AIN AR TRES W  DIS CAZ7
 HMDR BZ EPg    C  043 34.78   90                        152   -0.0310 45.0 359 
 HMDR BN ESg       043 44.19                             152   -0.9510 45.0 359 
 HMDR BN  IAML     043 44.99        53.6 0.30                          45.0 359 
 HIDR BN ESg    C  043 49.32                             139    0.9710 73.4  71 
 HIDR BN  IAML     043 51.54       131.6 0.25                          73.4  71 
 NAVI BZ EPg    C  043 38.07   73                        131   -0.4010 94.1 313 
 NAVI BN ESg    C  043 51.79                             131    0.2810 94.1 313 
 NAVI BN  IAML     043 55.47      1199.6 0.15                          94.1 313 
 SMDR BZ EPg    C  043 38.75   47                        128   -0.3910  102  11 
 SMDR BN ESg    C  043 51.97                             128   -0.7110  102  11 
 SMDR BN  IAML     043 59.62        54.5 0.75                           102  11 
 NADR BN ESg    C  043 56.71                             123    1.2510  119 335 
 NADR BN  IAML     043 58.64       285.3 0.40                           119 335 
                                                                                
 2020  3 5 0410 42.60L  18.038 -66.872 16.9  DOM  4 0.5 2.5LDOM 3.1CDOM 2.6WDOM1
 SPEC AVERAGE  MO 13.0 ST 22.7 OM  2.7 f0 9.72 R0.2583 AL 0.00 WI 20.0 MW  2.6 3
 SPEC SD       MO  0.1 ST 18.6 OM  1.2 f0 5.42 R0.1991 AL      WI      MW  0.1 3
 GAP=178        1.27      31.3     3.6 25.6  0.7661E+02 -0.6161E+02 -0.7409E+03E
 SPEC CRPRBH N MO 13.2 ST 22.2 OM  2.4 f0 10.4 R0.1434 AL-0.00 WI 20.0 MW  2.7 3
 SPEC CRPRBH N T 41048 K 0.020 GD 28.7 VS 4.03 DE 3.01 Q0400.0 QA 0.70 Q1 0.00 3
 SPEC HIDRBH N MO 12.9 ST 45.8 OM  1.3 f0 16.0 R0.0932 AL-0.00 WI 20.0 MW  2.6 3
 SPEC HIDRBH N T 41136 K 0.020 GD  204 VS 4.03 DE 3.01 Q0400.0 QA 0.70 Q1 0.00 3
 SPEC HMDRBH N MO 12.9 ST0.204 OM  1.1 f0 2.77 R0.5383 AL-0.00 WI 20.0 MW  2.5 3
 SPEC HMDRBH N T 41154 K 0.020 GD  278 VS 4.03 DE 3.01 Q0400.0 QA 0.70 Q1 0.00 3
 LOCALITY: 27.4 Km al Oeste de Ponce, Region de Puerto Rico.                   3
 2020-03-05-0410-00S.MAN___120                                                 6
 OLDACT:ARG 20-03-05 06:35 OP:cgrs STATUS:               ID:20200305041000     3
 OLDACT:UP  20-03-05 06:39 OP:CGRS STATUS:               ID:20200305041000     3
 ACTION:UP  22-01-08 17:50 OP:jmlc STATUS:               ID:20200305041042 L   I
 STAT SP IPHASW D HRMM SECON CODA AMPLIT PERI AZIMU VELO AIN AR TRES W  DIS CAZ7
 CRPR BZ EPg    D  410 47.23   24                        123    0.0810 23.2 261 
 CRPR BN ESg    D  410 50.47                             123   -0.0510 23.2 261 
 CRPR BN  IAML     410 50.69       934.2 0.20                          23.2 261 
 SJG  BZ EPg    C  410 55.33   34                         96    0.3510 76.9  84 
 SJG  BN ESg    C  411  3.93                              96   -0.2110 76.9  84 
 HIDR BZ EPg       411 13.48   70                         92   -0.7410  204 288 
 HIDR BN ESg       411 38.45                              92    0.8310  204 288 
 HIDR BN  IAML     411 43.50        40.7 1.90                           204 288 
 HMDR BZ EPg       411 25.70   83                         91    0.3310  278 288 
 HMDR BN ESg    D  411 56.44                              91   -0.5910  278 288 
 HMDR BN  IAML     412 27.34        23.3 2.00                           278 288 
                                                                                
 2020  3 5 0424 15.40L  17.939 -67.436138.4  DOM  4 0.9 2.7LDOM 3.2CDOM 3.0WDOM1
 SPEC AVERAGE  MO 13.6 ST  6.5 OM  2.7 f0 5.03 R0.3566 AL 0.00 WI 20.0 MW  3.0 3
 SPEC SD       MO  0.1 ST  6.0 OM  0.9 f0 1.59 R0.0980 AL      WI      MW  0.1 3
 GAP=213        2.36      66.8    17.9 21.8  0.1041E+04  0.1278E+03  0.2208E+03E
 SPEC CRPRBH N MO 13.7 ST  2.4 OM  2.1 f0 3.54 R0.4630 AL-0.00 WI 20.0 MW  3.1 3
 SPEC CRPRBH N T 42446 K 0.020 GD  143 VS 4.43 DE 3.34 Q0400.0 QA 0.70 Q1 0.00 3
 SPEC HIDRBH N MO 13.6 ST 15.0 OM  1.8 f0 7.24 R0.2264 AL-0.00 WI 20.0 MW  3.0 3
 SPEC HIDRBH N T 42457 K 0.020 GD  206 VS 4.43 DE 3.34 Q0400.0 QA 0.70 Q1 0.00 3
 SPEC HMDRBH N MO 13.4 ST  2.0 OM  1.5 f0 4.31 R0.3803 AL-0.00 WI 20.0 MW  2.9 3
 SPEC HMDRBH N T 42514 K 0.020 GD  265 VS 4.43 DE 3.34 Q0400.0 QA 0.70 Q1 0.00 3
 SPEC NADRBH N MO 14.5 ST  2.6 OM  2.6 f0 1.98 R 0.828 AL-0.00 WI 20.0 MW  3.6 3
 SPEC NADRBH N T 42526 K 0.020 GD27.40 VS 4.43 DE 3.34 Q0400.0 QA 0.70 Q1      3
 LOCALITY: 187.1 Km al Este de Miches, Oceano Atlantico.                       3
 2020-03-05-0424-00S.MAN___120                                                 6
 OLDACT:ARG 20-03-05 06:42 OP:CGRS STATUS:               ID:20200305042400     3
 OLDACT:UP  20-03-05 06:47 OP:CGRS STATUS:               ID:20200305042400     3
 ACTION:UP  22-01-08 17:50 OP:jmlc STATUS:               ID:20200305042415 L   I
 OLDACT:UP  20-03-05 06:47 OP:CGRS STATUS:               ID:20200305042400     3
 STAT SP IPHASW D HRMM SECON CODA AMPLIT PERI AZIMU VELO AIN AR TRES W  DIS CAZ7
 CRPR BZ IP     C  424 34.24   50                        164    0.6710 37.5  78 
 CRPR BN IS     C  424 46.95                             164   -0.0810 37.5  78 
 CRPR BN  IAML     424 59.03       109.9 0.25                          37.5  78 
 SJG  BZ IP     C  424 39.68   50                        132   -0.3910  137  82 
 SJG  BN IS     C  424 58.66                             132    0.3210  137  82 
 HIDR BZ IP        424 40.13   50                        129   -1.3210  153 298 
 HIDR BN IS     C  424 59.58                             129   -1.1610  153 298 
 HIDR BN  IAML     425  5.13       139.2 0.25                           153 298 
 HMDR BZ IP     C  424 48.99   58                        117    0.2910  226 295 
 HMDR BN IS     C  425 15.02                             117    1.6610  226 295 
 HMDR BN  IAML     425 19.39        22.4 0.90                           226 295 
                                                                                
 2020  3 5 0825 30.40L  18.597 -67.847 14.0  DOM  4 0.9 2.3LDOM 2.9CDOM 2.7WDOM1
 SPEC AVERAGE  MO 13.1 ST  1.7 OM  2.7 f0 4.28 R0.4102 AL 0.00 WI 20.0 MW  2.7 3
 SPEC SD       MO  0.3 ST  1.4 OM  1.0 f0 1.67 R0.1952 AL      WI      MW  0.2 3
 GAP=189        2.22      35.3    11.7 18.6  0.3789E+03 -0.1570E+03 -0.5074E+03E
 SPEC HIDRBH N MO 13.0 ST  3.6 OM  1.8 f0 6.18 R0.2329 AL-0.00 WI 20.0 MW  2.6 3
 SPEC HIDRBH N T 82554 K 0.020 GD 92.7 VS 3.89 DE 2.89 Q0400.0 QA 0.70 Q1 1.00 3
 SPEC CRPRBH N MO 13.6 ST0.512 OM  2.3 f0 2.11 R0.6821 AL-0.00 WI 20.0 MW  3.0 3
 SPEC CRPRBH N T 82558 K 0.020 GD  103 VS 3.89 DE 2.89 Q0400.0 QA 0.70 Q1 1.00 3
 SPEC HMDRBH N MO 12.9 ST  1.0 OM  1.4 f0 4.56 R0.3156 AL-0.00 WI 20.0 MW  2.5 3
 SPEC HMDRBH N T 82611 K 0.020 GD  163 VS 3.89 DE 2.89 Q0400.0 QA 0.70 Q1 1.00 3
 LOCALITY: 84.0 Km al SE de Punta Cana, Canal de la Mona.                      3
 2020-03-05-0825-00S.MAN___120                                                 6
 OLDACT:ARG 20-03-05 10:07 OP:nr   STATUS:               ID:20200305082500     3
 OLDACT:UP  20-03-05 10:36 OP:CGRS STATUS:               ID:20200305082500     3
 OLDACT:UP  20-03-05 10:37 OP:CGRS STATUS:               ID:20200305082500     3
 ACTION:UP  22-01-08 17:50 OP:jmlc STATUS:               ID:20200305082530 L   I
 OLDACT:UP  21-12-26 16:30 OP:CGRS STATUS:               ID:20200305082500     3
 STAT SP IPHASW D HRMM SECON CODA AMPLIT PERI AZIMU VELO AIN AR TRES W  DIS CAZ7
 HIDR BZ IP     C  825 45.14   48                         92    0.1410 91.6 270 
 HIDR BE IS     C  825 55.74                              92   -0.0310 91.6 270 
 HIDR BN  IAML     826  3.19       111.5 0.80                          91.6 270 
 CRPR BZ IP        825 45.60   38                         92   -1.1910  103 129 
 CRPR BE IS        825 59.54                              92    0.6610  103 129 
 CRPR BN  IAML     826  6.82       128.1 0.70                           103 129 
 HMDR BZ IP     C  825 54.06   45                         55   -0.6610  163 278 
 HMDR BE IS     C  826 13.02                              55    0.3410  163 278 
 HMDR BN  IAML     826 20.52        28.8 0.45                           163 278 
 SJG  BZ IP     C  825 59.35   28                         55    1.6410  187 106 
 SJG  BE IS     C  826 16.99                              55   -0.9010  187 106 
                                                                                
 2020  3 5 1239  5.50L  17.990 -66.788  0.0  DOM  5 0.8 3.2LDOM 3.0CDOM 2.9WDOM1
 SPEC AVERAGE  MO 13.5 ST 35.8 OM  3.2 f0 5.88 R0.2600 AL 0.00 WI 20.0 MW  2.9 3
 SPEC SD       MO  0.3 ST 34.1 OM  0.8 f0 2.19 R0.1598 AL      WI      MW  0.2 3
 GAP=195        2.23      94.6     8.7 28.7 -0.6654E+03  0.2159E+03 -0.2516E+04E
 SPEC CRPRBH N MO 13.6 ST 44.4 OM  3.1 f0 7.75 R0.1528 AL-0.00 WI 20.0 MW  3.0 3
 SPEC CRPRBH N T123913 K 0.020 GD 32.0 VS 3.20 DE 2.60 Q0400.0 QA 0.70 Q1 0.00 3
 SPEC HIDRBH N MO 13.2 ST 10.6 OM  2.1 f0 6.25 R0.1894 AL-0.00 WI 20.0 MW  2.8 3
 SPEC HIDRBH N T1240 2 K 0.020 GD  146 VS 3.20 DE 2.60 Q0400.0 QA 0.70 Q1 0.00 3
 SPEC HMDRBH N MO 13.2 ST0.433 OM  2.0 f0 2.21 R0.5357 AL-0.00 WI 20.0 MW  2.7 3
 SPEC HMDRBH N T124018 K 0.020 GD  169 VS 3.20 DE 2.60 Q0400.0 QA 0.70 Q1 0.00 3
 SPEC NAVIBH N MO 13.9 ST 87.7 OM  2.7 f0 7.31 R0.1620 AL-0.00 WI 20.0 MW  3.2 3
 SPEC NAVIBH N T124031 K 0.020 GD  189 VS 3.20 DE 2.60 Q0400.0 QA 0.70 Q1 0.00 3
 SPEC SDDRBH N MO 13.9 ST  0.0 OM  2.6 f00.459 R 0.580 AL-0.00 WI 20.0 MW  3.2 3
 SPEC SDDRBH N T124060 K 0.020 GD22.10 VS 3.20 DE 2.60 Q0400.0 QA 0.70 Q1      3
 SPEC REDRBH N MO 12.5 ST  2.2 OM  1.2 f0 6.32 R 0.187 AL-0.00 WI 20.0 MW  2.3 3
 SPEC REDRBH N T1241 8 K 0.020 GD23.30 VS 3.20 DE 2.60 Q0400.0 QA 0.70 Q1      3
 LOCALITY: 27.2 Km al SO de Ponce, Region de Puerto Rico.                      3
 2020-03-05-1238-00S.MAN___120                                                 6
 OLDACT:ARG 20-03-05 17:55 OP:jmlc STATUS:               ID:20200305123800     3
 OLDACT:UP  20-03-05 18:07 OP:JMLC STATUS:               ID:20200305123800     3
 OLDACT:UP  20-03-05 18:06 OP:JMLC STATUS:               ID:20200305123800     3
 OLDACT:UP  20-03-05 18:05 OP:JMLC STATUS:               ID:20200305123800     3
 ACTION:UP  22-01-08 17:50 OP:jmlc STATUS:               ID:20200305123905 L   I
 OLDACT:UP  20-03-05 23:23 OP:AMMR STATUS:               ID:20200305123800     3
 STAT SP IPHASW D HRMM SECON CODA AMPLIT PERI AZIMU VELO AIN AR TRES W  DIS CAZ7
 CRPR BZ IP     C 1239 10.26   28                         90   -0.3810 32.0 273 
 CRPR BE IS     C 1239 14.03                              90   -0.4210 32.0 273 
 CRPR BN  IAML    1239 17.00      3218.7 0.25                          32.0 273 
 SJG  BZ IP     C 1239 16.93   32                         90    0.3410 68.8  79 
 SJG  BE IS     C 1239 24.29                              90   -0.5210 68.8  79 
 HIDR BZ IP       1239 37.16   58                         50   -0.3410  214 288 
 HIDR BE IS     C 1239 59.27                              50   -1.9210  214 288 
 HIDR BN  IAML    1240  5.04       166.9 0.30                           214 288 
 HMDR BZ IP     C 1239 47.33   61                         50    0.6710  288 288 
 HMDR BE IS     C 1240 18.12                              50    0.9810  288 288 
 HMDR BN  IAML    1240 27.44        41.8 0.30                           288 288 
 NAVI BZ IP     C 1239 56.22   52                         49    0.8810  359 288 
 NAVI BN  IAML    1240 26.19       233.5 0.20                           359 288 
 NAVI BE IS       1240 32.95                              49    0.7110  359 288 
                                                                                
