 2020  4 1 1900 14.20L  17.913 -66.860 20.2  DOM  6 0.3 2.7LDOM 2.7CDOM 2.6WDOM1
 SPEC AVERAGE  MO 13.1 ST  9.0 OM  3.2 f0 8.57 R0.2655 AL 0.00 WI 20.0 MW  2.6 3
 SPEC SD       MO  0.2 ST  8.0 OM  1.4 f0 4.65 R0.1679 AL      WI      MW  0.2 3
 GAP=214        0.74       5.2     1.7  4.8  0.1574E+01 -0.2584E+01 -0.2776E+01E
 SPEC MLPRBH N MO 12.9 ST  5.3 OM  2.0 f0 8.47 R0.1935 AL-0.00 WI 20.0 MW  2.6 3
 SPEC MLPRBH N T19 020 K 0.020 GD 28.8 VS 4.43 DE 3.34 Q0400.0 QA 0.70 Q1 1.00 3
 SPEC CELPBH N MO 12.7 ST 24.0 OM  1.6 f0 17.0 R0.0964 AL-0.00 WI 20.0 MW  2.4 3
 SPEC CELPBH N T19 023 K 0.020 GD 40.4 VS 4.43 DE 3.34 Q0400.0 QA 0.70 Q1 1.00 3
 SPEC PRSNBH N MO 13.4 ST  8.1 OM  2.2 f0 6.98 R0.2348 AL-0.00 WI 20.0 MW  2.9 3
 SPEC PRSNBH N T19 026 K 0.020 GD 49.5 VS 4.43 DE 3.34 Q0400.0 QA 0.70 Q1 1.00 3
 SPEC AGPRBH N MO 13.2 ST  7.4 OM  1.9 f0 7.61 R0.2154 AL-0.00 WI 20.0 MW  2.8 3
 SPEC AGPRBH N T19 032 K 0.020 GD 70.0 VS 4.43 DE 3.34 Q0400.0 QA 0.70 Q1 1.00 3
 SPEC HMDRBH N MO 13.0 ST0.236 OM  1.1 f0 2.79 R0.5875 AL-0.00 WI 20.0 MW  2.6 3
 SPEC HMDRBH N T19 133 K 0.020 GD  283 VS 4.43 DE 3.34 Q0400.0 QA 0.70 Q1 1.00 3
 LOCALITY: 29.5 Km al OSO de Ponce, Region de Puerto Rico.                     3
 2020-04-01-1900-00S.MAN___123                                                 6
 OLDACT:ARG 20-04-01 20:56 OP:AMMR STATUS:               ID:20200401190000     3
 OLDACT:UP  20-04-01 21:03 OP:AMMR STATUS:               ID:20200401190000     3
 OLDACT:UP  20-04-01 21:02 OP:AMMR STATUS:               ID:20200401190000     3
 OLDACT:UP  21-02-16 01:17 OP:AMMR STATUS:               ID:20200401190000     3
 OLDACT:UP  20-04-01 21:03 OP:AMMR STATUS:               ID:20200401190000     3
 ACTION:UP  22-03-16 16:59 OP:JMLC STATUS:               ID:20200401190014 L   I
 OLDACT:UP  22-01-09 02:58 OP:CGRS STATUS:               ID:20200401190000     3
 STAT SP IPHASW D HRMM SECON CODA AMPLIT PERI AZIMU VELO AIN AR TRES W  DIS CAZ7
 MLPR BZ EPg    C 19 0 18.55   21                        130   -0.1810 20.5 288 
 MLPR BE ESg    D 19 0 22.23                             130    0.1510 20.5 288 
 MLPR BN  IAML    19 0 22.27       276.5 0.40                          20.5 288 
 CELP BZ EPg    D 19 0 20.00   29                        112   -0.5810 35.0  59 
 CELP BE ESg      19 0 25.23                             112   -0.0510 35.0  59 
 CELP BN  IAML    19 0 25.53       155.1 0.28                          35.0  59 
 CELP BE  IAML    19 0 26.87      1645.4 0.28                          35.0  59 
 PRSN BZ EPg    C 19 0 21.99   32                        102    0.0110 45.2 318 
 PRSN BE ESg      19 0 27.64                             102   -0.0810 45.2 318 
 PRSN BN  IAML    19 0 29.56       473.4 0.20                          45.2 318 
 AGPR BZ EPg    C 19 0 25.17   37                         91    0.0110 67.0 337 
 AGPR BN  IAML    19 0 36.90       125.5 0.68                          67.0 337 
 SJG  BZ EPg    C 19 0 26.76   33                         90   -0.0610 78.3  74 
 SJG  BN ESg    C 19 0 36.59                              90    0.4410 78.3  74 
 SJG  BN  IAML    19 0 37.22     70332.6 0.40                          78.3  74 
 HMDR BZ EPg    C 19 0 57.02   80                         90    0.3410  283 290 
 HMDR BN  IAML    19 1 49.76        15.0 2.55                           283 290 
                                                                                
 2020  4 1 2236 32.80L  17.935 -66.852  8.3  DOM  5 0.7 2.6LDOM 2.5CDOM 2.4WDOM1
 SPEC AVERAGE  MO 12.7 ST0.947 OM  5.2 f0 4.40 R0.2952 AL 0.00 WI 20.0 MW  2.4 3
 SPEC SD       MO  0.0 ST0.000 OM  3.2 f00.000 R0.0000 AL      WI      MW  0.0 3
 GAP=218        1.87       9.0     4.1 21.0 -0.2893E+01  0.9342E+01 -0.3212E+02E
 SPEC PRSNBH N MO 12.7 ST0.947 OM  2.0 f0 4.40 R0.2952 AL-0.00 WI 20.0 MW  2.4 3
 SPEC PRSNBH N T223642 K 0.020 GD 44.8 VS 3.51 DE 2.73 Q0400.0 QA 0.70 Q1 0.00 3
 LOCALITY: 26.6 Km al OSO de Ponce, Region de Puerto Rico.                     3
 2020-04-01-2236-00S.MAN___123                                                 6
 OLDACT:ARG 20-04-02 02:22 OP:nr   STATUS:               ID:20200401223600     3
 OLDACT:UP  20-04-02 02:32 OP:AMMR STATUS:               ID:20200401223600     3
 ACTION:UP  22-03-16 16:59 OP:JMLC STATUS:               ID:20200401223632 L   I
 OLDACT:UP  22-01-09 02:59 OP:CGRS STATUS:               ID:20200401223600     3
 OLDACT:UP  21-02-16 10:35 OP:AMMR STATUS:               ID:20200401223600     3
 OLDACT:UP  21-02-16 10:33 OP:AMMR STATUS:               ID:20200401223600     3
 OLDACT:UP  21-02-16 10:33 OP:AMMR STATUS:               ID:20200401223600     3
 OLDACT:UP  21-02-16 10:32 OP:AMMR STATUS:               ID:20200401223600     3
 OLDACT:UP  20-04-02 02:32 OP:AMMR STATUS:               ID:20200401223600     3
 STAT SP IPHASW D HRMM SECON CODA AMPLIT PERI AZIMU VELO AIN AR TRES W  DIS CAZ7
 MLPR BZ EPg    C 2236 36.78   22                        112    0.3410 20.7 280 
 MLPR BE ESg    C 2236 39.24                             112    0.1410 20.7 280 
 MLPR BN  IAML    2236 40.98      2638.8 0.32                          20.7 280 
 CELP BZ EPg    D 2236 38.45   20                        104    0.1010 33.0  62 
 CELP BE ESg    C 2236 42.45                             104    0.0310 33.0  62 
 CELP BN  IAML    2236 44.96       343.8 0.28                          33.0  62 
 PRSN BZ EPg    C 2236 39.89   20                        101   -0.1710 44.0 315 
 PRSN BE ESg    C 2236 44.07                             101   -1.3410 44.0 315 
 PRSN BN  IAML    2236 50.60      1248.3 0.24                          44.0 315 
 AGPR BZ EPg    C 2236 43.71   33                         97    0.2710 65.1 335 
 AGPR BE ESg    C 2236 51.97                              97    0.6910 65.1 335 
 AGPR BN  IAML    2236 56.93       304.2 0.28                          65.1 335 
 HMDR BZ EPg    C 2237 17.43   58                         92   -1.1510  283 290 
 HMDR BE ESg    C 2237 53.52                              92    1.1010  283 290 
 HMDR BN  IAML    2238  1.29        12.2 0.30                           283 290 
                                                                                
 2020  4 2 0215  8.60L  17.842 -66.897 14.7  DOM  5 0.5 2.8LDOM 2.5CDOM 2.5WDOM1
 SPEC AVERAGE  MO 12.9 ST  1.5 OM  2.7 f0 5.16 R0.3579 AL 0.00 WI 20.0 MW  2.5 3
 SPEC SD       MO  0.3 ST0.879 OM  1.1 f0 1.95 R0.1698 AL      WI      MW  0.2 3
 GAP=239        1.38       7.6     3.6 11.3 -0.6447E+00 -0.1184E+00  0.7945E+01E
 SPEC MLPRBH N MO 12.7 ST  2.7 OM  1.9 f0 7.74 R0.1989 AL-0.00 WI 20.0 MW  2.4 3
 SPEC MLPRBH N T 21514 K 0.020 GD 25.6 VS 4.16 DE 3.12 Q0400.0 QA 0.70 Q1 0.00 3
 SPEC CELPBH N MO 12.5 ST  1.3 OM  1.5 f0 6.88 R0.2237 AL-0.00 WI 20.0 MW  2.3 3
 SPEC CELPBH N T 21519 K 0.020 GD 45.1 VS 4.16 DE 3.12 Q0400.0 QA 0.70 Q1 0.00 3
 SPEC PRSNBH N MO 13.3 ST  2.1 OM  2.2 f0 4.49 R0.3428 AL-0.00 WI 20.0 MW  2.8 3
 SPEC PRSNBH N T 21521 K 0.020 GD 51.3 VS 4.16 DE 3.12 Q0400.0 QA 0.70 Q1 0.00 3
 SPEC AGPRBH N MO 13.0 ST  1.1 OM  1.8 f0 4.41 R0.3490 AL-0.00 WI 20.0 MW  2.6 3
 SPEC AGPRBH N T 21527 K 0.020 GD 74.6 VS 4.16 DE 3.12 Q0400.0 QA 0.70 Q1 0.00 3
 SPEC HMDRBH N MO 12.8 ST0.095 OM  1.0 f0 2.28 R0.6751 AL-0.00 WI 20.0 MW  2.5 3
 SPEC HMDRBH N T 21619 K 0.020 GD  283 VS 4.16 DE 3.12 Q0400.0 QA 0.70 Q1 0.00 3
 LOCALITY: 38.1 Km al OSO de Ponce, Region de Puerto Rico.                     3
 2020-04-02-0214-00S.MAN___123                                                 6
 OLDACT:ARG 20-04-02 02:25 OP:nr   STATUS:               ID:20200402021400     3
 OLDACT:UP  20-04-02 02:28 OP:AMMR STATUS:               ID:20200402021400     3
 ACTION:UP  22-03-16 16:59 OP:JMLC STATUS:               ID:20200402021508 L   I
 OLDACT:UP  21-02-16 10:37 OP:AMMR STATUS:               ID:20200402021400     3
 OLDACT:UP  20-04-02 02:28 OP:AMMR STATUS:               ID:20200402021400     3
 STAT SP IPHASW D HRMM SECON CODA AMPLIT PERI AZIMU VELO AIN AR TRES W  DIS CAZ7
 MLPR BZ EPg    C  215 12.66   16                        121   -0.0110 21.0 312 
 MLPR BE ESg    C  215 15.61                             121   -0.0910 21.0 312 
 MLPR BN  IAML     215 16.51       228.0 0.24                          21.0 312 
 CELP BZ EPg    D  215 15.33   26                        101   -0.4310 42.6  53 
 CELP BE ESg    C  215 21.16                             101    0.0810 42.6  53 
 CELP BN  IAML     215 22.02      2118.8 0.24                          42.6  53 
 PRSN BZ EPg    C  215 16.77   30                         98    0.0510 49.2 328 
 PRSN BE ESg    D  215 23.49                              98    0.7410 49.2 328 
 PRSN BN  IAML     215 25.11      4243.0 0.28                          49.2 328 
 AGPR BZ EPg    C  215 20.34   26                         94    0.0010 73.1 342 
 AGPR BZ E      C  215 20.39                                           73.1 342 
 AGPR BE ESg    C  215 28.68                              94   -0.3610 73.1 342 
 AGPR BN  IAML     215 36.93       501.4 0.28                          73.1 342 
 HMDR BZ EPg    C  215 53.07   62                         91    0.9710  283 292 
 HMDR BE ISg    D  216 23.36                              91   -0.9510  283 292 
 HMDR BN  IAML     216 34.83        43.0 0.30                           283 292 
                                                                                
 2020  4 2 0250 12.40L  19.153 -66.758 20.0  DOM  6 0.7 3.1LDOM 3.2CDOM 2.7WDOM1
 SPEC AVERAGE  MO 13.1 ST  3.1 OM  3.0 f0 6.35 R0.2602 AL 0.00 WI 20.0 MW  2.7 3
 SPEC SD       MO  0.1 ST0.478 OM  1.4 f00.930 R0.0381 AL      WI      MW  0.1 3
 GAP=269        1.90      15.6     9.3116.0  0.9957E+02 -0.4801E+03 -0.1529E+04E
 SPEC AGPRBH N MO 13.2 ST  2.6 OM  1.8 f0 5.42 R0.2983 AL-0.00 WI 20.0 MW  2.7 3
 SPEC AGPRBH N T 25034 K 0.020 GD 86.5 VS 4.37 DE 3.29 Q0400.0 QA 0.70 Q1 0.00 3
 SPEC CELPBH N MO 12.9 ST  3.6 OM  1.4 f0 7.28 R0.2221 AL-0.00 WI 20.0 MW  2.6 3
 SPEC CELPBH N T 25043 K 0.020 GD  122 VS 4.37 DE 3.29 Q0400.0 QA 0.70 Q1 0.00 3
 SPEC MLPRBH N T 25047 K 0.020 GD  135 VS 4.37 DE 3.29 Q0400.0 QA 0.70 Q1 0.00 3
 SPEC HIDRBH N MO 13.0 ST  6.4 OM  1.2 f0 8.54 R0.1893 AL-0.00 WI 20.0 MW  2.6 3
 SPEC HIDRBH N T 251 9 K 0.020 GD  216 VS 4.37 DE 3.29 Q0400.0 QA 0.70 Q1 0.00 3
 SPEC HMDRBH N T 25124 K 0.020 GD  279 VS 4.37 DE 3.29 Q0400.0 QA 0.70 Q1 0.00 3
 LOCALITY: 241.4 Km al Este de Miches, Oceano Atlantico.                       3
 2020-04-02-0250-00S.MAN___123                                                 6
 OLDACT:ARG 20-04-02 03:03 OP:nr   STATUS:               ID:20200402025000     3
 OLDACT:UP  20-04-02 03:06 OP:AMMR STATUS:               ID:20200402025000     3
 ACTION:UP  22-03-16 16:59 OP:JMLC STATUS:               ID:20200402025012 L   I
 OLDACT:UP  21-02-16 10:43 OP:AMMR STATUS:               ID:20200402025000     3
 OLDACT:UP  21-02-16 10:43 OP:AMMR STATUS:               ID:20200402025000     3
 OLDACT:UP  20-04-02 03:07 OP:AMMR STATUS:               ID:20200402025000     3
 STAT SP IPHASW D HRMM SECON CODA AMPLIT PERI AZIMU VELO AIN AR TRES W  DIS CAZ7
 AGPR BZ EPg    C  250 26.06   47                         98    0.1310 84.2 206 
 AGPR BE ESg    C  250 36.35                              98    0.4210 84.2 206 
 AGPR BN  IAML     250 45.33       664.0 0.28                          84.2 206 
 PRSN BZ EPg       250 30.44   41                         96    0.4510  111 202 
 PRSN BE ESg    C  250 41.95                              96   -1.0610  111 202 
 PRSN BN  IAML     250 56.20      3144.4 0.28                           111 202 
 CELP BZ EPg    C  250 30.95   52                         95   -0.5010  121 171 
 CELP BE ESg    C  250 45.43                              95   -0.1110  121 171 
 CELP BN  IAML     250 58.29       378.3 0.32                           121 171 
 MLPR BZ EPg    C  250 33.68   49                         94    0.1910  134 193 
 MLPR BE ESg    C  250 49.39                              94    0.3010  134 193 
 MLPR BN  IAML     251  0.66       242.6 0.32                           134 193 
 HIDR BZ EPg    C  250 46.88   72                         92    1.1410  215 254 
 HIDR BE ESg    C  251 11.36                              92    0.9610  215 254 
 HIDR BN  IAML     251 20.99       104.5 0.25                           215 254 
 HMDR BZ EPg    C  250 54.74   79                         92   -0.6710  279 262 
 HMDR BE ESg    C  251 25.99                              92   -1.2510  279 262 
 HMDR BN  IAML     251 45.00        73.1 0.35                           279 262 
                                                                                
 2020  4 2 0325 16.50L  17.977 -69.228183.4  DOM  5 0.7 2.7LDOM 3.2CDOM 2.7WDOM1
 SPEC AVERAGE  MO 13.2 ST 64.6 OM  4.4 f0 16.0 R0.1029 AL 0.00 WI 20.0 MW  2.7 3
 SPEC SD       MO  0.0 ST0.000 OM  3.0 f00.000 R0.0000 AL      WI      MW  0.0 3
 GAP=260        1.84      58.0    17.6 31.5  0.8484E+03  0.3525E+03  0.1601E+04E
 SPEC HIDRBH N MO 13.2 ST 64.6 OM  1.4 f0 16.0 R0.1029 AL-0.00 WI 20.0 MW  2.7 3
 SPEC HIDRBH N T 32558 K 0.020 GD  202 VS 4.45 DE 3.40 Q0400.0 QA 0.70 Q1 0.00 3
 SPEC HMDRBH N T 32558 K 0.020 GD  204 VS 4.45 DE 3.40 Q0400.0 QA 0.70 Q1 0.00 3
 SPEC AGPRBH N MO 13.0 ST  9.0 OM  1.0 f0 9.98 R0.1650 AL-0.00 WI 20.0 MW  2.6 3
 SPEC AGPRBH N T 32618 K 0.020 GD  293 VS 4.45 DE 3.40 Q0400.0 QA 0.70 Q1 0.00 3
 SPEC MLPRBH N T 32619 K 0.020 GD  294 VS 4.45 DE 3.40 Q0400.0 QA 0.70 Q1 0.00 3
 LOCALITY: 47.7 Km al SSO de Isla Catalina, Mar Caribe.                        3
 2020-04-02-0325-00S.MAN___123                                                 6
 OLDACT:UP  20-04-02 10:30 OP:AMMR STATUS:               ID:20200402032500     3
 OLDACT:ARG 20-04-02 10:23 OP:nr   STATUS:               ID:20200402032500     3
 OLDACT:UP  20-04-02 10:30 OP:AMMR STATUS:               ID:20200402032500     3
 ACTION:UP  22-03-16 16:59 OP:JMLC STATUS:               ID:20200402032516 L   I
 OLDACT:UP  21-02-16 10:48 OP:AMMR STATUS:               ID:20200402032500     3
 OLDACT:UP  21-02-16 10:48 OP:AMMR STATUS:               ID:20200402032500     3
 OLDACT:UP  20-04-02 10:30 OP:AMMR STATUS:               ID:20200402032500     3
 STAT SP IPHASW D HRMM SECON CODA AMPLIT PERI AZIMU VELO AIN AR TRES W  DIS CAZ7
 HIDR BZ EPg    C  325 41.88   43                        153    0.1210 86.9  38 
 HIDR BE ESg    C  326  0.38                             153   -0.0910 86.9  38 
 HIDR BN  IAML     326  1.70       255.4 0.25                          86.9  38 
 HMDR BZ EPg    C  325 43.39   42                        152    1.3510 91.2 350 
 HMDR BE ESg    C  326  0.13                             152   -0.8210 91.2 350 
 HMDR BN  IAML     326  2.93        14.7 0.60                          91.2 350 
 AGPR BZ EPg    C  325 53.40   47                        126    0.4110  231  76 
 AGPR BN  IAML     326 19.95       127.9 0.32                           231  76 
 AGPR BE ESg    C  326 20.01                             126    0.0010  231  76 
 MLPR BZ EPg    C  325 52.22   47                        126   -0.8310  231  90 
 MLPR BE ESg    C  326 20.84                             126    0.7310  231  90 
 MLPR BN  IAML     326 23.68         5.5 0.28                           231  90 
 CELP BZ EPg    C  325 57.01   55                        120   -0.9810  281  87 
 CELP BN  IAML     326 26.62        65.4 0.28                           281  87 
 CELP BE ESg    C  326 28.81                             120    0.1110  281  87 
                                                                                
 2020  4 2 0334 26.90L  17.939 -66.949 12.1  DOM  6 0.6 2.5LDOM 2.6CDOM 2.6WDOM1
 SPEC AVERAGE  MO 13.0 ST  8.5 OM  2.7 f0 7.09 R0.2448 AL 0.00 WI 20.0 MW  2.6 3
 SPEC SD       MO  0.3 ST  7.9 OM  0.9 f0 2.68 R0.1457 AL      WI      MW  0.2 3
 GAP=220        1.48       7.0     3.3  8.2  0.2634E+01 -0.5871E+01 -0.2126E+02E
 SPEC MLPRBH N MO 13.1 ST 24.7 OM  2.7 f0 10.6 R0.1302 AL-0.00 WI 20.0 MW  2.7 3
 SPEC MLPRBH N T 33429 K 0.020 GD 16.1 VS 3.73 DE 2.83 Q0400.0 QA 0.70 Q1 0.00 3
 SPEC PRSNBH N MO 13.4 ST 10.9 OM  2.6 f0 6.47 R0.2133 AL-0.00 WI 20.0 MW  2.9 3
 SPEC PRSNBH N T 33435 K 0.020 GD 39.1 VS 3.73 DE 2.83 Q0400.0 QA 0.70 Q1 0.00 3
 SPEC CELPBH N MO 12.6 ST  6.4 OM  1.8 f0 9.66 R0.1429 AL-0.00 WI 20.0 MW  2.4 3
 SPEC CELPBH N T 33437 K 0.020 GD 44.0 VS 3.73 DE 2.83 Q0400.0 QA 0.70 Q1 0.00 3
 SPEC AGPRBH N MO 13.3 ST  5.8 OM  2.3 f0 5.66 R0.2438 AL-0.00 WI 20.0 MW  2.8 3
 SPEC AGPRBH N T 33443 K 0.020 GD 62.4 VS 3.73 DE 2.83 Q0400.0 QA 0.70 Q1 0.00 3
 SPEC HIDRBH N MO 12.6 ST  3.2 OM  1.2 f0 7.68 R0.1797 AL-0.00 WI 20.0 MW  2.4 3
 SPEC HIDRBH N T 33520 K 0.020 GD  172 VS 3.73 DE 2.83 Q0400.0 QA 0.70 Q1 0.00 3
 SPEC HMDRBH N MO 12.7 ST0.137 OM  1.2 f0 2.47 R0.5587 AL-0.00 WI 20.0 MW  2.4 3
 SPEC HMDRBH N T 33538 K 0.020 GD  222 VS 3.73 DE 2.83 Q0400.0 QA 0.70 Q1 0.00 3
 LOCALITY: 35.4 Km al SE de Mayaguez, Region de Puerto Rico.                   3
 2020-04-02-0334-00S.MAN___123                                                 6
 OLDACT:ARG 20-04-02 03:47 OP:nr   STATUS:               ID:20200402033400     3
 OLDACT:UP  20-04-02 03:51 OP:AMMR STATUS:               ID:20200402033400     3
 ACTION:UP  22-03-16 16:59 OP:JMLC STATUS:               ID:20200402033426 L   I
 OLDACT:UP  20-04-02 03:52 OP:AMMR STATUS:               ID:20200402033400     3
 STAT SP IPHASW D HRMM SECON CODA AMPLIT PERI AZIMU VELO AIN AR TRES W  DIS CAZ7
 MLPR BZ EPg    D  334 29.48   15                        135    0.0210 10.6 289 
 MLPR BE ESg    C  334 31.06                             135   -0.3210 10.6 289 
 MLPR BN  IAML     334 31.52      4486.5 0.28                          10.6 289 
 PRSN BZ EPg    C  334 33.29   19                         91    0.1310 37.2 326 
 PRSN BE ESg    C  334 36.68                              91   -1.1410 37.2 326 
 PRSN BN  IAML     334 43.74      1015.3 0.24                          37.2 326 
 CELP BZ EPg    D  334 34.12   25                         91    0.1710 42.3  69 
 CELP BE ESg    C  334 39.05                              91   -0.1410 42.3  69 
 CELP BN  IAML     334 40.45       354.9 0.20                          42.3  69 
 AGPR BZ EPg    C  334 37.05   29                         90    0.2410 61.2 344 
 AGPR BE ESg    C  334 44.69                              90    0.5210 61.2 344 
 AGPR BN  IAML     334 44.89       425.7 0.24                          61.2 344 
 HIDR BZ EPg    D  334 57.41   55                         90   -0.4710  200 291 
 HIDR BE ESg    C  335 22.03                              90    1.2110  200 291 
 HIDR BN  IAML     335 35.75        26.5 0.25                           200 291 
 HMDR BZ EPg    C  335  9.22   60                         90    0.2010  274 290 
 HMDR BE ESg    C  335 39.79                              90   -0.4210  274 290 
 HMDR BN  IAML     336  1.29        12.6 3.05                           274 290 
                                                                                
