 2020 12 1 1408 23.20L  18.096 -71.497 16.2  DOM  7 0.8 3.1LDOM 2.8CDOM 3.0WDOM1
 SPEC AVERAGE  MO 13.6 ST  3.1 OM  2.9 f0 4.07 R2.6542 AL 0.00 WI 20.0 MW  3.0 3
 SPEC SD       MO  0.9 ST  4.2 OM  0.9 f0 2.80 R3.4309 AL      WI      MW  0.6 3
 GAP=245        2.14       9.3     6.4  6.6  0.2970E+02 -0.3517E+01  0.7111E+00E
 SPEC PODRBH N MO 13.4 ST 12.2 OM  2.6 f0 7.30 R0.2022 AL-0.00 WI 20.0 MW  2.9 3
 SPEC PODRBH N T14 829 K 0.020 GD 29.0 VS 3.99 DE 2.98 Q0400.0 QA 0.70 Q1 0.00 3
 SPEC NEDRBH N MO 13.2 ST  3.5 OM  2.2 f0 5.62 R0.2627 AL-0.00 WI 20.0 MW  2.7 3
 SPEC NEDRBH N T14 834 K 0.020 GD 45.9 VS 3.99 DE 2.98 Q0400.0 QA 0.70 Q1 0.00 3
 SPEC JIDRBH N MO 12.9 ST  1.6 OM  1.8 f0 5.42 R0.2724 AL-0.00 WI 20.0 MW  2.5 3
 SPEC JIDRBH N T14 838 K 0.020 GD 60.1 VS 3.99 DE 2.98 Q0400.0 QA 0.70 Q1 0.00 3
 SPEC SDDRBH N MO 14.7 ST0.004 OM  3.4 f00.179 R8.2475 AL-0.00 WI 20.0 MW  3.7 3
 SPEC SDDRBH N T14 849 K 0.020 GD  101 VS 3.99 DE 2.98 Q0400.0 QA 0.70 Q1 0.00 3
 SPEC ABDRBH N MO 14.9 ST0.011 OM  3.5 f00.221 R6.6801 AL-0.00 WI 20.0 MW  3.9 3
 SPEC ABDRBH N T14 855 K 0.020 GD  122 VS 3.99 DE 2.98 Q0400.0 QA 0.70 Q1 0.00 3
 SPEC REDRBH N MO 12.7 ST  1.3 OM  1.3 f0 5.67 R0.2604 AL-0.00 WI 20.0 MW  2.4 3
 SPEC REDRBH N T14 855 K 0.020 GD  132 VS 3.99 DE 2.98 Q0400.0 QA 0.70 Q1 0.00 3
 LOCALITY: 26.0 Km al NE de Cabo Rojo, Pedernales.                             3
 2020-12-01-1403-00S.MAN___129                                                 6
 OLDACT:DUP 20-12-01 18:05 OP:JMLC STATUS:               ID:20201201140301D    3
 OLDACT:UP  20-12-01 19:19 OP:JMLC STATUS:               ID:20201201140301D    3
 OLDACT:UP  20-12-01 19:19 OP:JMLC STATUS:               ID:20201201140301D    3
 OLDACT:UP  20-12-01 18:19 OP:JMLC STATUS:               ID:20201201140301D    3
 OLDACT:UP  20-12-01 18:18 OP:JMLC STATUS:               ID:20201201140301D    3
 OLDACT:UP  20-12-01 18:12 OP:JMLC STATUS:               ID:20201201140301D    3
 OLDACT:UP  20-12-01 18:12 OP:JMLC STATUS:               ID:20201201140301D    3
 ACTION:UP  22-01-13 17:41 OP:jmlc STATUS:               ID:20201201140823 L   I
 OLDACT:UP  20-12-01 20:48 OP:JMLC STATUS:               ID:20201201140301D    3
 STAT SP IPHASW D HRMM SECON CODA AMPLIT PERI AZIMU VELO AIN AR TRES W  DIS CAZ7
 PODR BZ IP       14 8 27.27   28                        123   -0.6910 24.0  71 
 PODR BN IS       14 8 30.99                             123   -0.4910 24.0  71 
 PODR BN  IAML    14 8 34.58      7620.6 0.30                          24.0  71 
 NEDR BZ IP       14 8 28.98   35                        104   -1.4810 42.9   4 
 NEDR BN IS       14 8 35.96                             104    0.1210 42.9   4 
 NEDR BN  IAML    14 8 36.94      3206.5 0.30                          42.9   4 
 JIDR BZ IP       14 8 33.73   37                         99    1.0410 57.9 319 
 JIDR BN IS       14 8 40.12                              99    0.4110 57.9 319 
 JIDR BN  IAML    14 8 47.08       931.2 0.25                          57.9 319 
 SDDR BZ IP       14 8 40.08   52                         94    0.9910  100  13 
 SDDR BN IS       14 8 51.46                              94    0.6010  100  13 
 SDDR BN  IAML    14 8 54.52       501.8 0.30                           100  13 
 ABDR BZ IP       14 8 42.24   40                         68   -0.0910  121  49 
 ABDR BN IS       14 8 57.10                              68    0.6110  121  49 
 ABDR BN  IAML    14 9  2.75       135.6 0.40                           121  49 
 BADR BZ IP       14 8 43.25   38                         55    0.6910  125  74 
 BADR BN IS       14 8 57.15                              55    0.2610  125  74 
 BADR BN  IAML    14 9  1.27       386.0 0.30                           125  74 
 REDR BZ IP       14 8 43.03   54                         55   -0.4610  132 351 
 REDR BN IS       14 8 57.00                              55   -1.5110  132 351 
 REDR BN  IAML    14 9  0.59       241.5 0.25                           132 351 
                                                                                
 2020 12 1 2317 57.40L  18.677 -70.787 52.3  DOM  5 0.3 2.5LDOM 2.9CDOM 2.9WDOM1
 SPEC AVERAGE  MO 13.4 ST  3.1 OM  4.8 f0 5.13 R0.3246 AL 0.00 WI 20.0 MW  2.9 3
 SPEC SD       MO  0.0 ST0.000 OM  2.9 f00.000 R0.0000 AL      WI      MW  0.0 3
 GAP=174        0.72       6.6     4.0 12.5  0.2808E-02  0.1105E+02  0.5265E+02E
 SPEC PODRBH N MO 13.4 ST  3.1 OM  1.9 f0 5.13 R0.3246 AL-0.00 WI 20.0 MW  2.9 3
 SPEC PODRBH N T231818 K 0.020 GD 93.0 VS 4.50 DE 3.40 Q0400.0 QA 0.70 Q1 0.00 3
 LOCALITY: 8.4 Km al NE de Tabara Arriba. Azua.                                3
 2020-12-01-2317-00S.MAN___129                                                 6
 OLDACT:UP  20-12-01 23:44 OP:JMLC STATUS:               ID:20201201231700     3
 OLDACT:ARG 20-12-01 23:37 OP:plst STATUS:               ID:20201201231700     3
 OLDACT:UP  20-12-01 23:45 OP:JMLC STATUS:               ID:20201201231700     3
 ACTION:UP  22-01-13 17:41 OP:jmlc STATUS:               ID:20201201231757 L   I
 OLDACT:UP  21-11-21 10:14 OP:CGRS STATUS:               ID:20201201231700     3
 OLDACT:UP  20-12-01 23:45 OP:JMLC STATUS:               ID:20201201231700     3
 STAT SP IPHASW D HRMM SECON CODA AMPLIT PERI AZIMU VELO AIN AR TRES W  DIS CAZ7
 ABDR BZ IP     C 2318  5.52   71                        154   -0.2510 22.6  48 
 ABDR BN  IAML    2318 46.26        27.9 0.35                          22.6  48 
 SDDR BN IS     C 2318 17.50                             121    0.2710 62.7 302 
 SDDR BN  IAML    2318 39.77       148.3 0.30                          62.7 302 
 NEDR BN IS     C 2318 19.26                             115   -0.1310 75.0 254 
 NEDR BN  IAML    2318 20.21        98.0 0.85                          75.0 254 
 PODR BZ IP     C 2318 10.87   26                        115    0.4410 76.9 223 
 PODR BN  IAML    2318 18.33      1698.5 0.30                          76.9 223 
 JIDR BZ IP     D 2318 14.45   42                        103   -0.0910  114 260 
 JIDR BN IS     C 2318 27.01                             103   -0.2510  114 260 
 JIDR BN  IAML    2318 30.75       197.9 0.30                           114 260 
                                                                                
 2020 12 1 2329 10.20L  18.810 -70.278 86.3  DOM 19 0.8 3.2LDOM 3.2CDOM 3.5WDOM1
 SPEC AVERAGE  MO 14.3 ST 34.5 OM  2.9 f0 4.17 R0.6409 AL 0.00 WI 20.0 MW  3.5 3
 SPEC SD       MO  0.3 ST 70.0 OM  0.5 f0 3.55 R0.3850 AL      WI      MW  0.2 3
 GAP= 56        2.24       5.5     4.1  9.0  0.2849E+01 -0.4760E+00 -0.2887E+01E
 SPEC ABDRBH N MO 14.3 ST 19.0 OM  2.8 f0 4.70 R0.3535 AL-0.00 WI 20.0 MW  3.5 3
 SPEC ABDRBH N T232930 K 0.020 GD 93.8 VS 4.49 DE 3.40 Q0400.0 QA 0.70 Q1 0.00 3
 SPEC SFDRBH N MO 14.4 ST126.4 OM  2.9 f0 7.98 R0.2082 AL-0.00 WI 20.0 MW  3.6 3
 SPEC SFDRBH N T232930 K 0.020 GD  101 VS 4.49 DE 3.40 Q0400.0 QA 0.70 Q1 0.00 3
 SPEC BADRBH N MO 14.4 ST 31.4 OM  2.9 f0 5.07 R0.3277 AL-0.00 WI 20.0 MW  3.5 3
 SPEC BADRBH N T232933 K 0.020 GD 98.0 VS 4.49 DE 3.40 Q0400.0 QA 0.70 Q1 0.00 3
 SPEC NADRBH N MO 14.9 ST 25.1 OM  3.3 f0 3.29 R0.5050 AL-0.00 WI 20.0 MW  3.9 3
 SPEC NADRBH N T232935 K 0.020 GD  114 VS 4.49 DE 3.40 Q0400.0 QA 0.70 Q1 0.00 3
 SPEC SC01BH N MO 14.5 ST 11.8 OM  2.9 f0 3.42 R0.4858 AL-0.00 WI 20.0 MW  3.6 3
 SPEC SC01BH N T232936 K 0.020 GD  119 VS 4.49 DE 3.40 Q0400.0 QA 0.70 Q1 0.00 3
 SPEC SODRBH N MO 14.9 ST  1.1 OM  3.2 f0 1.17 R1.4199 AL-0.00 WI 20.0 MW  3.8 3
 SPEC SODRBH N T232941 K 0.020 GD  139 VS 4.49 DE 3.40 Q0400.0 QA 0.70 Q1 0.00 3
 SPEC SDDRBH N MO 14.3 ST0.539 OM  2.7 f0 1.36 R1.2215 AL-0.00 WI 20.0 MW  3.5 3
 SPEC SDDRBH N T232941 K 0.020 GD  138 VS 4.49 DE 3.40 Q0400.0 QA 0.70 Q1 0.00 3
 SPEC MADRBH N MO 14.4 ST 13.2 OM  2.7 f0 3.86 R0.4304 AL-0.00 WI 20.0 MW  3.5 3
 SPEC MADRBH N T232942 K 0.020 GD  148 VS 4.49 DE 3.40 Q0400.0 QA 0.70 Q1 0.00 3
 SPEC SMDRBH N MO 14.1 ST  3.1 OM  2.4 f0 2.96 R0.5612 AL-0.00 WI 20.0 MW  3.3 3
 SPEC SMDRBH N T232944 K 0.020 GD  152 VS 4.49 DE 3.40 Q0400.0 QA 0.70 Q1 0.00 3
 SPEC PODRBH N MO 14.5 ST  1.8 OM  2.8 f0 1.80 R0.9229 AL-0.00 WI 20.0 MW  3.6 3
 SPEC PODRBH N T232946 K 0.020 GD  154 VS 4.49 DE 3.40 Q0400.0 QA 0.70 Q1 0.00 3
 SPEC NEDRBH N MO 14.2 ST0.386 OM  2.5 f0 1.36 R1.2215 AL-0.00 WI 20.0 MW  3.4 3
 SPEC NEDRBH N T232944 K 0.020 GD  156 VS 4.49 DE 3.40 Q0400.0 QA 0.70 Q1 0.00 3
 SPEC REDRBH N MO 13.9 ST288.5 OM  2.1 f0 16.0 R0.1038 AL-0.00 WI 20.0 MW  3.2 3
 SPEC REDRBH N T232950 K 0.020 GD  180 VS 4.49 DE 3.40 Q0400.0 QA 0.70 Q1 0.00 3
 SPEC HIDRBH N MO 14.0 ST 37.5 OM  2.2 f0 7.41 R0.2242 AL-0.00 WI 20.0 MW  3.3 3
 SPEC HIDRBH N T232952 K 0.020 GD  187 VS 4.49 DE 3.40 Q0400.0 QA 0.70 Q1 0.00 3
 SPEC JIDRBH N MO 13.9 ST0.857 OM  2.1 f0 2.26 R0.7351 AL-0.00 WI 20.0 MW  3.2 3
 SPEC JIDRBH N T232952 K 0.020 GD  190 VS 4.49 DE 3.40 Q0400.0 QA 0.70 Q1 0.00 3
 SPEC SADRBH N MO 14.1 ST0.604 OM  2.3 f0 1.72 R0.9659 AL-0.00 WI 20.0 MW  3.3 3
 SPEC SADRBH N T232954 K 0.020 GD  192 VS 4.49 DE 3.40 Q0400.0 QA 0.70 Q1 0.00 3
 SPEC MCDRBH N MO 14.4 ST 25.0 OM  2.6 f0 4.61 R0.3604 AL-0.00 WI 20.0 MW  3.6 3
 SPEC MCDRBH N T232956 K 0.020 GD  206 VS 4.49 DE 3.40 Q0400.0 QA 0.70 Q1 0.00 3
 SPEC PCDRBH N MO 14.1 ST0.814 OM  2.2 f0 1.96 R0.8476 AL-0.00 WI 20.0 MW  3.3 3
 SPEC PCDRBH N T2330 2 K 0.020 GD  220 VS 4.49 DE 3.40 Q0400.0 QA 0.70 Q1 0.00 3
 LOCALITY: 6.9 Km al Sur de Maimon. Monseor Nouel.                            3
 2020-12-01-2328-00S.MAN___129                                                 6
 OLDACT:ARG 20-12-01 23:46 OP:plst STATUS:               ID:20201201232800     3
 OLDACT:UP  20-12-01 23:58 OP:JMLC STATUS:               ID:20201201232800     3
 OLDACT:UP  20-12-01 23:55 OP:JMLC STATUS:               ID:20201201232800     3
 OLDACT:UP  20-12-01 23:55 OP:JMLC STATUS:               ID:20201201232800     3
 OLDACT:UP  20-12-01 23:55 OP:JMLC STATUS:               ID:20201201232800     3
 ACTION:UP  22-01-13 17:41 OP:jmlc STATUS:               ID:20201201232910 L   I
 OLDACT:UP  20-12-02 00:00 OP:JMLC STATUS:               ID:20201201232800     3
 STAT SP IPHASW D HRMM SECON CODA AMPLIT PERI AZIMU VELO AIN AR TRES W  DIS CAZ7
 ABDR BZ IP     C 2329 21.85   45                        155   -1.2210 36.8 270 
 ABDR BN IS     C 2329 32.32                             155   -0.2510 36.8 270 
 ABDR BN  IAML    2329 34.69       974.0 0.25                          36.8 270 
 BADR BZ IP     C 2329 23.68   44                        149    0.3510 46.5 191 
 BADR BN ISg    D 2329 33.35                             149    0.3210 46.5 191 
 BADR BN  IAML    2329 36.64      1435.2 0.50                          46.5 191 
 SFDR BZ IP     C 2329 22.62   44                        145   -0.9910 52.9   4 
 SFDR BN IS     C 2329 32.40                             145   -1.1210 52.9   4 
 SFDR BN  IAML    2329 36.30      1358.1 0.45                          52.9   4 
 SDD  BN IS     C 2329 32.77                             144   -0.8710 54.0 135 
 SDD  BN  IAML    2329 33.70       135.7 0.15                          54.0 135 
 NADR BZ IP     C 2329 24.43   44                        134   -0.8510 74.8  36 
 NADR BN IS     C 2329 37.45                             134    1.0210 74.8  36 
 NADR BN  IAML    2329 38.38      2378.9 0.65                          74.8  36 
 SC01 BZ IP     C 2329 25.24   45                        131   -0.7910 83.1 325 
 SC01 BN IS     C 2329 38.44                             131    0.7110 83.1 325 
 SC01 BN  IAML    2329 40.17      1334.6 0.35                          83.1 325 
 SDDR BZ IP     C 2329 28.15   42                        122   -0.3310  108 280 
 SDDR BN IS     C 2329 43.06                             122    1.0710  108 280 
 SDDR BN  IAML    2329 46.93       259.5 0.40                           108 280 
 SODR BZ IP     C 2329 28.77   51                        121    0.3010  109 343 
 SODR BN  IAML    2330  1.00       399.8 0.60                           109 343 
 MADR BZ IP     C 2329 28.91   62                        118   -0.7510  121 314 
 MADR BN IS     C 2329 44.42                             118    0.3810  121 314 
 MADR BN  IAML    2329 51.52       458.6 0.60                           121 314 
 SMDR BZ IP     D 2329 29.21   44                        117   -1.0510  126  65 
 SMDR BN IS     C 2329 45.76                             117    0.6710  126  65 
 SMDR BN  IAML    2329 48.53       293.7 0.45                           126  65 
 PODR BZ IP     C 2329 30.94   49                        117    0.3210  128 236 
 PODR BN ISg    D 2329 45.85                             117    0.1410  128 236 
 PODR BN  IAML    2329 49.85       369.2 0.45                           128 236 
 NEDR BN IS     C 2329 46.22                             116    0.3210  131 254 
 NEDR BN  IAML    2329 47.77       141.5 0.60                           131 254 
 LUDR BZ IP     C 2329 30.55   55                        114   -1.1010  139 329 
 LUDR BE IS     C 2329 48.72                             114    1.2210  139 329 
 REDR BZ IP     C 2329 33.17   59                        110   -0.6610  159 289 
 REDR BN IS     C 2329 52.39                             110    1.0910  159 289 
 REDR BN  IAML    2329 53.64       339.8 0.25                           159 289 
 HIDR BZ IP     C 2329 34.76   53                        108    0.1110  167  98 
 HIDR BN IS     C 2329 54.30                             108    1.5710  167  98 
 HIDR BN  IAML    2329 58.63       539.1 0.30                           167  98 
 JIDR BZ IP     C 2329 34.76   77                        108   -0.2610  170 258 
 JIDR BN  IAML    2329 57.46        72.7 0.45                           170 258 
 SADR BZ IP     C 2329 36.18   58                        107    0.8910  172 113 
 SADR BN  IAML    2330 12.76       121.7 1.00                           172 113 
 MCDR BZ IP     C 2329 35.88   53                        105   -1.1910  188 310 
 MCDR BN IS     C 2329 57.77                             105    0.8410  188 310 
 MCDR BN  IAML    2330  6.20       470.9 0.35                           188 310 
 PCDR BZ IP     C 2329 38.88   59                        103    0.1310  203  99 
 PCDR BN  IAML    2330  7.28       110.3 1.80                           203  99 
                                                                                
 2020 12 1 2339 20.30L  18.127 -71.472  6.9  DOM  6 0.8 2.8LDOM 2.8CDOM 2.3WDOM1
 SPEC AVERAGE  MO 12.6 ST  1.8 OM  2.2 f0 5.50 R0.2707 AL 0.00 WI 20.0 MW  2.3 3
 SPEC SD       MO  0.2 ST  1.5 OM  0.7 f0 2.25 R0.1067 AL      WI      MW  0.1 3
 GAP=238        2.09       9.9     5.9  9.3  0.3686E+02 -0.1424E+02 -0.2373E+02E
 SPEC PODRBH N MO 12.9 ST  3.4 OM  2.5 f0 5.88 R0.2158 AL-0.00 WI 20.0 MW  2.5 3
 SPEC PODRBH N T233925 K 0.020 GD 21.7 VS 3.43 DE 2.70 Q0400.0 QA 0.70 Q1 0.00 3
 SPEC NEDRBH N MO 12.7 ST  1.5 OM  2.0 f0 5.36 R0.2368 AL-0.00 WI 20.0 MW  2.4 3
 SPEC NEDRBH N T233929 K 0.020 GD 40.1 VS 3.43 DE 2.70 Q0400.0 QA 0.70 Q1 0.00 3
 SPEC JIDRBH N MO 12.4 ST  1.1 OM  1.6 f0 5.77 R0.2199 AL-0.00 WI 20.0 MW  2.2 3
 SPEC JIDRBH N T233936 K 0.020 GD 57.6 VS 3.43 DE 2.70 Q0400.0 QA 0.70 Q1 0.00 3
 SPEC ABDRBH N MO 12.4 ST0.124 OM  1.3 f0 2.86 R0.4437 AL-0.00 WI 20.0 MW  2.2 3
 SPEC ABDRBH N T233952 K 0.020 GD  108 VS 3.43 DE 2.70 Q0400.0 QA 0.70 Q1 0.00 3
 SPEC BADRBH N MO 12.3 ST  4.0 OM  1.2 f0 9.81 R0.1294 AL-0.00 WI 20.0 MW  2.1 3
 SPEC BADRBH N T233952 K 0.020 GD  110 VS 3.43 DE 2.70 Q0400.0 QA 0.70 Q1 0.00 3
 SPEC REDRBH N MO 12.7 ST0.419 OM  1.6 f0 3.35 R0.3788 AL-0.00 WI 20.0 MW  2.4 3
 SPEC REDRBH N T233954 K 0.020 GD  114 VS 3.43 DE 2.70 Q0400.0 QA 0.70 Q1 0.00 3
 LOCALITY: 29.9 Km al NE de Cabo Rojo. Pedernales.                             3
 2020-12-01-2338-00S.MAN___129                                                 6
 OLDACT:ARG 20-12-01 23:48 OP:plst STATUS:               ID:20201201233800     3
 OLDACT:UP  20-12-02 00:00 OP:JMLC STATUS:               ID:20201201233800     3
 OLDACT:UP  20-12-01 23:59 OP:JMLC STATUS:               ID:20201201233800     3
 OLDACT:UP  20-12-01 23:58 OP:JMLC STATUS:               ID:20201201233800     3
 OLDACT:UP  20-12-01 23:58 OP:JMLC STATUS:               ID:20201201233800     3
 ACTION:UP  22-01-13 17:41 OP:jmlc STATUS:               ID:20201201233920 L   I
 OLDACT:UP  20-12-02 00:04 OP:JMLC STATUS:               ID:20201201233800     3
 STAT SP IPHASW D HRMM SECON CODA AMPLIT PERI AZIMU VELO AIN AR TRES W  DIS CAZ7
 PODR BZ IP     C 2339 23.48   30                        113   -0.3910 20.6  78 
 PODR BN IS     C 2339 27.00                             113    0.4510 20.6  78 
 PODR BN  IAML    2339 30.87      5593.2 0.25                          20.6  78 
 NEDR BZ IP     C 2339 25.67   30                        100   -1.0610 39.5   1 
 NEDR BN IS     C 2339 31.32                             100   -0.2010 39.5   1 
 NEDR BN  IAML    2339 33.19      2178.1 0.30                          39.5   1 
 JIDR BZ IP     C 2339 29.57   38                         97    0.0110 57.2 315 
 JIDR BN IS     C 2339 37.72                              97    1.2810 57.2 315 
 JIDR BN  IAML    2339 50.71       477.3 0.35                          57.2 315 
 ABDR BZ IP     C 2339 37.57   53                         70   -1.5510  117  50 
 ABDR BN IS     C 2339 54.13                              70    1.0510  117  50 
 ABDR BN  IAML    2339 58.62        79.4 0.35                           117  50 
 BADR BZ IP     C 2339 40.39   44                         70    0.7410  121  75 
 BADR BN IS     C 2339 54.13                              70    0.1410  121  75 
 BADR BN  IAML    2340  5.81       259.1 0.30                           121  75 
 REDR BZ IP     C 2339 40.74   46                         70   -0.1410  130 349 
 REDR BN IS     C 2339 55.78                              70   -0.3510  130 349 
 REDR BN  IAML    2339 56.81       150.2 0.30                           130 349 
                                                                                
