 2020 11 7 2310 56.30L  17.862 -66.831 12.1  DOM  9 0.8 3.0LDOM 2.7CDOM 3.1WDOM1
 SPEC AVERAGE  MO 13.7 ST  7.7 OM  4.1 f0 4.16 R0.3327 AL 0.00 WI 20.0 MW  3.1 3
 SPEC SD       MO  0.2 ST  4.3 OM  1.1 f00.265 R0.0212 AL      WI      MW  0.1 3
 GAP=223        2.09       8.9     4.0 18.7 -0.2843E+01 -0.1691E+02  0.3602E+02E
 SPEC MLPRBH N MO 13.5 ST  3.4 OM  2.9 f0 3.90 R0.3539 AL-0.00 WI 20.0 MW  3.0 3
 SPEC MLPRBH N T2311 2 K 0.020 GD 28.2 VS 3.73 DE 2.83 Q0400.0 QA 0.70 Q1 0.00 3
 SPEC CRPRBH N MO 13.9 ST 12.0 OM  3.2 f0 4.43 R0.3115 AL-0.00 WI 20.0 MW  3.2 3
 SPEC CRPRBH N T2311 4 K 0.020 GD 33.8 VS 3.73 DE 2.83 Q0400.0 QA 0.70 Q1 0.00 3
 LOCALITY: 28.3 Km al SO de Ponce, Region de Puerto Rico.                      3
 2020-11-07-2310-00S.MAN___114                                                 6
 OLDACT:ARG 20-11-07 23:33 OP:cgrs STATUS:               ID:20201107231000     3
 OLDACT:UP  20-11-07 23:36 OP:CGRS STATUS:               ID:20201107231000     3
 ACTION:UP  22-01-07 19:21 OP:jmlc STATUS:               ID:20201107231056 L   I
 STAT SP IPHASW D HRMM SECON CODA AMPLIT PERI AZIMU VELO AIN AR TRES W  DIS CAZ7
 MLPR BZ EPg    C 2311  1.04   21                        115    0.1710 25.5 298 
 MLPR BN  IAML    2311  4.49      1984.7 0.36                          25.5 298 
 MLPR BN ESg      2311  4.49                             115    0.2510 25.5 298 
 CRPR BZ EPg    C 2311  2.18   22                        111    0.3910 31.6 300 
 CRPR BN ESg    C 2311  6.16                             111    0.3310 31.6 300 
 CRPR BN  IAML    2311  6.46      4559.8 0.28                          31.6 300 
 CELP BZ EPg    D 2311  3.33   32                        109    0.8910 35.8  49 
 PRSN BZ EPg    C 2311  4.96   31                        103    0.1110 51.4 320 
 PRSN BN  IAML    2311 15.63      2142.4 0.28                          51.4 320 
 AOPR BZ EPg      2311  5.59   34                        103    0.2910 54.2   9 
 AOPR BN ESg    C 2311 11.26                             103   -0.6810 54.2   9 
 AOPR BN  IAML    2311 13.62      2910.7 0.20                          54.2   9 
 AGPR BZ EPg    C 2311  8.36   34                         99    0.0310 73.4 336 
 AGPR BN ESg    C 2311 17.27                              99    0.0510 73.4 336 
 AGPR BN  IAML    2311 22.09       579.9 0.24                          73.4 336 
 SJG  BZ EPg    C 2311  9.84   30                         99    0.8910 77.3  69 
 SJG  BN ESg    C 2311 17.59                              99   -0.7010 77.3  69 
 PCDR BZ EPg    C 2311 24.19   70                         94   -1.0910  179 294 
 PCDR BN ESg    C 2311 47.74                              94    1.0210  179 294 
 PCDR BN  IAML    2311 55.79        97.9 1.15                           179 294 
 HIDR BZ EPg    C 2311 29.11   67                         93   -1.9510  215 292 
 HIDR BN  IAML    2312  4.50        59.3 0.20                           215 292 
                                                                                
 2020 11 8 0632 28.20L  18.785 -69.803 98.2  DOM  7 0.6 2.4LDOM 3.0CDOM 2.7WDOM1
 SPEC AVERAGE  MO 13.1 ST 16.1 OM  1.9 f0 9.57 R0.1914 AL 0.00 WI 20.0 MW  2.7 3
 SPEC SD       MO  0.2 ST 15.0 OM  0.5 f0 2.76 R0.0641 AL      WI      MW  0.1 3
 GAP=140        1.60       7.8     4.1 12.8  0.5114E+01 -0.1164E+02  0.1657E+02E
 SPEC SFDRBH N MO 13.5 ST 45.6 OM  1.9 f0 11.5 R0.1441 AL-0.00 WI 20.0 MW  2.9 3
 SPEC SFDRBH N T 63254 K 0.020 GD  122 VS 4.48 DE 3.40 Q0400.0 QA 0.70 Q1 0.00 3
 SPEC BADRBH N MO 13.1 ST 13.8 OM  1.5 f0 10.5 R0.1579 AL-0.00 WI 20.0 MW  2.7 3
 SPEC BADRBH N T 63255 K 0.020 GD  122 VS 4.48 DE 3.40 Q0400.0 QA 0.70 Q1 0.00 3
 SPEC ABDRBH N MO 13.0 ST 11.1 OM  1.4 f0 10.3 R0.1609 AL-0.00 WI 20.0 MW  2.6 3
 SPEC ABDRBH N T 63256 K 0.020 GD  131 VS 4.48 DE 3.40 Q0400.0 QA 0.70 Q1 0.00 3
 SPEC HIDRBH N MO 13.0 ST 22.2 OM  1.3 f0 13.3 R0.1246 AL-0.00 WI 20.0 MW  2.6 3
 SPEC HIDRBH N T 633 1 K 0.020 GD  152 VS 4.48 DE 3.40 Q0400.0 QA 0.70 Q1 0.00 3
 SPEC SC01BH N MO 13.1 ST  2.4 OM  1.4 f0 5.85 R0.2834 AL-0.00 WI 20.0 MW  2.7 3
 SPEC SC01BH N T 633 2 K 0.020 GD  155 VS 4.48 DE 3.40 Q0400.0 QA 0.70 Q1 0.00 3
 SPEC PODRBH N MO 12.8 ST  1.3 OM  1.0 f0 5.97 R0.2777 AL-0.00 WI 20.0 MW  2.5 3
 SPEC PODRBH N T 63311 K 0.020 GD  197 VS 4.48 DE 3.40 Q0400.0 QA 0.70 Q1 0.00 3
 LOCALITY: 3.3 Km al SSO de Monte Plata. Monte Plata.                          3
 2020-11-08-0632-00S.MAN___114                                                 6
 OLDACT:ARG 20-11-08 10:09 OP:cgrs STATUS:               ID:20201108063200     3
 OLDACT:UP  20-11-08 10:16 OP:CGRS STATUS:               ID:20201108063200     3
 OLDACT:UP  20-11-08 10:14 OP:CGRS STATUS:               ID:20201108063200     3
 ACTION:UP  22-01-07 19:21 OP:jmlc STATUS:               ID:20201108063228 L   I
 STAT SP IPHASW D HRMM SECON CODA AMPLIT PERI AZIMU VELO AIN AR TRES W  DIS CAZ7
 SFDR BZ EPg    D  632 43.73   42                        140   -0.4210 72.5 320 
 SFDR BN ESg    D  632 56.35                             140    0.4210 72.5 320 
 SFDR BN  IAML     632 57.85       201.6 0.25                          72.5 320 
 BADR BZ EPg    C  632 43.47   34                        140   -0.8410 72.8 234 
 BADR BN ESg    C  632 56.56                             140    0.3610 72.8 234 
 BADR BN  IAML     632 59.93        68.6 0.55                          72.8 234 
 ABDR BZ EPg    C  632 46.61   33                        135    0.9210 86.9 272 
 ABDR BN ESg    C  632 57.53                             135   -1.0810 86.9 272 
 ABDR BN  IAML     633  1.35        41.6 0.35                          86.9 272 
 HIDR BZ EPg    C  632 47.34   40                        125   -0.6910  117 100 
 HIDR BN ESg    D  633  2.57                             125   -0.1010  117 100 
 HIDR BN  IAML     633  6.50        68.9 0.35                           117 100 
 SC01 BZ EPg    C  632 47.94   48                        124   -0.4810  121 306 
 SC01 BN ESg    D  633  3.85                             124    0.5010  121 306 
 SC01 BN  IAML     633  9.78        39.7 0.70                           121 306 
 PCDR BZ EPg    C  632 52.31   48                        116    0.5910  153 101 
 PCDR BN ESg    C  633  9.43                             116    0.3410  153 101 
 PODR BZ EPg    C  632 53.70   50                        113   -0.0910  171 247 
 PODR BN ESg    D  633 13.27                             113    0.5710  171 247 
 PODR BN  IAML     633 58.90        51.2 1.85                           171 247 
                                                                                
 2020 11 8 1229  6.00L  18.803 -68.437 79.0  DOM  7 0.8 2.7LDOM 3.2CDOM 3.1WDOM1
 SPEC AVERAGE  MO 13.7 ST  5.3 OM  2.3 f0 4.47 R0.3861 AL 0.00 WI 20.0 MW  3.1 3
 SPEC SD       MO  0.3 ST  2.9 OM  0.5 f00.883 R0.0707 AL      WI      MW  0.2 3
 GAP=295        2.04      29.0    13.0 18.5  0.1977E+03 -0.1484E+03 -0.3102E+03E
 SPEC PCDRBH N MO 13.5 ST  1.8 OM  2.1 f0 3.81 R0.4370 AL-0.00 WI 20.0 MW  3.0 3
 SPEC PCDRBH N T122924 K 0.020 GD 85.4 VS 4.50 DE 3.40 Q0400.0 QA 0.70 Q1 0.00 3
 SPEC AGPRBH N MO 14.0 ST  7.0 OM  2.3 f0 4.10 R0.4061 AL-0.00 WI 20.0 MW  3.3 3
 SPEC AGPRBH N T122941 K 0.020 GD  165 VS 4.50 DE 3.40 Q0400.0 QA 0.70 Q1 0.00 3
 SPEC PRSNBH N MO 13.8 ST  9.2 OM  2.1 f0 5.18 R0.3214 AL-0.00 WI 20.0 MW  3.2 3
 SPEC PRSNBH N T122943 K 0.020 GD  170 VS 4.50 DE 3.40 Q0400.0 QA 0.70 Q1 0.00 3
 SPEC CRPRBH N MO 13.5 ST  6.3 OM  1.7 f0 6.03 R0.2761 AL-0.00 WI 20.0 MW  2.9 3
 SPEC CRPRBH N T122946 K 0.020 GD  185 VS 4.50 DE 3.40 Q0400.0 QA 0.70 Q1 0.00 3
 SPEC MLPRBH N MO 13.2 ST  1.2 OM  1.4 f0 4.31 R0.3863 AL-0.00 WI 20.0 MW  2.7 3
 SPEC MLPRBH N T122947 K 0.020 GD  191 VS 4.50 DE 3.40 Q0400.0 QA 0.70 Q1 0.00 3
 SPEC AOPRBH N MO 14.2 ST  6.1 OM  2.4 f0 3.40 R0.4897 AL-0.00 WI 20.0 MW  3.4 3
 SPEC AOPRBH N T122950 K 0.020 GD  201 VS 4.50 DE 3.40 Q0400.0 QA 0.70 Q1 0.00 3
 LOCALITY: 68.1 Km al ESE de Miches. Oceano Atlantico.                         3
 2020-11-08-1229-00S.MAN___114                                                 6
 OLDACT:ARG 20-11-08 12:33 OP:nr   STATUS:               ID:20201108122900     3
 OLDACT:UP  20-11-08 12:39 OP:CGRS STATUS:               ID:20201108122900     3
 OLDACT:UP  20-11-08 12:38 OP:CGRS STATUS:               ID:20201108122900     3
 ACTION:UP  22-01-07 19:21 OP:jmlc STATUS:               ID:20201108122906 L   I
 STAT SP IPHASW D HRMM SECON CODA AMPLIT PERI AZIMU VELO AIN AR TRES W  DIS CAZ7
 PCDR BZ EPg    C 1229 17.41   39                        156   -0.0310 32.5 170 
 PCDR BE ESg    D 1229 26.30                             156    0.4010 32.5 170 
 PCDR BN  IAML    1229 26.83       235.6 0.30                          32.5 170 
 AGPR BZ EPg    C 1229 27.27   48                        113   -0.4710  145 105 
 AGPR BE ESg    C 1229 42.77                             113   -1.0410  145 105 
 AGPR BN  IAML    1229 45.21       160.1 0.20                           145 105 
 PRSN BZ EPg    C 1229 27.98   48                        112   -0.4510  151 115 
 PRSN BE ESg    C 1229 45.11                             112    0.1010  151 115 
 PRSN BN  IAML    1229 50.85       360.0 0.24                           151 115 
 CRPR BZ EPg    C 1229 29.32   62                        109   -0.9810  168 122 
 CRPR BE ESg    C 1229 48.13                             109   -0.1410  168 122 
 CRPR BN  IAML    1229 56.25        53.4 0.32                           168 122 
 MLPR BZ EPg    C 1229 30.83   52                        108   -0.1810  174 122 
 MLPR BE ESg    C 1229 48.77                             108   -0.7310  174 122 
 MLPR BN  IAML    1229 55.97        19.8 0.52                           174 122 
 AOPR BZ EPg    D 1229 32.47   71                        107    0.1510  185 106 
 AOPR BE ESg    C 1229 52.04                             107    0.2610  185 106 
 AOPR BN  IAML    1229 55.44       146.9 0.28                           185 106 
 CELP BZ EPg    C 1229 37.10   58                        104    1.5610  212 112 
 CELP BE ESg    C 1229 58.92                             104    1.5410  212 112 
                                                                                
 2020 11 8 1355 21.50L  17.841 -66.843 14.8  DOM  6 0.3 3.1LDOM 2.8CDOM 3.2WDOM1
 SPEC AVERAGE  MO 13.9 ST  9.5 OM  4.3 f0 4.32 R0.3340 AL 0.00 WI 20.0 MW  3.2 3
 SPEC SD       MO  0.1 ST  4.1 OM  1.2 f00.210 R0.0162 AL      WI      MW  0.1 3
 GAP=256        0.70       3.8     1.9  7.6 -0.3187E+00 -0.4462E+01 -0.7498E+01E
 SPEC MLPRBH N MO 13.7 ST  5.4 OM  3.0 f0 4.11 R0.3502 AL-0.00 WI 20.0 MW  3.1 3
 SPEC MLPRBH N T135528 K 0.020 GD 29.6 VS 3.89 DE 2.89 Q0400.0 QA 0.70 Q1 0.00 3
 SPEC CRPRBH N MO 14.0 ST 13.6 OM  3.2 f0 4.53 R0.3177 AL-0.00 WI 20.0 MW  3.3 3
 SPEC CRPRBH N T135529 K 0.020 GD 35.2 VS 3.89 DE 2.89 Q0400.0 QA 0.70 Q1 0.00 3
 LOCALITY: 30.7 Km al SO de Ponce. Region de Puerto Rico.                      3
 2020-11-08-1354-00S.MAN___114                                                 6
 OLDACT:ARG 20-11-08 14:53 OP:nr   STATUS:               ID:20201108135400     3
 OLDACT:UP  20-11-08 14:59 OP:CGRS STATUS:               ID:20201108135400     3
 OLDACT:UP  20-11-08 14:58 OP:CGRS STATUS:               ID:20201108135400     3
 OLDACT:UP  20-11-08 14:57 OP:CGRS STATUS:               ID:20201108135400     3
 ACTION:UP  22-01-07 19:21 OP:jmlc STATUS:               ID:20201108135521 L   I
 STAT SP IPHASW D HRMM SECON CODA AMPLIT PERI AZIMU VELO AIN AR TRES W  DIS CAZ7
 MLPR BZ EPg    C 1355 26.07   26                        115   -0.1610 25.6 304 
 MLPR BN  IAML    1355 29.85      1653.5 0.36                          25.6 304 
 MLPR BE ESg    C 1355 29.95                             115    0.2310 25.6 304 
 CRPR BZ EPg    C 1355 27.20   36                        109    0.0810 31.9 305 
 CRPR BE ESg    C 1355 30.86                             109   -0.4010 31.9 305 
 CRPR BN  IAML    1355 31.86      3372.9 0.24                          31.9 305 
 CELP BZ EPg    C 1355 28.44   40                        104    0.3810 38.3  47 
 CELP BE ESg    D 1355 32.89                             104   -0.0210 38.3  47 
 PRSN BZ EPg    C 1355 30.03   38                         97   -0.1410 52.5 323 
 PRSN BE ESg    C 1355 37.01                              97    0.4410 52.5 323 
 PRSN BN  IAML    1355 38.99      2755.0 0.28                          52.5 323 
 AOPR BZ EPg    C 1355 30.69   50                         97   -0.1310 56.7  10 
 AOPR BE ESg    D 1355 37.40                              97   -0.3110 56.7  10 
 AOPR BN  IAML    1355 37.54      2608.8 0.24                          56.7  10 
 AGPR BZ EPg    C 1355 33.45   47                         94   -0.1410 75.1 338 
 AGPR BE ESg    C 1355 42.70                              94    0.1810 75.1 338 
 AGPR BN  IAML    1355 48.32       371.8 0.80                          75.1 338 
                                                                                
 2020 11 8 1616 51.40L  18.008 -66.919 12.2  DOM  4 0.4 1.9LDOM 2.4CDOM 2.4WDOM1
 SPEC AVERAGE  MO 12.6 ST0.907 OM  3.0 f0 4.75 R0.2933 AL 0.00 WI 20.0 MW  2.4 3
 SPEC SD       MO  0.2 ST0.576 OM  1.1 f00.385 R0.0241 AL      WI      MW  0.1 3
 GAP=227        1.18       8.1     5.2 17.6  0.9920E+00 -0.3140E+02 -0.1193E+03E
 SPEC MLPRBH N MO 12.4 ST0.505 OM  1.9 f0 5.11 R0.2708 AL-0.00 WI 20.0 MW  2.2 3
 SPEC MLPRBH N T161655 K 0.020 GD 18.5 VS 3.74 DE 2.83 Q0400.0 QA 0.70 Q1 0.00 3
 SPEC PRSNBH N MO 12.7 ST0.701 OM  2.0 f0 4.25 R0.3256 AL-0.00 WI 20.0 MW  2.4 3
 SPEC PRSNBH N T161659 K 0.020 GD 35.5 VS 3.74 DE 2.83 Q0400.0 QA 0.70 Q1 0.00 3
 SPEC AOPRBH N MO 12.9 ST  1.9 OM  2.1 f0 5.14 R0.2692 AL-0.00 WI 20.0 MW  2.6 3
 SPEC AOPRBH N T1617 2 K 0.020 GD 43.1 VS 3.74 DE 2.83 Q0400.0 QA 0.70 Q1 0.00 3
 SPEC AGPRBH N MO 12.5 ST0.526 OM  1.6 f0 4.50 R0.3075 AL-0.00 WI 20.0 MW  2.3 3
 SPEC AGPRBH N T1617 4 K 0.020 GD 56.3 VS 3.74 DE 2.83 Q0400.0 QA 0.70 Q1 0.00 3
 LOCALITY: 31.7 Km al SE de Mayaguez. Region de Puerto Rico.                   3
 2020-11-08-1616-00S.MAN___114                                                 6
 OLDACT:ARG 20-11-08 16:51 OP:nr   STATUS:               ID:20201108161600     3
 OLDACT:UP  20-11-08 16:59 OP:CGRS STATUS:               ID:20201108161600     3
 OLDACT:UP  20-11-08 16:57 OP:CGRS STATUS:               ID:20201108161600     3
 ACTION:UP  22-01-07 19:21 OP:jmlc STATUS:               ID:20201108161651 L   I
 OLDACT:UP  20-11-08 17:08 OP:CGRS STATUS:               ID:20201108161600     3
 STAT SP IPHASW D HRMM SECON CODA AMPLIT PERI AZIMU VELO AIN AR TRES W  DIS CAZ7
 MLPR BZ EPg    C 1616 53.62   17                        127   -0.7610 13.9 252 
 MLPR BE ESg    D 1616 56.95                             127    0.3610 13.9 252 
 MLPR BN  IAML    1616 57.35       246.1 0.32                          13.9 252 
 PRSN BZ EPg    C 1616 57.52   30                         96    0.4110 33.3 314 
 PRSN BE ESg    C 1617  1.43                              96    0.0810 33.3 314 
 PRSN BN  IAML    1617  6.49       208.0 0.24                          33.3 314 
 AOPR BZ EPg    C 1616 58.21   27                         91   -0.1310 41.3  25 
 AOPR BE ESg    C 1617  3.66                              91    0.1710 41.3  25 
 AOPR BN  IAML    1617  5.02       224.3 0.20                          41.3  25 
 AGPR BZ EPg    C 1617  0.92   33                         90    0.5210 55.0 338 
 AGPR BE ESg    C 1617  6.42                              90   -0.6510 55.0 338 
 AGPR BN  IAML    1617 13.68        43.5 1.00                          55.0 338 
                                                                                
 2020 11 8 1842 48.20L  18.658 -72.819 11.7  DOM  6 0.4 2.7LDOM 3.0CDOM 3.1WDOM1
 SPEC AVERAGE  MO 13.7 ST  1.9 OM  3.0 f0 2.91 R1.0509 AL 0.00 WI 20.0 MW  3.1 3
 SPEC SD       MO  0.6 ST  2.1 OM  0.8 f0 1.98 R1.1785 AL      WI      MW  0.4 3
 GAP=307        1.10       4.2     6.0  9.4  0.4530E+01  0.2356E+01  0.9615E+01E
 SPEC JIDRBH N MO 13.2 ST  2.2 OM  2.1 f0 4.04 R0.3297 AL-0.00 WI 20.0 MW  2.8 3
 SPEC JIDRBH N T184316 K 0.020 GD  103 VS 3.60 DE 2.77 Q0400.0 QA 0.70 Q1 0.00 3
 SPEC NEDRBH N MO 13.5 ST0.494 OM  2.3 f0 1.96 R0.6796 AL-0.00 WI 20.0 MW  3.0 3
 SPEC NEDRBH N T184327 K 0.020 GD  130 VS 3.60 DE 2.77 Q0400.0 QA 0.70 Q1 0.00 3
 SPEC PODRBH N MO 13.6 ST0.651 OM  2.3 f0 2.06 R0.6466 AL-0.00 WI 20.0 MW  3.0 3
 SPEC PODRBH N T184334 K 0.020 GD  148 VS 3.60 DE 2.77 Q0400.0 QA 0.70 Q1 0.00 3
 SPEC MADRBH N MO 14.8 ST0.066 OM  3.4 f00.394 R3.3807 AL-0.00 WI 20.0 MW  3.8 3
 SPEC MADRBH N T184345 K 0.020 GD  170 VS 3.60 DE 2.77 Q0400.0 QA 0.70 Q1 0.00 3
 SPEC BADRBH N MO 13.1 ST  5.9 OM  1.7 f0 6.12 R0.2176 AL-0.00 WI 20.0 MW  2.7 3
 SPEC BADRBH N T184359 K 0.020 GD  203 VS 3.60 DE 2.77 Q0400.0 QA 0.70 Q1 0.00 3
 LOCALITY: 101.9 Km al Oeste de Jimani. Canal du Sud.                          3
 2020-11-08-1842-00S.MAN___114                                                 6
 OLDACT:ARG 20-11-08 18:47 OP:nr   STATUS:               ID:20201108184200     3
 OLDACT:UP  20-11-08 19:09 OP:CGRS STATUS:               ID:20201108184200     3
 OLDACT:UP  20-11-08 19:07 OP:CGRS STATUS:               ID:20201108184200     3
 OLDACT:UP  20-11-08 19:07 OP:CGRS STATUS:               ID:20201108184200     3
 OLDACT:UP  20-11-08 19:06 OP:CGRS STATUS:               ID:20201108184200     3
 OLDACT:UP  20-11-08 19:06 OP:CGRS STATUS:               ID:20201108184200     3
 OLDACT:UP  20-11-08 19:05 OP:CGRS STATUS:               ID:20201108184200     3
 OLDACT:UP  20-11-08 19:05 OP:CGRS STATUS:               ID:20201108184200     3
 OLDACT:UP  20-11-08 19:04 OP:CGRS STATUS:               ID:20201108184200     3
 OLDACT:UP  20-11-08 19:04 OP:CGRS STATUS:               ID:20201108184200     3
 ACTION:UP  22-01-07 19:21 OP:jmlc STATUS:               ID:20201108184248 L   I
 OLDACT:UP  20-11-08 19:11 OP:CGRS STATUS:               ID:20201108184200     3
 STAT SP IPHASW D HRMM SECON CODA AMPLIT PERI AZIMU VELO AIN AR TRES W  DIS CAZ7
 JIDR BZ IP       1843  4.42   32                         70   -0.1310  104 100 
 JIDR BE IS       1843 16.74                              70    0.0710  104 100 
 JIDR BN  IAML    1843 30.11       118.9 0.45                           104 100 
 NEDR BZ EPg    C 1843 11.42   43                         95   -0.0510  144  98 
 NEDR BE ESg    C 1843 28.63                              95   -0.0810  144  98 
 NEDR BN  IAML    1843 35.60        68.4 0.35                           144  98 
 PODR BZ EPg    C 1843 16.09   41                         94    0.1910  171 108 
 PODR BE ESg    D 1843 36.27                              94   -0.1410  171 108 
 PODR BN  IAML    1843 40.75        89.8 1.25                           171 108 
 MADR BZ EPg    C 1843 21.20   50                         93   -0.3710  207  61 
 MADR BE ESg    C 1843 46.95                              93    0.6710  207  61 
 MADR BN  IAML    1843 52.07       108.9 0.60                           207  61 
 LUDR BZ EPg    C 1843 26.28   48                         93   -0.5110  239  55 
 LUDR BE ESg    C 1843 55.23                              93   -0.1310  239  55 
 BADR BZ EPg    C 1843 31.27   45                         93    0.9210  261  96 
 BADR BE ESg    C 1844  1.10                              93   -0.4510  261  96 
 BADR BN  IAML    1844  3.45        68.3 0.95                           261  96 
                                                                                
