 2020  9 4 1755 34.2 L  19.258 -70.421 22.3  DOM 14 1.2 2.4LDOM 3.2CDOM 2.6WDOM1
 SPEC AVERAGE  MO 12.9 ST 29.3 OM  2.4 f0 8.88 R0.2465 AL 0.00 WI 20.0 MW  2.6 3
 SPEC SD       MO  0.3 ST 38.2 OM  0.6 f0 5.70 R0.2092 AL      WI      MW  0.2 3
 GAP= 76        3.21       4.6     4.6  7.5  0.3742E+01  0.1614E+01 -0.1303E+01E
 LOCALITY: 4.7 Km al SSE de Villa Tapia. Hermanas Mirabal.                     3
 SPEC SFDRBH N MO 13.0 ST112.5 OM  2.6 f0 16.0 R0.0740 AL-0.00 WI 20.0 MW  2.6 3
 SPEC SFDRBH N T175542 K 0.020 GD 29.2 VS 3.20 DE 2.60 Q0400.0 QA 0.70 Q1 1.00 3
 SPEC SC01BH N MO 13.2 ST  1.0 OM  2.6 f0 2.91 R0.4069 AL-0.00 WI 20.0 MW  2.7 3
 SPEC SC01BH N T175547 K 0.020 GD 43.5 VS 3.20 DE 2.60 Q0400.0 QA 0.70 Q1 1.00 3
 SPEC ABDRBH N MO 12.5 ST 10.1 OM  1.8 f0 10.5 R0.1128 AL-0.00 WI 20.0 MW  2.3 3
 SPEC ABDRBH N T175551 K 0.020 GD 58.3 VS 3.20 DE 2.60 Q0400.0 QA 0.70 Q1 1.00 3
 SPEC SODRBH N MO 13.3 ST0.233 OM  2.6 f0 1.61 R0.7354 AL-0.00 WI 20.0 MW  2.8 3
 SPEC SODRBH N T175553 K 0.020 GD 59.3 VS 3.20 DE 2.60 Q0400.0 QA 0.70 Q1 1.00 3
 SPEC NADRBH N MO 13.5 ST  6.2 OM  2.7 f0 4.32 R0.2741 AL-0.00 WI 20.0 MW  2.9 3
 SPEC NADRBH N T175552 K 0.020 GD 64.4 VS 3.20 DE 2.60 Q0400.0 QA 0.70 Q1 1.00 3
 SPEC BADRBH N MO 12.6 ST 47.5 OM  1.7 f0 16.0 R0.0740 AL-0.00 WI 20.0 MW  2.4 3
 SPEC BADRBH N T1756 5 K 0.020 GD 97.9 VS 3.20 DE 2.60 Q0400.0 QA 0.70 Q1 1.00 3
 SPEC SMDRBH N MO 12.6 ST0.430 OM  1.5 f0 3.52 R0.3364 AL-0.00 WI 20.0 MW  2.3 3
 SPEC SMDRBH N T175613 K 0.020 GD  131 VS 3.20 DE 2.60 Q0400.0 QA 0.70 Q1 1.00 3
 SPEC MCDRBH N MO 12.7 ST 10.4 OM  1.6 f0 9.03 R0.1311 AL-0.00 WI 20.0 MW  2.4 3
 SPEC MCDRBH N T175618 K 0.020 GD  149 VS 3.20 DE 2.60 Q0400.0 QA 0.70 Q1 1.00 3
 SPEC HIDRBH N MO 12.8 ST 75.3 OM  1.6 f0 16.0 R0.0740 AL-0.00 WI 20.0 MW  2.5 3
 SPEC HIDRBH N T175630 K 0.020 GD  195 VS 3.20 DE 2.60 Q0400.0 QA 0.70 Q1 1.00 3
 2020-09-04-1755-00S.MAN___123                                                 6
 OLDACT:UP  20-09-04 20:52 OP:CGRS STATUS:               ID:20200904175500     3
 OLDACT:ARG 20-09-04 20:39 OP:plst STATUS:               ID:20200904175500     3
 ACTION:UP  22-06-23 12:36 OP:jmlc STATUS:               ID:20200904175534 L   I
 OLDACT:UP  20-09-04 20:55 OP:CGRS STATUS:               ID:20200904175500     3
 OLDACT:UP  20-09-04 20:55 OP:CGRS STATUS:               ID:20200904175500     3
 OLDACT:UP  20-09-04 20:54 OP:CGRS STATUS:               ID:20200904175500     3
 STAT SP IPHASW D HRMM SECON CODA AMPLIT PERI AZIMU VELO AIN AR TRES W  DIS CAZ7
 SFDR BZ IP     C 1755 40.86   38                        131    0.9210 18.8  80 
 SFDR BN IS     C 1755 43.88                             131   -0.4410 18.8  80 
 SFDR BN  IAML    1755 45.33      2003.7 0.10                          18.8  80 
 SC01 BN IS     C 1755 49.32                             105    0.1710 37.3 300 
 SC01 BN  IAML    1755 50.04       475.1 0.20                          37.3 300 
 ABDR BZ IP     C 1755 46.06   70                         97    0.2910 53.9 204 
 ABDR BN IS     C 1755 52.82                              97   -1.7810 53.9 204 
 ABDR BN  IAML    1755 55.60       134.8 0.10                          53.9 204 
 SODR BN IS     C 1755 54.60                              96    0.4310 54.9   4 
 SODR BN  IAML    1756  1.45       163.2 0.65                          54.9   4 
 NADR BN IS     C 1755 54.26                              95   -1.5310 60.4  80 
 NADR BN  IAML    1755 57.11       823.7 0.45                          60.4  80 
 MADR BN IS     C 1756  2.35                              93    1.0110 79.3 296 
 MADR BN  IAML    1756  5.72       106.7 0.20                          79.3 296 
 LUDR BE IS     C 1756  3.05                              92   -1.3610 89.8 322 
 BADR BZ IP     C 1755 54.95   56                         92    2.5410 95.3 176 
 BADR BN IS     C 1756  6.58                              92    0.3010 95.3 176 
 BADR BN  IAML    1756 10.26       110.0 0.15                          95.3 176 
 SDDR BE IS       1756  5.52                              92   -0.9810 96.5 252 
 SDDR BN  IAML    1756 33.34        26.8 2.90                          96.5 252 
 SDD  BE IS     C 1756  6.58                              62   -1.4310  103 149 
 SDD  BN  IAML    1756 19.33        94.7 1.60                           103 149 
 SMDR BN IS     C 1756 14.68                              62   -0.2810  130  88 
 SMDR BN  IAML    1756 22.13        75.8 1.10                           130  88 
 MCDR BZ IP     C 1756  0.13   74                         53    0.2710  148 299 
 MCDR BN IS     C 1756 19.61                              53    0.2110  148 299 
 MCDR BN  IAML    1756 19.76        60.3 1.65                           148 299 
 HIDR BZ IP     C 1756  8.34                              48    2.3610  194 112 
 HIDR BN  IAML    1756 34.54        76.3 0.20                           194 112 
 GRTK BN IS     C 1756 43.91                              48   -0.6910  260 344 
                                                                                
 2020  9 4 2006 57.7 L  19.749 -69.045 20.2  DOM  5 0.3 2.5LDOM 3.4CDOM 1.8WDOM1
 SPEC AVERAGE  MO 11.8 ST0.195 OM  3.5 f0 4.87 R0.2431 AL 0.00 WI 20.0 MW  1.8 3
 SPEC SD       MO  0.0 ST0.000 OM  2.4 f00.000 R0.0000 AL      WI      MW  0.0 3
 GAP=244        0.85       4.0     6.9  5.3  0.5233E+01  0.2020E+01 -0.1519E+02E
 LOCALITY: 57.1 Km al NNE de Las Galeras. Oceano Atlantico.                    3
 SPEC SMDRBH N MO 11.8 ST0.195 OM  1.1 f0 4.87 R0.2431 AL-0.00 WI 20.0 MW  1.8 3
 SPEC SMDRBH N T20 715 K 0.020 GD 56.7 VS 3.20 DE 2.60 Q0400.0 QA 0.70 Q1 1.00 3
 2020-09-04-2007-00S.MAN___123                                                 6
 OLDACT:ARG 20-09-04 21:13 OP:plst STATUS:               ID:20200904200700     3
 ACTION:UP  22-06-23 12:36 OP:jmlc STATUS:               ID:20200904200657 L   I
 OLDACT:UP  20-09-04 21:25 OP:CGRS STATUS:               ID:20200904200700     3
 OLDACT:UP  20-09-04 21:24 OP:CGRS STATUS:               ID:20200904200700     3
 OLDACT:UP  20-09-04 21:22 OP:CGRS STATUS:               ID:20200904200700     3
 STAT SP IPHASW D HRMM SECON CODA AMPLIT PERI AZIMU VELO AIN AR TRES W  DIS CAZ7
 SMDR BN IS     C 20 7 17.26                              91    0.1010 53.0 197 
 SMDR BN  IAML    20 7 36.16        67.8 0.70                          53.0 197 
 NADR BZ IP     C 20 7 15.85   74                         90   -0.0210 95.6 243 
 NADR BN IS     C 20 7 29.59                              90   -0.0810 95.6 243 
 NADR BN  IAML    20 8 11.26       275.5 0.45                          95.6 243 
 SDDR BN IS     C 20 8  6.22                              48   -0.4410  251 251 
 SDDR BN  IAML    20 8 20.69        14.4 2.80                           251 251 
 MCDR BN IS     C 20 8 12.21                              48    0.6110  274 274 
 MCDR BN  IAML    20 8 31.33        45.4 0.80                           274 274 
 GRTK BN IS     C 20 8 15.38                              48   -0.1710  292 312 
 GRTK BN  IAML    20 8 33.83        43.8 1.15                           292 312 
                                                                                
 2020  9 4 2115 10.2 L  18.845 -68.441 30.1  DOM  7 0.9 2.2LDOM 3.4CDOM 2.3WDOM1
 SPEC AVERAGE  MO 12.5 ST0.682 OM  2.5 f0 3.98 R0.2978 AL 0.00 WI 20.0 MW  2.3 3
 SPEC SD       MO  0.3 ST0.536 OM  1.2 f00.128 R0.0097 AL      WI      MW  0.2 3
 GAP=164        2.34      19.6    12.8 17.7  0.2255E+03 -0.2082E+03 -0.3235E+03E
 LOCALITY: 69.7 Km al Este de Miches. Oceano Atlantico.                        3
 SPEC SMDRBH N MO 12.2 ST0.322 OM  1.3 f0 4.12 R0.2874 AL-0.00 WI 20.0 MW  2.1 3
 SPEC SMDRBH N T211539 K 0.020 GD 97.6 VS 3.20 DE 2.60 Q0400.0 QA 0.70 Q1 1.00 3
 SPEC AOPRBH N MO 12.9 ST  1.4 OM  1.7 f0 4.01 R0.2953 AL-0.00 WI 20.0 MW  2.6 3
 SPEC AOPRBH N T2116 2 K 0.020 GD  188 VS 3.20 DE 2.60 Q0400.0 QA 0.70 Q1 1.00 3
 SPEC CELPBH N MO 12.3 ST0.284 OM  1.0 f0 3.81 R0.3108 AL-0.00 WI 20.0 MW  2.1 3
 SPEC CELPBH N T211612 K 0.020 GD  217 VS 3.20 DE 2.60 Q0400.0 QA 0.70 Q1 1.00 3
 2020-09-04-2115-00S.MAN___123                                                 6
 OLDACT:ARG 20-09-04 21:55 OP:plst STATUS:               ID:20200904211500     3
 ACTION:UP  22-06-23 12:36 OP:jmlc STATUS:               ID:20200904211510 L   I
 OLDACT:UP  20-09-04 22:01 OP:CGRS STATUS:               ID:20200904211500     3
 OLDACT:UP  20-09-04 22:01 OP:CGRS STATUS:               ID:20200904211500     3
 OLDACT:UP  20-09-04 22:00 OP:CGRS STATUS:               ID:20200904211500     3
 STAT SP IPHASW D HRMM SECON CODA AMPLIT PERI AZIMU VELO AIN AR TRES W  DIS CAZ7
 PCDR BZ IP     C 2115 19.96   68                        121    0.7910 37.2 170 
 PCDR BN IS     C 2115 25.36                             121   -0.6510 37.2 170 
 PCDR BN  IAML    2115 33.11        91.6 1.60                          37.2 170 
 HIDR BZ IP     C 2115 21.14   62                        119    1.5210 40.3 226 
 HIDR BN IS     C 2115 26.07                             119   -0.7410 40.3 226 
 HIDR BN  IAML    2115 27.17       201.3 0.15                          40.3 226 
 SMDR BZ IP     C 2115 26.07   58                         62   -1.2510 92.8 302 
 SMDR BN IS     C 2115 40.51                              62    0.1610 92.8 302 
 SMDR BN  IAML    2115 43.38        80.2 0.75                          92.8 302 
 AGPR BN IS     C 2115 52.49                              53   -1.3010  146 106 
 AGPR BN  IAML    2116 13.29        72.0 1.52                           146 106 
 CRPR BZ IP     C 2115 38.04   87                         53   -0.0910  170 123 
 CRPR BN IS     C 2115 58.83                              53   -0.5610  170 123 
 CRPR BN  IAML    2116  6.43        42.3 2.76                           170 123 
 AOPR BZ IP     C 2115 40.51   72                         48    0.3210  186 107 
 AOPR BN IS     C 2116  3.76                              48    0.7410  186 107 
 AOPR BN  IAML    2116  5.14        43.0 1.04                           186 107 
 CELP BZ IP     C 2115 44.74   83                         48    1.0710  215 113 
 CELP BN  IAML    2116 17.84         6.4 0.84                           215 113 
                                                                                
 2020  9 4 2347  0.6 L  19.751 -71.120 20.1  DOM 10 1.5 2.3LDOM 3.3CDOM 3.2WDOM1
 SPEC AVERAGE  MO 13.8 ST 10.3 OM  3.2 f0 5.54 R4.8689 AL 0.00 WI 20.0 MW  3.2 3
 SPEC SD       MO  1.4 ST 16.0 OM  1.4 f0 6.83 R5.5755 AL      WI      MW  1.0 3
 GAP= 74        3.90       7.2     7.5 10.0 -0.6284E+01  0.1165E+02  0.3118E+02E
 LOCALITY: 14.8 Km al OSO de Villa Isabela. Puerto Plata.                      3
 SPEC SC01BH N MO 12.5 ST  1.3 OM  1.8 f0 5.35 R0.2213 AL-0.00 WI 20.0 MW  2.3 3
 SPEC SC01BH N T234721 K 0.020 GD 58.2 VS 3.20 DE 2.60 Q0400.0 QA 0.70 Q1 1.00 3
 SPEC REDRBH N MO 12.6 ST 40.3 OM  1.7 f0 16.0 R0.0740 AL-0.00 WI 20.0 MW  2.3 3
 SPEC REDRBH N T234724 K 0.020 GD 83.0 VS 3.20 DE 2.60 Q0400.0 QA 0.70 Q1 1.00 3
 SPEC SDDRBH N MO 13.0 ST0.035 OM  2.1 f0 1.10 R1.0764 AL-0.00 WI 20.0 MW  2.6 3
 SPEC SDDRBH N T234728 K 0.020 GD 89.5 VS 3.20 DE 2.60 Q0400.0 QA 0.70 Q1 1.00 3
 SPEC ABDRBH N MO 15.9 ST0.017 OM  4.9 f00.091 R 13.01 AL-0.00 WI 20.0 MW  4.6 3
 SPEC ABDRBH N T234736 K 0.020 GD  117 VS 3.20 DE 2.60 Q0400.0 QA 0.70 Q1 1.00 3
 SPEC JIDRBH N MO 14.8 ST0.009 OM  3.6 f00.179 R6.6145 AL-0.00 WI 20.0 MW  3.8 3
 SPEC JIDRBH N T234748 K 0.020 GD  160 VS 3.20 DE 2.60 Q0400.0 QA 0.70 Q1 1.00 3
 SPEC BADRBH N MO 15.6 ST0.008 OM  4.4 f00.091 R 13.01 AL-0.00 WI 20.0 MW  4.3 3
 SPEC BADRBH N T234749 K 0.020 GD  171 VS 3.20 DE 2.60 Q0400.0 QA 0.70 Q1 1.00 3
 SPEC GRTKBH N MO 12.4 ST 30.1 OM  1.2 f0 16.0 R0.0740 AL-0.00 WI 20.0 MW  2.2 3
 SPEC GRTKBH N T234754 K 0.020 GD  196 VS 3.20 DE 2.60 Q0400.0 QA 0.70 Q1 1.00 3
 2020-09-04-2346-00S.MAN___123                                                 6
 OLDACT:ARG 20-09-04 23:58 OP:plst STATUS:               ID:20200904234600     3
 ACTION:UP  22-06-23 12:36 OP:jmlc STATUS:               ID:20200904234700 L   I
 OLDACT:UP  20-09-05 00:21 OP:CGRS STATUS:               ID:20200904234600     3
 OLDACT:UP  20-09-05 00:20 OP:CGRS STATUS:               ID:20200904234600     3
 OLDACT:UP  20-09-05 00:19 OP:CGRS STATUS:               ID:20200904234600     3
 OLDACT:UP  20-09-05 00:08 OP:CGRS STATUS:               ID:20200904234600     3
 OLDACT:UP  20-09-05 00:07 OP:CGRS STATUS:               ID:20200904234600     3
 OLDACT:UP  20-09-05 00:07 OP:CGRS STATUS:               ID:20200904234600     3
 STAT SP IPHASW D HRMM SECON CODA AMPLIT PERI AZIMU VELO AIN AR TRES W  DIS CAZ7
 LUDR BZ IP     C 2347  7.63   46                        126    0.8210 23.5  48 
 LUDR BE IS     C 2347 11.43                             126   -0.1010 23.5  48 
 SC01 BN IS     C 2347 22.85                              64    2.2810 54.6 131 
 SC01 BN  IAML    2347 32.13        62.5 0.25                          54.6 131 
 MCDR BZ IP     C 2347 13.74   54                         64    1.2010 58.3 286 
 MCDR BN  IAML    2347 26.78        80.0 0.25                          58.3 286 
 SODR BN IS     C 2347 24.19                              64   -2.9210 77.1  90 
 SODR BN  IAML    2347 36.84        98.3 1.40                          77.1  90 
 REDR BZ IP     C 2347 16.64                              64    0.3110 80.5 229 
 REDR BN IS     C 2347 25.66                              64   -2.6210 80.5 229 
 REDR BN  IAML    2347 28.24       133.2 0.30                          80.5 229 
 SDDR BZ IP       2347 17.34   69                         64   -0.0910 87.2 192 
 SDDR BN IS     C 2347 29.62                              64   -0.6010 87.2 192 
 SDDR BN  IAML    2347 33.69        27.9 0.80                          87.2 192 
 ABDR BN IS     C 2347 37.93                              53   -1.1110  116 153 
 ABDR BN  IAML    2347 52.58       265.1 2.40                           116 153 
 JIDR BZ IP     C 2347 28.77   69                         46    0.6810  159 209 
 JIDR BN IS     C 2347 49.55                              46    0.5710  159 209 
 BADR BZ IP     C 2347 32.41   77                         46    2.7310  170 152 
 BADR BE IS     C 2347 51.31                              46   -0.4610  170 152 
 BADR BN  IAML    2348  5.93        94.5 3.50                           170 152 
 GRTK BZ IP     C 2347 32.99   68                         42    0.2510  195 360 
 GRTK BN IS     C 2347 56.24                              42   -0.9210  195 360 
 GRTK BN  IAML    2348 40.09        63.7 1.20                           195 360 
                                                                                
