 2020 10 2 0529 42.90L  19.385 -67.095 15.0  DOM 13 0.7 3.3LDOM 3.0CDOM 3.6WDOM1
 SPEC AVERAGE  MO 14.5 ST  5.9 OM  3.1 f0 2.59 R0.6858 AL 0.00 WI 20.0 MW  3.6 3
 SPEC SD       MO  0.3 ST  4.1 OM  0.5 f00.634 R0.1857 AL      WI      MW  0.2 3
 GAP=237        1.87      11.2     9.2 19.2  0.7706E+02  0.8059E+01 -0.1975E+02E
 SPEC AGPRBH N MO 14.7 ST 10.1 OM  3.2 f0 2.72 R0.6121 AL-0.00 WI 20.0 MW  3.8 3
 SPEC AGPRBH N T 530 8 K 0.020 GD  102 VS 4.50 DE 3.40 Q0400.0 QA 0.70 Q1 0.00 3
 SPEC AOPRBH N MO 14.7 ST 10.3 OM  3.1 f0 2.80 R0.5946 AL-0.00 WI 20.0 MW  3.7 3
 SPEC AOPRBH N T 53014 K 0.020 GD  120 VS 4.50 DE 3.40 Q0400.0 QA 0.70 Q1 0.00 3
 SPEC CRPRBH N MO 15.0 ST  4.5 OM  3.3 f0 1.68 R0.9911 AL-0.00 WI 20.0 MW  3.9 3
 SPEC CRPRBH N T 53020 K 0.020 GD  153 VS 4.50 DE 3.40 Q0400.0 QA 0.70 Q1 0.00 3
 SPEC CELPBH N MO 14.2 ST  3.5 OM  2.5 f0 2.83 R0.5883 AL-0.00 WI 20.0 MW  3.4 3
 SPEC CELPBH N T 53023 K 0.020 GD  155 VS 4.50 DE 3.40 Q0400.0 QA 0.70 Q1 0.00 3
 SPEC MLPRBH N MO 13.9 ST  1.8 OM  2.2 f0 2.87 R0.5801 AL-0.00 WI 20.0 MW  3.2 3
 SPEC MLPRBH N T 53021 K 0.020 GD  157 VS 4.50 DE 3.40 Q0400.0 QA 0.70 Q1 0.00 3
 SPEC PCDRBH N MO 14.5 ST  1.6 OM  2.8 f0 1.69 R0.9852 AL-0.00 WI 20.0 MW  3.6 3
 SPEC PCDRBH N T 53028 K 0.020 GD  166 VS 4.50 DE 3.40 Q0400.0 QA 0.70 Q1 0.00 3
 SPEC HIDRBH N MO 14.4 ST 12.5 OM  2.6 f0 3.75 R0.4440 AL-0.00 WI 20.0 MW  3.5 3
 SPEC HIDRBH N T 53034 K 0.020 GD  192 VS 4.50 DE 3.40 Q0400.0 QA 0.70 Q1 0.00 3
 SPEC HMDRBH N MO 14.3 ST  2.7 OM  2.4 f0 2.41 R0.6909 AL-0.00 WI 20.0 MW  3.5 3
 SPEC HMDRBH N T 53047 K 0.020 GD  249 VS 4.50 DE 3.40 Q0400.0 QA 0.70 Q1 0.00 3
 SPEC NADRBH N MO 15.0 ST 12.1 OM  3.0 f0 2.38 R 0.700 AL-0.00 WI 20.0 MW  3.9 3
 SPEC NADRBH N T 53056 K 0.020 GD29.00 VS 4.50 DE 3.40 Q0400.0 QA 0.70 Q1      3
 LOCALITY: 208.0 Km al Este de Miches. Oceano Atlantico.                       3
 2020-10-02-0528-00S.MAN___126                                                 6
 OLDACT:UP  20-10-02 05:39 OP:CGRS STATUS:               ID:20201002052800     3
 OLDACT:ARG 20-10-02 05:36 OP:cgrs STATUS:               ID:20201002052800     3
 OLDACT:UP  20-10-02 05:41 OP:CGRS STATUS:               ID:20201002052800     3
 OLDACT:UP  20-10-02 05:40 OP:CGRS STATUS:               ID:20201002052800     3
 ACTION:UP  22-01-06 16:15 OP:jmlc STATUS:               ID:20201002052942 L   I
 OLDACT:UP  22-01-06 16:12 OP:CGRS STATUS:               ID:20201002052800     3
 OLDACT:UP  20-10-03 00:40 OP:AMMR STATUS:               ID:20201002052800     3
 STAT SP IPHASW D HRMM SECON CODA AMPLIT PERI AZIMU VELO AIN AR TRES W  DIS CAZ7
 PRSN BZ EPg    C  530  3.43   31                         92                    
 PRSN BN  IAML     530 24.99      2800.6 0.24                                   
 AGPR BZ EPg    C  529 59.49   29                         93    0.5510  101 181 
 AGPR BN  IAML     530 12.10      1326.8 0.36                           101 181 
 AOPR BZ EPg    C  530  1.90   36                         92    0.0510  120 163 
 AOPR BN  IAML     530 22.10      1476.5 0.24                           120 163 
 CRPR BZ EPg    D  530  6.54   30                         91   -0.1710  153 180 
 CRPR BN ESg       530 23.58                              91   -0.7310  153 180 
 CRPR BN  IAML     530 24.93      1269.5 0.40                           153 180 
 CRPR BE  IAML     530 25.64      1015.1 0.64                           153 180 
 CELP BZ EPg    C  530  7.21   37                         91    0.1310  155 159 
 CELP BN  IAML     530 28.49       335.1 0.56                           155 159 
 MLPR BZ EPg    D  530  7.52   41                         91    0.1810  157 178 
 MLPR BN  IAML     530 27.54        96.9 0.92                           157 178 
 PCDR BZ IP        530  9.31   41                         55    1.8510  166 235 
 PCDR BN  IAML     530 42.69       430.9 0.60                           166 235 
 SJG  BZ EPg    C  530  9.29   47                         91   -0.4710  173 145 
 HIDR BZ EPg       530 12.66   48                         91   -0.0010  192 243 
 HIDR BN  IAML     530 45.02       340.6 0.25                           192 243 
 MIDR HZ EPg       530 15.18   55                         91   -0.2810  210 258 
 MIDR HE  IAML     530 45.03       117.7 0.48                           210 258 
 SMDR BZ EPg       530 15.96                              91   -0.9910  220 268 
 SADR BZ EPg       530 17.66   57                         91    0.5510  221 234 
 SADR BN  IAML     530 49.19       466.1 0.90                           221 234 
 SADR BE  IAML     530 52.48       244.4 1.70                           221 234 
 HMDR BZ EPg    C  530 20.74   60                         91   -0.6710  249 255 
 HMDR BN  IAML     531  3.90       125.8 0.50                           249 255 
                                                                                
 2020 10 2 1004 59.70L  18.626 -69.467 89.0  DOM  6 0.8 2.4LDOM 2.8CDOM 2.6WDOM1
 SPEC AVERAGE  MO 13.0 ST119.4 OM  2.2 f0 12.7 R0.1433 AL 0.00 WI 20.0 MW  2.6 3
 SPEC SD       MO  0.6 ST192.5 OM  1.0 f0 3.53 R0.0469 AL      WI      MW  0.4 3
 GAP=191        2.07      18.9     7.9 19.4  0.7553E+02  0.8927E+02  0.2169E+03E
 SPEC HMDRBH N MO 12.8 ST  2.5 OM  1.3 f0 7.60 R0.2186 AL-0.00 WI 20.0 MW  2.5 3
 SPEC HMDRBH N T10 518 K 0.020 GD 91.2 VS 4.49 DE 3.40 Q0400.0 QA 0.70 Q1 0.00 3
 SPEC MIDRHH N MO 12.4 ST 10.8 OM  0.9 f0 16.0 R0.1038 AL-0.00 WI 20.0 MW  2.2 3
 SPEC MIDRHH N T10 522 K 0.020 GD  106 VS 4.49 DE 3.40 Q0400.0 QA 0.70 Q1 0.00 3
 SPEC NAVIBH N MO 14.1 ST452.9 OM  2.5 f0 16.0 R0.1038 AL-0.00 WI 20.0 MW  3.3 3
 SPEC NAVIBH N T10 524 K 0.020 GD  113 VS 4.49 DE 3.40 Q0400.0 QA 0.70 Q1 0.00 3
 SPEC REDRBH N MO 12.9 ST 11.7 OM  1.0 f0 11.3 R0.1470 AL-0.00 WI 20.0 MW  2.6 3
 SPEC REDRBH N T10 558 K 0.020 GD  261 VS 4.49 DE 3.40 Q0400.0 QA 0.70 Q1 0.00 3
 LOCALITY: 2.7 Km al Este de Los Llanos. San Pedro de Macoris.                 3
 2020-10-02-1004-00S.MAN___126                                                 6
 OLDACT:ARG 20-10-02 12:02 OP:plst STATUS:               ID:20201002100400     3
 OLDACT:UP  20-10-02 15:02 OP:CGRS STATUS:               ID:20201002100400     3
 OLDACT:UP  20-10-02 15:02 OP:CGRS STATUS:               ID:20201002100400     3
 OLDACT:UP  20-10-02 15:00 OP:CGRS STATUS:               ID:20201002100400     3
 OLDACT:UP  20-10-02 15:00 OP:CGRS STATUS:               ID:20201002100400     3
 OLDACT:UP  20-10-02 14:58 OP:CGRS STATUS:               ID:20201002100400     3
 ACTION:UP  22-01-06 16:15 OP:jmlc STATUS:               ID:20201002100459 L   I
 OLDACT:UP  21-11-12 20:28 OP:AMMR STATUS:               ID:20201002100400     3
 OLDACT:UP  20-10-02 17:54 OP:CGRS STATUS:               ID:20201002100400     3
 STAT SP IPHASW D HRMM SECON CODA AMPLIT PERI AZIMU VELO AIN AR TRES W  DIS CAZ7
 HMDR BZ IP     C 10 5 11.15   30                        166   -0.6310 20.0  27 
 HMDR BN  IAML    10 5 21.11        52.1 0.25                          20.0  27 
 MIDR HZ IP     C 10 5 13.16   32                        143   -0.5810 59.1  48 
 MIDR HN IS     C 10 5 24.43                             143    0.2810 59.1  48 
 MIDR BN  IAML    10 5 27.10        33.9 0.72                          59.1  48 
 NAVI BZ IP     C 10 5 13.27   32                        138   -1.3710 69.7 302 
 NAVI BN IS     C 10 5 25.95                             138    0.2410 69.7 302 
 NAVI BN  IAML    10 5 26.22       732.1 0.10                          69.7 302 
 SMDR BZ IP     C 10 5 15.03   28                        133   -0.2910 79.0  22 
 SMDR BN IS     C 10 5 27.09                             133    0.2010 79.0  22 
 SMDR BN  IAML    10 5 28.61        75.9 1.10                          79.0  22 
 PCDR BZ IP     C 10 5 18.55   39                        121   -0.1810  115  96 
 PCDR BN IS     C 10 5 34.05                             121    1.2210  115  96 
 PCDR BN  IAML    10 5 47.30       111.3 2.10                           115  96 
 REDR BZ IP     C 10 5 32.99   52                         99   -0.3710  246 287 
 REDR BN IS     C 10 5 59.77                              99    1.4910  246 287 
 REDR BN  IAML    10 6  6.30        15.8 1.50                           246 287 
                                                                                
 2020 10 2 1031 10.30L  19.185 -69.769 12.2  DOM 15 0.9 2.7LDOM 2.9CDOM 2.7WDOM1
 SPEC AVERAGE  MO 13.1 ST 71.9 OM  2.4 f0 7.80 R0.4308 AL 0.00 WI 20.0 MW  2.7 3
 SPEC SD       MO  0.5 ST197.2 OM  0.6 f0 5.37 R0.6420 AL      WI      MW  0.4 3
 GAP=105        2.57       5.3     3.6 26.3  0.3040E+01 -0.6517E+01  0.7069E+02E
 SPEC NADRBH N MO 13.4 ST 12.5 OM  3.1 f0 5.58 R0.2122 AL-0.00 WI 20.0 MW  2.9 3
 SPEC NADRBH N T103115 K 0.020 GD 24.2 VS 3.20 DE 2.60 Q0400.0 QA 0.70 Q1 0.00 3
 SPEC NAVIBH N MO 13.8 ST751.2 OM  3.3 f0 16.0 R0.0740 AL-0.00 WI 20.0 MW  3.2 3
 SPEC NAVIBH N T103119 K 0.020 GD 38.9 VS 3.20 DE 2.60 Q0400.0 QA 0.70 Q1 0.00 3
 SPEC HMDRBH N MO 12.3 ST 11.8 OM  1.6 f0 12.7 R0.0932 AL-0.00 WI 20.0 MW  2.2 3
 SPEC HMDRBH N T103126 K 0.020 GD 61.2 VS 3.20 DE 2.60 Q0400.0 QA 0.70 Q1 0.00 3
 SPEC SMDRBH N MO 13.2 ST0.440 OM  2.4 f0 2.27 R0.5216 AL-0.00 WI 20.0 MW  2.7 3
 SPEC SMDRBH N T103127 K 0.020 GD 63.4 VS 3.20 DE 2.60 Q0400.0 QA 0.70 Q1 0.00 3
 SPEC MIDRHH N MO 12.3 ST 11.4 OM  1.4 f0 13.4 R0.0884 AL-0.00 WI 20.0 MW  2.1 3
 SPEC MIDRHH N T103131 K 0.020 GD 79.8 VS 3.20 DE 2.60 Q0400.0 QA 0.70 Q1 0.00 3
 SPEC SDD BH N MO 12.6 ST  1.8 OM  1.7 f0 5.64 R0.2099 AL-0.00 WI 20.0 MW  2.3 3
 SPEC SDD BH N T103132 K 0.020 GD 82.3 VS 3.20 DE 2.60 Q0400.0 QA 0.70 Q1 0.00 3
 SPEC SC01BH N MO 13.7 ST0.351 OM  2.7 f0 1.42 R0.8338 AL-0.00 WI 20.0 MW  3.1 3
 SPEC SC01BH N T103139 K 0.020 GD  103 VS 3.20 DE 2.60 Q0400.0 QA 0.70 Q1 0.00 3
 SPEC BADRBH N MO 13.1 ST 43.1 OM  2.1 f0 11.1 R0.1067 AL-0.00 WI 20.0 MW  2.7 3
 SPEC BADRBH N T103137 K 0.020 GD  105 VS 3.20 DE 2.60 Q0400.0 QA 0.70 Q1 0.00 3
 SPEC HIDRBH N MO 12.8 ST 74.8 OM  1.8 f0 16.0 R0.0740 AL-0.00 WI 20.0 MW  2.5 3
 SPEC HIDRBH N T103144 K 0.020 GD  122 VS 3.20 DE 2.60 Q0400.0 QA 0.70 Q1 0.00 3
 SPEC SDDRBH N MO 14.1 ST0.036 OM  3.0 f00.470 R2.5191 AL-0.00 WI 20.0 MW  3.4 3
 SPEC SDDRBH N T103154 K 0.020 GD  146 VS 3.20 DE 2.60 Q0400.0 QA 0.70 Q1 0.00 3
 SPEC PCDRBH N MO 13.0 ST0.347 OM  1.9 f0 2.32 R0.5103 AL-0.00 WI 20.0 MW  2.6 3
 SPEC PCDRBH N T103154 K 0.020 GD  148 VS 3.20 DE 2.60 Q0400.0 QA 0.70 Q1 0.00 3
 SPEC REDRBH N MO 13.0 ST 21.8 OM  1.8 f0 9.40 R0.1260 AL-0.00 WI 20.0 MW  2.6 3
 SPEC REDRBH N T1032 0 K 0.020 GD  175 VS 3.20 DE 2.60 Q0400.0 QA 0.70 Q1 0.00 3
 SPEC MCDRBH N MO 13.1 ST  4.6 OM  1.9 f0 5.11 R0.2317 AL-0.00 WI 20.0 MW  2.7 3
 SPEC MCDRBH N T1032 9 K 0.020 GD  183 VS 3.20 DE 2.60 Q0400.0 QA 0.70 Q1 0.00 3
 LOCALITY: 9.8 Km al Este de Arenoso, Duarte.                                  3
 2020-10-02-1030-00S.MAN___126                                                 6
 OLDACT:ARG 20-10-02 11:32 OP:plst STATUS:               ID:20201002103000     3
 OLDACT:UP  20-10-02 11:54 OP:CGRS STATUS:               ID:20201002103000     3
 OLDACT:UP  20-10-02 11:54 OP:CGRS STATUS:               ID:20201002103000     3
 OLDACT:UP  20-10-02 11:53 OP:CGRS STATUS:               ID:20201002103000     3
 OLDACT:UP  20-10-02 11:53 OP:CGRS STATUS:               ID:20201002103000     3
 OLDACT:UP  20-10-02 11:39 OP:CGRS STATUS:               ID:20201002103000     3
 OLDACT:UP  20-10-02 11:39 OP:CGRS STATUS:               ID:20201002103000     3
 ACTION:UP  22-01-06 16:15 OP:jmlc STATUS:               ID:20201002103110 L   I
 OLDACT:UP  21-11-12 20:30 OP:AMMR STATUS:               ID:20201002103000     3
 OLDACT:UP  20-10-02 11:55 OP:CGRS STATUS:               ID:20201002103000     3
 STAT SP IPHASW D HRMM SECON CODA AMPLIT PERI AZIMU VELO AIN AR TRES W  DIS CAZ7
 NADR BZ EPg    C 1031 13.16   33                        113   -1.0510 20.9 334 
 NADR BN ISg    D 1031 17.40                             113    0.3110 20.9 334 
 NADR BN  IAML    1031 17.77      5350.6 0.30                          20.9 334 
 NAVI BZ IP     D 1031 15.85   22                         94   -0.7610 36.9 228 
 NAVI BN IS     C 1031 21.23                              94   -0.0410 36.9 228 
 NAVI BN  IAML    1031 21.75     11259.5 0.15                          36.9 228 
 CADR BN  IAML    1031 26.52       670.2 0.25                          56.3 341 
 HMDR BZ EPg    C 1031 19.49   37                         90   -0.6010 60.0 137 
 HMDR BN ESg    C 1031 27.62                              90    0.3010 60.0 137 
 HMDR BN  IAML    1031 28.22       133.2 0.15                          60.0 137 
 SMDR BZ EPg      1031 19.45   33                         90   -0.9410 62.2  79 
 SMDR BN ESg      1031 28.91                              90    1.0610 62.2  79 
 SMDR BN  IAML    1031 29.76       207.7 0.30                          62.2  79 
 MIDR HZ EPg      1031 22.17   43                         90   -0.7610 78.9 106 
 MIDR HN ESg      1031 32.60                              90    0.3310 78.9 106 
 MIDR BN  IAML    1031 34.94        99.4 0.36                          78.9 106 
 SDD  BZ EPg      1031 23.84   33                         90    0.5310 81.4 191 
 SDD  BN ESg      1031 33.96                              90    1.0210 81.4 191 
 SDD  BN  IAML    1031 34.45       149.1 3.20                          81.4 191 
 SC01 BZ EPg      1031 26.55   46                         90   -0.2310  104 285 
 SC01 BN ESg      1031 41.08                              90    2.1110  104 285 
 SC01 BN  IAML    1031 42.52       157.9 0.45                           104 285 
 BADR BZ EPg      1031 26.70   32                         90   -0.5610  107 216 
 BADR BN ESg      1031 39.89                              90    0.0910  107 216 
 BADR BN  IAML    1031 42.54       287.9 0.15                           107 216 
 HIDR BZ EPg      1031 29.40   46                         90   -1.1210  129 120 
 HIDR BN ESg      1031 46.83                              90    1.3510  129 120 
 HIDR BN  IAML    1031 51.18       111.8 0.20                           129 120 
 LUDR BE ESg      1031 51.77                              90    1.5710  147 302 
 SDDR BZ EPg      1031 34.05   48                         90   -1.4410  162 262 
 SDDR BN  IAML    1032  6.07        32.4 0.50                           162 262 
 PCDR BZ EPg      1031 36.13   52                         90    0.3110  164 117 
 REDR BZ EPg      1031 40.56   52                         90   -1.2710  203 273 
 REDR BN  IAML    1032 11.84       129.5 0.20                           203 273 
 MCDR BZ EPg      1031 43.03   56                         90   -0.2210  213 292 
                                                                                
