 2020  3 6 2336 50.10L  17.918 -66.972 18.9  DOM  7 0.6 2.7LDOM 2.8CDOM 2.9WDOM1
 SPEC AVERAGE  MO 13.4 ST 26.6 OM  2.9 f0 8.69 R0.1841 AL 0.00 WI 20.0 MW  2.9 3
 SPEC SD       MO  0.3 ST 24.4 OM  0.6 f0 1.61 R0.0373 AL      WI      MW  0.2 3
 GAP=215        1.65       6.7     4.0  8.4  0.6918E+01 -0.1104E+02 -0.6323E+01E
 SPEC MLPRBH N MO 13.4 ST 28.3 OM  2.7 f0 9.80 R0.1571 AL-0.00 WI 20.0 MW  2.9 3
 SPEC MLPRBH N T233654 K 0.020 GD 21.2 VS 4.16 DE 3.12 Q0400.0 QA 0.70 Q1 0.00 3
 SPEC PRSNBH N MO 13.5 ST  9.8 OM  2.5 f0 6.36 R0.2420 AL-0.00 WI 20.0 MW  2.9 3
 SPEC PRSNBH N T233658 K 0.020 GD 42.3 VS 4.16 DE 3.12 Q0400.0 QA 0.70 Q1 0.00 3
 SPEC CELPBH N MO 12.9 ST  7.7 OM  1.8 f0 9.58 R0.1607 AL-0.00 WI 20.0 MW  2.5 3
 SPEC CELPBH N T2337 1 K 0.020 GD 49.2 VS 4.16 DE 3.12 Q0400.0 QA 0.70 Q1 0.00 3
 SPEC AOPRBH N MO 13.7 ST 73.2 OM  2.6 f0 10.5 R0.1466 AL-0.00 WI 20.0 MW  3.1 3
 SPEC AOPRBH N T2337 3 K 0.020 GD 56.0 VS 4.16 DE 3.12 Q0400.0 QA 0.70 Q1 0.00 3
 SPEC AGPRBH N MO 13.5 ST 13.8 OM  2.3 f0 7.19 R0.2141 AL-0.00 WI 20.0 MW  2.9 3
 SPEC AGPRBH N T2337 7 K 0.020 GD 65.6 VS 4.16 DE 3.12 Q0400.0 QA 0.70 Q1 0.00 3
 LOCALITY: 36.1 Km al SSE de Mayaguez, Region de Puerto Rico.                  3
 2020-03-06-2336-00S.MAN___129                                                 6
 OLDACT:ARG 20-03-06 23:48 OP:plst STATUS:               ID:20200306233600     3
 OLDACT:UP  20-03-06 23:59 OP:AMMR STATUS:               ID:20200306233600     3
 OLDACT:UP  20-03-06 23:59 OP:AMMR STATUS:               ID:20200306233600     3
 OLDACT:UP  20-03-06 23:59 OP:AMMR STATUS:               ID:20200306233600     3
 ACTION:UP  22-01-08 17:50 OP:jmlc STATUS:               ID:20200306233650 L   I
 OLDACT:UP  20-03-07 00:00 OP:AMMR STATUS:               ID:20200306233600     3
 STAT SP IPHASW D HRMM SECON CODA AMPLIT PERI AZIMU VELO AIN AR TRES W  DIS CAZ7
 MLPR BZ EPg    C 2336 53.90   24                        152    0.4710 9.52 306 
 MLPR BN ESg    C 2336 55.96                             152    0.0610 9.52 306 
 MLPR BN  IAML    2336 56.44      3456.2 0.24                          9.52 306 
 PRSN BZ EPg    C 2336 57.48   29                        112    0.7310 37.8 331 
 PRSN BE ESg    C 2337  0.23                             112   -1.4510 37.8 331 
 PRSN BN  IAML    2337  4.07       780.5 0.24                          37.8 331 
 CELP BZ EPg    D 2336 57.81   35                        108   -0.0310 45.4  67 
 CELP BN ESg    D 2337  3.41                             108   -0.1610 45.4  67 
 CELP BN  IAML    2337  3.51       298.3 0.28                          45.4  67 
 AOPR BZ EPg    D 2336 59.05   48                        105    0.1310 52.7  26 
 AOPR BN ESg    C 2337  5.18                             105   -0.2710 52.7  26 
 AOPR BN  IAML    2337  6.62      1387.3 0.24                          52.7  26 
 AGPR BZ EPg    C 2337  1.10   51                        101    0.7110 62.8 347 
 AGPR BN ESg    C 2337  8.87                             101    0.8610 62.8 347 
 AGPR BN  IAML    2337  9.05       461.0 0.24                          62.8 347 
 SJG  BZ EPg    C 2337  4.48   36                         97    0.0510 89.6  76 
 SJG  BN ESg    C 2337 14.75                              97   -0.2910 89.6  76 
 HMDR BZ EPg    C 2337 31.23   58                         92   -0.8110  272 291 
 HMDR BN  IAML    2338  9.87        13.7 1.10                           272 291 
                                                                                
 2020  3 7 0226 49.80L  17.793 -66.893 12.5  DOM  8 0.9 4.1LDOM 3.5CDOM 4.0WDOM1
 SPEC AVERAGE  MO 15.1 ST 46.5 OM  4.3 f0 1.86 R0.9121 AL 0.00 WI 20.0 MW  4.0 3
 SPEC SD       MO  0.3 ST 93.7 OM  0.5 f00.881 R0.3700 AL      WI      MW  0.2 3
 GAP=245        2.49      11.0     6.9 16.2 -0.2302E+02  0.2147E+02 -0.3521E+02E
 SPEC MLPRBH N MO 14.8 ST  7.4 OM  4.2 f0 1.86 R0.7480 AL-0.00 WI 20.0 MW  3.8 3
 SPEC MLPRBH N T 22655 K 0.020 GD 28.1 VS 3.76 DE 2.84 Q0400.0 QA 0.70 Q1 0.00 3
 SPEC CELPBH N MO 14.9 ST  1.8 OM  4.0 f0 1.13 R1.2312 AL-0.00 WI 20.0 MW  3.9 3
 SPEC CELPBH N T 227 2 K 0.020 GD 47.6 VS 3.76 DE 2.84 Q0400.0 QA 0.70 Q1 0.00 3
 SPEC PRSNBH N MO 15.0 ST 27.8 OM  4.1 f0 2.49 R0.5587 AL-0.00 WI 20.0 MW  4.0 3
 SPEC PRSNBH N T 227 5 K 0.020 GD 55.4 VS 3.76 DE 2.84 Q0400.0 QA 0.70 Q1 0.00 3
 SPEC AOPRBH N MO 15.1 ST 30.3 OM  4.1 f0 2.44 R0.5702 AL-0.00 WI 20.0 MW  4.0 3
 SPEC AOPRBH N T 227 5 K 0.020 GD 64.2 VS 3.76 DE 2.84 Q0400.0 QA 0.70 Q1 0.00 3
 SPEC AGPRBH N MO 15.5 ST  4.7 OM  4.4 f00.971 R1.4327 AL-0.00 WI 20.0 MW  4.3 3
 SPEC AGPRBH N T 227 9 K 0.020 GD 79.4 VS 3.76 DE 2.84 Q0400.0 QA 0.70 Q1 0.00 3
 SPEC HIDRBH N MO 15.2 ST  5.1 OM  3.7 f0 1.28 R1.0869 AL-0.00 WI 20.0 MW  4.1 3
 SPEC HIDRBH N T 22748 K 0.020 GD  187 VS 3.76 DE 2.84 Q0400.0 QA 0.70 Q1 0.00 3
 SPEC HMDRBH N MO 15.0 ST  2.0 OM  3.4 f0 1.08 R1.2881 AL-0.00 WI 20.0 MW  3.9 3
 SPEC HMDRBH N T 228 9 K 0.020 GD  241 VS 3.76 DE 2.84 Q0400.0 QA 0.70 Q1 0.00 3
 SPEC NAVIBH N MO 15.6 ST292.8 OM  3.9 f0 3.65 R0.3812 AL-0.00 WI 20.0 MW  4.3 3
 SPEC NAVIBH N T 22830 K 0.020 GD  293 VS 3.76 DE 2.84 Q0400.0 QA 0.70 Q1 0.00 3
 LOCALITY: 38.2 Km al SO de Ponce, Region de Puerto Rico.                      3
 2020-03-07-0225-00S.MAN___129                                                 6
 OLDACT:ARG 20-03-07 02:34 OP:njm  STATUS:               ID:20200307022500     3
 OLDACT:UP  20-03-07 02:38 OP:AMMR STATUS:               ID:20200307022500     3
 ACTION:UP  22-01-08 17:50 OP:jmlc STATUS:               ID:20200307022649 L   I
 STAT SP IPHASW D HRMM SECON CODA AMPLIT PERI AZIMU VELO AIN AR TRES W  DIS CAZ7
 MLPR BZ EPg    C  226 54.35   43                        108   -0.0210 25.2 321 
 MLPR BE ESg    D  226 57.37                             108   -0.3610 25.2 321 
 MLPR BN  IAML     226 57.47     17287.0 0.60                          25.2 321 
 CELP BZ EPg    D  226 57.18   80                         92   -0.2910 45.9  47 
 CELP BE ESg    C  227  4.26                              92    1.1510 45.9  47 
 CELP BN  IAML     227  6.88      2947.3 0.48                          45.9  47 
 PRSN BZ EPg    C  226 58.67   69                         91   -0.0210 54.0 331 
 PRSN BE ESg    C  227  6.59                              91    1.3510 54.0 331 
 PRSN BN  IAML     227  6.69     23681.7 0.32                          54.0 331 
 AOPR BZ EPg    D  226 59.50   86                         91   -0.5810 63.0  14 
 AOPR BE ESg    C  227  6.64                              91   -1.0110 63.0  14 
 AOPR BN  IAML     227  9.34     11232.4 0.52                          63.0  14 
 AGPR BZ EPg    C  227  2.25   85                         91   -0.1410 78.4 343 
 AGPR BE ESg    C  227 11.37                              91   -0.3010 78.4 343 
 AGPR BN  IAML     227 16.27      5210.2 0.32                          78.4 343 
 HIDR BZ EPg    C  227 24.74   77                         90    2.1010  212 295 
 HIDR BN  IAML     228  2.07      1389.1 0.40                           212 295 
 HMDR BZ EPg    C  227 33.15  103                         90   -0.5810  285 293 
 HMDR BN  IAML     228 13.50       854.3 0.65                           285 293 
 NAVI BZ EPg    C  227 43.09   75                         90   -1.3210  356 292 
 NAVI BN  IAML     228 41.06      4796.5 0.25                           356 292 
                                                                                
 2020  3 7 0346 55.20L  19.573 -69.946 12.1  DOM 15 0.9 2.3LDOM 3.0CDOM 2.8WDOM1
 SPEC AVERAGE  MO 13.3 ST 23.5 OM  2.6 f0 5.49 R0.3807 AL 0.00 WI 20.0 MW  2.8 3
 SPEC SD       MO  0.4 ST 48.6 OM  0.6 f0 3.49 R0.2728 AL      WI      MW  0.2 3
 GAP=108        2.48       5.7     5.4 25.7  0.1608E+02  0.6186E+02  0.6374E+02E
 SPEC CADRBH N MO 13.2 ST  2.5 OM  2.8 f0 4.58 R0.3021 AL-0.00 WI 20.0 MW  2.7 3
 SPEC CADRBH N T 34657 K 0.020 GD 16.0 VS 3.74 DE 2.83 Q0400.0 QA 0.70 Q1 0.00 3
 SPEC NADRBH N MO 13.2 ST  1.1 OM  2.6 f0 3.39 R0.4082 AL-0.00 WI 20.0 MW  2.8 3
 SPEC NADRBH N T 347 1 K 0.020 GD 28.7 VS 3.74 DE 2.83 Q0400.0 QA 0.70 Q1 0.00 3
 SPEC SFDRBH N MO 13.4 ST 12.4 OM  2.5 f0 6.91 R0.2003 AL-0.00 WI 20.0 MW  2.8 3
 SPEC SFDRBH N T 347 6 K 0.020 GD 46.0 VS 3.74 DE 2.83 Q0400.0 QA 0.70 Q1 0.00 3
 SPEC NAVIBH N MO 14.1 ST167.7 OM  3.1 f0 9.06 R0.1527 AL-0.00 WI 20.0 MW  3.4 3
 SPEC NAVIBH N T 34713 K 0.020 GD 69.6 VS 3.74 DE 2.83 Q0400.0 QA 0.70 Q1 0.00 3
 SPEC SODRBH N MO 13.6 ST0.130 OM  2.6 f0 1.22 R1.1343 AL-0.00 WI 20.0 MW  3.0 3
 SPEC SODRBH N T 34715 K 0.020 GD 70.1 VS 3.74 DE 2.83 Q0400.0 QA 0.70 Q1 0.00 3
 SPEC SC01BH N MO 13.4 ST0.780 OM  2.3 f0 2.62 R0.5282 AL-0.00 WI 20.0 MW  2.9 3
 SPEC SC01BH N T 34716 K 0.020 GD 84.5 VS 3.74 DE 2.83 Q0400.0 QA 0.70 Q1 0.00 3
 SPEC HMDRBH N MO 12.7 ST0.955 OM  1.5 f0 4.83 R0.2865 AL-0.00 WI 20.0 MW  2.4 3
 SPEC HMDRBH N T 34724 K 0.020 GD  104 VS 3.74 DE 2.83 Q0400.0 QA 0.70 Q1 0.00 3
 SPEC MADRBH N MO 13.7 ST0.799 OM  2.4 f0 2.20 R0.6290 AL-0.00 WI 20.0 MW  3.0 3
 SPEC MADRBH N T 34730 K 0.020 GD  116 VS 3.74 DE 2.83 Q0400.0 QA 0.70 Q1 0.00 3
 SPEC BADRBH N MO 13.2 ST  8.7 OM  1.9 f0 6.92 R0.2000 AL-0.00 WI 20.0 MW  2.7 3
 SPEC BADRBH N T 34732 K 0.020 GD  127 VS 3.74 DE 2.83 Q0400.0 QA 0.70 Q1 0.00 3
 SPEC SDDRBH N MO 12.8 ST0.433 OM  1.5 f0 3.35 R0.4131 AL-0.00 WI 20.0 MW  2.5 3
 SPEC SDDRBH N T 34736 K 0.020 GD  141 VS 3.74 DE 2.83 Q0400.0 QA 0.70 Q1 0.00 3
 SPEC MCDRBH N MO 13.1 ST  5.3 OM  1.7 f0 6.34 R0.2183 AL-0.00 WI 20.0 MW  2.7 3
 SPEC MCDRBH N T 34744 K 0.020 GD  160 VS 3.74 DE 2.83 Q0400.0 QA 0.70 Q1 0.00 3
 SPEC REDRBH N MO 13.2 ST 80.9 OM  1.8 f0 14.5 R0.0954 AL-0.00 WI 20.0 MW  2.7 3
 SPEC REDRBH N T 34743 K 0.020 GD  163 VS 3.74 DE 2.83 Q0400.0 QA 0.70 Q1 0.00 3
 LOCALITY: 8.6 Km al SSO de Cabrera, Maria Trinidad Sanchez.                   3
 2020-03-07-0346-00S.MAN___129                                                 6
 OLDACT:UP  20-03-07 04:43 OP:AMMR STATUS:               ID:20200307034600     3
 OLDACT:UP  20-03-07 04:35 OP:AMMR STATUS:               ID:20200307034600     3
 OLDACT:ARG 20-03-07 04:31 OP:njm  STATUS:               ID:20200307034600     3
 OLDACT:UP  20-03-07 04:44 OP:AMMR STATUS:               ID:20200307034600     3
 ACTION:UP  22-01-08 17:50 OP:jmlc STATUS:               ID:20200307034655 L   I
 OLDACT:UP  20-03-07 04:44 OP:AMMR STATUS:               ID:20200307034600     3
 STAT SP IPHASW D HRMM SECON CODA AMPLIT PERI AZIMU VELO AIN AR TRES W  DIS CAZ7
 CADR BZ EPg    C  346 57.25   31                        136   -0.5810 10.4   4 
 CADR BN  IAML     347  0.87       768.0 0.25                          10.4   4 
 NADR BZ EPg    C  346 59.72   66                        106   -0.1510 26.0 159 
 NADR BN  IAML     347  4.82       307.2 0.20                          26.0 159 
 SFDR BZ EPg    D  347  1.61   34                         91   -1.0410 44.4 225 
 SFDR BE ESg    D  347  8.48                              91    0.3510 44.4 225 
 SFDR BN  IAML     347  8.73       807.9 0.45                          44.4 225 
 NAVI BZ EPg    C  347  5.23   36                         90   -1.1010 68.5 187 
 NAVI BE ESg    C  347 14.79                              90    0.2710 68.5 187 
 NAVI BN  IAML     347 15.92      2481.0 0.20                          68.5 187 
 SODR BZ EPg    C  347  7.05   34                         90    0.6910 69.0 287 
 SODR BE ESg    C  347 15.51                              90    0.9210 69.0 287 
 SODR BN  IAML     347 24.43       189.7 1.10                          69.0 287 
 SC01 BZ EPg    D  347  7.89   45                         90   -0.7010 83.6 259 
 SC01 BN  IAML     347 27.54       157.9 0.40                          83.6 259 
 SMDR BZ EPg    D  347  9.17   54                         90    0.2910 85.6 111 
 SMDR BN  IAML     347 26.66        59.3 0.50                          85.6 111 
 HMDR BZ EPg    D  347 11.72   60                         90   -0.1710  105 146 
 HMDR BE ESg    D  347 25.64                              90    1.4310  105 146 
 HMDR BN  IAML     347 27.29        50.5 0.30                           105 146 
 ABDR BZ EPg    C  347 11.90   38                         90   -0.9110  110 220 
 ABDR BE ESg    C  347 25.56                              90   -0.2510  110 220 
 ABDR BN  IAML     347 37.06         0.3 0.50                           110 220 
 LUDR BZ EPg    C  347 12.60   54                         90   -0.1810  111 289 
 LUDR BE ESg    D  347 26.98                              90    1.2310  111 289 
 MADR BZ EPg    C  347 16.07   46                         90    1.7710  121 270 
 MADR BN  IAML     347 36.72       181.1 0.55                           121 270 
 BADR BZ EPg    C  347 16.79   49                         90    0.0410  137 199 
 BADR BE ESg    C  347 34.00                              90    1.3310  137 199 
 BADR BN  IAML     347 35.32       168.4 0.15                           137 199 
 SDDR BZ EPg    D  347 18.22   54                         90   -1.3210  156 245 
 SDDR BE ESg    D  347 37.62                              90    0.1010  156 245 
 SDDR BN  IAML     347 39.02        30.4 0.75                           156 245 
 MCDR BZ EPg    D  347 22.81   67                         90   -0.7910  183 281 
 MCDR BE ESg    D  347 45.68                              90    1.1010  183 281 
 MCDR BN  IAML     347 50.98        49.5 0.40                           183 281 
 REDR BZ EPg    C  347 22.85   58                         90   -1.4710  187 260 
 REDR BE ESg    D  347 44.97                              90   -0.8610  187 260 
 REDR BN  IAML     347 46.60       126.3 0.15                           187 260 
                                                                                
 2020  3 7 0415 28.60L  18.335 -69.254 91.3  DOM  4 0.9 2.3LDOM 2.7CDOM 3.0WDOM1
 SPEC AVERAGE  MO 13.6 ST 13.9 OM  2.6 f0 8.49 R3.1550 AL 0.00 WI 20.0 MW  3.0 3
 SPEC SD       MO  1.2 ST 18.2 OM  1.3 f0 6.49 R5.1146 AL      WI      MW  0.8 3
 GAP=210        2.35      18.2    11.4 24.4 -0.6134E+02  0.5996E+02  0.1142E+03E
 SPEC HIDRBH N MO 13.1 ST 44.6 OM  1.5 f0 16.0 R0.1036 AL-0.00 WI 20.0 MW  2.6 3
 SPEC HIDRBH N T 41554 K 0.020 GD  111 VS 4.48 DE 3.40 Q0400.0 QA 0.70 Q1 0.00 3
 SPEC HMDRBH N MO 12.6 ST 10.1 OM  1.1 f0 13.5 R0.1228 AL-0.00 WI 20.0 MW  2.4 3
 SPEC HMDRBH N T 41552 K 0.020 GD  105 VS 4.48 DE 3.40 Q0400.0 QA 0.70 Q1 0.00 3
 SPEC SMDRBH N MO 13.1 ST0.888 OM  1.4 f0 4.34 R0.3819 AL-0.00 WI 20.0 MW  2.6 3
 SPEC SMDRBH N T 416 0 K 0.020 GD  139 VS 4.48 DE 3.40 Q0400.0 QA 0.70 Q1 0.00 3
 SPEC BADRBH N MO 15.7 ST0.012 OM  4.0 f00.138 R 12.01 AL-0.00 WI 20.0 MW  4.4 3
 SPEC BADRBH N T 416 8 K 0.020 GD  148 VS 4.48 DE 3.40 Q0400.0 QA 0.70 Q1 0.00 3
 LOCALITY: 8.7 Km al NO de La Romana, La Romana.                               3
 2020-03-07-0415-00S.MAN___129                                                 6
 OLDACT:UP  20-03-07 04:53 OP:AMMR STATUS:               ID:20200307041500     3
 OLDACT:ARG 20-03-07 04:49 OP:njm  STATUS:               ID:20200307041500     3
 OLDACT:UP  20-03-07 04:53 OP:AMMR STATUS:               ID:20200307041500     3
 ACTION:UP  22-01-08 17:50 OP:jmlc STATUS:               ID:20200307041528 L   I
 OLDACT:UP  20-03-07 04:54 OP:AMMR STATUS:               ID:20200307041500     3
 STAT SP IPHASW D HRMM SECON CODA AMPLIT PERI AZIMU VELO AIN AR TRES W  DIS CAZ7
 HMDR BZ IP        415 43.32   35                        147    0.8210 51.9 345 
 HMDR BE IS     C  415 53.81                             147    1.0610 51.9 345 
 HMDR BN  IAML     415 54.19        31.5 0.25                          51.9 345 
 HIDR BZ IP     C  415 42.35   30                        141   -0.9010 63.6  63 
 HIDR BE IS     C  415 53.94                             141   -0.1310 63.6  63 
 HIDR BN  IAML     415 57.35       184.2 0.20                          63.6  63 
 SMDR BZ IP     C  415 47.12   32                        125    0.2110  106   4 
 SMDR BE IS     C  415 59.60                             125   -0.8310  106   4 
 SMDR BN  IAML     416 13.49        69.7 0.75                           106   4 
 BADR BZ IP     C  415 49.31   41                        122    1.1610  117 274 
 BADR BE IS     C  416  1.21                             122   -1.3910  117 274 
 BADR BN  IAML     416 11.27        36.6 0.85                           117 274 
                                                                                
