 2020  8 5 1651 14.7 L  19.949 -70.608  7.3  DOM  3 0.1 2.5LDOM 2.7CDOM 3.8WDOM1
 SPEC AVERAGE  MO 14.8 ST0.001 OM  3.7 f00.100 R 12.77 AL 0.00 WI 20.0 MW  3.8 3
 SPEC SD       MO  0.0 ST0.000 OM  0.0 f00.000 R0.0000 AL      WI      MW  0.0 3
 GAP=255        0.37       2.8     5.2  2.9 -0.1177E+02  0.1179E+01 -0.3072E+01E
 SPEC REDRBH N MO 14.8 ST0.001 OM  3.7 f00.100 R 12.77 AL-0.00 WI 20.0 MW  3.8 3
 SPEC REDRBH N T165150 K 0.020 GD  117 VS 3.45 DE 2.71 Q0400.0 QA 0.70 Q1 1.00 3
 LOCALITY: 20.0 Km al NNE de Puerto Plata. Oceano Atlantico.                   3
 2020-08-05-1650-00S.MAN___120                                                 6
 OLDACT:UP  20-08-05 18:22 OP:JMLC STATUS:               ID:20200805165000     3
 OLDACT:ARG 20-08-05 17:49 OP:njm  STATUS:               ID:20200805165000     3
 OLDACT:UP  20-08-06 01:32 OP:JMLC STATUS:               ID:20200805165000     3
 OLDACT:UP  20-08-06 01:32 OP:JMLC STATUS:               ID:20200805165000     3
 OLDACT:UP  20-08-05 18:24 OP:JMLC STATUS:               ID:20200805165000     3
 OLDACT:UP  20-08-05 18:24 OP:JMLC STATUS:               ID:20200805165000     3
 ACTION:UPD 20-09-29 11:31 OP:jmlc STATUS:               ID:20200805165000     I
 OLDACT:UP  20-08-06 01:32 OP:JMLC STATUS:               ID:20200805165000     3
 STAT SP IPHASW D HRMM SECON CODA AMPLIT PERI AZIMU VELO AIN AR TRES W  DIS CAZ7
 LUDR BZ IP     D 1651 20.74   21                        101   -0.0410 36.6 260 
 LUDR BE IS   3 C 1651 25.57                             101    0.33 2 36.6 260 
 REDR BZ IP     D 1651 36.57   45                         70    0.1410  137 237 
 REDR BE IS     D 1651 52.39                              70   -0.0810  137 237 
 REDR BN  IAML    1651 54.14       118.3 0.15                           137 237 
 GRTK BZ IP       1651 41.86   40                         50   -0.1010  181 343 
 GRTK BE IS     C 1652  2.16                              50    0.0610  181 343 
 GRTK BN  IAML    1652  5.74        44.1 1.40                           181 343 
                                                                                
 2020  8 5 1730 18.3 L  18.288 -71.938  9.0  DOM 10 1.1 3.1LDOM 3.1CDOM 3.5WDOM1
 LOCALITY: 24.7 Km al SSO de Jimani. Region Haiti.                             3
 SPEC AVERAGE  MO 14.3 ST  3.7 OM  3.1 f0 1.80 R0.9511 AL 0.00 WI 20.0 MW  3.5 3
 SPEC SD       MO  0.4 ST  6.2 OM  0.5 f0 1.31 R0.3454 AL      WI      MW  0.3 3
 GAP=210        2.83      11.1    10.4 12.0  0.2010E+02  0.3579E+02 -0.5481E+02E
 SPEC NEDRBH N MO 14.5 ST  1.8 OM  3.6 f0 1.49 R0.8890 AL-0.00 WI 20.0 MW  3.6 3
 SPEC NEDRBH N T173033 K 0.020 GD 55.0 VS 3.58 DE 2.76 Q0400.0 QA 0.70 Q1 1.00 3
 SPEC PODRBH N MO 14.8 ST  1.5 OM  3.8 f0 1.10 R1.2042 AL-0.00 WI 20.0 MW  3.8 3
 SPEC PODRBH N T173036 K 0.020 GD 71.3 VS 3.58 DE 2.76 Q0400.0 QA 0.70 Q1 1.00 3
 SPEC REDRBH N MO 13.8 ST 21.0 OM  2.7 f0 5.40 R0.2453 AL-0.00 WI 20.0 MW  3.2 3
 SPEC REDRBH N T173047 K 0.020 GD  105 VS 3.58 DE 2.76 Q0400.0 QA 0.70 Q1 1.00 3
 SPEC LODAEN N MO 14.8 ST  5.0 OM  3.6 f0 1.61 R0.8227 AL-0.00 WI 20.0 MW  3.8 3
 SPEC LODAEN N T173053 K 0.020 GD  118 VS 3.58 DE 2.76 Q0400.0 QA 0.70 Q1 1.00 3
 SPEC MADRBH N MO 14.7 ST0.902 OM  3.5 f00.958 R1.3827 AL-0.00 WI 20.0 MW  3.8 3
 SPEC MADRBH N T1731 1 K 0.020 GD  129 VS 3.58 DE 2.76 Q0400.0 QA 0.70 Q1 1.00 3
 SPEC BADRBH N MO 14.1 ST  1.1 OM  2.9 f0 1.63 R0.8126 AL-0.00 WI 20.0 MW  3.4 3
 SPEC BADRBH N T1731 1 K 0.020 GD  129 VS 3.58 DE 2.76 Q0400.0 QA 0.70 Q1 1.00 3
 SPEC SC01BH N MO 14.3 ST0.373 OM  3.1 f00.959 R1.3812 AL-0.00 WI 20.0 MW  3.5 3
 SPEC SC01BH N T1731 7 K 0.020 GD  133 VS 3.58 DE 2.76 Q0400.0 QA 0.70 Q1 1.00 3
 SPEC MCDRBH N MO 14.2 ST  1.9 OM  2.9 f0 1.92 R0.6899 AL-0.00 WI 20.0 MW  3.4 3
 SPEC MCDRBH N T1731 5 K 0.020 GD  134 VS 3.58 DE 2.76 Q0400.0 QA 0.70 Q1 1.00 3
 SPEC MASCHH N MO 13.5 ST0.090 OM  2.1 f0 1.17 R1.1321 AL-0.00 WI 20.0 MW  2.9 3
 SPEC MASCHH N T173147 K 0.020 GD  178 VS 3.58 DE 2.76 Q0400.0 QA 0.70 Q1 1.00 3
 2020-08-05-1730-00S.MAN___120                                                 6
 OLDACT:UP  20-08-05 18:32 OP:JMLC STATUS:               ID:20200805173000     3
 OLDACT:UP  20-08-05 18:29 OP:JMLC STATUS:               ID:20200805173000     3
 OLDACT:ARG 20-08-05 18:03 OP:njm  STATUS:               ID:20200805173000     3
 ACTION:UPD 20-09-29 11:31 OP:jmlc STATUS:               ID:20200805173000     I
 OLDACT:UP  20-08-05 18:33 OP:JMLC STATUS:               ID:20200805173000     3
 STAT SP IPHASW D HRMM SECON CODA AMPLIT PERI AZIMU VELO AIN AR TRES W  DIS CAZ7
 NEDR BZ IP     D 1730 26.87   34                        100   -0.3210 54.2  66 
 NEDR BE IS     C 1730 35.21                             100    1.4510 54.2  66 
 NEDR BN  IAML    1730 35.41      2129.7 0.40                          54.2  66 
 PODR BZ IP     C 1730 29.61   48                         99   -0.2510 70.7 101 
 PODR BN  IAML    1730 46.51      2693.4 0.75                          70.7 101 
 REDR BZ IP     D 1730 34.72   42                         70   -1.4510  112  13 
 REDR BE IS     C 1730 48.51                              70   -0.8710  112  13 
 REDR BN  IAML    1730 48.86      1211.2 0.25                           112  13 
 LODA EZ IP     C 1730 39.16   33                         50   -1.1710  141  10 
 LODA EE IS     C 1730 55.42                              50   -1.2010  141  10 
 LODA BN  IAML    1730 58.16      2695.0 0.62                           141  10 
 ABDR BZ IP     C 1730 40.51   58                         50   -1.2110  150  67 
 ABDR BE IS     D 1730 58.64                              50   -0.3910  150  67 
 ABDR BN  IAML    1731  5.89         0.3 0.25                           150  67 
 BADR BN  IAML    1731 13.78       343.2 0.55                           167  86 
 MADR BN  IAML    1731  9.79      1358.6 0.50                           167  32 
 BADR BZ IP     C 1730 43.40   55                         50   -0.2410  167  86 
 MADR BZ IP     C 1730 43.29   56                         50   -0.1910  167  32 
 MADR BE IS     D 1731  3.04                              50    0.9410  167  32 
 SC01 BZ IP     D 1730 46.52   63                         50    1.4410  179  45 
 SC01 BN  IAML    1731 13.28       253.8 0.55                           179  45 
 MCDR BZ IP     C 1730 45.43   45                         50    0.2810  180   9 
 MCDR BE IS     D 1731  6.59                              50    1.5910  180   9 
 MCDR BN  IAML    1731 14.36       438.1 0.45                           180   9 
 MASC HZ IP     C 1731  4.04   69                         50    1.5910  319 311 
 MASC BN  IAML    1731 52.88        32.0 0.50                           319 311 
                                                                                
 2020  8 5 1739  8.1 L  20.150 -70.770  0.1  DOM  6 1.0 2.8LDOM 2.9CDOM 2.7WDOM1
 SPEC AVERAGE  MO 13.2 ST 10.0 OM  2.2 f0 5.90 R0.2318 AL 0.00 WI 20.0 MW  2.7 3
 SPEC SD       MO  0.2 ST  7.0 OM  0.1 f0 1.91 R0.0963 AL      WI      MW  0.1 3
 GAP=134        2.58       9.4     7.6 16.6  0.3408E+02 -0.6552E+02 -0.1088E+03E
 SPEC MCDRBH N MO 12.9 ST  9.8 OM  2.0 f0 7.52 R0.1574 AL-0.00 WI 20.0 MW  2.6 3
 SPEC MCDRBH N T173933 K 0.020 GD 97.1 VS 3.20 DE 2.60 Q0400.0 QA 0.70 Q1 1.00 3
 SPEC REDRBH N MO 13.3 ST 18.6 OM  2.3 f0 6.96 R0.1701 AL-0.00 WI 20.0 MW  2.8 3
 SPEC REDRBH N T173945 K 0.020 GD  117 VS 3.20 DE 2.60 Q0400.0 QA 0.70 Q1 1.00 3
 SPEC GRTKBH N MO 13.2 ST  1.6 OM  2.2 f0 3.22 R0.3677 AL-0.00 WI 20.0 MW  2.8 3
 SPEC GRTKBH N T173951 K 0.020 GD  124 VS 3.20 DE 2.60 Q0400.0 QA 0.70 Q1 1.00 3
 LOCALITY: 35.0 Km al NE de Luperon. Oceano Atlantico.                         3
 2020-08-05-1738-00S.MAN___120                                                 6
 OLDACT:UP  20-08-05 18:36 OP:JMLC STATUS:               ID:20200805173800     3
 OLDACT:ARG 20-08-05 17:47 OP:njm  STATUS:               ID:20200805173800     3
 OLDACT:UP  20-08-06 01:33 OP:JMLC STATUS:               ID:20200805173800     3
 OLDACT:UP  20-08-05 18:38 OP:JMLC STATUS:               ID:20200805173800     3
 OLDACT:UP  20-08-05 18:38 OP:JMLC STATUS:               ID:20200805173800     3
 OLDACT:UP  20-08-06 01:35 OP:JMLC STATUS:               ID:20200805173800     3
 OLDACT:UP  20-08-06 01:35 OP:JMLC STATUS:               ID:20200805173800     3
 ACTION:UPD 20-09-29 11:31 OP:jmlc STATUS:               ID:20200805173800     I
 OLDACT:UP  20-08-06 01:36 OP:JMLC STATUS:               ID:20200805173800     3
 STAT SP IPHASW D HRMM SECON CODA AMPLIT PERI AZIMU VELO AIN AR TRES W  DIS CAZ7
 MCDR BZ IP       1739 23.48   44                         90   -0.2710 97.1 253 
 MCDR BN  IAML    1739 45.48       115.6 0.40                          97.1 253 
 NADR BZ IP       1739 28.77   34                         90   -0.3010  130 132 
 NADR BE IS     C 1739 44.72                              90    0.1210  130 132 
 NADR BN  IAML    1739 49.82       491.4 0.25                           130 132 
 REDR BZ IP       1739 29.82   40                         90   -0.4310  137 225 
 REDR BE IS       1739 47.08                              90    0.4310  137 225 
 REDR BN  IAML    1739 48.96       347.1 0.40                           137 225 
 GRTK BZ IP       1739 31.23   45                         50   -1.5910  155 346 
 GRTK BE IS       1739 52.72                              50    1.5910  155 346 
 GRTK BN  IAML    1739 53.62       192.4 0.40                           155 346 
 SMDR BZ IP       1739 35.81   50                         50   -1.4710  191 120 
 SMDR BE IS       1739 59.77                              50    0.8910  191 120 
 SMDR BN  IAML    1740  5.85        65.0 0.75                           191 120 
 BADR BZ IP       1739 39.33   36                         50    1.0310  199 167 
 BADR BN  IAML    1740 50.16       115.5 0.10                           199 167 
                                                                                
 2020  8 5 1909  7.4 L  17.960 -72.236 10.0  DOM  3 0.4 2.1LDOM 2.9CDOM 2.2WDOM1
 LOCALITY: 52.6 Km al Oeste de Pedernales. Mar Caribe.                         3
 SPEC AVERAGE  MO 12.4 ST 15.2 OM  1.3 f0 9.31 R0.2630 AL 0.00 WI 20.0 MW  2.2 3
 SPEC SD       MO  0.1 ST 15.1 OM  0.1 f0 6.69 R0.1890 AL      WI      MW  0.0 3
 GAP=327        0.98     299.6   213.0241.8 -0.6372E+05  0.5143E+05 -0.7239E+05E
 SPEC SDDRBH N MO 12.3 ST0.104 OM  1.3 f0 2.62 R0.4519 AL-0.00 WI 20.0 MW  2.2 3
 SPEC SDDRBH N T19 948 K 0.020 GD  122 VS 3.20 DE 2.60 Q0400.0 QA 0.70 Q1 1.00 3
 SPEC REDRBH N MO 12.4 ST 30.4 OM  1.4 f0 16.0 R0.0740 AL-0.00 WI 20.0 MW  2.2 3
 SPEC REDRBH N T19 948 K 0.020 GD  124 VS 3.20 DE 2.60 Q0400.0 QA 0.70 Q1 1.00 3
 2020-08-05-1909-00S.MAN___120                                                 6
 OLDACT:ARG 20-08-05 21:08 OP:njm  STATUS:               ID:20200805190900     3
 ACTION:UPD 20-09-29 11:31 OP:jmlc STATUS:               ID:20200805190900     I
 OLDACT:UP  20-08-05 21:18 OP:JMLC STATUS:               ID:20200805190900     3
 STAT SP IPHASW D HRMM SECON CODA AMPLIT PERI AZIMU VELO AIN AR TRES W  DIS CAZ7
 NEDR BZ IP       19 9 22.90   33                         90   -0.5310 99.7  54 
 NEDR BN  IAML    19 9 37.74        72.2 0.10                          99.7  54 
 SDDR BZ IP       19 9 32.05   46                         70    0.5110  151  41 
 SDDR BE IS       19 9 49.67                              70    0.2310  151  41 
 SDDR BN  IAML    1910 19.02        17.7 2.50                           151  41 
 REDR BZ IP       19 9 32.41   41                         50    0.1410  156  21 
 REDR BE IS       19 9 50.37                              50   -0.3410  156  21 
 REDR BN  IAML    19 9 51.07        40.8 0.15                           156  21 
                                                                                
 2020  8 5 1922 33.0 L  20.088 -70.860122.0  DOM  4 0.9 2.4LDOM 2.9CDOM 2.9WDOM1
 LOCALITY: 24.3 Km al NNE de Luperon. Oceano Atlantico.                        3
 SPEC AVERAGE  MO 13.4 ST  5.9 OM  1.6 f0 4.92 R0.5225 AL 0.00 WI 20.0 MW  2.9 3
 SPEC SD       MO  0.0 ST  7.2 OM  0.0 f0 3.08 R0.3329 AL      WI      MW  0.0 3
 GAP=210        2.30       9.3    43.3 41.2 -0.1769E+03 -0.1370E+04  0.7045E+02E
 SPEC REDRBH N MO 13.3 ST 16.1 OM  1.6 f0 9.06 R0.1817 AL-0.00 WI 20.0 MW  2.8 3
 SPEC REDRBH N T192312 K 0.020 GD  175 VS 4.45 DE 3.40 Q0400.0 QA 0.70 Q1 1.00 3
 SPEC SDDRBH N MO 13.4 ST0.134 OM  1.7 f0 1.69 R0.9743 AL-0.00 WI 20.0 MW  2.9 3
 SPEC SDDRBH N T192311 K 0.020 GD  179 VS 4.45 DE 3.40 Q0400.0 QA 0.70 Q1 1.00 3
 SPEC GRTKBH N MO 13.4 ST  1.6 OM  1.6 f0 4.00 R0.4116 AL-0.00 WI 20.0 MW  2.9 3
 SPEC GRTKBH N T192316 K 0.020 GD  201 VS 4.45 DE 3.40 Q0400.0 QA 0.70 Q1 1.00 3
 2020-08-05-1922-00S.MAN___120                                                 6
 OLDACT:ARG 20-08-05 21:09 OP:njm  STATUS:               ID:20200805192200     3
 ACTION:UPD 20-09-29 11:31 OP:jmlc STATUS:               ID:20200805192200     I
 OLDACT:UP  20-08-05 21:20 OP:JMLC STATUS:               ID:20200805192200     3
 STAT SP IPHASW D HRMM SECON CODA AMPLIT PERI AZIMU VELO AIN AR TRES W  DIS CAZ7
 MCDR BZ IP       1922 51.78   35                        142   -0.3210 86.2 256 
 MCDR BE IS       1923  5.17                             142   -1.0910 86.2 256 
 MCDR BN  IAML    1923 11.52        41.7 0.85                          86.2 256 
 REDR BZ IP       1922 55.30   39                        130   -0.1610  126 225 
 REDR BE IS       1923 13.62                             130    1.5210  126 225 
 REDR BN  IAML    1923 15.30       113.4 0.15                           126 225 
 SDDR BZ IP       1922 54.60   36                        129   -1.2710  131 200 
 SDDR BE IS       1923 13.27                             129    0.4610  131 200 
 SDDR BN  IAML    1923 16.35        21.4 0.50                           131 200 
 GRTK BZ IP       1922 59.53   39                        123    0.9310  160 350 
 GRTK BE IS       1923 17.50                             123   -0.0710  160 350 
 GRTK BN  IAML    1923 19.68        39.5 0.20                           160 350 
                                                                                
 2020  8 5 2150  5.3 L  18.539 -71.641 19.0  DOM 11 0.7 3.3LDOM 2.8CDOM 3.6WDOM1
 LOCALITY: 1.0 Km al SO de Postrer Rio. Independencia.                         3
 SPEC AVERAGE  MO 14.5 ST 26.0 OM  3.1 f0 3.55 R1.0557 AL 0.00 WI 20.0 MW  3.6 3
 SPEC SD       MO  0.6 ST 51.6 OM  0.6 f0 3.60 R1.2253 AL      WI      MW  0.4 3
 GAP=218        1.96       6.7     9.3  6.0  0.4629E+02 -0.2355E+02 -0.2603E+02E
 SPEC NEDRBH N MO 14.2 ST  3.8 OM  3.4 f0 2.70 R0.5714 AL-0.00 WI 20.0 MW  3.4 3
 SPEC NEDRBH N T215011 K 0.020 GD 27.0 VS 4.17 DE 3.12 Q0400.0 QA 0.70 Q1 1.00 3
 SPEC PODRBH N MO 14.3 ST 31.5 OM  3.2 f0 4.91 R0.3142 AL-0.00 WI 20.0 MW  3.5 3
 SPEC PODRBH N T215020 K 0.020 GD 59.1 VS 4.17 DE 3.12 Q0400.0 QA 0.70 Q1 1.00 3
 SPEC REDRBH N MO 13.8 ST169.6 OM  2.5 f0 13.1 R0.1178 AL-0.00 WI 20.0 MW  3.1 3
 SPEC REDRBH N T215026 K 0.020 GD 84.1 VS 4.17 DE 3.12 Q0400.0 QA 0.70 Q1 1.00 3
 SPEC LODAEN N MO 15.9 ST0.448 OM  4.5 f00.353 R4.3708 AL-0.00 WI 20.0 MW  4.6 3
 SPEC LODAEN N T215033 K 0.020 GD  113 VS 4.17 DE 3.12 Q0400.0 QA 0.70 Q1 1.00 3
 SPEC MADRBH N MO 14.5 ST  7.3 OM  3.0 f0 2.71 R0.5693 AL-0.00 WI 20.0 MW  3.6 3
 SPEC MADRBH N T215036 K 0.020 GD  128 VS 4.17 DE 3.12 Q0400.0 QA 0.70 Q1 1.00 3
 SPEC BADRBH N MO 14.5 ST 14.0 OM  3.0 f0 3.30 R0.4675 AL-0.00 WI 20.0 MW  3.6 3
 SPEC BADRBH N T215039 K 0.020 GD  137 VS 4.17 DE 3.12 Q0400.0 QA 0.70 Q1 1.00 3
 SPEC SC01BH N MO 14.2 ST  1.5 OM  2.7 f0 1.96 R0.7872 AL-0.00 WI 20.0 MW  3.4 3
 SPEC SC01BH N T215039 K 0.020 GD  139 VS 4.17 DE 3.12 Q0400.0 QA 0.70 Q1 1.00 3
 SPEC SFDRBH N MO 14.9 ST  5.8 OM  3.3 f0 1.82 R0.8477 AL-0.00 WI 20.0 MW  3.9 3
 SPEC SFDRBH N T215047 K 0.020 GD  170 VS 4.17 DE 3.12 Q0400.0 QA 0.70 Q1 1.00 3
 SPEC SMDRBH N MO 14.3 ST0.290 OM  2.5 f0 1.06 R1.4556 AL-0.00 WI 20.0 MW  3.5 3
 SPEC SMDRBH N T215121 K 0.020 GD  271 VS 4.17 DE 3.12 Q0400.0 QA 0.70 Q1 1.00 3
 2020-08-05-2149-00S.MAN___120                                                 6
 OLDACT:UP  20-08-05 22:29 OP:JMLC STATUS:               ID:20200805214900     3
 OLDACT:ARG 20-08-05 22:24 OP:njm  STATUS:               ID:20200805214900     3
 ACTION:UPD 20-09-29 11:31 OP:jmlc STATUS:               ID:20200805214900     I
 OLDACT:UP  20-08-05 22:30 OP:JMLC STATUS:               ID:20200805214900     3
 STAT SP IPHASW D HRMM SECON CODA AMPLIT PERI AZIMU VELO AIN AR TRES W  DIS CAZ7
 NEDR BZ IP     D 2150  9.21   32                        132   -0.3910 19.2 109 
 NEDR BE IS     C 2150 12.84                             132    0.0910 19.2 109 
 NEDR BN  IAML    2150 13.14      3540.2 1.00                          19.2 109 
 PODR BZ IP     D 2150 14.36   23                        105   -0.3810 56.0 137 
 PODR BE IS     C 2150 22.13                             105    0.4410 56.0 137 
 PODR BN  IAML    2150 22.23      6417.3 0.20                          56.0 137 
 REDR BZ IP     D 2150 18.23   40                         98   -0.3010 81.9 356 
 REDR BE IS     C 2150 28.33                              98    0.0310 81.9 356 
 REDR BN  IAML    2150 29.73      1679.4 0.20                          81.9 356 
 LODA EZ IP       2150 22.53   23                         55   -0.2710  112 357 
 LODA EE IS     C 2150 35.24                              55   -0.4910  112 357 
 MADR BZ IP     D 2150 23.90   29                         55   -0.8310  127  26 
 MADR BE IS     D 2150 38.44                              55   -0.6310  127  26 
 MADR BN  IAML    2150 43.17       904.4 0.30                           127  26 
 BADR BZ IP     D 2150 24.67   44                         55   -1.2810  136  96 
 BADR BE IS     C 2150 40.71                              55   -0.4910  136  96 
 BADR BN  IAML    2150 45.51      1177.5 0.30                           136  96 
 SC01 BZ IP     C 2150 25.54   33                         55   -0.5110  138  44 
 SC01 BE IS     C 2150 41.20                              55   -0.1710  138  44 
 SC01 BN  IAML    2150 49.38       268.8 0.65                           138  44 
 MCDR BZ IP     C 2150 28.41   46                         55    0.8510  150 359 
 MCDR BE IS     C 2150 44.44                              55    0.4410  150 359 
 MCDR BN  IAML    2150 46.87       222.6 0.25                           150 359 
 LUDR BZ IP     C 2150 30.67   45                         55    1.0510  166  26 
 SFDR BZ IP       2150 30.40   37                         55    0.4710  169  60 
 SFDR BE IS     D 2150 48.54                              55    0.4210  169  60 
 SFDR BN  IAML    2150 50.22      1114.8 0.45                           169  60 
 SMDR BZ IP       2150 44.62   57                         55    1.9610  271  72 
 SMDR BN  IAML    2151 33.78        56.8 0.80                           271  72 
                                                                                
