 2020  4 1 0255  3.00L  19.339 -69.457 69.5  DOM 19 0.9 2.8LDOM 3.1CDOM 3.0WDOM1
 SPEC AVERAGE  MO 13.5 ST 74.9 OM  2.0 f0 8.66 R0.3113 AL 0.00 WI 20.0 MW  3.0 3
 SPEC SD       MO  0.5 ST131.6 OM  0.6 f0 4.85 R0.2565 AL      WI      MW  0.3 3
 GAP=137        2.34       6.3     4.3  9.8  0.1174E+02  0.1084E+00 -0.9919E+01E
 SPEC SMDRBH N MO 13.3 ST  4.0 OM  1.9 f0 5.98 R0.2784 AL-0.00 WI 20.0 MW  2.8 3
 SPEC SMDRBH N T 25518 K 0.020 GD 75.2 VS 4.50 DE 3.40 Q0400.0 QA 0.70 Q1 0.00 3
 SPEC NAVIBH N MO 14.7 ST484.5 OM  3.2 f0 9.93 R0.1677 AL-0.00 WI 20.0 MW  3.8 3
 SPEC NAVIBH N T 25525 K 0.020 GD  100 VS 4.50 DE 3.40 Q0400.0 QA 0.70 Q1 0.00 3
 SPEC SFDRBH N MO 13.8 ST130.3 OM  2.3 f0 12.5 R0.1332 AL-0.00 WI 20.0 MW  3.2 3
 SPEC SFDRBH N T 25527 K 0.020 GD  108 VS 4.50 DE 3.40 Q0400.0 QA 0.70 Q1 0.00 3
 SPEC SDD BH N MO 13.1 ST  1.9 OM  1.5 f0 5.36 R0.3106 AL-0.00 WI 20.0 MW  2.7 3
 SPEC SDD BH N T 25531 K 0.020 GD  128 VS 4.50 DE 3.40 Q0400.0 QA 0.70 Q1 0.00 3
 SPEC HIDRBH N MO 13.6 ST 46.4 OM  2.0 f0 10.4 R0.1601 AL-0.00 WI 20.0 MW  3.0 3
 SPEC HIDRBH N T 25532 K 0.020 GD  133 VS 4.50 DE 3.40 Q0400.0 QA 0.70 Q1 0.00 3
 SPEC SODRBH N MO 14.0 ST0.501 OM  2.3 f0 1.78 R0.9354 AL-0.00 WI 20.0 MW  3.3 3
 SPEC SODRBH N T 25536 K 0.020 GD  143 VS 4.50 DE 3.40 Q0400.0 QA 0.70 Q1 0.00 3
 SPEC SC01BH N MO 13.5 ST  4.1 OM  1.8 f0 5.19 R0.3208 AL-0.00 WI 20.0 MW  2.9 3
 SPEC SC01BH N T 25538 K 0.020 GD  150 VS 4.50 DE 3.40 Q0400.0 QA 0.70 Q1 0.00 3
 SPEC BADRBH N MO 13.5 ST 58.5 OM  1.8 f0 12.4 R0.1343 AL-0.00 WI 20.0 MW  2.9 3
 SPEC BADRBH N T 25539 K 0.020 GD  157 VS 4.50 DE 3.40 Q0400.0 QA 0.70 Q1 0.00 3
 SPEC SDDRBH N MO 13.6 ST0.331 OM  1.8 f0 2.01 R0.8284 AL-0.00 WI 20.0 MW  3.0 3
 SPEC SDDRBH N T 25547 K 0.020 GD  208 VS 4.50 DE 3.40 Q0400.0 QA 0.70 Q1 0.00 3
 SPEC PODRBH N MO 13.4 ST0.939 OM  1.5 f0 3.41 R0.4883 AL-0.00 WI 20.0 MW  2.9 3
 SPEC PODRBH N T 25559 K 0.020 GD  242 VS 4.50 DE 3.40 Q0400.0 QA 0.70 Q1 0.00 3
 SPEC REDRBH N MO 13.8 ST247.6 OM  1.9 f0 16.0 R0.1041 AL-0.00 WI 20.0 MW  3.1 3
 SPEC REDRBH N T 25557 K 0.020 GD  246 VS 4.50 DE 3.40 Q0400.0 QA 0.70 Q1 0.00 3
 SPEC AGPRBH N MO 13.4 ST  5.9 OM  1.5 f0 6.03 R0.2761 AL-0.00 WI 20.0 MW  2.9 3
 SPEC AGPRBH N T 256 4 K 0.020 GD  273 VS 4.50 DE 3.40 Q0400.0 QA 0.70 Q1 0.00 3
 SPEC GRTKBH N MO 13.1 ST 48.6 OM  1.1 f0 16.0 R0.1041 AL-0.00 WI 20.0 MW  2.7 3
 SPEC GRTKBH N T 256 9 K 0.020 GD  305 VS 4.50 DE 3.40 Q0400.0 QA 0.70 Q1 0.00 3
 SPEC CELPBH N MO 12.7 ST 15.5 OM  0.7 f0 14.3 R0.1164 AL-0.00 WI 20.0 MW  2.4 3
 SPEC CELPBH N T 25618 K 0.020 GD  342 VS 4.50 DE 3.40 Q0400.0 QA 0.70 Q1 0.00 3
 LOCALITY: 9.3 Km al ENE de Las Terrenas. Oceano Atlantico.                    3
 2020-04-01-0255-00S.MAN___126                                                 6
 OLDACT:ARG 20-04-01 03:06 OP:jrdn STATUS:               ID:20200401025500     3
 OLDACT:UP  20-04-01 03:19 OP:JMLC STATUS:               ID:20200401025500     3
 OLDACT:UP  20-04-01 03:18 OP:JMLC STATUS:               ID:20200401025500     3
 ACTION:UP  22-03-16 16:59 OP:JMLC STATUS:               ID:20200401025503 L   I
 OLDACT:UP  21-02-16 00:27 OP:AMMR STATUS:               ID:20200401025500     3
 OLDACT:UP  21-02-16 00:26 OP:AMMR STATUS:               ID:20200401025500     3
 OLDACT:UP  21-02-16 00:25 OP:AMMR STATUS:               ID:20200401025500     3
 OLDACT:UP  21-02-16 00:23 OP:AMMR STATUS:               ID:20200401025500     3
 OLDACT:UP  21-02-16 00:22 OP:AMMR STATUS:               ID:20200401025500     3
 OLDACT:UP  20-04-01 03:19 OP:JMLC STATUS:               ID:20200401025500     3
 STAT SP IPHASW D HRMM SECON CODA AMPLIT PERI AZIMU VELO AIN AR TRES W  DIS CAZ7
 SMDR BZ EPg    D  255 12.23   28                        155   -0.9210 28.8 101 
 SMDR BN ESg       255 20.29                             155   -0.3910 28.8 101 
 HMDR BZ EPg    C  255 14.73   61                        134   -0.8110 61.5 172 
 HMDR BN ESg    C  255 25.01                             134    0.1710 61.5 172 
 CADR BN ESg    C  255 25.50                             133    0.6410 62.3 306 
 CADR BN  IAML     255 26.70       265.0 0.25                          62.3 306 
 NAVI BN ESg    C  255 27.03                             128    0.2710 73.2 235 
 SFDR BZ EPg    C  255 17.29   42                        124   -0.2210 82.8 266 
 SFDR BN  IAML     255 30.57       636.8 0.15                          82.8 266 
 SDD  BN ESg       255 33.27                             116    0.3410  108 207 
 SDD  BN  IAML     255 40.25        59.0 0.85                           108 207 
 HIDR BZ EPg    C  255 20.20   33                        115   -0.5810  114 136 
 HIDR BN ESg    C  255 33.58                             115   -0.3810  114 136 
 HIDR BN  IAML     255 35.65       325.8 0.35                           114 136 
 SODR BN ESg       255 37.72                             112    1.4010  126 291 
 SODR BN  IAML     256 13.40       158.4 0.65                           126 291 
 SC01 BZ EPg    C  255 23.68   47                        110    0.6410  134 274 
 ABDR BZ EPg    C  255 21.84   45                        110   -1.7710  136 245 
 BADR BZ EPg    C  255 23.60   44                        109   -0.3610  141 223 
 BADR BN ESg    C  255 41.20                             109    1.7010  141 223 
 BADR BN  IAML     255 42.90       194.1 0.15                           141 223 
 LUDR BZ EPg    C  255 27.48   44                        105    0.4610  168 292 
 LUDR BE ESg    C  255 44.58                             105   -0.2410  168 292 
 SDDR BZ EPg    C  255 30.83   47                        102    0.4110  197 259 
 SDDR BN ESg    C  255 48.97                             102   -1.7710  197 259 
 SDDR BN  IAML     255 54.22        40.4 0.85                           197 259 
 PODR BZ EPg    C  255 35.23   63                        100    0.5010  232 236 
 PODR BN  IAML     256 17.80        59.7 2.90                           232 236 
 REDR BZ EPg    C  255 34.03   57                        100   -1.0610  236 269 
 REDR BN ESg    C  255 58.68                             100   -0.1910  236 269 
 REDR BN  IAML     256  0.18       205.1 0.20                           236 269 
 MCDR BZ EPg    C  255 34.17   60                         99   -1.1810  239 285 
 MCDR BN ESg    C  256  0.66                              99    1.3510  239 285 
 MCDR BN  IAML     256  1.71        48.9 0.35                           239 285 
 AGPR BZ EPg    C  255 38.75   65                         98    0.2010  265 111 
 AGPR BE ESg    C  256  5.52                              98    0.6410  265 111 
 AGPR BN  IAML     256 15.04        48.3 1.88                           265 111 
 GRTK BN ESg       256 11.32                              97   -0.2310  297 324 
 GRTK BN  IAML     256 49.85        27.4 1.75                           297 324 
 CELP BZ EPg    C  255 47.91                              96    1.0210  335 114 
 CELP BN ESg    C  256 19.79                              96    0.4010  335 114 
                                                                                
 2020  4 1 0319 42.50L  19.367 -69.394 79.3  DOM 10 0.8 2.6LDOM 3.0CDOM 2.8WDOM1
 SPEC AVERAGE  MO 13.3 ST 13.5 OM  2.2 f0 8.80 R2.3903 AL 0.00 WI 20.0 MW  2.8 3
 SPEC SD       MO  1.0 ST 19.3 OM  1.1 f0 6.10 R4.3930 AL      WI      MW  0.7 3
 GAP=199        2.18      11.4     6.7 11.5  0.3283E+02  0.2617E+02  0.1019E+02E
 SPEC SMDRBH N MO 12.9 ST0.866 OM  1.5 f0 4.75 R0.3505 AL-0.00 WI 20.0 MW  2.6 3
 SPEC SMDRBH N T 320 0 K 0.020 GD 82.7 VS 4.50 DE 3.40 Q0400.0 QA 0.70 Q1 0.00 3
 SPEC NADRBH N MO 13.4 ST 10.8 OM  1.9 f0 7.79 R0.2137 AL-0.00 WI 20.0 MW  2.9 3
 SPEC NADRBH N T 320 2 K 0.020 GD 93.0 VS 4.50 DE 3.40 Q0400.0 QA 0.70 Q1 0.00 3
 SPEC HMDRBH N MO 12.1 ST  4.5 OM  0.6 f0 15.3 R0.1088 AL-0.00 WI 20.0 MW  2.0 3
 SPEC HMDRBH N T 320 4 K 0.020 GD  101 VS 4.50 DE 3.40 Q0400.0 QA 0.70 Q1 0.00 3
 SPEC SFDRBH N MO 15.2 ST0.005 OM  3.6 f00.149 R 11.17 AL-0.00 WI 20.0 MW  4.1 3
 SPEC SFDRBH N T 320 9 K 0.020 GD  119 VS 4.50 DE 3.40 Q0400.0 QA 0.70 Q1 0.00 3
 SPEC REDRBH N MO 13.1 ST 51.3 OM  1.2 f0 16.0 R0.1041 AL-0.00 WI 20.0 MW  2.7 3
 SPEC REDRBH N T 32037 K 0.020 GD  255 VS 4.50 DE 3.40 Q0400.0 QA 0.70 Q1 0.00 3
 LOCALITY: 16.5 Km al ENE de Las Terrenas, Oceano Atlantico.                   3
 2020-04-01-0319-00S.MAN___123                                                 6
 OLDACT:UP  20-04-01 10:19 OP:JMLC STATUS:               ID:20200401031900     3
 OLDACT:ARG 20-04-01 10:04 OP:jrdn STATUS:               ID:20200401031900     3
 OLDACT:UP  20-04-01 10:20 OP:JMLC STATUS:               ID:20200401031900     3
 OLDACT:UP  20-04-01 10:20 OP:JMLC STATUS:               ID:20200401031900     3
 OLDACT:UP  20-04-01 10:20 OP:JMLC STATUS:               ID:20200401031900     3
 ACTION:UP  22-03-16 16:59 OP:JMLC STATUS:               ID:20200401031942 L   I
 OLDACT:UP  21-02-16 00:33 OP:AMMR STATUS:               ID:20200401031900     3
 OLDACT:UP  21-02-16 00:32 OP:AMMR STATUS:               ID:20200401031900     3
 OLDACT:UP  21-02-16 00:30 OP:AMMR STATUS:               ID:20200401031900     3
 OLDACT:UP  21-02-16 00:29 OP:AMMR STATUS:               ID:20200401031900     3
 OLDACT:UP  20-04-01 10:41 OP:JMLC STATUS:               ID:20200401031900     3
 STAT SP IPHASW D HRMM SECON CODA AMPLIT PERI AZIMU VELO AIN AR TRES W  DIS CAZ7
 SMDR BZ EPg    C  319 52.96                             162   -0.5510 23.3 111 
 SMDR BN ESg       320  2.07                             162    0.3910 23.3 111 
 NADR BZ EPg    C  319 54.16                             146   -0.7110 48.5 268 
 NADR BN ESg    C  320  3.70                             146   -0.3510 48.5 268 
 NADR BN  IAML     320  4.67       168.1 0.20                          48.5 268 
 HMDR BZ EPg    C  319 55.51                             137   -0.5910 64.1 179 
 HMDR BN ESg    C  320  5.84                             137   -0.3610 64.1 179 
 NAVI BN ESg    C  320  7.63                             130   -1.1110 80.5 236 
 NAVI BN  IAML     320  9.45      1009.4 0.20                          80.5 236 
 SFDR BN ESg    C  320 10.88                             127    0.7410 89.7 265 
 SFDR BN  IAML     320 11.28       126.5 0.15                          89.7 265 
 HIDR BZ EPg    C  320  1.12                             120    0.5310  112 140 
 HIDR BN ESg    C  320 14.77                             120    0.7610  112 140 
 HIDR BN  IAML     320 16.60        65.0 0.15                           112 140 
 SC01 BN ESg    C  320 21.61                             114    2.2010  140 273 
 BADR BZ EPg    C  320  4.80   44                        112    0.1610  148 224 
 BADR BN ESg       320 21.36                             112    0.3010  148 224 
 BADR BN  IAML     320 22.11        31.3 1.20                           148 224 
 SDDR BZ EPg    C  320 11.15                             105    0.1210  204 258 
 SDDR BE ESg    C  320 32.53                             105    0.3610  204 258 
 REDR BZ EPg    C  320 14.84                             102   -0.7610  243 268 
 REDR BN ESg    C  320 39.01                             102   -1.1210  243 268 
 REDR BN  IAML     320 40.93        39.5 0.15                           243 268 
                                                                                
 2020  4 1 0335 26.10L  17.551 -68.760 22.2  DOM  9 0.5 3.1LDOM 3.2CDOM 2.8WDOM1
 SPEC AVERAGE  MO 13.3 ST 16.8 OM  2.1 f0 7.92 R1.1400 AL 0.00 WI 20.0 MW  2.8 3
 SPEC SD       MO  0.7 ST 26.2 OM  1.0 f0 5.83 R1.6353 AL      WI      MW  0.5 3
 GAP=224        1.42       8.7     3.6 13.1  0.1283E+02  0.1126E+02  0.3849E+02E
 SPEC HIDRBH N MO 14.5 ST0.020 OM  2.9 f00.413 R3.9688 AL-0.00 WI 20.0 MW  3.6 3
 SPEC HIDRBH N T 33557 K 0.020 GD  117 VS 4.43 DE 3.40 Q0400.0 QA 0.70 Q1 0.00 3
 SPEC HMDRBH N MO 12.6 ST  4.1 OM  0.9 f0 10.3 R0.1591 AL-0.00 WI 20.0 MW  2.3 3
 SPEC HMDRBH N T 336 2 K 0.020 GD  153 VS 4.43 DE 3.40 Q0400.0 QA 0.70 Q1 0.00 3
 SPEC BADRBH N MO 13.2 ST 62.1 OM  1.4 f0 16.0 R0.1024 AL-0.00 WI 20.0 MW  2.7 3
 SPEC BADRBH N T 33616 K 0.020 GD  195 VS 4.43 DE 3.40 Q0400.0 QA 0.70 Q1 0.00 3
 SPEC AGPRBH N MO 12.8 ST0.772 OM  1.0 f0 4.97 R0.3298 AL-0.00 WI 20.0 MW  2.5 3
 SPEC AGPRBH N T 33617 K 0.020 GD  203 VS 4.43 DE 3.40 Q0400.0 QA 0.70 Q1 0.00 3
 LOCALITY: 11.7 Km al ONO de San Rafael del Yuma. La Altagracia.               3
 2020-04-01-0335-00S.MAN___123                                                 6
 OLDACT:UP  20-04-01 10:32 OP:JMLC STATUS:               ID:20200401033500     3
 OLDACT:UP  20-04-01 10:32 OP:JMLC STATUS:               ID:20200401033500     3
 OLDACT:UP  20-04-01 10:30 OP:JMLC STATUS:               ID:20200401033500     3
 OLDACT:UP  20-04-01 10:29 OP:JMLC STATUS:               ID:20200401033500     3
 OLDACT:UP  20-04-01 10:28 OP:JMLC STATUS:               ID:20200401033500     3
 OLDACT:ARG 20-04-01 10:05 OP:jrdn STATUS:               ID:20200401033500     3
 OLDACT:UP  20-04-01 10:33 OP:JMLC STATUS:               ID:20200401033500     3
 OLDACT:UP  20-04-01 10:32 OP:JMLC STATUS:               ID:20200401033500     3
 ACTION:UP  22-03-16 16:59 OP:JMLC STATUS:               ID:20200401033526 L   I
 OLDACT:UP  22-01-09 01:40 OP:CGRS STATUS:               ID:20200401033500     3
 OLDACT:UP  22-01-09 01:40 OP:CGRS STATUS:               ID:20200401033500     3
 OLDACT:UP  21-02-16 00:47 OP:AMMR STATUS:               ID:20200401033500     3
 OLDACT:UP  21-02-16 00:45 OP:AMMR STATUS:               ID:20200401033500     3
 OLDACT:UP  21-02-16 00:45 OP:AMMR STATUS:               ID:20200401033500     3
 OLDACT:UP  21-02-16 00:44 OP:AMMR STATUS:               ID:20200401033500     3
 OLDACT:UP  21-02-16 00:37 OP:AMMR STATUS:               ID:20200401033500     3
 OLDACT:UP  21-02-16 00:36 OP:AMMR STATUS:               ID:20200401033500     3
 OLDACT:UP  20-04-01 10:41 OP:JMLC STATUS:               ID:20200401033500     3
 STAT SP IPHASW D HRMM SECON CODA AMPLIT PERI AZIMU VELO AIN AR TRES W  DIS CAZ7
 HIDR BZ EPg    C  335 44.73                              92    0.7010  115   2 
 HIDR BN ISg    D  335 57.10                              92   -0.2310  115   2 
 HIDR BN  IAML     336  1.72       301.7 0.25                           115   2 
 HMDR BZ IP     C  335 47.24                              59   -1.0210  152 334 
 HMDR BN  IAML     336  5.30       166.6 0.30                           152 334 
 MLPR BZ IP     C  335 52.10   55                         59   -0.5810  188  75 
 MLPR BN ISg    C  336 16.41                              91    0.7510  188  75 
 MLPR BN  IAML     336 26.10        18.0 0.32                           188  75 
 BADR BZ EPg    C  335 56.01   44                         91    0.4810  194 299 
 BADR BN ESg    C  336 17.50                              91    0.1810  194 299 
 BADR BN  IAML     336 21.30       507.5 0.30                           194 299 
 SMDR BN  IAML     336 17.03       406.5 0.35                           198 347 
 AGPR BZ EPg    C  335 56.36   52                         91   -0.3210  202  60 
 AGPR BN  IAML     336  2.73       176.4 0.44                           202  60 
 NAVI BN  IAML     336 14.84      1376.0 0.25                           206 319 
 NADR BZ IP     C  335 58.16                              59    0.1310  231 330 
 NADR BN  IAML     336 26.58       549.9 0.25                           231 330 
 CELP BN ESg    C  336 28.50                              91   -0.0810  239  76 
 CELP BN  IAML     336 34.96        26.0 0.28                           239  76 
                                                                                
 2020  4 1 0434 45.70L  19.679 -70.532 23.0  DOM  6 0.8 2.4LDOM 2.8CDOM 2.4WDOM1
 SPEC AVERAGE  MO 12.6 ST0.842 OM  2.4 f0 5.08 R0.3988 AL 0.00 WI 20.0 MW  2.4 3
 SPEC SD       MO  0.0 ST0.730 OM  1.1 f0 2.22 R0.1743 AL      WI      MW  0.0 3
 GAP=147        1.99      10.0     5.1 11.0  0.1167E+02 -0.4753E+00  0.5226E+02E
 SPEC SODRBH N MO 12.7 ST0.111 OM  1.8 f0 2.86 R0.5731 AL-0.00 WI 20.0 MW  2.4 3
 SPEC SODRBH N T 43451 K 0.020 GD 24.8 VS 4.43 DE 3.34 Q0400.0 QA 0.70 Q1 0.00 3
 SPEC REDRBH N MO 12.6 ST  1.6 OM  1.0 f0 7.30 R0.2245 AL-0.00 WI 20.0 MW  2.3 3
 SPEC REDRBH N T 43520 K 0.020 GD  133 VS 4.43 DE 3.34 Q0400.0 QA 0.70 Q1 0.00 3
 LOCALITY: 6.2 Km al SO de Sosua. Puerto Plata.                                3
 2020-04-01-0434-00S.MAN___123                                                 6
 OLDACT:UP  20-04-01 10:39 OP:JMLC STATUS:               ID:20200401043400     3
 OLDACT:UP  20-04-01 10:39 OP:JMLC STATUS:               ID:20200401043400     3
 OLDACT:ARG 20-04-01 10:08 OP:jrdn STATUS:               ID:20200401043400     3
 OLDACT:UP  20-04-01 10:41 OP:JMLC STATUS:               ID:20200401043400     3
 OLDACT:UP  20-04-01 10:41 OP:JMLC STATUS:               ID:20200401043400     3
 ACTION:UP  22-03-16 16:59 OP:JMLC STATUS:               ID:20200401043445 L   I
 OLDACT:UP  22-01-09 01:54 OP:CGRS STATUS:               ID:20200401043400     3
 OLDACT:UP  21-02-16 00:51 OP:AMMR STATUS:               ID:20200401043400     3
 OLDACT:UP  21-02-16 00:50 OP:AMMR STATUS:               ID:20200401043400     3
 OLDACT:UP  21-02-16 00:50 OP:AMMR STATUS:               ID:20200401043400     3
 OLDACT:UP  21-02-16 00:49 OP:AMMR STATUS:               ID:20200401043400     3
 OLDACT:UP  21-02-16 00:48 OP:AMMR STATUS:               ID:20200401043400     3
 OLDACT:UP  21-02-16 00:48 OP:AMMR STATUS:               ID:20200401043400     3
 OLDACT:UP  21-02-16 00:47 OP:AMMR STATUS:               ID:20200401043400     3
 OLDACT:UP  20-04-01 10:41 OP:JMLC STATUS:               ID:20200401043400     3
 STAT SP IPHASW D HRMM SECON CODA AMPLIT PERI AZIMU VELO AIN AR TRES W  DIS CAZ7
 SODR BN ESg    C  434 52.84                             156    0.4110 9.35 330 
 SODR BN  IAML     434 55.68      1126.5 0.30                          9.35 330 
 SC01 BN ESg       434 56.59                             118   -0.4110 34.7 216 
 SC01 BN  IAML     435  2.71       312.9 0.35                          34.7 216 
 SFDR BZ EPg    C  434 53.54   33                        105   -1.1210 52.9 145 
 SFDR BN ESg    C  435  2.17                             105    0.8910 52.9 145 
 SFDR BN  IAML     435  3.80       217.1 0.30                          52.9 145 
 NADR BN ESg       435  8.51                              96    0.5910 79.5 117 
 NADR BN  IAML     435 12.87       259.9 0.30                          79.5 117 
 REDR BZ EPg    C  435  5.17   38                         92   -0.7810  131 250 
 REDR BN ESg    C  435 21.94                              92    1.0110  131 250 
 REDR BN  IAML     435 23.20        80.3 0.25                           131 250 
 HMDR BZ EPg    C  435  9.04   44                         92   -0.6010  156 129 
 HMDR BN  IAML     435 30.28        22.7 0.30                           156 129 
                                                                                
