 2020  3 6 1240 43.00L  17.723 -68.443 31.1  DOM 19 0.9 4.6LDOM 4.0CDOM 4.6WDOM1
 SPEC AVERAGE  MO 16.0 ST439.3 OM  4.4 f0 3.86 R0.5618 AL 0.00 WI 20.0 MW  4.6 3
 SPEC SD       MO  1.9 ST368.6 OM  2.0 f0 4.58 R1.4016 AL      WI      MW  1.2 3
 GAP=212        2.44      11.8     3.9 20.0  0.2082E+02 -0.9582E+01 -0.1264E+03E
 SPEC SPM1HN N MO 16.2 ST260.1 OM  4.6 f0 2.56 R0.6504 AL-0.00 WI 20.0 MW  4.8 3
 SPEC SPM1HN N T124113 K 0.020 GD  125 VS 4.50 DE 3.40 Q0400.0 QA 0.70 Q1 0.00 3
 SPEC MLPRBH N MO 15.2 ST 15.8 OM  3.5 f0 2.23 R 0.747 AL-0.00 WI 20.0 MW  4.1 3
 SPEC MLPRBH N T124120 K 0.020 GD14.50 VS 4.50 DE 3.40 Q0400.0 QA 0.70 Q1      3
 SPEC AGPRBH N MO 15.5 ST156.2 OM  3.8 f0 3.75 R 0.444 AL-0.00 WI 20.0 MW  4.3 3
 SPEC AGPRBH N T124121 K 0.020 GD15.10 VS 4.50 DE 3.40 Q0400.0 QA 0.70 Q1      3
 SPEC SMDRBH N MO 16.3 ST250.7 OM  4.5 f0 2.37 R0.7025 AL-0.00 WI 20.0 MW  4.8 3
 SPEC SMDRBH N T124126 K 0.020 GD  192 VS 4.50 DE 3.40 Q0400.0 QA 0.70 Q1 0.00 3
 SPEC BAN1HN N MO 16.0 ST204.8 OM  4.2 f0 2.70 R0.6167 AL-0.00 WI 20.0 MW  4.6 3
 SPEC BAN1HN N T124134 K 0.020 GD  212 VS 4.50 DE 3.40 Q0400.0 QA 0.70 Q1 0.00 3
 SPEC PODRBH N MO 16.2 ST999.0 OM  4.2 f0 4.18 R 0.398 AL-0.00 WI 20.0 MW  4.7 3
 SPEC PODRBH N T124153 K 0.020 GD30.50 VS 4.50 DE 3.40 Q0400.0 QA 0.70 Q1      3
 SPEC NEDRBH N MO 15.9 ST111.8 OM  3.9 f0 2.40 R 0.694 AL-0.00 WI 20.0 MW  4.6 3
 SPEC NEDRBH N T124159 K 0.020 GD32.90 VS 4.50 DE 3.40 Q0400.0 QA 0.70 Q1      3
 SPEC JIDRBH N MO 16.3 ST124.5 OM  4.2 f0 1.90 R 0.876 AL-0.00 WI 20.0 MW  4.8 3
 SPEC JIDRBH N T1242 9 K 0.020 GD37.00 VS 4.50 DE 3.40 Q0400.0 QA 0.70 Q1      3
 SPEC MCDRBH N MO 15.9 ST391.9 OM  3.8 f0 3.67 R 0.454 AL-0.00 WI 20.0 MW  4.6 3
 SPEC MCDRBH N T124213 K 0.020 GD40.60 VS 4.50 DE 3.40 Q0400.0 QA 0.70 Q1      3
 SPEC GRTKBH N MO 16.0 ST218.7 OM  3.8 f0 2.84 R 0.586 AL-0.00 WI 20.0 MW  4.6 3
 SPEC GRTKBH N T124229 K 0.020 GD48.90 VS 4.50 DE 3.40 Q0400.0 QA 0.70 Q1      3
 SPEC GTBYBH N MO 15.1 ST 17.1 OM  2.7 f0 2.46 R 0.677 AL-0.00 WI 20.0 MW  4.0 3
 SPEC GTBYBH N T124324 K 0.020 GD74.00 VS 4.50 DE 3.40 Q0400.0 QA 0.70 Q1      3
 SPEC HIDRBH N MO 16.3 ST861.3 OM  4.8 f0 3.48 R0.4784 AL-0.00 WI 20.0 MW  4.8 3
 SPEC HIDRBH N T1241 7 K 0.020 GD  104 VS 4.50 DE 3.40 Q0400.0 QA 0.70 Q1 1.00 3
 SPEC CRPRBH N MO 15.8 ST 43.4 OM  4.1 f0 1.95 R0.8538 AL-0.00 WI 20.0 MW  4.5 3
 SPEC CRPRBH N T124117 K 0.020 GD  150 VS 4.50 DE 3.40 Q0400.0 QA 0.70 Q1 1.00 3
 SPEC PRSNBH N MO 15.5 ST231.4 OM  3.8 f0 4.28 R0.3890 AL-0.00 WI 20.0 MW  4.3 3
 SPEC PRSNBH N T124118 K 0.020 GD  151 VS 4.50 DE 3.40 Q0400.0 QA 0.70 Q1 1.00 3
 SPEC HMDRBH N MO 16.2 ST453.3 OM  4.5 f0 3.09 R0.5388 AL-0.00 WI 20.0 MW  4.8 3
 SPEC HMDRBH N T124118 K 0.020 GD  157 VS 4.50 DE 3.40 Q0400.0 QA 0.70 Q1 1.00 3
 SPEC SDD BH N MO 16.1 ST127.3 OM  4.3 f0 2.26 R0.7367 AL-0.00 WI 20.0 MW  4.7 3
 SPEC SDD BH N T124124 K 0.020 GD  178 VS 4.50 DE 3.40 Q0400.0 QA 0.70 Q1 1.00 3
 SPEC AOPRBH N MO 15.6 ST641.9 OM  3.8 f0 5.53 R0.3011 AL-0.00 WI 20.0 MW  4.3 3
 SPEC AOPRBH N T124128 K 0.020 GD  194 VS 4.50 DE 3.40 Q0400.0 QA 0.70 Q1 1.00 3
 SPEC CELPBH N MO 15.2 ST 35.2 OM  3.4 f0 2.81 R0.5925 AL-0.00 WI 20.0 MW  4.1 3
 SPEC CELPBH N T124128 K 0.020 GD  204 VS 4.50 DE 3.40 Q0400.0 QA 0.70 Q1 1.00 3
 SPEC BADRBH N MO 16.3 ST999.9 OM  4.4 f0 4.19 R0.3974 AL-0.00 WI 20.0 MW  4.8 3
 SPEC BADRBH N T124132 K 0.020 GD  218 VS 4.50 DE 3.40 Q0400.0 QA 0.70 Q1 1.00 3
 SPEC NAVIBH N MO 16.8 ST999.9 OM  4.9 f0 9.44 R0.1764 AL-0.00 WI 20.0 MW  5.1 3
 SPEC NAVIBH N T124132 K 0.020 GD  218 VS 4.50 DE 3.40 Q0400.0 QA 0.70 Q1 1.00 3
 SPEC SDDRBH N MO 16.2 ST 41.1 OM  4.2 f0 1.36 R1.2243 AL-0.00 WI 20.0 MW  4.8 3
 SPEC SDDRBH N T124156 K 0.020 GD  333 VS 4.50 DE 3.40 Q0400.0 QA 0.70 Q1 1.00 3
 SPEC REDRBH N MO 15.7 ST999.9 OM  3.6 f0 8.03 R0.2073 AL-0.00 WI 20.0 MW  4.4 3
 SPEC REDRBH N T1242 8 K 0.020 GD  386 VS 4.50 DE 3.40 Q0400.0 QA 0.70 Q1 1.00 3
 LOCALITY: 41.1 Km al ESE de Mano Juan Isla Saona, Mar Caribe.                 3
 2020-03-06-1238-00S.MAN___132                                                 6
 FELTINFO: Toda zona este, Santo Domingo.                                      3
 OLDACT:ARG 20-03-06 12:48 OP:JAAF STATUS:               ID:20200306123800     3
 OLDACT:UP  20-03-06 17:53 OP:JMLC STATUS:               ID:20200306123800     3
 OLDACT:UP  20-03-06 15:05 OP:JMLC STATUS:               ID:20200306123800     3
 OLDACT:UP  20-03-06 14:56 OP:JMLC STATUS:               ID:20200306123800     3
 OLDACT:UP  20-03-06 14:12 OP:JMLC STATUS:               ID:20200306123800     3
 OLDACT:UP  20-03-06 13:45 OP:JMLC STATUS:               ID:20200306123800     3
 OLDACT:UP  20-03-06 13:11 OP:JMLC STATUS:               ID:20200306123800     3
 OLDACT:UP  20-03-06 12:54 OP:JMLC STATUS:               ID:20200306123800     3
 OLDACT:UP  20-03-06 12:53 OP:JMLC STATUS:               ID:20200306123800     3
 OLDACT:UP  20-03-06 21:00 OP:AMMR STATUS:               ID:20200306123800     3
 ACTION:UP  22-01-08 17:50 OP:jmlc STATUS:               ID:20200306124043 L   I
 OLDACT:UP  21-12-26 17:17 OP:CGRS STATUS:               ID:20200306123800     3
 OLDACT:UP  21-12-26 17:17 OP:CGRS STATUS:               ID:20200306123800     3
 OLDACT:UP  21-12-26 17:16 OP:CGRS STATUS:               ID:20200306123800     3
 OLDACT:UP  21-12-26 17:16 OP:CGRS STATUS:               ID:20200306123800     3
 OLDACT:UP  21-12-26 17:15 OP:CGRS STATUS:               ID:20200306123800     3
 OLDACT:UP  21-12-26 17:14 OP:CGRS STATUS:               ID:20200306123800     3
 OLDACT:UP  21-12-26 17:14 OP:CGRS STATUS:               ID:20200306123800     3
 STAT SP IPHASW D HRMM SECON CODA AMPLIT PERI AZIMU VELO AIN AR TRES W  DIS CAZ7
 HIDR BZ IP     C 1240 58.16   80                         62    0.0710  100 343 
 HIDR BE IS     C 1241  8.96                              62   -0.3010  100 343 
 HIDR BN  IAML    1241 10.71     91756.8 0.25                           100 343 
 SPM1 BN  IAML    1241 16.32     34359.8 0.22                           122 311 
 CRPR BZ IP     D 1241  4.09  130                         62    0.2310  147  77 
 CRPR BE IS     C 1241 18.75                              62   -0.5510  147  77 
 CRPR BN  IAML    1241 20.65      8015.6 0.56                           147  77 
 PRSN BZ IP     C 1241  4.04  147                         62    0.0510  148  68 
 PRSN BE IS     C 1241 20.39                              62    0.8510  148  68 
 PRSN BN  IAML    1241 23.21     12415.2 0.20                           148  68 
 HMDR BZ IP     C 1241  3.83   88                         62   -0.9610  154 320 
 HMDR BE IS     C 1241 19.78                              62   -1.1510  154 320 
 HMDR BN  IAML    1241 20.50     66531.0 0.30                           154 320 
 SDD  BZ IP     C 1241  7.67  123                         62    0.1510  176 298 
 SDD  BE IS     C 1241 25.87                              62    0.2010  176 298 
 SDD  BN  IAML    1241 27.80     16348.7 0.45                           176 298 
 SMDR BZ IP     C 1241  8.67  108                         62   -0.6010  190 336 
 SMDR BE IS     C 1241 28.92                              62    0.2010  190 336 
 AOPR BZ IP     C 1241  8.93   90                         62   -0.5310  192  69 
 AOPR BE IS     C 1241 29.60                              62    0.5610  192  69 
 AOPR BN  IAML    1241 37.46     12268.6 0.64                           192  69 
 CELP BZ IP     C 1241 10.56  141                         62   -0.1110  202  79 
 CELP BE IS     C 1241 30.13                              62   -1.0310  202  79 
 CELP BN  IAML    1241 33.19      2080.4 0.48                           202  79 
 BAN1 HN  IAML    1241 38.01     20965.9 0.24                           210 288 
 BAN1 BN  IAML    1241 38.04     20965.7 0.24                           210 288 
 BADR BZ IP     C 1241 13.01  108                         62    0.4110  216 291 
 NAVI BZ IP     C 1241 11.34  111                         62   -1.2110  216 309 
 NAVI BE IS       1241 33.98                              62   -0.4510  216 309 
 NAVI BN  IAML    1241 34.28        22.8 0.40                           216 309 
 BADR BE IS     C 1241 33.84                              62   -0.6710  216 291 
 BADR BN  IAML    1241 40.39     35690.5 0.45                           216 291 
 NADR BZ IP     C 1241 15.01  103                         62    0.2910  234 321 
 NADR BE IS     C 1241 39.15                              62    0.9610  234 321 
 NADR BN  IAML    1241 42.88        11.6 0.70                           234 321 
 ABDR BZ IP     C 1241 18.46   89                         60    0.2210  261 298 
 ABDR BE IS     C 1241 43.64                              60   -0.6810  261 298 
 ABDR BN  IAML    1241 59.82         0.3 0.85                           261 298 
 CADR BZ IP     C 1241 17.76  105                         60   -0.9610  267 324 
 CADR BE IS     D 1241 46.83                              60    1.6710  267 324 
 CADR BN  IAML    1241 47.61     98802.3 0.55                           267 324 
 SC01 BZ IP     C 1241 24.97  144                         60    1.4210  306 308 
 SC01 BE IS     C 1241 52.70                              60   -0.8610  306 308 
 SC01 BN  IAML    1241 59.45     16375.8 0.55                           306 308 
 SODR BZ IP     C 1241 24.72  121                         60   -0.2410  318 315 
 SODR BE IS     C 1241 57.16                              60    1.1410  318 315 
 SODR BN  IAML    1242 11.21     17200.4 0.85                           318 315 
 SDDR BZ IP     C 1241 29.40  162                         60    2.7210  332 295 
 SDDR BE IS     C 1241 57.93                              60   -1.0910  332 295 
 SDDR BN  IAML    1242 10.81      4520.2 0.50                           332 295 
 REDR BZ IP     C 1241 34.11  145                         60    0.9110  385 297 
 REDR BE IS     C 1242  9.70                              60   -0.6510  385 297 
 REDR BN  IAML    1242 16.60      4684.4 0.20                           385 297 
                                                                                
 2020  3 6 1511 49.90L  19.330 -68.231  0.0  DOM 12 0.8 2.5LDOM 3.3CDOM 2.8WDOM1
 SPEC AVERAGE  MO 13.2 ST101.3 OM  2.6 f0 5.62 R1.4886 AL 0.00 WI 20.0 MW  2.8 3
 SPEC SD       MO  0.8 ST265.0 OM  0.9 f0 5.76 R2.2870 AL      WI      MW  0.5 3
 GAP=176        2.06       6.7     3.9  7.0  0.1442E+02 -0.1129E+02 -0.1506E+02E
 SPEC SMDRBH N MO 12.7 ST0.623 OM  1.7 f0 3.74 R0.3166 AL-0.00 WI 20.0 MW  2.4 3
 SPEC SMDRBH N T151217 K 0.020 GD  100 VS 3.20 DE 2.60 Q0400.0 QA 0.70 Q1 0.00 3
 SPEC HIDRBH N MO 12.7 ST 58.9 OM  1.8 f0 16.0 R0.0740 AL-0.00 WI 20.0 MW  2.4 3
 SPEC HIDRBH N T151216 K 0.020 GD 96.3 VS 3.20 DE 2.60 Q0400.0 QA 0.70 Q1 0.00 3
 SPEC HMDRBH N MO 12.5 ST  1.2 OM  1.5 f0 5.14 R0.2304 AL-0.00 WI 20.0 MW  2.3 3
 SPEC HMDRBH N T151225 K 0.020 GD  116 VS 3.20 DE 2.60 Q0400.0 QA 0.70 Q1 0.00 3
 SPEC AOPRBH N MO 13.2 ST  1.7 OM  2.1 f0 3.49 R0.3393 AL-0.00 WI 20.0 MW  2.7 3
 SPEC AOPRBH N T151238 K 0.020 GD  137 VS 3.20 DE 2.60 Q0400.0 QA 0.70 Q1 0.00 3
 SPEC NAVIBH N MO 13.9 ST849.2 OM  2.8 f0 16.0 R0.0740 AL-0.00 WI 20.0 MW  3.2 3
 SPEC NAVIBH N T151240 K 0.020 GD  138 VS 3.20 DE 2.60 Q0400.0 QA 0.70 Q1 0.00 3
 SPEC MLPRBH N MO 12.3 ST0.237 OM  1.2 f0 3.56 R0.3326 AL-0.00 WI 20.0 MW  2.1 3
 SPEC MLPRBH N T151241 K 0.020 GD  140 VS 3.20 DE 2.60 Q0400.0 QA 0.70 Q1 0.00 3
 SPEC CELPBH N MO 12.8 ST0.188 OM  1.7 f0 2.20 R0.5382 AL-0.00 WI 20.0 MW  2.5 3
 SPEC CELPBH N T151247 K 0.020 GD  149 VS 3.20 DE 2.60 Q0400.0 QA 0.70 Q1 0.00 3
 SPEC BADRBH N MO 14.6 ST0.008 OM  3.5 f00.193 R6.1347 AL-0.00 WI 20.0 MW  3.7 3
 SPEC BADRBH N T151251 K 0.020 GD  157 VS 3.20 DE 2.60 Q0400.0 QA 0.70 Q1 0.00 3
 SPEC SDDRBH N MO 14.3 ST0.006 OM  3.1 f00.221 R5.3575 AL-0.00 WI 20.0 MW  3.5 3
 SPEC SDDRBH N T1513 8 K 0.020 GD  180 VS 3.20 DE 2.60 Q0400.0 QA 0.70 Q1 0.00 3
 LOCALITY: 94.7 Km al ENE de Miches, Oceano Atlantico.                         3
 2020-03-06-1510-00S.MAN___129                                                 6
 OLDACT:ARG 20-03-06 17:19 OP:jmc  STATUS:               ID:20200306151000     3
 OLDACT:UP  20-03-06 17:27 OP:JMLC STATUS:               ID:20200306151000     3
 OLDACT:UP  20-03-06 17:27 OP:JMLC STATUS:               ID:20200306151000     3
 ACTION:UP  22-01-08 17:50 OP:jmlc STATUS:               ID:20200306151149 L   I
 STAT SP IPHASW D HRMM SECON CODA AMPLIT PERI AZIMU VELO AIN AR TRES W  DIS CAZ7
 HIDR BZ IP       1512  4.54                              90   -0.9410 96.3 212 
 HIDR BN IS       1512 17.94                              90    0.9710 96.3 212 
 HIDR BN  IAML    1512 21.29       199.8 0.25                          96.3 212 
 SMDR BZ IP       1512  5.07   49                         90   -1.1110  101 268 
 SMDR BN IS       1512 17.75                              90   -0.4510  101 268 
 SMDR BN  IAML    1512 21.19        89.3 0.40                           101 268 
 HMDR BZ IP       1512 10.24                              90   -1.4910  135 244 
 HMDR BN IP       1512 28.56                                            135 244 
 HMDR BN  IAML    1512 29.73        35.6 0.55                           135 244 
 AGPR BZ IP       1512 12.93   41                         50   -1.2410  152 129 
 AGPR BN IS       1512 32.03                              50   -0.0710  152 129 
 AGPR BN  IAML    1512 35.13        50.6 1.20                           152 129 
 AOPR BZ IP       1512 19.40                              50    0.4510  190 125 
 AOPR BN IS       1512 40.14                              50   -0.2810  190 125 
 AOPR BN  IAML    1512 44.00        78.2 0.68                           190 125 
 NAVI BZ IP       1512 18.47   55                         50   -0.9410  193 258 
 NAVI BN IS       1512 42.36                              50    1.1410  193 258 
 NAVI BN  IAML    1512 48.36       744.7 0.15                           193 258 
 MLPR BZ IP       1512 19.41   55                         50   -0.2410  196 140 
 MLPR BN IS       1512 41.83                              50    0.2010  196 140 
 MLPR BN  IAML    1512 45.51        17.0 2.44                           196 140 
 CELP BZ IP       1512 23.30                              50    0.2510  223 128 
 CELP BN IS       1512 48.57                              50    1.0210  223 128 
 CELP BN  IAML    1512 56.18        14.3 0.32                           223 128 
 BADR BZ IP       1512 26.58                              50    0.4710  247 246 
 BADR BN IS       1512 53.11                              50    0.2410  247 246 
 BADR BN  IAML    1513  1.08        57.3 1.75                           247 246 
 SDDR BZ IP       1512 35.99                              49    0.4210  324 264 
 SDDR BN IS       1513  9.92                              49    0.5810  324 264 
 SDDR BN  IAML    1513 37.69        22.5 2.50                           324 264 
 REDR BZ IP       1512 39.98   80                         49   -0.5810  365 270 
 REDR BN IS       1513 18.19                              49    0.1710  365 270 
 REDR BN  IAML    1513 37.85        15.4 0.85                           365 270 
 GRTK BZ IP       1512 44.34                              49    1.1010  387 309 
 GRTK BN IS       1513 23.03                              49    0.3510  387 309 
                                                                                
 2020  3 6 1526  6.80L  18.603 -71.460 12.1  DOM  7 0.9 2.2LDOM 2.7CDOM 2.5WDOM1
 SPEC AVERAGE  MO 12.9 ST  2.7 OM  2.7 f0 4.80 R0.3451 AL 0.00 WI 20.0 MW  2.5 3
 SPEC SD       MO  0.1 ST  3.4 OM  0.7 f0 2.32 R0.1227 AL      WI      MW  0.1 3
 GAP= 87        2.42       6.6     4.6 18.1  0.1207E+01 -0.1450E+02 -0.7424E+02E
 SPEC NEDRBH N MO 12.9 ST0.721 OM  2.5 f0 3.67 R0.3771 AL-0.00 WI 20.0 MW  2.6 3
 SPEC NEDRBH N T152610 K 0.020 GD 17.9 VS 3.74 DE 2.83 Q0400.0 QA 0.70 Q1 0.00 3
 SPEC JIDRBH N MO 13.0 ST  1.2 OM  2.2 f0 4.03 R0.3434 AL-0.00 WI 20.0 MW  2.6 3
 SPEC JIDRBH N T152619 K 0.020 GD 45.0 VS 3.74 DE 2.83 Q0400.0 QA 0.70 Q1 0.00 3
 SPEC SDDRBH N MO 12.7 ST0.160 OM  1.8 f0 2.76 R0.5014 AL-0.00 WI 20.0 MW  2.4 3
 SPEC SDDRBH N T152618 K 0.020 GD 47.0 VS 3.74 DE 2.83 Q0400.0 QA 0.70 Q1 0.00 3
 SPEC REDRBH N MO 12.9 ST  8.6 OM  1.8 f0 8.73 R0.1585 AL-0.00 WI 20.0 MW  2.5 3
 SPEC REDRBH N T152627 K 0.020 GD 79.7 VS 3.74 DE 2.83 Q0400.0 QA 0.70 Q1 0.00 3
 LOCALITY: 11.9 Km al NNE de Villa Jaragua, Bahoruco.                          3
 2020-03-06-1525-00S.MAN___132                                                 6
 OLDACT:ARG 20-03-06 15:34 OP:jaaf STATUS:               ID:20200306152500     3
 OLDACT:UP  20-03-06 15:47 OP:JAAF STATUS:               ID:20200306152500     3
 OLDACT:UP  20-03-06 15:47 OP:JAAF STATUS:               ID:20200306152500     3
 ACTION:UP  22-01-08 17:50 OP:jmlc STATUS:               ID:20200306152606 L   I
 STAT SP IPHASW D HRMM SECON CODA AMPLIT PERI AZIMU VELO AIN AR TRES W  DIS CAZ7
 NEDR BZ EPg      1526  8.82   35                        128   -0.8810 13.2 184 
 NEDR BN ESg      1526 11.89                             128    0.0510 13.2 184 
 NEDR BN  IAML    1526 13.24       575.0 0.40                          13.2 184 
 JIDR BZ EPg      1526 13.68   33                         91   -0.3510 43.3 254 
 JIDR BE ESg      1526 20.86                              91    1.4810 43.3 254 
 JIDR BN  IAML    1526 21.14       345.5 0.45                          43.3 254 
 SDDR BZ IP       1526 13.57   35                         91   -0.8210 45.4  23 
 SDDR BN IS       1526 20.40                              91    0.4010 45.4  23 
 SDDR BN  IAML    1526 29.18        51.2 0.60                          45.4  23 
 REDR BZ EPg      1526 18.86   36                         90   -0.6010 78.8 341 
 REDR BE ESg      1526 29.15                              90    0.3310 78.8 341 
 REDR BN  IAML    1526 29.55       192.4 0.20                          78.8 341 
 ABDR BZ IP       1526 21.83   23                         90    0.4310 90.9  75 
 ABDR BE IS       1526 32.44                              90    0.2510 90.9  75 
 BADR BZ EPg      1526 24.59   34                         90   -0.8510  118 101 
 BADR BE ESg      1526 40.63                              90    1.4110  118 101 
 BADR BN  IAML    1526 42.11        72.7 0.35                           118 101 
 HMDR BZ EPg      1526 39.07   65                         90   -1.7910  220  84 
 HMDR BE ESg      1527  7.02                              90    0.9510  220  84 
 HMDR BN  IAML    1527 12.89        24.0 3.20                           220  84 
                                                                                
