 2020 11 6 0805 32.40L  18.610 -68.013  6.6  DOM  9 0.9 2.7LDOM 2.9CDOM 2.7WDOM1
 SPEC AVERAGE  MO 13.2 ST  6.8 OM  2.4 f0 5.66 R0.3189 AL 0.00 WI 20.0 MW  2.7 3
 SPEC SD       MO  0.4 ST  5.4 OM  0.6 f0 2.63 R0.2556 AL      WI      MW  0.3 3
 GAP=158        2.37      15.5     4.4 13.7  0.2991E+02 -0.2386E+02 -0.1485E+03E
 SPEC PCDRBH N MO 13.9 ST  0.0 OM  3.2 f00.538 R 0.331 AL-0.00 WI 20.0 MW  3.2 3
 SPEC PCDRBH N T 8 548 K 0.020 GD41.90 VS 3.39 DE 2.68 Q0400.0 QA 0.70 Q1      3
 SPEC HIDRBH N MO 12.9 ST 16.5 OM  2.0 f0 9.69 R0.1294 AL-0.00 WI 20.0 MW  2.6 3
 SPEC HIDRBH N T 8 553 K 0.020 GD 74.4 VS 3.39 DE 2.68 Q0400.0 QA 0.70 Q1 0.00 3
 SPEC SADRBH N MO 14.0 ST0.456 OM  3.0 f0 1.26 R0.9955 AL-0.00 WI 20.0 MW  3.3 3
 SPEC SADRBH N T 8 557 K 0.020 GD 93.4 VS 3.39 DE 2.68 Q0400.0 QA 0.70 Q1 0.00 3
 SPEC AGPRBH N MO 13.0 ST  4.3 OM  2.0 f0 5.68 R0.2208 AL-0.00 WI 20.0 MW  2.6 3
 SPEC AGPRBH N T 8 6 0 K 0.020 GD 96.8 VS 3.39 DE 2.68 Q0400.0 QA 0.70 Q1 0.00 3
 SPEC PRSNBH N MO 13.2 ST  4.4 OM  2.2 f0 4.82 R0.2602 AL-0.00 WI 20.0 MW  2.8 3
 SPEC PRSNBH N T 8 6 2 K 0.020 GD  100 VS 3.39 DE 2.68 Q0400.0 QA 0.70 Q1 0.00 3
 SPEC AOPRBH N MO 13.7 ST  8.2 OM  2.6 f0 4.17 R0.3008 AL-0.00 WI 20.0 MW  3.1 3
 SPEC AOPRBH N T 8 6 9 K 0.020 GD  116 VS 3.39 DE 2.68 Q0400.0 QA 0.70 Q1 0.00 3
 SPEC SMDRBH N MO 13.2 ST0.736 OM  2.1 f0 2.71 R0.4628 AL-0.00 WI 20.0 MW  2.8 3
 SPEC SMDRBH N T 8 610 K 0.020 GD  120 VS 3.39 DE 2.68 Q0400.0 QA 0.70 Q1 0.00 3
 SPEC CELPBH N MO 12.5 ST  2.6 OM  1.4 f0 6.90 R0.1818 AL-0.00 WI 20.0 MW  2.3 3
 SPEC CELPBH N T 8 615 K 0.020 GD  127 VS 3.39 DE 2.68 Q0400.0 QA 0.70 Q1 0.00 3
 SPEC BADRBH N MO 13.0 ST 13.0 OM  1.8 f0 8.12 R0.1545 AL-0.00 WI 20.0 MW  2.6 3
 SPEC BADRBH N T 8 641 K 0.020 GD  157 VS 3.39 DE 2.68 Q0400.0 QA 0.70 Q1 0.00 3
 SPEC ABDRBH N MO 13.1 ST 11.4 OM  1.8 f0 7.63 R0.1644 AL-0.00 WI 20.0 MW  2.7 3
 SPEC ABDRBH N T 8 640 K 0.020 GD  166 VS 3.39 DE 2.68 Q0400.0 QA 0.70 Q1 0.00 3
 LOCALITY: 41.3 Km al Este de Punta Cana. Canal de la Mona.                    3
 2020-11-06-0805-00S.MAN___111                                                 6
 OLDACT:ARG 20-11-06 10:19 OP:njm  STATUS:               ID:20201106080500     3
 OLDACT:UP  20-11-06 11:01 OP:CGRS STATUS:               ID:20201106080500     3
 OLDACT:UP  20-11-06 10:38 OP:CGRS STATUS:               ID:20201106080500     3
 OLDACT:UP  20-11-06 10:38 OP:CGRS STATUS:               ID:20201106080500     3
 ACTION:UP  22-01-07 19:21 OP:jmlc STATUS:               ID:20201106080532 L   I
 OLDACT:UP  21-12-20 14:52 OP:AMMR STATUS:               ID:20201106080500     3
 OLDACT:UP  20-11-06 11:01 OP:CGRS STATUS:               ID:20201106080500     3
 STAT SP IPHASW D HRMM SECON CODA AMPLIT PERI AZIMU VELO AIN AR TRES W  DIS CAZ7
 HIDR BZ IP     C  8 5 43.96   31                         95   -0.4110 74.1 269 
 HIDR BE IS     C  8 5 54.69                              95    1.4410 74.1 269 
 HIDR BN  IAML     8 5 55.49       449.5 0.20                          74.1 269 
 SADR BZ IP     C  8 5 46.21   33                         94   -1.2310 93.2 240 
 SADR BE IS     D  8 5 59.03                              94    0.4410 93.2 240 
 SADR BN  IAML     8 5 59.75       325.1 0.95                          93.2 240 
 AGPR BZ IP     C  8 5 49.15   34                         70    1.1810 96.6  99 
 AGPR BN  IAML     8 6  5.99       137.7 0.28                          96.6  99 
 PRSN BZ IP     D  8 5 49.15   33                         70    0.4410  102 115 
 PRSN BN  IAML     8 6  9.87       419.9 0.24                           102 115 
 AOPR BZ IP     C  8 5 53.23   34                         70   -0.7510  136 102 
 AOPR BE IS     C  8 6 10.89                              70    0.9110  136 102 
 AOPR BN  IAML     8 6 13.65       357.0 0.20                           136 102 
 SMDR BZ IP     C  8 5 54.38   48                         50   -0.6710  145 301 
 SMDR BE IS     D  8 6 12.12                              50    0.2810  145 301 
 SMDR BN  IAML     8 6 19.47        91.0 0.80                           145 301 
 CELP BZ IP     C  8 5 56.43   44                         50   -0.9110  163 111 
 CELP BN  IAML     8 6 19.18        40.0 0.28                           163 111 
 BADR BZ IP     C  8 6  6.91   49                         50   -1.1910  249 265 
 ABDR BZ IP     C  8 6 11.17   49                         50   -0.5410  277 275 
 ABDR BE IS     C  8 6 41.82                              50    1.0010  277 275 
                                                                                
 2020 11 6 0908 54.10L  18.660 -69.328138.0  DOM  4 0.4 2.5LDOM 2.8CDOM 2.4WDOM1
 SPEC AVERAGE  MO 12.7 ST  8.6 OM  2.1 f0 8.87 R0.3030 AL 0.00 WI 20.0 MW  2.4 3
 SPEC SD       MO  0.0 ST  8.5 OM  1.2 f0 5.53 R0.1889 AL      WI      MW  0.0 3
 GAP=173        1.10      38.8     5.4 21.7 -0.3755E+02  0.4180E+02 -0.7006E+03E
 SPEC PCDRBH N MO 12.7 ST0.197 OM  1.0 f0 3.34 R0.4919 AL-0.00 WI 20.0 MW  2.4 3
 SPEC PCDRBH N T 9 930 K 0.020 GD  171 VS 4.44 DE 3.40 Q0400.0 QA 0.70 Q1 0.00 3
 SPEC REDRBH N MO 12.8 ST 17.1 OM  0.8 f0 14.4 R0.1141 AL-0.00 WI 20.0 MW  2.5 3
 SPEC REDRBH N T 9 958 K 0.020 GD  293 VS 4.44 DE 3.40 Q0400.0 QA 0.70 Q1 0.00 3
 LOCALITY: 13.1 Km al SO de Hato Mayor. Hato Mayor.                            3
 2020-11-06-0908-00S.MAN___111                                                 6
 OLDACT:UP  20-11-06 10:39 OP:CGRS STATUS:               ID:20201106090800     3
 OLDACT:ARG 20-11-06 10:19 OP:njm  STATUS:               ID:20201106090800     3
 OLDACT:UP  20-11-06 10:40 OP:CGRS STATUS:               ID:20201106090800     3
 OLDACT:UP  20-11-06 10:40 OP:CGRS STATUS:               ID:20201106090800     3
 ACTION:UP  22-01-07 19:21 OP:jmlc STATUS:               ID:20201106090854 L   I
 STAT SP IPHASW D HRMM SECON CODA AMPLIT PERI AZIMU VELO AIN AR TRES W  DIS CAZ7
 PCDR BZ IP     C  9 9 15.31   31                        141   -0.5010  101  99 
 PCDR BE IS     C  9 9 32.18                             141    0.3410  101  99 
 PCDR BN  IAML     9 9 45.83       109.5 1.40                           101  99 
 BADR BZ IP     C  9 9 17.35   29                        138    0.5110  113 255 
 BADR BE IS     D  9 9 33.45                             138   -0.1810  113 255 
 BADR BN  IAML     910 18.22        69.0 4.40                           113 255 
 ABDR BZ IP     D  9 9 18.64   29                        132   -0.5410  138 277 
 ABDR BN  IAML     910  1.43        23.2 1.65                           138 277 
 REDR BZ IP     C  9 9 31.38   56                        113    0.3710  259 286 
 REDR BN  IAML     910 15.91        13.6 3.50                           259 286 
                                                                                
 2020 11 6 2101 37.50L  19.139 -69.900 25.6  DOM  4 0.5 1.9LDOM 2.4CDOM 2.4WDOM1
 SPEC AVERAGE  MO 12.7 ST 19.8 OM  3.3 f0 16.0 R0.1041 AL 0.00 WI 20.0 MW  2.4 3
 SPEC SD       MO  0.0 ST0.000 OM  2.1 f00.000 R0.0000 AL      WI      MW  0.0 3
 GAP=212        1.34      12.0     4.8138.7  0.2601E+02 -0.3820E+03 -0.9265E+03E
 SPEC BADRBH N MO 12.7 ST 19.8 OM  1.2 f0 16.0 R0.1041 AL-0.00 WI 20.0 MW  2.4 3
 SPEC BADRBH N T21 2 1 K 0.020 GD 98.7 VS 4.50 DE 3.40 Q0400.0 QA 0.70 Q1 0.00 3
 LOCALITY: 7.4 Km al Sur de Villa Riva. Duarte.                                3
 2020-11-06-2100-00S.MAN___111                                                 6
 OLDACT:ARG 20-11-06 23:00 OP:AMMR STATUS:               ID:20201106210000     3
 OLDACT:UP  20-11-06 23:04 OP:AMMR STATUS:               ID:20201106210000     3
 ACTION:UP  22-01-07 19:21 OP:jmlc STATUS:               ID:20201106210137 L   I
 OLDACT:UP  20-11-06 23:05 OP:AMMR STATUS:               ID:20201106210000     3
 STAT SP IPHASW D HRMM SECON CODA AMPLIT PERI AZIMU VELO AIN AR TRES W  DIS CAZ7
 ABDR BZ EPg      21 1 50.72   24                         95   -0.4210 84.6 245 
 ABDR BN ESg      21 2  2.23                              95    0.9810 84.6 245 
 ABDR BN  IAML    21 2  5.41        22.1 1.15                          84.6 245 
 BADR BN ESg      21 2  3.20                              94   -0.4010 95.3 211 
 BADR BE  IAML    21 2  3.90        26.3 0.18                          95.3 211 
 BADR BN  IAML    21 2  4.20        50.6 0.20                          95.3 211 
 HIDR BE ESg      21 2 14.28                              92    0.1610  139 116 
 HIDR BE  IAML    21 2 16.61        47.9 0.10                           139 116 
 SDDR BE ESg      21 2 15.97                              92   -0.3210  147 263 
 SDDR BN  IAML    21 2 19.10        14.0 1.15                           147 263 
                                                                                
 2020 11 6 2320  2.70L  19.074 -68.679 15.0  DOM  8 0.6 2.5LDOM 3.0CDOM 2.9WDOM1
 SPEC AVERAGE  MO 13.4 ST 12.3 OM  2.6 f0 5.58 R0.7289 AL 0.00 WI 20.0 MW  2.9 3
 SPEC SD       MO  0.6 ST 25.9 OM  0.8 f0 4.61 R1.0407 AL      WI      MW  0.4 3
 GAP=177        1.55       6.9     7.0 59.2  0.3732E+02 -0.2617E+03 -0.2365E+03E
 SPEC HIDRBH N MO 13.1 ST 75.6 OM  2.1 f0 16.0 R0.0902 AL-0.00 WI 20.0 MW  2.7 3
 SPEC HIDRBH N T232015 K 0.020 GD 55.6 VS 3.90 DE 2.90 Q0400.0 QA 0.70 Q1 0.00 3
 SPEC SMDRBH N MO 13.1 ST0.749 OM  2.1 f0 3.34 R0.4320 AL-0.00 WI 20.0 MW  2.7 3
 SPEC SMDRBH N T232018 K 0.020 GD 60.5 VS 3.90 DE 2.90 Q0400.0 QA 0.70 Q1 0.00 3
 SPEC PCDRBH N MO 12.9 ST  1.6 OM  1.8 f0 5.10 R0.2829 AL-0.00 WI 20.0 MW  2.5 3
 SPEC PCDRBH N T232021 K 0.020 GD 71.1 VS 3.90 DE 2.90 Q0400.0 QA 0.70 Q1 0.00 3
 SPEC SADRBH N MO 14.8 ST0.072 OM  3.5 f00.443 R3.2573 AL-0.00 WI 20.0 MW  3.8 3
 SPEC SADRBH N T232028 K 0.020 GD 99.2 VS 3.90 DE 2.90 Q0400.0 QA 0.70 Q1 0.00 3
 SPEC CRPRBH N MO 13.0 ST  2.3 OM  1.4 f0 5.49 R0.2628 AL-0.00 WI 20.0 MW  2.6 3
 SPEC CRPRBH N T232059 K 0.020 GD  205 VS 3.90 DE 2.90 Q0400.0 QA 0.70 Q1 0.00 3
 SPEC ABDRBH N MO 13.1 ST  3.7 OM  1.5 f0 6.00 R0.2405 AL-0.00 WI 20.0 MW  2.7 3
 SPEC ABDRBH N T232060 K 0.020 GD  207 VS 3.90 DE 2.90 Q0400.0 QA 0.70 Q1 0.00 3
 SPEC AOPRBH N MO 13.9 ST  2.2 OM  2.3 f0 2.69 R0.5364 AL-0.00 WI 20.0 MW  3.2 3
 SPEC AOPRBH N T2321 3 K 0.020 GD  218 VS 3.90 DE 2.90 Q0400.0 QA 0.70 Q1 0.00 3
 LOCALITY: 40.2 Km al ENE de Miches. Oceano Atlantico.                         3
 2020-11-06-2319-00S.MAN___111                                                 6
 OLDACT:ARG 20-11-06 23:30 OP:AMMR STATUS:               ID:20201106231900     3
 OLDACT:UP  20-11-06 23:35 OP:AMMR STATUS:               ID:20201106231900     3
 ACTION:UP  22-01-07 19:21 OP:jmlc STATUS:               ID:20201106232002 L   I
 OLDACT:UP  21-12-20 14:59 OP:AMMR STATUS:               ID:20201106231900     3
 OLDACT:UP  21-12-20 14:59 OP:AMMR STATUS:               ID:20201106231900     3
 OLDACT:UP  20-11-06 23:36 OP:AMMR STATUS:               ID:20201106231900     3
 STAT SP IPHASW D HRMM SECON CODA AMPLIT PERI AZIMU VELO AIN AR TRES W  DIS CAZ7
 HIDR BZ EPg    C 2320 10.92   38                         98   -0.5910 53.5 184 
 HIDR BN ESg    D 2320 17.44                              98   -0.5910 53.5 184 
 HIDR BN  IAML    2320 17.59       634.1 0.25                          53.5 184 
 HIDR BE  IAML    2320 18.83       475.1 0.25                          53.5 184 
 SMDR BZ EPg      2320 11.54   32                         96   -0.7410 58.6 294 
 SMDR BN ESg    D 2320 19.68                              96    0.3210 58.6 294 
 SMDR BN  IAML    2320 23.31       158.7 0.45                          58.6 294 
 PCDR BZ EPg      2320 13.92   33                         95    0.0010 69.5 153 
 PCDR BE ESg      2320 23.25                              95    1.0310 69.5 153 
 SADR BZ EPg    D 2320 18.28   34                         93    0.0310 98.1 186 
 SADR BE  IAML    2320 31.93        74.4 0.20                          98.1 186 
 SADR BN  IAML    2320 34.51       117.2 1.50                          98.1 186 
 BADR BN  IAML    2321  6.18        59.5 0.10                           192 247 
 CRPR BZ EPg      2320 33.99   59                         91   -0.4910  205 125 
 ABDR BZ EPg      2320 35.78   58                         91    0.8610  207 262 
 ABDR BN  IAML    2321 14.24        29.8 1.00                           207 262 
 AOPR BZ EPg      2320 36.66   56                         91    0.1710  218 111 
 AOPR BN  IAML    2321  9.73        92.3 0.28                           218 111 
                                                                                
 2020 11 7 0305 17.80L  18.903 -68.237 84.0  DOM  3 0.2 2.0LDOM 2.9CDOM 2.3WDOM1
 SPEC AVERAGE  MO 12.6 ST0.683 OM  1.7 f0 4.93 R0.3531 AL 0.00 WI 20.0 MW  2.3 3
 SPEC SD       MO  0.4 ST0.710 OM  0.9 f00.957 R0.0793 AL      WI      MW  0.2 3
 GAP=272        0.52      10.6     5.3  9.2  0.3343E+02 -0.4099E+02 -0.6637E+02E
 SPEC PCDRBH N MO 12.6 ST0.171 OM  1.1 f0 3.58 R0.4651 AL-0.00 WI 20.0 MW  2.3 3
 SPEC PCDRBH N T 3 538 K 0.020 GD 95.6 VS 4.50 DE 3.40 Q0400.0 QA 0.70 Q1 0.00 3
 SPEC MLPRBH N MO 12.1 ST0.191 OM  0.3 f0 5.53 R0.3011 AL-0.00 WI 20.0 MW  2.0 3
 SPEC MLPRBH N T 3 557 K 0.020 GD  183 VS 4.50 DE 3.40 Q0400.0 QA 0.70 Q1 0.00 3
 SPEC AOPRBH N MO 13.0 ST  1.7 OM  1.2 f0 5.68 R0.2931 AL-0.00 WI 20.0 MW  2.6 3
 SPEC AOPRBH N T 3 559 K 0.020 GD  187 VS 4.50 DE 3.40 Q0400.0 QA 0.70 Q1 0.00 3
 LOCALITY: 86.4 Km al Este de Miches, Oceano Atlantico.                        3
 2020-11-07-0304-00S.MAN___111                                                 6
 OLDACT:UP  20-11-07 10:29 OP:CGRS STATUS:               ID:20201107030400     3
 OLDACT:ARG 20-11-07 10:15 OP:njm  STATUS:               ID:20201107030400     3
 OLDACT:UP  20-11-07 10:30 OP:CGRS STATUS:               ID:20201107030400     3
 OLDACT:UP  20-11-07 10:30 OP:CGRS STATUS:               ID:20201107030400     3
 ACTION:UP  22-01-07 19:21 OP:jmlc STATUS:               ID:20201107030517 L   I
 STAT SP IPHASW D HRMM SECON CODA AMPLIT PERI AZIMU VELO AIN AR TRES W  DIS CAZ7
 PCDR BZ IP     C  3 5 30.74   30                        148    0.2310 45.6 199 
 PCDR BE IS     D  3 5 39.76                             148   -0.1310 45.6 199 
 PCDR BN  IAML     3 6 19.08        94.1 2.15                          45.6 199 
 MLPR BZ IP     C  3 5 41.80   45                        107    0.0510  163 129 
 MLPR BE IS     C  3 5 59.43                             107   -0.0310  163 129 
 MLPR BN  IAML     3 6 18.41         6.7 2.00                           163 129 
 AOPR BZ IP     D  3 5 42.10   51                        107   -0.2810  168 111 
 AOPR BE IS     C  3 6  0.72                             107    0.1610  168 111 
 AOPR BN  IAML     3 6  8.34        31.2 2.48                           168 111 
                                                                                
 2020 11 7 0550 16.90L  19.315 -68.809 10.5  DOM  5 0.9 2.1LDOM 2.6CDOM 1.9WDOM1
 SPEC AVERAGE  MO 11.9 ST0.160 OM  3.0 f0 4.34 R0.2728 AL 0.00 WI 20.0 MW  1.9 3
 SPEC SD       MO  0.0 ST0.000 OM  1.7 f00.000 R0.0000 AL      WI      MW  0.0 3
 GAP=247        2.32      13.1     9.4 43.5  0.9128E+02 -0.7428E+02  0.2035E+01E
 SPEC SMDRBH N MO 11.9 ST0.160 OM  1.3 f0 4.34 R0.2728 AL-0.00 WI 20.0 MW  1.9 3
 SPEC SMDRBH N T 55027 K 0.020 GD 41.4 VS 3.20 DE 2.60 Q0400.0 QA 0.70 Q1 0.00 3
 SPEC PCDRBH N T 55044 K 0.020 GD  101 VS 3.20 DE 2.60 Q0400.0 QA 0.70 Q1 0.00 3
 SPEC ABDRBH N MO 11.9 ST0.918 OM  0.7 f0 7.63 R0.1552 AL-0.00 WI 20.0 MW  1.9 3
 SPEC ABDRBH N T 55114 K 0.020 GD  174 VS 3.20 DE 2.60 Q0400.0 QA 0.70 Q1 0.00 3
 LOCALITY: 46.7 Km al Este de Las Galeras, Oceano Atlantico.                   3
 2020-11-07-0549-00S.MAN___111                                                 6
 OLDACT:UP  20-11-07 10:40 OP:CGRS STATUS:               ID:20201107054900     3
 OLDACT:UP  20-11-07 10:38 OP:CGRS STATUS:               ID:20201107054900     3
 OLDACT:ARG 20-11-07 10:19 OP:njm  STATUS:               ID:20201107054900     3
 OLDACT:UP  20-11-07 11:00 OP:CGRS STATUS:               ID:20201107054900     3
 OLDACT:UP  20-11-07 10:41 OP:CGRS STATUS:               ID:20201107054900     3
 OLDACT:UP  20-11-07 10:40 OP:CGRS STATUS:               ID:20201107054900     3
 ACTION:UP  22-01-07 19:21 OP:jmlc STATUS:               ID:20201107055016 L   I
 OLDACT:UP  21-12-20 15:09 OP:AMMR STATUS:               ID:20201107054900     3
 OLDACT:UP  21-12-20 15:09 OP:AMMR STATUS:               ID:20201107054900     3
 OLDACT:UP  21-12-20 15:08 OP:AMMR STATUS:               ID:20201107054900     3
 OLDACT:UP  21-12-20 15:07 OP:AMMR STATUS:               ID:20201107054900     3
 OLDACT:UP  21-12-20 15:07 OP:AMMR STATUS:               ID:20201107054900     3
 OLDACT:UP  20-11-07 11:00 OP:CGRS STATUS:               ID:20201107054900     3
 STAT SP IPHASW D HRMM SECON CODA AMPLIT PERI AZIMU VELO AIN AR TRES W  DIS CAZ7
 SMDR BZ EPg       550 23.57   21                        105    0.0210 40.0 266 
 SMDR BE ESg    C  550 29.33                             105    0.8510 40.0 266 
 HIDR BZ EPg       550 28.00   30                         97   -2.0010 80.7 173 
 HIDR BE ESg       550 39.45                              97   -0.2610 80.7 173 
 PCDR BZ EPg       550 33.70   28                         96    0.6910 99.5 153 
 PCDR BE ESg       550 46.14                              96    1.1910 99.5 153 
 BADR BZ EPg       550 48.14                              93    0.1610  192 238 
 BADR BE ESg       551 10.95                              93   -0.0510  192 238 
 ABDR BZ EPg       550 48.49   45                         94   -0.6010  199 254 
 ABDR BN  IAML     551 19.90        18.5 0.70                           199 254 
                                                                                
