 2020  2 1 1939 33.80L  18.988 -67.678  0.0  DOM  7 1.0 2.6LDOM 3.1CDOM 3.1WDOM1
 SPEC AVERAGE  MO 13.7 ST  4.9 OM  3.7 f0 3.61 R0.7012 AL 0.00 WI 20.0 MW  3.1 3
 SPEC SD       MO  0.3 ST  6.7 OM  1.4 f0 2.51 R0.4172 AL      WI      MW  0.2 3
 GAP=224        2.64      16.6     6.7 18.1  0.6282E+02 -0.2726E+01 -0.1720E+03E
 LOCALITY: 144.6 Km al Este de Miches, Oceano Atlantico.                       3
 SPEC AGPRBH N MO 13.5 ST  5.9 OM  2.2 f0 5.38 R0.2895 AL-0.00 WI 20.0 MW  3.0 3
 SPEC AGPRBH N T193954 K 0.020 GD 82.9 VS 4.21 DE 3.16 Q0400.0 QA 0.70 Q1 0.00 3
 SPEC CRPRBH N MO 14.1 ST0.433 OM  2.7 f0 1.39 R1.1206 AL-0.00 WI 20.0 MW  3.4 3
 SPEC CRPRBH N T1940 5 K 0.020 GD  111 VS 4.21 DE 3.16 Q0400.0 QA 0.70 Q1 0.00 3
 SPEC HIDRBH N MO 13.5 ST 17.6 OM  2.1 f0 7.65 R0.2036 AL-0.00 WI 20.0 MW  3.0 3
 SPEC HIDRBH N T1940 4 K 0.020 GD  108 VS 4.21 DE 3.16 Q0400.0 QA 0.70 Q1 0.00 3
 SPEC MIDRHH N MO 13.6 ST0.556 OM  2.1 f0 2.34 R0.6657 AL-0.00 WI 20.0 MW  3.0 3
 SPEC MIDRHH N T194014 K 0.020 GD  119 VS 4.21 DE 3.16 Q0400.0 QA 0.70 Q1 0.00 3
 SPEC HMDRBH N MO 13.9 ST0.199 OM  2.4 f0 1.27 R1.2265 AL-0.00 WI 20.0 MW  3.2 3
 SPEC HMDRBH N T194020 K 0.020 GD  134 VS 4.21 DE 3.16 Q0400.0 QA 0.70 Q1 0.00 3
 2020-02-01-1938-00S.MAN___147                                                 6
 OLDACT:ARG 20-02-01 22:41 OP:jrdn STATUS:               ID:20200201193800     3
 OLDACT:UP  20-02-01 23:08 OP:AMMR STATUS:               ID:20200201193800     3
 OLDACT:UP  20-02-01 23:07 OP:AMMR STATUS:               ID:20200201193800     3
 ACTION:UP  22-01-05 18:33 OP:JMLC STATUS:               ID:20200201193933 L   I
 OLDACT:UP  21-11-07 23:34 OP:CGRS STATUS:               ID:20200201193933 L   3
 OLDACT:UP  21-11-07 20:36 OP:CGRS STATUS:               ID:20200201193933 L   3
 OLDACT:UP  20-04-19 16:58 OP:JMLC STATUS:               ID:20200201193933 L   3
 STAT SP IPHASW D HRMM SECON CODA AMPLIT PERI AZIMU VELO AIN AR TRES W  DIS CAZ7
 PRSN BZ IP     C 1939 49.53   42                         90                    
 PRSN BE IS       1940  2.49                              90                    
 PRSN BN  IAML    1940  7.22       326.4 0.25                                   
 AGPR BZ IP     C 1939 46.38   41                         90   -0.7710 82.9 134 
 AGPR BE IS     C 1939 56.51                              90   -0.5410 82.9 134 
 AGPR BN  IAML    1939 58.08       247.1 0.50                          82.9 134 
 PCDR HZ IP     C 1939 49.74   45                         90    1.3110 90.9 235 
 PCDR HE IS       1939 57.92                              90   -1.3510 90.9 235 
 PCDR HN  IAML    1940  1.03       216.6 1.08                          90.9 235 
 HIDR BZ IP     C 1939 52.23   59                         90   -0.5410  118 248 
 HIDR BE IS       1940  6.41                              90   -0.4310  118 248 
 HIDR BN  IAML    1940  9.21       278.7 0.30                           118 248 
 CRPR BZ IP     C 1939 53.93   40                         90   -0.0410  125 150 
 CRPR BE IS     C 1940 10.43                              90    1.5110  125 150 
 CRPR BN  IAML    1940 13.26       188.3 0.55                           125 150 
 MIDR HZ IP     C 1939 55.91   66                         70   -1.0710  144 270 
 MIDR HE IS     C 1940 16.04                              70    1.8810  144 270 
 MIDR HN  IAML    1940 17.36       106.4 0.30             94            144 270 
 MIDR BN  IAML    1940 17.36       123.4 0.30                           144 270 
 HMDR BZ IP       1940  1.67   67                         50    0.0210  181 263 
 HMDR BE IS       1940 22.30                              50    0.0310  181 263 
 HMDR BN  IAML    1940 26.04        48.7 0.40                           181 263 
                                                                                
 2020  2 1 2009 41.70L  18.955 -67.729  0.0  DOM  7 1.0 2.4LDOM 3.0CDOM 3.1WDOM1
 SPEC AVERAGE  MO 13.8 ST  1.0 OM  3.7 f0 2.32 R1.5457 AL 0.00 WI 20.0 MW  3.1 3
 SPEC SD       MO  0.5 ST  1.3 OM  1.3 f0 1.99 R1.3171 AL      WI      MW  0.3 3
 GAP=206        2.62      13.6     6.4 15.3  0.5362E+02  0.9937E+00 -0.6736E+02E
 LOCALITY: 138.7 Km al Este de Miches, Oceano Atlantico.                       3
 SPEC AGPRBH N MO 13.2 ST  2.9 OM  2.0 f0 5.06 R0.2852 AL-0.00 WI 20.0 MW  2.7 3
 SPEC AGPRBH N T2010 0 K 0.020 GD 84.5 VS 3.90 DE 2.90 Q0400.0 QA 0.70 Q1 0.00 3
 SPEC CRPRBH N MO 13.7 ST0.231 OM  2.4 f0 1.46 R0.9884 AL-0.00 WI 20.0 MW  3.1 3
 SPEC CRPRBH N T201013 K 0.020 GD  111 VS 3.90 DE 2.90 Q0400.0 QA 0.70 Q1 0.00 3
 SPEC HMDRBH N MO 14.4 ST0.028 OM  3.0 f00.429 R3.3636 AL-0.00 WI 20.0 MW  3.5 3
 SPEC HMDRBH N T201030 K 0.020 GD  132 VS 3.90 DE 2.90 Q0400.0 QA 0.70 Q1 0.00 3
 2020-02-01-2008-00S.MAN___147                                                 6
 OLDACT:ARG 20-02-01 22:41 OP:jrdn STATUS:               ID:20200201200800     3
 OLDACT:UP  20-02-01 23:13 OP:AMMR STATUS:               ID:20200201200800     3
 OLDACT:UP  20-02-01 23:12 OP:AMMR STATUS:               ID:20200201200800     3
 ACTION:UP  22-01-05 18:33 OP:JMLC STATUS:               ID:20200201200940 L   I
 OLDACT:UP  21-11-07 23:35 OP:CGRS STATUS:               ID:20200201200940 L   3
 OLDACT:UP  21-11-07 20:41 OP:CGRS STATUS:               ID:20200201200940 L   3
 OLDACT:UP  20-04-19 16:58 OP:JMLC STATUS:               ID:20200201200940 L   3
 STAT SP IPHASW D HRMM SECON CODA AMPLIT PERI AZIMU VELO AIN AR TRES W  DIS CAZ7
 PRSN BZ IP       20 9 58.32   53                         90                    
 PRSN BE IS       2010 10.86                              90                    
 PRSN BN  IAML    2010 17.97       306.0 0.25                                   
 PCDR HZ IP     C 20 9 55.96   42                         90    0.6910 84.4 235 
 PCDR HE IS     C 2010  5.66                              90    0.3110 84.4 235 
 PCDR HN  IAML    2010 10.42       150.3 1.52                          84.4 235 
 AGPR BZ IP     C 20 9 53.41   39                         90   -1.8810 84.5 129 
 AGPR BN  IAML    2010  4.99       159.9 0.25                          84.5 129 
 AGPR BE IS     C 2010  6.38                              90    1.0110 84.5 129 
 HIDR BZ IP     C 20 9 58.33   48                         90   -1.3210  112 249 
 HIDR BE IS       2010 11.88                              90   -1.0810  112 249 
 HIDR BN  IAML    2010 19.13       110.2 0.25                           112 249 
 CRPR BZ IP     C 2010  1.31   38                         90   -0.4910  125 147 
 CRPR BE IS       2010 17.62                              90    0.9210  125 147 
 CRPR BN  IAML    2010 20.30       105.7 0.50                           125 147 
 SMDR BN ESg    C 2010 27.13                              90    1.1310  158 284 
 SMDR BN  IAML    2010 27.35        62.5 1.75                           158 284 
 HMDR BZ IP     C 2010  9.45   63                         50    0.6210  175 264 
 HMDR BE IS     C 2010 29.02                              50    0.0910  175 264 
 HMDR BN  IAML    2010 32.43        38.1 1.25                           175 264 
                                                                                
 2020  2 1 2049  0.30L  19.097 -67.654  0.0  DOM  6 0.5 2.5LDOM 3.0CDOM 3.2WDOM1
 SPEC AVERAGE  MO 13.9 ST  1.8 OM  3.5 f0 2.84 R2.6277 AL 0.00 WI 20.0 MW  3.2 3
 SPEC SD       MO  0.7 ST  1.8 OM  1.2 f0 2.57 R2.4846 AL      WI      MW  0.5 3
 GAP=241        1.42      11.7     5.1 10.6  0.3851E+02  0.1446E+01 -0.6143E+02E
 LOCALITY: 147.7 Km al Este de Miches, Oceano Atlantico.                       3
 SPEC AGPRBH N MO 13.4 ST  4.2 OM  2.2 f0 4.83 R0.2919 AL-0.00 WI 20.0 MW  2.9 3
 SPEC AGPRBH N T204923 K 0.020 GD 90.0 VS 3.81 DE 2.86 Q0400.0 QA 0.70 Q1 1.00 3
 SPEC HIDRBH N MO 13.0 ST  3.0 OM  1.7 f0 5.93 R0.2377 AL-0.00 WI 20.0 MW  2.6 3
 SPEC HIDRBH N T204933 K 0.020 GD  111 VS 3.81 DE 2.86 Q0400.0 QA 0.70 Q1 1.00 3
 SPEC CRPRBH N MO 14.8 ST0.012 OM  3.5 f00.232 R6.0763 AL-0.00 WI 20.0 MW  3.8 3
 SPEC CRPRBH N T204937 K 0.020 GD  116 VS 3.81 DE 2.86 Q0400.0 QA 0.70 Q1 1.00 3
 SPEC HMDRBH N MO 14.4 ST0.017 OM  3.0 f00.361 R3.9050 AL-0.00 WI 20.0 MW  3.5 3
 SPEC HMDRBH N T204948 K 0.020 GD  136 VS 3.81 DE 2.86 Q0400.0 QA 0.70 Q1 1.00 3
 2020-02-01-2048-00S.MAN___147                                                 6
 OLDACT:UP  20-02-01 23:16 OP:AMMR STATUS:               ID:20200201204800     3
 OLDACT:ARG 20-02-01 22:41 OP:jrdn STATUS:               ID:20200201204800     3
 OLDACT:UP  20-04-19 16:58 OP:JMLC STATUS:               ID:20200201204858 L   3
 ACTION:UP  22-01-05 18:33 OP:JMLC STATUS:               ID:20200201204858 L   I
 OLDACT:UP  21-11-07 23:36 OP:CGRS STATUS:               ID:20200201204858 L   3
 OLDACT:UP  21-11-07 21:16 OP:CGRS STATUS:               ID:20200201204858 L   3
 OLDACT:UP  21-11-07 21:15 OP:CGRS STATUS:               ID:20200201204858 L   3
 OLDACT:UP  21-11-07 21:14 OP:CGRS STATUS:               ID:20200201204858 L   3
 STAT SP IPHASW D HRMM SECON CODA AMPLIT PERI AZIMU VELO AIN AR TRES W  DIS CAZ7
 PRSN BZ IP     C 2049 17.72   36                         90                    
 PRSN BE IS       2049 32.05                              90                    
 PRSN BN  IAML    2049 38.13       327.6 0.25                                   
 AGPR BZ IP     C 2049 14.12   53                         90   -0.7110 90.0 140 
 AGPR BE IS     C 2049 25.37                              90   -0.2110 90.0 140 
 AGPR BN  IAML    2049 31.78       199.7 0.35                          90.0 140 
 HIDR BZ IP     C 2049 19.79   35                         90   -0.6810  125 244 
 HIDR BE IS     C 2049 35.01                              90   -0.3810  125 244 
 HIDR BN  IAML    2049 42.41        92.0 0.30                           125 244 
 HIDR BZ E        2052 17.94                                            125 244 
 CRPR BZ IP     C 2049 22.14   43                         90    0.1110  135 154 
 CRPR BE IS     C 2049 38.81                              90    0.7110  135 154 
 CRPR BN  IAML    2049 40.18       134.2 0.65                           135 154 
 SMDR BN  IAML    2049 50.05        62.1 1.00                           163 278 
 HMDR BZ IP     C 2049 29.41   52                         50    0.7010  185 260 
 HMDR BE IS     C 2049 50.19                              50    0.4510  185 260 
 HMDR BN  IAML    2049 57.54        30.4 3.40                           185 260 
                                                                                
 2020  2 1 2057 50.40L  19.302 -67.458 18.6  DOM  6 0.6 2.6LDOM 3.4CDOM 2.7WDOM1
 SPEC AVERAGE  MO 13.1 ST 29.0 OM  2.7 f0 7.96 R0.2054 AL 0.00 WI 20.0 MW  2.7 3
 SPEC SD       MO  0.8 ST 36.6 OM  0.7 f0 4.74 R2.6279 AL      WI      MW  0.5 3
 GAP=248        1.64      16.2     8.8 87.0  0.1166E+03 -0.1142E+03 -0.7491E+03E
 LOCALITY: 173.9 Km al ENE de Miches, Oceano Atlantico.                        3
 SPEC AGPRBH N MO 13.4 ST 93.6 OM  2.4 f0 11.6 R0.1021 AL-0.00 WI 20.0 MW  2.8 3
 SPEC AGPRBH N T205816 K 0.020 GD  100 VS 3.20 DE 2.60 Q0400.0 QA 0.70 Q1 0.00 3
 SPEC CRPRBH N MO 13.5 ST  6.8 OM  2.4 f0 4.25 R0.2786 AL-0.00 WI 20.0 MW  3.0 3
 SPEC CRPRBH N T205829 K 0.020 GD  150 VS 3.20 DE 2.60 Q0400.0 QA 0.70 Q1 0.00 3
 SPEC PRSNBH N MO 13.7 ST 25.9 OM  2.6 f0 5.97 R0.1983 AL-0.00 WI 20.0 MW  3.1 3
 SPEC PRSNBH N T205823 K 0.020 GD  129 VS 3.20 DE 2.60 Q0400.0 QA 0.70 Q1 0.00 3
 SPEC SMDRBH N MO 13.2 ST  1.0 OM  2.0 f0 2.89 R0.4097 AL-0.00 WI 20.0 MW  2.8 3
 SPEC SMDRBH N T205839 K 0.020 GD  182 VS 3.20 DE 2.60 Q0400.0 QA 0.70 Q1 0.00 3
 SPEC HMDRBH N MO 12.8 ST  8.6 OM  1.5 f0 8.16 R0.1451 AL-0.00 WI 20.0 MW  2.5 3
 SPEC HMDRBH N T205844 K 0.020 GD  210 VS 3.20 DE 2.60 Q0400.0 QA 0.70 Q1 0.00 3
 SPEC MIDRHH N MO 12.8 ST 34.8 OM  1.6 f0 12.9 R0.0918 AL-0.00 WI 20.0 MW  2.5 3
 SPEC MIDRHH N T205835 K 0.020 GD  172 VS 3.20 DE 2.60 Q0400.0 QA 0.70 Q1 0.00 3
 2020-02-01-2057-00S.MAN___147                                                 6
 OLDACT:UP  20-02-01 23:26 OP:AMMR STATUS:               ID:20200201205700     3
 OLDACT:ARG 20-02-01 22:46 OP:jrdn STATUS:               ID:20200201205700     3
 ACTION:UP  22-01-05 18:33 OP:JMLC STATUS:               ID:20200201205749 L   I
 OLDACT:UP  21-11-07 23:36 OP:CGRS STATUS:               ID:20200201205749 L   3
 OLDACT:UP  20-04-19 16:58 OP:JMLC STATUS:               ID:20200201205749 L   3
 STAT SP IPHASW D HRMM SECON CODA AMPLIT PERI AZIMU VELO AIN AR TRES W  DIS CAZ7
 PRSN BZ EPg      2058  9.04   52                         94                    
 PRSN BN ESg    D 2058 25.16                              94                    
 PRSN BN  IAML    2058 30.64       414.5 0.20                                   
 AGPR BZ EPg    D 2058  6.73   49                         96    0.5510 99.2 158 
 AGPR BN ESg    C 2058 17.73                              96   -0.1010 99.2 158 
 AGPR BN  IAML    2058 19.35       323.1 0.25                          99.2 158 
 CRPR BZ EPg    D 2058 12.97   54                         93   -0.6910  149 165 
 CRPR BN ESg    D 2058 31.28                              93    0.4410  149 165 
 CRPR BN  IAML    2058 32.68       204.3 0.60                           149 165 
 MIDR HZ EPg      2058 16.79   75                         93   -0.2710  171 258 
 MIDR HN ESg    C 2058 37.19                              93    0.4310  171 258 
 MIDR BN  IAML    2058 37.43        40.0 1.12                           171 258 
 SMDR BN ESg    D 2058 40.63                              93    1.0510  182 270 
 SMDR BN  IAML    2059 17.11        63.9 2.05                           182 270 
 HMDR BZ EPg    C 2058 22.61   82                         92   -0.4010  210 255 
 HMDR BN ESg    C 2058 46.10                              92   -1.0110  210 255 
 HMDR BN  IAML    2058 47.65        26.1 0.15                           210 255 
                                                                                
 2020  2 1 2102 33.00L  19.052 -67.593 19.9  DOM  4 0.5 2.4LDOM 3.1CDOM 2.6WDOM1
 SPEC AVERAGE  MO 13.0 ST  5.0 OM  2.6 f0 5.06 R0.2783 AL 0.00 WI 20.0 MW  2.6 3
 SPEC SD       MO  0.2 ST  5.8 OM  0.7 f0 2.05 R0.1112 AL      WI      MW  0.1 3
 GAP=222        1.25      12.2     7.4 65.6  0.7592E+02  0.1309E+03 -0.8751E+02E
 LOCALITY: 153.1 Km al Este de Miches, Oceano Atlantico.                       3
 SPEC AGPRBH N MO 13.1 ST 15.0 OM  2.2 f0 7.79 R0.1520 AL-0.00 WI 20.0 MW  2.7 3
 SPEC AGPRBH N T21 254 K 0.020 GD 84.6 VS 3.20 DE 2.60 Q0400.0 QA 0.70 Q1 0.00 3
 SPEC CRPRBH N MO 13.2 ST  1.4 OM  2.1 f0 3.34 R0.3545 AL-0.00 WI 20.0 MW  2.7 3
 SPEC CRPRBH N T21 3 6 K 0.020 GD  128 VS 3.20 DE 2.60 Q0400.0 QA 0.70 Q1 0.00 3
 SPEC HMDRBH N MO 12.6 ST  2.8 OM  1.4 f0 6.28 R0.1885 AL-0.00 WI 20.0 MW  2.4 3
 SPEC HMDRBH N T21 322 K 0.020 GD  192 VS 3.20 DE 2.60 Q0400.0 QA 0.70 Q1 0.00 3
 SPEC SMDRBH N MO 13.1 ST0.729 OM  1.9 f0 2.83 R0.4184 AL-0.00 WI 20.0 MW  2.7 3
 SPEC SMDRBH N T21 318 K 0.020 GD  171 VS 3.20 DE 2.60 Q0400.0 QA 0.70 Q1 0.00 3
 2020-02-01-2102-00S.MAN___147                                                 6
 OLDACT:UP  20-02-01 23:40 OP:AMMR STATUS:               ID:20200201210200     3
 OLDACT:ARG 20-02-01 22:46 OP:jrdn STATUS:               ID:20200201210200     3
 ACTION:UP  22-01-05 18:33 OP:JMLC STATUS:               ID:20200201210233 L   I
 OLDACT:UP  21-11-07 23:37 OP:CGRS STATUS:               ID:20200201210233 L   3
 OLDACT:UP  20-04-19 16:58 OP:JMLC STATUS:               ID:20200201210233 L   3
 STAT SP IPHASW D HRMM SECON CODA AMPLIT PERI AZIMU VELO AIN AR TRES W  DIS CAZ7
 AGPR BZ EPg    C 21 2 45.70   51                         99   -0.5510 82.2 142 
 AGPR BN ESg    C 21 2 56.09                              99    0.0610 82.2 142 
 AGPR BN  IAML    21 2 57.09       214.1 0.20                          82.2 142 
 CRPR BZ EPg    D 21 2 53.60   47                         95    0.5410  127 155 
 CRPR BN ESg    C 21 3  8.00                              95    0.1210  127 155 
 CRPR BN  IAML    21 3 12.97       108.1 0.45                           127 155 
 SMDR BN ESg    C 21 3 19.76                              93    0.7410  170 279 
 SMDR BN  IAML    21 3 20.81        55.6 0.25                           170 279 
 HMDR BZ EPg    C 21 3  2.04   57                         93   -0.5910  191 261 
 HMDR BN ESg    D 21 3 24.19                              93   -0.3310  191 261 
 HMDR BN  IAML    21 3 27.04        27.3 1.10                           191 261 
                                                                                
 2020  2 1 2109 16.50L  18.954 -67.685  2.3  DOM  6 0.7 2.4LDOM 2.7CDOM 2.9WDOM1
 SPEC AVERAGE  MO 13.4 ST  2.3 OM  2.9 f0 3.47 R1.4695 AL 0.00 WI 20.0 MW  2.9 3
 SPEC SD       MO  0.5 ST  2.9 OM  1.1 f0 2.44 R1.1596 AL      WI      MW  0.3 3
 GAP=227        1.86      13.8     4.8 12.9  0.3697E+02 -0.5726E+01 -0.1060E+03E
 LOCALITY: 143.1 Km al Este de Miches, Oceano Atlantico.                       3
 SPEC AGPRBH N MO 13.0 ST  7.6 OM  2.0 f0 7.19 R0.1847 AL-0.00 WI 20.0 MW  2.6 3
 SPEC AGPRBH N T21 937 K 0.020 GD 80.9 VS 3.59 DE 2.77 Q0400.0 QA 0.70 Q1 1.00 3
 SPEC PCDRHN N MO 13.2 ST0.306 OM  2.1 f0 2.22 R0.5983 AL-0.00 WI 20.0 MW  2.7 3
 SPEC PCDRHN N T21 939 K 0.020 GD 88.1 VS 3.59 DE 2.77 Q0400.0 QA 0.70 Q1 1.00 3
 SPEC PRSNBH N MO 12.8 ST 15.2 OM  1.7 f0 10.6 R0.1253 AL-0.00 WI 20.0 MW  2.5 3
 SPEC PRSNBH N T21 944 K 0.020 GD  100 VS 3.59 DE 2.77 Q0400.0 QA 0.70 Q1 1.00 3
 SPEC CRPRBH N MO 13.0 ST  1.3 OM  1.8 f0 4.19 R0.3170 AL-0.00 WI 20.0 MW  2.6 3
 SPEC CRPRBH N T21 949 K 0.020 GD  110 VS 3.59 DE 2.77 Q0400.0 QA 0.70 Q1 1.00 3
 SPEC HMDRBH N MO 14.5 ST0.012 OM  3.2 f00.278 R4.7781 AL-0.00 WI 20.0 MW  3.6 3
 SPEC HMDRBH N T2110 3 K 0.020 GD  134 VS 3.59 DE 2.77 Q0400.0 QA 0.70 Q1 1.00 3
 2020-02-01-2109-00S.MAN___147                                                 6
 OLDACT:ARG 20-04-19 16:58 OP:JMLC STATUS:               ID:20200201210913 L   3
 ACTION:UP  22-01-05 18:33 OP:JMLC STATUS:               ID:20200201210913 L   I
 OLDACT:UP  21-11-07 23:39 OP:CGRS STATUS:               ID:20200201210913 L   3
 OLDACT:UP  21-11-07 21:24 OP:CGRS STATUS:               ID:20200201210913 L   3
 OLDACT:UP  21-11-07 21:23 OP:CGRS STATUS:               ID:20200201210913 L   3
 OLDACT:UP  21-11-07 21:23 OP:CGRS STATUS:               ID:20200201210913 L   3
 STAT SP IPHASW D HRMM SECON CODA AMPLIT PERI AZIMU VELO AIN AR TRES W  DIS CAZ7
 PRSN BZ IP     C 21 9 32.92   46                         91                    
 PRSN BE IS     C 21 9 45.95                              91                    
 PRSN BN  IAML    21 9 55.52       207.3 0.20                                   
 AGPR BZ IP     C 21 9 29.12   33                         92   -0.4810 80.9 131 
 AGPR BE IS     C 21 9 39.38                              92    0.1210 80.9 131 
 AGPR BN  IAML    2110 22.78       135.4 0.40                          80.9 131 
 PCDR HZ IP     C 21 9 30.59   35                         92   -0.1710 88.1 237 
 PCDR HE IS     C 21 9 41.40                              92    0.1310 88.1 237 
 PCDR BN  IAML    2110 21.33       102.2 1.46                          88.1 237 
 HIDR BZ IP     C 21 9 36.92   30                         91    1.7010  116 250 
 HIDR BE IS     C 21 9 47.98                              91   -1.0510  116 250 
 HIDR BN  IAML    2110 26.93        99.3 0.10                           116 250 
 CRPR BZ IP     C 21 9 36.04   33                         91   -0.2310  122 149 
 CRPR BE IS       21 9 51.13                              91    0.2610  122 149 
 CRPR BN  IAML    21 9 56.11        96.4 0.55                           122 149 
 HMDR BZ IP     C 21 9 43.38   38                         50   -0.6610  180 264 
 HMDR BE IS     C 2110  4.76                              50    0.3710  180 264 
 HMDR BN  IAML    2110  8.11        44.1 1.25                           180 264 
                                                                                
