 2020  6 3 1925 24.50L  19.581 -69.235 15.0  DOM  5 0.7 2.3LDOM 3.0CDOM 2.7WDOM1
 SPEC AVERAGE  MO 13.1 ST100.6 OM  2.2 f0 6.95 R0.3101 AL 0.00 WI 20.0 MW  2.7 3
 SPEC SD       MO  0.6 ST173.4 OM  0.8 f0 4.39 R0.1232 AL      WI      MW  0.4 3
 GAP=240        1.91      11.9     6.2 28.1  0.3442E+02  0.4682E+01 -0.1357E+03E
 SPEC SMDRBH N MO 12.9 ST0.416 OM  1.9 f0 3.64 R0.4493 AL-0.00 WI 20.0 MW  2.6 3
 SPEC SMDRBH N T192533 K 0.020 GD 35.9 VS 4.42 DE 3.33 Q0400.0 QA 0.70 Q1 0.00 3
 SPEC HMDRBH N MO 12.6 ST0.575 OM  1.2 f0 5.10 R0.3207 AL-0.00 WI 20.0 MW  2.4 3
 SPEC HMDRBH N T192546 K 0.020 GD 90.4 VS 4.42 DE 3.33 Q0400.0 QA 0.70 Q1 0.00 3
 SPEC NAVIBH N MO 14.1 ST400.9 OM  2.6 f0 14.5 R0.1128 AL-0.00 WI 20.0 MW  3.4 3
 SPEC NAVIBH N T192553 K 0.020 GD  109 VS 4.42 DE 3.33 Q0400.0 QA 0.70 Q1 0.00 3
 SPEC PCDRBH N MO 12.7 ST0.430 OM  1.0 f0 4.57 R0.3579 AL-0.00 WI 20.0 MW  2.4 3
 SPEC PCDRBH N T1926 4 K 0.020 GD  148 VS 4.42 DE 3.33 Q0400.0 QA 0.70 Q1 0.00 3
 LOCALITY: 30.8 Km al Norte de Las Galeras, Oceano Atlantico.                  3
 2020-06-03-1924-00S.MAN___126                                                 6
 OLDACT:ARG 20-06-03 19:38 OP:AMMR STATUS:               ID:20200603192400     3
 OLDACT:UP  20-06-03 19:44 OP:AMMR STATUS:               ID:20200603192400     3
 ACTION:UP  22-01-18 18:54 OP:JMLC STATUS:               ID:20200603192524 L   I
 STAT SP IPHASW D HRMM SECON CODA AMPLIT PERI AZIMU VELO AIN AR TRES W  DIS CAZ7
 SMDR BZ EPg    D 1925 30.42   42                        108    0.2510 32.6 171 
 SMDR BN ESg    D 1925 34.98                             108    0.5910 32.6 171 
 SMDR BN  IAML    1925 35.35       161.7 0.20                          32.6 171 
 SMDR BE  IAML    1925 35.36       290.4 0.75                          32.6 171 
 HMDR BZ EPg    D 1925 38.11   59                         93   -0.5510 89.1 190 
 HMDR BN ESg    D 1925 47.96                              93   -1.2110 89.1 190 
 HMDR BE  IAML    1925 48.12        27.6 0.45                          89.1 190 
 HMDR BN  IAML    1925 49.41        28.8 0.25                          89.1 190 
 NAVI BZ EPg      1925 41.84   46                         92    0.2910  108 231 
 NAVI BN ESg    C 1925 54.73                              92    0.5410  108 231 
 NAVI BN  IAML    1925 55.75       829.2 0.15                           108 231 
 NAVI BE  IAML    1925 56.16       460.2 0.15                           108 231 
 PCDR BZ EPg      1925 46.56   51                         91   -1.0610  148 143 
 PCDR BN ESg    C 1926  5.81                              91    1.0510  148 143 
 PCDR BN  IAML    1926 39.08        80.7 1.85                           148 143 
 REDR BN ESg      1926 34.64                              91    0.0910  261 263 
 REDR BE  IAML    1926 34.83        12.4 0.43                           261 263 
 REDR BN  IAML    1926 36.26        21.7 0.15                           261 263 
                                                                                
 2020  6 3 1931 23.90L  18.707 -71.569 31.1  DOM  5 0.4 1.6LDOM 2.6CDOM 2.8WDOM1
 SPEC AVERAGE  MO 13.4 ST  1.1 OM  2.8 f0 4.26 R1.9241 AL 0.00 WI 20.0 MW  2.8 3
 SPEC SD       MO  0.7 ST0.806 OM  1.0 f0 2.80 R2.3418 AL      WI      MW  0.5 3
 GAP=116        1.07       3.0     4.8 10.1  0.4342E+01 -0.1309E+02 -0.1386E+02E
 SPEC JIDRBH N MO 13.0 ST  1.9 OM  1.8 f0 5.87 R0.2836 AL-0.00 WI 20.0 MW  2.6 3
 SPEC JIDRBH N T193135 K 0.020 GD 49.3 VS 4.50 DE 3.40 Q0400.0 QA 0.70 Q1 0.00 3
 SPEC REDRBH N MO 14.4 ST0.007 OM  3.0 f00.318 R5.2358 AL-0.00 WI 20.0 MW  3.5 3
 SPEC REDRBH N T193141 K 0.020 GD 71.7 VS 4.50 DE 3.40 Q0400.0 QA 0.70 Q1 0.00 3
 SPEC PODRBH N MO 12.7 ST  1.3 OM  1.3 f0 6.59 R0.2527 AL-0.00 WI 20.0 MW  2.4 3
 SPEC PODRBH N T193142 K 0.020 GD 74.0 VS 4.50 DE 3.40 Q0400.0 QA 0.70 Q1 0.00 3
 LOCALITY: 5.8 Km al OSO de El Cercado, San Juan de la Maguana.                3
 2020-06-03-1931-00S.MAN___126                                                 6
 OLDACT:ARG 20-06-03 19:58 OP:AMMR STATUS:               ID:20200603193100     3
 OLDACT:UP  20-06-03 20:04 OP:AMMR STATUS:               ID:20200603193100     3
 ACTION:UP  22-01-18 18:54 OP:JMLC STATUS:               ID:20200603193123 L   I
 STAT SP IPHASW D HRMM SECON CODA AMPLIT PERI AZIMU VELO AIN AR TRES W  DIS CAZ7
 NEDR BN ESg    D 1931 34.78                             137   -0.1310 26.9 157 
 NEDR BN  IAML    1931 36.58        63.0 0.30                          26.9 157 
 JIDR BZ EPg    C 1931 30.87   26                        125   -0.5410 38.2 232 
 JIDR BN ESg    C 1931 37.12                             125    0.1210 38.2 232 
 JIDR BE  IAML    1931 37.28       136.0 0.30                          38.2 232 
 JIDR BN  IAML    1931 37.29       173.7 0.25                          38.2 232 
 SDDR BZ EPg      1931 31.45   34                        123   -0.4910 42.2  44 
 SDDR BE  IAML    1931 38.65         5.0 0.14                          42.2  44 
 SDDR BN  IAML    1931 42.39        19.0 2.45                          42.2  44 
 REDR BZ EPg    D 1931 34.86   38                        110    0.0610 64.6 348 
 REDR BE  IAML    1931 43.37        36.7 0.19                          64.6 348 
 REDR BN ESg      1931 43.44                             110    0.5510 64.6 348 
 REDR BN  IAML    1931 44.67        47.4 2.50                          64.6 348 
 PODR BZ EPg    C 1931 35.02   35                        109   -0.1910 67.1 153 
 PODR BN ESg      1931 44.24                             109    0.6310 67.1 153 
 PODR BE  IAML    1931 44.63        27.4 0.24                          67.1 153 
 PODR BN  IAML    1932  3.74        40.0 2.00                          67.1 153 
                                                                                
 2020  6 3 2013 50.10L  19.930 -74.395 31.1  DOM  8 0.9 3.7LDOM 4.0CDOM 3.8WDOM1
 SPEC AVERAGE  MO 14.8 ST 28.5 OM  3.4 f0 3.09 R0.7076 AL 0.00 WI 20.0 MW  3.8 3
 SPEC SD       MO  0.2 ST 52.0 OM  0.5 f0 2.07 R0.3040 AL      WI      MW  0.1 3
 GAP=150        2.44      11.2     7.2 33.8 -0.8100E+01 -0.1750E+03  0.1817E+03E
 SPEC MASCHH N MO 14.7 ST  8.2 OM  3.5 f0 2.66 R0.6259 AL-0.00 WI 20.0 MW  3.7 3
 SPEC MASCHH N T2014 4 K 0.020 GD 44.7 VS 4.50 DE 3.40 Q0400.0 QA 0.70 Q1 0.00 3
 SPEC QMBUHH N MO 14.8 ST 10.9 OM  3.5 f0 2.63 R0.6331 AL-0.00 WI 20.0 MW  3.8 3
 SPEC QMBUHH N T2014 3 K 0.020 GD 61.3 VS 4.50 DE 3.40 Q0400.0 QA 0.70 Q1 0.00 3
 SPEC GTBYBH N MO 14.8 ST  5.4 OM  3.4 f0 2.04 R0.8162 AL-0.00 WI 20.0 MW  3.8 3
 SPEC GTBYBH N T201410 K 0.020 GD 81.2 VS 4.50 DE 3.40 Q0400.0 QA 0.70 Q1 0.00 3
 SPEC MCDRBH N MO 15.0 ST 19.2 OM  3.0 f0 2.78 R0.5989 AL-0.00 WI 20.0 MW  3.9 3
 SPEC MCDRBH N T201510 K 0.020 GD  288 VS 4.50 DE 3.40 Q0400.0 QA 0.70 Q1 0.00 3
 SPEC REDRBH N MO 14.5 ST165.4 OM  2.5 f0 8.32 R0.2001 AL-0.00 WI 20.0 MW  3.6 3
 SPEC REDRBH N T201511 K 0.020 GD  293 VS 4.50 DE 3.40 Q0400.0 QA 0.70 Q1 0.00 3
 SPEC JIDRBH N MO 14.9 ST  3.1 OM  2.9 f0 1.59 R1.0472 AL-0.00 WI 20.0 MW  3.9 3
 SPEC JIDRBH N T2015 8 K 0.020 GD  312 VS 4.50 DE 3.40 Q0400.0 QA 0.70 Q1 0.00 3
 SPEC SDDRBH N MO 14.8 ST  1.6 OM  2.8 f0 1.34 R1.2425 AL-0.00 WI 20.0 MW  3.8 3
 SPEC SDDRBH N T201513 K 0.020 GD  344 VS 4.50 DE 3.40 Q0400.0 QA 0.70 Q1 0.00 3
 SPEC GRTKBH N MO 14.6 ST 14.1 OM  2.5 f0 3.35 R0.4970 AL-0.00 WI 20.0 MW  3.7 3
 SPEC GRTKBH N T201524 K 0.020 GD  383 VS 4.50 DE 3.40 Q0400.0 QA 0.70 Q1 0.00 3
 LOCALITY: 348.6 Km al NO de Pedernales, Mar Caribe.                           3
 2020-06-03-2013-00S.MAN___126                                                 6
 OLDACT:ARG 20-06-03 21:17 OP:AMMR STATUS:               ID:20200603201300     3
 OLDACT:UP  20-06-03 21:23 OP:AMMR STATUS:               ID:20200603201300     3
 OLDACT:UP  20-06-03 21:23 OP:AMMR STATUS:               ID:20200603201300     3
 ACTION:UP  22-01-18 18:54 OP:JMLC STATUS:               ID:20200603201350 L   I
 STAT SP IPHASW D HRMM SECON CODA AMPLIT PERI AZIMU VELO AIN AR TRES W  DIS CAZ7
 MASC HZ EPg    D 2013 58.79   71                        131    1.7610 32.1  32 
 MASC HE  IAML    2014  5.63      4099.2 0.28                          32.1  32 
 MASC HN  IAML    2014  7.16      2948.0 0.28                          32.1  32 
 QMBU HZ EPg      2013 59.47   86                        115    0.0010 52.8 304 
 QMBU HN ESg      2014  5.47                             115   -0.9310 52.8 304 
 QMBU HN  IAML    2014  5.70      3534.7 0.38                          52.8 304 
 QMBU HE  IAML    2014  5.79      5889.7 0.42                          52.8 304 
 GTBY BZ EPg      2014  2.48  133                        106    0.1110 75.0 270 
 GTBY BN ESg    D 2014 11.51                             106    0.0610 75.0 270 
 GTBY BE  IAML    2014 17.18      1654.9 0.60                          75.0 270 
 GTBY BN  IAML    2014 19.94      1286.0 0.70                          75.0 270 
 GTBY HN  IAML    2014 19.99      1286.0 0.70                          75.0 270 
 MCDR BZ EPg      2014 33.35  112                         92    1.3410  287  90 
 MCDR BE  IAML    2015 10.96       479.0 0.65                           287  90 
 MCDR BN  IAML    2015 14.18       732.7 0.35                           287  90 
 MCDR HN  IAML    2015 14.20       732.8 0.35                           287  90 
 REDR BZ EPg      2014 31.99  119                         92   -0.7710  292 104 
 REDR BE  IAML    2015  6.34       254.0 0.25                           292 104 
 REDR BN  IAML    2015 11.10       381.2 0.15                           292 104 
 REDR HN  IAML    2015 16.92       446.0 0.25                           292 104 
 JIDR BZ EPg      2014 35.20  166                         92   -0.2210  311 120 
 JIDR BN ESg    C 2015 10.15                              92    1.1910  311 120 
 JIDR BN  IAML    2015 18.58       206.2 0.90                           311 120 
 JIDR BE  IAML    2015 19.82       167.3 0.35                           311 120 
 JIDR HN  IAML    2015 32.20       200.9 0.60                           311 120 
 SDDR BZ EPg      2014 39.17  152                         92   -0.7410  343 107 
 SDDR BN ESg    C 2015 15.43                              92   -1.3410  343 107 
 SDDR BN  IAML    2015 16.59       282.9 0.50                           343 107 
 SDDR BE  IAML    2015 16.62       278.8 0.55                           343 107 
 SDDR HN  IAML    2015 16.63       282.9 0.50                           343 107 
 GRTK BZ EPg      2014 45.75  125                         92    0.2910  382  62 
 GRTK BN ESg    D 2015 25.66                              92   -0.7610  382  62 
 GRTK BN  IAML    2015 27.59       174.1 0.35                           382  62 
 GRTK HN  IAML    2015 27.64       174.1 0.35                           382  62 
 GRTK BE  IAML    2015 29.48       118.6 0.45                           382  62 
                                                                                
 2020  6 4 0107  2.50L  19.401 -70.462 25.8  DOM 18 4.1 2.8LDOM 3.2CDOM 3.3WDOM1
 SPEC AVERAGE  MO 14.1 ST 35.3 OM  2.9 f0 3.93 R0.6096 AL 0.00 WI 20.0 MW  3.3 3
 SPEC SD       MO  0.3 ST100.4 OM  0.5 f0 2.72 R0.3422 AL      WI      MW  0.2 3
 GAP= 79       11.24      23.7    17.1 65.9  0.1325E+02  0.2152E+03  0.2599E+03E
 SPEC SFDRBH N MO 14.0 ST 41.4 OM  3.0 f0 7.21 R0.2253 AL-0.00 WI 20.0 MW  3.3 3
 SPEC SFDRBH N T 1 711 K 0.020 GD 36.7 VS 4.39 DE 3.31 Q0400.0 QA 0.70 Q1 0.00 3
 SPEC SODRBH N MO 14.5 ST0.464 OM  3.3 f0 1.17 R1.3883 AL-0.00 WI 20.0 MW  3.6 3
 SPEC SODRBH N T 1 714 K 0.020 GD 48.2 VS 4.39 DE 3.31 Q0400.0 QA 0.70 Q1 0.00 3
 SPEC SC01BH N MO 13.6 ST  5.0 OM  2.6 f0 4.78 R0.3398 AL-0.00 WI 20.0 MW  3.0 3
 SPEC SC01BH N T 1 712 K 0.020 GD 38.1 VS 4.39 DE 3.31 Q0400.0 QA 0.70 Q1 0.00 3
 SPEC CADRBH N MO 14.5 ST  1.9 OM  3.2 f0 1.81 R0.8974 AL-0.00 WI 20.0 MW  3.6 3
 SPEC CADRBH N T 1 717 K 0.020 GD 67.3 VS 4.39 DE 3.31 Q0400.0 QA 0.70 Q1 0.00 3
 SPEC NADRBH N MO 14.5 ST  9.1 OM  3.2 f0 3.03 R0.5361 AL-0.00 WI 20.0 MW  3.6 3
 SPEC NADRBH N T 1 717 K 0.020 GD 68.8 VS 4.39 DE 3.31 Q0400.0 QA 0.70 Q1 0.00 3
 SPEC NAVIBH N MO 14.5 ST407.5 OM  3.2 f0 10.6 R0.1532 AL-0.00 WI 20.0 MW  3.6 3
 SPEC NAVIBH N T 1 720 K 0.020 GD 71.7 VS 4.39 DE 3.31 Q0400.0 QA 0.70 Q1 0.00 3
 SPEC MADRBH N MO 14.1 ST  3.0 OM  2.8 f0 2.76 R0.5885 AL-0.00 WI 20.0 MW  3.4 3
 SPEC MADRBH N T 1 721 K 0.020 GD 74.3 VS 4.39 DE 3.31 Q0400.0 QA 0.70 Q1 0.00 3
 SPEC SDDRBH N MO 13.7 ST0.616 OM  2.2 f0 2.33 R0.6971 AL-0.00 WI 20.0 MW  3.1 3
 SPEC SDDRBH N T 1 731 K 0.020 GD  102 VS 4.39 DE 3.31 Q0400.0 QA 0.70 Q1 0.00 3
 SPEC LADRBH N MO 14.3 ST  5.1 OM  2.5 f0 2.97 R0.5469 AL-0.00 WI 20.0 MW  3.5 3
 SPEC LADRBH N T 1 734 K 0.020 GD  203 VS 4.39 DE 3.31 Q0400.0 QA 0.70 Q1 0.00 3
 SPEC SMDRBH N MO 14.0 ST0.813 OM  2.4 f0 1.99 R0.8162 AL-0.00 WI 20.0 MW  3.3 3
 SPEC SMDRBH N T 1 735 K 0.020 GD  136 VS 4.39 DE 3.31 Q0400.0 QA 0.70 Q1 0.00 3
 SPEC HMDRBH N MO 13.5 ST  4.4 OM  1.9 f0 5.16 R0.3148 AL-0.00 WI 20.0 MW  2.9 3
 SPEC HMDRBH N T 1 736 K 0.020 GD  134 VS 4.39 DE 3.31 Q0400.0 QA 0.70 Q1 0.00 3
 SPEC MCDRBH N MO 13.8 ST 42.0 OM  2.2 f0 8.58 R0.1893 AL-0.00 WI 20.0 MW  3.2 3
 SPEC MCDRBH N T 1 740 K 0.020 GD  139 VS 4.39 DE 3.31 Q0400.0 QA 0.70 Q1 0.00 3
 SPEC JIDRBH N MO 14.3 ST0.657 OM  2.6 f0 1.45 R1.1202 AL-0.00 WI 20.0 MW  3.5 3
 SPEC JIDRBH N T 1 754 K 0.020 GD  179 VS 4.39 DE 3.31 Q0400.0 QA 0.70 Q1 0.00 3
 SPEC HIDRBH N MO 14.3 ST  6.3 OM  2.5 f0 3.18 R0.5108 AL-0.00 WI 20.0 MW  3.5 3
 SPEC HIDRBH N T 1 755 K 0.020 GD  206 VS 4.39 DE 3.31 Q0400.0 QA 0.70 Q1 0.00 3
 SPEC PCDRBH N MO 13.9 ST0.710 OM  2.1 f0 1.98 R0.8204 AL-0.00 WI 20.0 MW  3.2 3
 SPEC PCDRBH N T 1 8 8 K 0.020 GD  241 VS 4.39 DE 3.31 Q0400.0 QA 0.70 Q1 0.00 3
 LOCALITY: 13.5 Km al NNE de Salcedo, Hermanas Mirabal.                        3
 2020-06-04-0105-00S.MAN___126                                                 6
 OLDACT:ARG 20-06-04 02:08 OP:AMMR STATUS:               ID:20200604010500     3
 OLDACT:UP  20-06-04 02:18 OP:AMMR STATUS:               ID:20200604010500     3
 OLDACT:UP  20-06-04 02:17 OP:AMMR STATUS:               ID:20200604010500     3
 ACTION:UP  22-01-18 18:54 OP:JMLC STATUS:               ID:20200604010702 L   I
 STAT SP IPHASW D HRMM SECON CODA AMPLIT PERI AZIMU VELO AIN AR TRES W  DIS CAZ7
 SFDR BZ EPg    C  1 7  7.38   59                        129   -0.7910 26.1 119 
 SFDR BN ESg    C  1 7 12.80                             129    0.4410 26.1 119 
 SFDR BE  IAML     1 7 13.08      4596.2 0.20                          26.1 119 
 SFDR BN  IAML     1 7 14.58      1798.3 0.15                          26.1 119 
 SC01 BZ EPg    D  1 7  8.65   71                        127    0.2610 28.0 276 
 SC01 BE  IAML     1 7 20.20       518.3 0.20                          28.0 276 
 SC01 BN  IAML     1 7 22.00       501.3 0.50                          28.0 276 
 SODR BZ EPg       1 7  9.93   38                        114    0.0210 40.7 343 
 SODR BE  IAML     1 7 23.94       916.0 0.60                          40.7 343 
 SODR BN  IAML     1 7 24.48       777.9 0.80                          40.7 343 
 CADR BZ EPg       1 7 10.74   32                        101   -2.0610 62.2  62 
 CADR BN ESg    C  1 7 18.97                             101   -1.4610 62.2  62 
 CADR BE  IAML     1 7 19.08       838.1 0.35                          62.2  62 
 CADR BN  IAML     1 7 21.19       947.1 0.50                          62.2  62 
 NADR BZ EPg    D  1 7 11.47   40                        100   -1.5610 63.8  95 
 NADR BE  IAML     1 7 21.75      1644.8 0.60                          63.8  95 
 NADR BN  IAML     1 7 23.25      1720.1 0.30                          63.8  95 
 NAVI BZ EPg       1 7 13.39   57                         99   -0.1210 66.9 137 
 NAVI BN ESg    D  1 7 22.26                              99    0.6010 66.9 137 
 NAVI BE  IAML     1 7 24.83      2860.7 0.15                          66.9 137 
 NAVI BN  IAML     1 7 26.06      3332.0 0.15                          66.9 137 
 ABDR BZ EPg       1 7 13.98   48                        100    0.2110 67.4 195 
 ABDR BN  IAML     1 7 44.59         0.2 0.40                          67.4 195 
 MADR BZ EPg       1 7 14.05   42                         98    0.2010 69.7 285 
 MADR BE  IAML     1 7 32.66       539.7 0.25                          69.7 285 
 MADR BN  IAML     1 7 32.74       664.2 0.35                          69.7 285 
 LUDR BZ EPg       1 7 14.77   39                         97    0.1810 75.0 317 
 LUDR BE  IAML     1 7 30.44       701.9 0.30                          75.0 317 
 SDDR BZ EPg       1 7 18.67   64                         94    0.7010 98.8 242 
 SDDR BE ESg    C  1 7 33.26                              94    3.8410 98.8 242 
 SDDR BE  IAML     1 7 33.45       130.1 0.60                          98.8 242 
 SDDR BN  IAML     1 7 35.88       105.1 0.25                          98.8 242 
 BADR BZ EPg       1 7 21.17   60                         93    1.3710  112 175 
 BADR BN ESg       1 7 36.40                              93    3.8010  112 175 
 BADR BN  IAML     1 7 37.68       267.3 0.25                           112 175 
 BADR BE  IAML     1 7 41.61       151.7 0.55                           112 175 
 HMDR BZ EPg       1 7 22.01   68                         92   -0.6910  132 121 
 HMDR BN ESg    D  1 7 38.35                              92    0.7010  132 121 
 HMDR BE  IAML     1 7 38.45        84.7 0.40                           132 121 
 HMDR BN  IAML     1 7 38.90        97.2 0.20                           132 121 
 SMDR BZ EPg       1 7 21.83   61                         92   -1.1110  134  95 
 SMDR BE  IAML     1 7 41.34       159.7 0.95                           134  95 
 SMDR BN  IAML     1 7 45.94       157.5 0.50                           134  95 
 MCDR BZ EPg    D  1 7 24.66   61                         92    1.4110  137 294 
 MCDR BN  IAML     1 7 46.50       191.5 0.30                           137 294 
 MCDR BE  IAML     1 7 50.92       194.4 0.60                           137 294 
 JIDR BZ EPg    D  1 7 31.70   64                         91    2.6710  178 236 
 JIDR BE ESg    C  1 7 55.56                              91    6.8910  178 236 
 JIDR BN  IAML     1 7 56.49       272.2 0.40                           178 236 
 JIDR BE  IAML     1 7 58.77        96.0 0.44                           178 236 
 LADR BN ESg    C  1 7 36.38                              91   -18.410  202 222 
 LADR BN  IAML     1 7 36.66       250.1 0.35                           202 222 
 LADR BE  IAML     1 7 38.66       461.4 0.30                           202 222 
 HIDR BZ EPg    D  1 7 33.35   70                         91    0.5310  205 116 
 HIDR BN ESg    C  1 7 57.35                              91    2.0810  205 116 
 HIDR BN  IAML     1 7 59.60       459.0 0.25                           205 116 
 HIDR BE  IAML     1 8  0.73       335.8 0.25                           205 116 
 PCDR BZ EPg       1 7 38.07   76                         91    0.2410  240 114 
 PCDR BE  IAML     1 8 12.86        57.9 1.90                           240 114 
 PCDR BN  IAML     1 8 31.66       107.0 1.20                           240 114 
                                                                                
