 2020  6 6 0658 52.60L  18.439 -71.326  2.4  DOM  5 0.6 1.3LDOM 3.0CDOM 2.0WDOM1
 SPEC AVERAGE  MO 12.1 ST0.293 OM  3.6 f0 4.61 R0.2568 AL 0.00 WI 20.0 MW  2.0 3
 SPEC SD       MO  0.0 ST0.000 OM  2.5 f00.000 R0.0000 AL      WI      MW  0.0 3
 GAP=168        1.71       4.0     5.3 51.8  0.5911E+01 -0.6712E+02 -0.1161E+03E
 SPEC REDRBH N MO 12.1 ST0.293 OM  1.1 f0 4.61 R0.2568 AL-0.00 WI 20.0 MW  2.0 3
 SPEC REDRBH N T 65919 K 0.020 GD  100 VS 3.20 DE 2.60 Q0400.0 QA 0.70 Q1 0.00 3
 LOCALITY: 7.5 Km al SSE de Galvan, Bahoruco.                                  3
 2020-06-06-0658-00S.MAN___126                                                 6
 OLDACT:ARG 20-06-06 10:03 OP:plst STATUS:               ID:20200606065800     3
 OLDACT:UP  20-06-06 10:14 OP:AMMR STATUS:               ID:20200606065800     3
 OLDACT:UP  20-06-06 10:12 OP:AMMR STATUS:               ID:20200606065800     3
 ACTION:UP  22-01-18 18:54 OP:JMLC STATUS:               ID:20200606065852 L   I
 STAT SP IPHASW D HRMM SECON CODA AMPLIT PERI AZIMU VELO AIN AR TRES W  DIS CAZ7
 NEDR BZ EPg    C  658 54.95   41                         99   -0.1810 15.8 288 
 NEDR BN ESg    C  658 56.71                              99   -0.3310 15.8 288 
 NEDR BN  IAML     659  0.83        19.1 0.20                          15.8 288 
 PODR BZ EPg    C  658 56.43   43                         98   -1.1010 30.6 171 
 PODR BN ESg       659  2.13                              98    0.9210 30.6 171 
 PODR BN  IAML     659  6.95        69.9 1.55                          30.6 171 
 JIDR BZ EPg       659  0.94   43                         93   -0.6610 56.0 276 
 JIDR BN ESg    C  659  9.02                              93    0.7210 56.0 276 
 JIDR BN  IAML     659 30.37        43.9 2.35                          56.0 276 
 SDDR BZ EPg    C  659  3.05   52                         93    0.8110 60.0   4 
 SDDR BN ESg    C  659  9.04                              93   -0.3710 60.0   4 
 SDDR BN  IAML     659 13.19        23.4 2.90                          60.0   4 
 REDR BZ EPg    C  659  8.58   60                         92   -0.2410  101 337 
 REDR BN ESg    C  659 21.29                              92    0.4410  101 337 
 REDR BN  IAML     659 21.49        12.8 1.50                           101 337 
                                                                                
 2020  6 6 0725 15.80L  18.104 -67.759 12.1  DOM  6 0.3 1.6LDOM 2.7CDOM 1.9WDOM1
 SPEC AVERAGE  MO 11.9 ST0.346 OM  4.3 f0 5.63 R0.2103 AL 0.00 WI 20.0 MW  1.9 3
 SPEC SD       MO  0.0 ST0.000 OM  3.6 f00.000 R0.0000 AL      WI      MW  0.0 3
 GAP=188        0.78      10.7     3.5  9.3  0.1737E+02 -0.1163E+02  0.5204E+02E
 SPEC HMDRBH N MO 11.9 ST0.346 OM  0.7 f0 5.63 R0.2103 AL-0.00 WI 20.0 MW  1.9 3
 SPEC HMDRBH N T 726 4 K 0.020 GD  163 VS 3.20 DE 2.60 Q0400.0 QA 0.70 Q1 0.00 3
 LOCALITY: 97.9 Km al ENE de Punta Cana, Canal de la Mona.                     3
 2020-06-06-0725-00S.MAN___126                                                 6
 OLDACT:UP  20-06-06 10:21 OP:AMMR STATUS:               ID:20200606072500     3
 OLDACT:UP  20-06-06 10:21 OP:AMMR STATUS:               ID:20200606072500     3
 OLDACT:UP  20-06-06 10:20 OP:AMMR STATUS:               ID:20200606072500     3
 OLDACT:UP  20-06-06 10:19 OP:AMMR STATUS:               ID:20200606072500     3
 OLDACT:UP  20-06-06 10:19 OP:AMMR STATUS:               ID:20200606072500     3
 OLDACT:ARG 20-06-06 10:05 OP:plst STATUS:               ID:20200606072500     3
 OLDACT:UP  20-06-06 10:22 OP:AMMR STATUS:               ID:20200606072500     3
 OLDACT:UP  20-06-06 10:21 OP:AMMR STATUS:               ID:20200606072500     3
 ACTION:UP  22-01-18 18:54 OP:JMLC STATUS:               ID:20200606072515 L   I
 OLDACT:UP  22-01-03 00:00 OP:NJM  STATUS:               ID:20200606072500     3
 OLDACT:UP  20-06-06 10:22 OP:AMMR STATUS:               ID:20200606072500     3
 STAT SP IPHASW D HRMM SECON CODA AMPLIT PERI AZIMU VELO AIN AR TRES W  DIS CAZ7
 PCDR BZ IP        725 28.70   23                         90    0.0710 80.0 305 
 PCDR BN IS        725 38.50                              90    0.4110 80.0 305 
 PCDR BN  IAML     725 46.93       120.3 1.85                          80.0 305 
 HIDR BZ IP        725 33.82   31                         90   -0.0610  115 298 
 HIDR BN IS        725 47.21                              90   -0.0210  115 298 
 HIDR BN  IAML     725 48.33        10.3 0.15                           115 298 
 SJG  BZ IP        725 41.01   36                         55   -0.1610  170  89 
 SJG  BN IS        725 59.92                              55    0.0110  170  89 
 HMDR BZ IP        725 43.71   43                         55    0.4210  187 294 
 HMDR BN ESg    C  726  5.87                              90   -0.5610  187 294 
 HMDR BN  IAML     726  8.91         2.7 0.15                           187 294 
 NADR BZ IP        725 52.11                              55   -0.2910  261 302 
 BADR BZ IP        725 54.69                              55    0.1810  277 277 
                                                                                
 2020  6 6 0950 11.50L  16.951 -68.476 50.1  DOM  7 7.1 3.9LDOM 3.7CDOM 3.7WDOM1
 SPEC AVERAGE  MO 14.6 ST 10.8 OM  3.6 f0 2.65 R0.6538 AL 0.00 WI 20.0 MW  3.7 3
 SPEC SD       MO  0.4 ST151.8 OM  0.9 f0 5.57 R0.3031 AL      WI      MW  0.3 3
 GAP=227       18.88     114.6    63.4313.4  0.1505E+04  0.3954E+04  0.1489E+05E
 SPEC PCDRBH N MO 14.7 ST  3.6 OM  3.2 f0 1.68 R0.8589 AL-0.00 WI 20.0 MW  3.8 3
 SPEC PCDRBH N T 95046 K 0.020 GD  180 VS 3.90 DE 2.90 Q0400.0 QA 0.70 Q1 0.00 3
 SPEC SMDRBH N MO 14.4 ST  2.8 OM  2.7 f0 1.98 R0.7288 AL-0.00 WI 20.0 MW  3.5 3
 SPEC SMDRBH N T 951 4 K 0.020 GD  274 VS 3.90 DE 2.90 Q0400.0 QA 0.70 Q1 0.00 3
 SPEC NAVIBH N MO 15.0 ST 14.9 OM  3.3 f0 2.16 R0.6681 AL-0.00 WI 20.0 MW  3.9 3
 SPEC NAVIBH N T 95126 K 0.020 GD  280 VS 3.90 DE 2.90 Q0400.0 QA 0.70 Q1 0.00 3
 SPEC BADRBH N MO 14.3 ST 24.1 OM  2.6 f0 4.25 R0.3395 AL-0.00 WI 20.0 MW  3.5 3
 SPEC BADRBH N T 95143 K 0.020 GD  299 VS 3.90 DE 2.90 Q0400.0 QA 0.70 Q1 0.00 3
 SPEC HIDRBH N MO 14.2 ST 31.2 OM  2.7 f0 4.99 R0.2892 AL-0.00 WI 20.0 MW  3.4 3
 SPEC HIDRBH N T 95052 K 0.020 GD  189 VS 3.90 DE 2.90 Q0400.0 QA 0.70 Q1 0.00 3
 SPEC HMDRBH N MO 14.0 ST  7.4 OM  2.4 f0 3.64 R0.3964 AL-0.00 WI 20.0 MW  3.3 3
 SPEC HMDRBH N T 951 9 K 0.020 GD  230 VS 3.90 DE 2.90 Q0400.0 QA 0.70 Q1 0.00 3
 SPEC LADRBH N MO 15.0 ST  4.9 OM  3.2 f0 1.47 R0.9816 AL-0.00 WI 20.0 MW  4.0 3
 SPEC LADRBH N T 95116 K 0.020 GD  370 VS 3.90 DE 2.90 Q0400.0 QA 0.70 Q1 0.00 3
 LOCALITY: 152.4 Km al Este de Miches, Oceano Atlantico.                       3
 2020-06-06-0950-00S.MAN___126                                                 6
 OLDACT:UP  20-06-06 10:31 OP:AMMR STATUS:               ID:20200606095000     3
 OLDACT:UP  20-06-06 10:30 OP:AMMR STATUS:               ID:20200606095000     3
 OLDACT:UP  20-06-06 10:30 OP:AMMR STATUS:               ID:20200606095000     3
 OLDACT:ARG 20-06-06 10:03 OP:plst STATUS:               ID:20200606095000     3
 OLDACT:UP  20-06-06 10:32 OP:AMMR STATUS:               ID:20200606095000     3
 OLDACT:UP  20-06-06 10:31 OP:AMMR STATUS:               ID:20200606095000     3
 ACTION:UP  22-01-18 18:54 OP:JMLC STATUS:               ID:20200606095011 L   I
 OLDACT:UP  22-01-03 00:05 OP:NJM  STATUS:               ID:20200606095000     3
 OLDACT:UP  22-01-03 00:00 OP:NJM  STATUS:               ID:20200606095000     3
 OLDACT:UP  20-06-06 10:32 OP:AMMR STATUS:               ID:20200606095000     3
 STAT SP IPHASW D HRMM SECON CODA AMPLIT PERI AZIMU VELO AIN AR TRES W  DIS CAZ7
 PCDR BZ IP     C  950 36.33   81                         83    0.9310  173   3 
 PCDR BN IS     C  950 47.83                              83   -5.2710  173   3 
 PCDR BN  IAML     950 48.43       820.8 0.55                           173   3 
 HIDR BZ IP     C  950 39.73   72                         83    3.1010  183 352 
 HIDR BN IS     C  950 53.61                              83   -1.6210  183 352 
 HIDR BN  IAML     950 58.21       640.4 0.25                           183 352 
 HMDR BZ IP     C  950 49.27  105                         83    7.5810  225 335 
 HMDR BN IS     C  951 13.11                              83    9.0810  225 335 
 HMDR BN  IAML     951 16.06       164.3 0.25                           225 335 
 SMDR BZ IP     D  950 47.22   84                         83    0.1510  270 344 
 SMDR BN IS     C  951  6.50                              83   -6.9110  270 344 
 SMDR BN  IAML     951 17.77       304.2 0.60                           270 344 
 NAVI BZ IP     C  951  0.24   86                         83   12.2710  276 324 
 NAVI BN  IAML     951 35.06      5381.2 0.20                           276 324 
 SJG  BZ IP     C  950 48.85   73                         83    0.6710  278  62 
 SJG  BN IS     D  951  9.37                              83   -5.9710  278  62 
 LADR BN IS     C  951 19.85                              83   -14.010  367 290 
 LADR BN  IAML     951 31.88       535.7 0.35                           367 290 
                                                                                
 2020  6 6 0955 55.50L  18.940 -67.664 19.9  DOM  6 0.5 2.7LDOM 3.5CDOM 3.1WDOM1
 SPEC AVERAGE  MO 13.7 ST  9.5 OM  3.0 f0 5.92 R2.5513 AL 0.00 WI 20.0 MW  3.1 3
 SPEC SD       MO  1.3 ST 15.9 OM  1.5 f0 6.04 R3.8180 AL      WI      MW  0.9 3
 GAP=196        1.22      15.0     5.6 93.0  0.7006E+02 -0.3865E+03 -0.1182E+04E
 SPEC PCDRBH N MO 13.2 ST0.348 OM  1.8 f0 2.71 R0.6048 AL-0.00 WI 20.0 MW  2.8 3
 SPEC PCDRBH N T 95618 K 0.020 GD 91.3 VS 4.43 DE 3.34 Q0400.0 QA 0.70 Q1 0.00 3
 SPEC HIDRBH N MO 13.0 ST 37.1 OM  1.4 f0 16.0 R0.1024 AL-0.00 WI 20.0 MW  2.6 3
 SPEC HIDRBH N T 95625 K 0.020 GD  118 VS 4.43 DE 3.34 Q0400.0 QA 0.70 Q1 0.00 3
 SPEC SMDRBH N MO 12.7 ST0.562 OM  1.0 f0 4.81 R0.3408 AL-0.00 WI 20.0 MW  2.4 3
 SPEC SMDRBH N T 95639 K 0.020 GD  166 VS 4.43 DE 3.34 Q0400.0 QA 0.70 Q1 0.00 3
 SPEC NAVIBH N MO 16.0 ST0.055 OM  4.1 f00.179 R9.1570 AL-0.00 WI 20.0 MW  4.6 3
 SPEC NAVIBH N T 957 1 K 0.020 GD  249 VS 4.43 DE 3.34 Q0400.0 QA 0.70 Q1 0.00 3
 LOCALITY: 87.1 Km al ENE de Punta Cana, Canal de la Mona.                     3
 2020-06-06-0955-00S.MAN___126                                                 6
 OLDACT:ARG 20-06-06 10:08 OP:plst STATUS:               ID:20200606095500     3
 OLDACT:UP  20-06-06 10:39 OP:AMMR STATUS:               ID:20200606095500     3
 OLDACT:UP  20-06-06 10:38 OP:AMMR STATUS:               ID:20200606095500     3
 ACTION:UP  22-01-18 18:54 OP:JMLC STATUS:               ID:20200606095555 L   I
 STAT SP IPHASW D HRMM SECON CODA AMPLIT PERI AZIMU VELO AIN AR TRES W  DIS CAZ7
 PCDR BZ EPg    C  956  9.99   68                         98    0.2110 89.1 238 
 PCDR BN ESg       956 20.43                              98    0.1010 89.1 238 
 PCDR BN  IAML     956 27.63       147.0 2.65                          89.1 238 
 HIDR BZ EPg    C  956 13.27   70                         95   -0.7510  117 251 
 HIDR BN  IAML     956 30.61        85.9 0.20                           117 251 
 SMDR BE ESg    C  956 40.74                              93    0.5110  165 284 
 SMDR BN  IAML     957 12.92        59.4 1.45                           165 284 
 HMDR BZ EPg    C  956 23.48   82                         93   -0.2910  182 265 
 HMDR BN  IAML     956 52.26        35.2 2.90                           182 265 
 SJG  BN ESg       956 45.68                              93    0.3210  184 120 
 NAVI BZ EPg    C  956 33.35   70                         92   -0.6210  249 271 
 NAVI BN ESg    C  957  2.94                              92    0.5210  249 271 
 NAVI BN  IAML     957  8.64       501.1 0.20                           249 271 
                                                                                
 2020  6 6 1023  5.00L  18.868 -67.755 29.6  DOM  5 0.9 2.2LDOM 2.8CDOM 2.4WDOM1
 SPEC AVERAGE  MO 12.6 ST0.187 OM  2.6 f0 3.46 R0.4921 AL 0.00 WI 20.0 MW  2.4 3
 SPEC SD       MO  0.1 ST0.063 OM  1.5 f00.755 R0.1072 AL      WI      MW  0.1 3
 GAP=189        2.20      15.2     6.9 16.8  0.4632E+02  0.1616E+02  0.2765E+01E
 SPEC PCDRBH N MO 12.8 ST0.124 OM  1.4 f0 2.71 R0.5994 AL-0.00 WI 20.0 MW  2.5 3
 SPEC PCDRBH N T102326 K 0.020 GD 82.3 VS 4.39 DE 3.31 Q0400.0 QA 0.70 Q1 0.00 3
 SPEC HMDRBH N MO 12.5 ST0.249 OM  0.8 f0 4.22 R0.3849 AL-0.00 WI 20.0 MW  2.3 3
 SPEC HMDRBH N T102349 K 0.020 GD  174 VS 4.39 DE 3.31 Q0400.0 QA 0.70 Q1 0.00 3
 LOCALITY: 79.7 Km al ENE de Punta Cana, Canal de la Mona.                     3
 2020-06-06-1022-00S.MAN___126                                                 6
 OLDACT:ARG 20-06-06 10:41 OP:plst STATUS:               ID:20200606102200     3
 OLDACT:UP  20-06-06 10:45 OP:AMMR STATUS:               ID:20200606102200     3
 OLDACT:UP  20-06-06 10:44 OP:AMMR STATUS:               ID:20200606102200     3
 ACTION:UP  22-01-18 18:55 OP:JMLC STATUS:               ID:20200606102305 L   I
 OLDACT:UP  20-06-06 10:45 OP:AMMR STATUS:               ID:20200606102200     3
 STAT SP IPHASW D HRMM SECON CODA AMPLIT PERI AZIMU VELO AIN AR TRES W  DIS CAZ7
 PCDR BZ EPg    C 1023 16.69   35                        102   -0.8010 76.8 239 
 PCDR BN ESg      1023 28.06                             102    1.3710 76.8 239 
 PCDR BN  IAML    1023 32.16        86.1 2.25                          76.8 239 
 HIDR BZ EPg    C 1023 21.02   31                         97   -0.5010  106 253 
 HIDR BN IS       1023 31.87                              62   -0.9010  106 253 
 HIDR BN  IAML    1023 43.89        33.3 1.65                           106 253 
 SMDR BN ESg    C 1023 47.44                              94    1.0210  158 287 
 SMDR BN  IAML    1023 48.32        84.3 0.65                           158 287 
 HMDR BZ EPg    C 1023 30.18   45                         93   -0.6010  172 267 
 HMDR BN  IAML    1024  0.74        27.2 2.80                           172 267 
 SJG  BN ESg      1023 54.48                              93    0.4010  189 116 
                                                                                
 2020  6 6 1700  9.10L  19.102 -70.162 29.7  DOM  4 0.5 2.1LDOM 2.4CDOM 2.6WDOM1
 SPEC AVERAGE  MO 12.9 ST0.965 OM  2.9 f0 6.88 R0.6838 AL 0.00 WI 20.0 MW  2.6 3
 SPEC SD       MO  0.9 ST0.790 OM  1.7 f0 5.52 R0.5495 AL      WI      MW  0.6 3
 GAP=275        1.39      12.7     8.5  8.7 -0.7705E+02  0.4368E+01 -0.1002E+02E
 SPEC NAVIBH N MO 13.9 ST0.175 OM  2.8 f0 1.35 R1.2333 AL-0.00 WI 20.0 MW  3.2 3
 SPEC NAVIBH N T17 017 K 0.020 GD 36.5 VS 4.50 DE 3.40 Q0400.0 QA 0.70 Q1 0.00 3
 SPEC HMDRBH N MO 12.0 ST  1.8 OM  0.5 f0 12.4 R0.1343 AL-0.00 WI 20.0 MW  1.9 3
 SPEC HMDRBH N T17 032 K 0.020 GD 94.1 VS 4.50 DE 3.40 Q0400.0 QA 0.70 Q1 0.00 3
 LOCALITY: 0.6 Km al ESE de La Mata, Sanchez Ramirez.                          3
 2020-06-06-1659-00S.MAN___126                                                 6
 OLDACT:ARG 20-06-06 17:36 OP:cgrs STATUS:               ID:20200606165900     3
 OLDACT:UP  20-06-06 17:40 OP:CGRS STATUS:               ID:20200606165900     3
 OLDACT:UP  20-06-06 17:40 OP:CGRS STATUS:               ID:20200606165900     3
 ACTION:UP  22-01-18 18:55 OP:JMLC STATUS:               ID:20200606170009 L   I
 STAT SP IPHASW D HRMM SECON CODA AMPLIT PERI AZIMU VELO AIN AR TRES W  DIS CAZ7
 NAVI BZ EPg    D 17 0 14.80   13                        142    0.0710 21.2 138 
 NAVI BN ESg    C 17 0 18.87                             142   -0.0410 21.2 138 
 NAVI BN  IAML    17 0 19.50       950.8 0.20                          21.2 138 
 BADR BZ EPg    D 17 0 22.93   29                        102    0.8010 80.7 195 
 BADR BN ESg    C 17 0 31.32                             102   -0.4610 80.7 195 
 BADR BN  IAML    17 0 36.62        64.1 1.15                          80.7 195 
 HMDR BZ EPg    C 17 0 22.34   47                         99   -0.9410 89.3 113 
 HMDR BN ESg    D 17 0 34.29                              99    0.5010 89.3 113 
 HMDR BN  IAML    17 1 18.47        24.0 2.85                          89.3 113 
 HIDR BZ EPg      17 0 33.57   23                         93    0.0510  163 110 
 HIDR BN  IAML    17 0 58.78        27.5 0.80                           163 110 
                                                                                
 2020  6 6 1855 18.90L  18.592 -70.375  0.0  DOM  6 0.2 1.7LDOM 2.7CDOM 2.3WDOM1
 SPEC AVERAGE  MO 12.5 ST 43.5 OM  2.6 f0 8.17 R0.2494 AL 0.00 WI 20.0 MW  2.3 3
 SPEC SD       MO  0.4 ST 71.7 OM  0.9 f0 5.05 R0.2049 AL      WI      MW  0.3 3
 GAP=118        0.63       2.8     2.7 67.6  0.1854E+01 -0.1037E+03 -0.3945E+02E
 SPEC BADRBH N MO 12.6 ST  5.5 OM  2.3 f0 8.14 R0.1455 AL-0.00 WI 20.0 MW  2.3 3
 SPEC BADRBH N T185523 K 0.020 GD 21.5 VS 3.20 DE 2.60 Q0400.0 QA 0.70 Q1 0.00 3
 SPEC NAVIBH N MO 13.2 ST167.6 OM  2.5 f0 16.0 R0.0740 AL-0.00 WI 20.0 MW  2.7 3
 SPEC NAVIBH N T185533 K 0.020 GD 54.7 VS 3.20 DE 2.60 Q0400.0 QA 0.70 Q1 0.00 3
 SPEC SDDRBH N MO 12.4 ST0.047 OM  1.4 f0 1.98 R0.5980 AL-0.00 WI 20.0 MW  2.2 3
 SPEC SDDRBH N T185548 K 0.020 GD  102 VS 3.20 DE 2.60 Q0400.0 QA 0.70 Q1 0.00 3
 SPEC HMDRBH N MO 12.1 ST0.873 OM  1.1 f0 6.57 R0.1802 AL-0.00 WI 20.0 MW  2.0 3
 SPEC HMDRBH N T185548 K 0.020 GD  103 VS 3.20 DE 2.60 Q0400.0 QA 0.70 Q1 0.00 3
 LOCALITY: 12.9 Km al Este de Sabana Larga, San Jose de Ocoa.                  3
 2020-06-06-1854-00S.MAN___126                                                 6
 OLDACT:ARG 20-06-06 23:16 OP:cgrs STATUS:               ID:20200606185400     3
 OLDACT:UP  20-06-06 23:22 OP:CGRS STATUS:               ID:20200606185400     3
 OLDACT:UP  20-06-06 23:22 OP:CGRS STATUS:               ID:20200606185400     3
 ACTION:UP  22-01-18 18:55 OP:JMLC STATUS:               ID:20200606185518 L   I
 STAT SP IPHASW D HRMM SECON CODA AMPLIT PERI AZIMU VELO AIN AR TRES W  DIS CAZ7
 BADR BZ EPg      1855 22.29   25                         93   -0.1010 21.5 176 
 BADR BN  IAML    1855 26.31       574.0 0.20                          21.5 176 
 ABDR BZ EPg      1855 24.40   27                         95   -0.3610 36.1 313 
 ABDR BN  IAML    1856 10.07         0.3 0.45                          36.1 313 
 NAVI BZ EPg    C 1855 27.77   40                         91    0.0210 54.7  42 
 NAVI BN  IAML    1856  0.71       573.4 0.20                          54.7  42 
 SDDR BZ EPg      1855 36.32   45                         90    0.3610  106 294 
 SDDR BN  IAML    1855 56.18        20.8 0.60                           106 294 
 HMDR BZ EPg    C 1855 36.10   42                         90   -0.0910  107  78 
 HMDR BN  IAML    1855 50.27        34.0 0.65                           107  78 
 HIDR BZ EPg    C 1855 47.34   46                         90    0.1610  175  90 
 HIDR BN  IAML    1856 40.90        69.0 0.20                           175  90 
                                                                                
