 2020 12 3 0053  0.70L  18.011 -71.370 15.3  DOM  7 0.7 2.7LDOM 2.7CDOM 3.1WDOM1
 SPEC AVERAGE  MO 13.7 ST  9.1 OM  3.4 f0 3.48 R0.5466 AL 0.00 WI 20.0 MW  3.1 3
 SPEC SD       MO  0.2 ST 17.6 OM  1.0 f0 1.78 R0.3107 AL      WI      MW  0.2 3
 GAP=248        1.87       9.7     5.9  7.3  0.2646E+02  0.1079E+02  0.1324E+02E
 SPEC PODRBH N MO 14.0 ST 52.1 OM  3.4 f0 6.82 R0.2105 AL-0.00 WI 20.0 MW  3.3 3
 SPEC PODRBH N T 053 6 K 0.020 GD 24.9 VS 3.88 DE 2.89 Q0400.0 QA 0.70 Q1 0.00 3
 SPEC NEDRBH N MO 13.9 ST  2.3 OM  2.9 f0 2.71 R0.5297 AL-0.00 WI 20.0 MW  3.2 3
 SPEC NEDRBH N T 05314 K 0.020 GD 55.5 VS 3.88 DE 2.89 Q0400.0 QA 0.70 Q1 0.00 3
 SPEC JIDRBH N MO 13.9 ST  1.2 OM  2.8 f0 2.11 R0.6804 AL-0.00 WI 20.0 MW  3.2 3
 SPEC JIDRBH N T 05321 K 0.020 GD 75.5 VS 3.88 DE 2.89 Q0400.0 QA 0.70 Q1 0.00 3
 SPEC SDDRBH N MO 13.8 ST0.149 OM  2.5 f0 1.18 R1.2166 AL-0.00 WI 20.0 MW  3.1 3
 SPEC SDDRBH N T 05328 K 0.020 GD  109 VS 3.88 DE 2.89 Q0400.0 QA 0.70 Q1 0.00 3
 SPEC BADRBH N MO 13.6 ST  3.0 OM  2.3 f0 3.68 R0.3901 AL-0.00 WI 20.0 MW  3.0 3
 SPEC BADRBH N T 05333 K 0.020 GD  116 VS 3.88 DE 2.89 Q0400.0 QA 0.70 Q1 0.00 3
 SPEC ABDRBH N MO 13.5 ST  1.1 OM  2.2 f0 2.77 R0.5183 AL-0.00 WI 20.0 MW  3.0 3
 SPEC ABDRBH N T 05334 K 0.020 GD  118 VS 3.88 DE 2.89 Q0400.0 QA 0.70 Q1 0.00 3
 SPEC REDRBH N MO 13.3 ST  4.0 OM  1.9 f0 5.11 R0.2809 AL-0.00 WI 20.0 MW  2.8 3
 SPEC REDRBH N T 05337 K 0.020 GD  144 VS 3.88 DE 2.89 Q0400.0 QA 0.70 Q1 0.00 3
 LOCALITY: 13.2 Km al SO de Polo, Barahona.                                    3
 2020-12-03-0051-00S.MAN___129                                                 6
 OLDACT:UP  20-12-03 01:55 OP:AMMR STATUS:               ID:20201203005100     3
 OLDACT:UP  20-12-03 01:52 OP:AMMR STATUS:               ID:20201203005100     3
 OLDACT:ARG 20-12-03 01:08 OP:njm  STATUS:               ID:20201203005100     3
 OLDACT:UP  20-12-03 01:55 OP:AMMR STATUS:               ID:20201203005100     3
 OLDACT:UP  20-12-03 01:55 OP:AMMR STATUS:               ID:20201203005100     3
 ACTION:UP  22-01-13 17:41 OP:jmlc STATUS:               ID:20201203005300 L   I
 OLDACT:UP  20-12-03 02:03 OP:AMMR STATUS:               ID:20201203005100     3
 STAT SP IPHASW D HRMM SECON CODA AMPLIT PERI AZIMU VELO AIN AR TRES W  DIS CAZ7
 PODR BZ IP     C  053  3.86   21                        128   -1.0010 19.6  29 
 PODR BE ISg    D  053  8.31                             128    0.4010 19.6  29 
 PODR BN  IAML     053  8.52      7233.6 0.20                          19.6  29 
 NEDR BZ IP     D  053  8.86   22                         98   -0.6510 53.3 349 
 NEDR BN IS     D  053 16.05                              98    0.0410 53.3 349 
 NEDR BN  IAML     053 17.35       741.6 0.30                          53.3 349 
 JIDR BZ IP     D  053 12.62   38                         95    0.0010 73.9 316 
 JIDR BE IS     D  053 22.53                              95    1.1210 73.9 316 
 JIDR BN  IAML     053 36.35       399.9 0.50                          73.9 316 
 SDDR BZ IP     C  053 16.73   37                         93   -1.0010  108   5 
 SDDR BE IS     D  053 30.39                              93    0.0710  108   5 
 SDDR BN  IAML     053 40.54        95.2 0.60                           108   5 
 BADR BZ IP     C  053 19.84   42                         68    0.9610  115  68 
 BADR BE ISg    D  053 32.14                              92   -0.1910  115  68 
 BADR BN  IAML     053 37.75       184.2 0.40                           115  68 
 ABDR BZ IP     C  053 20.57   36                         92    1.0610  118  41 
 ABDR BN  IAML     053 42.13       138.8 0.25                           118  41 
 REDR BZ IP     D  053 21.97   43                         55   -0.6210  144 346 
 REDR BE IS     C  053 38.58                              55   -0.1910  144 346 
 REDR BN  IAML     053 43.28       108.8 0.25                           144 346 
                                                                                
 2020 12 3 0116 26.80L  18.945 -68.014 14.1  DOM  8 0.5 3.1LDOM 3.0CDOM 2.6WDOM1
 SPEC AVERAGE  MO 13.0 ST  1.2 OM  3.6 f0 3.55 R0.3340 AL 0.00 WI 20.0 MW  2.6 3
 SPEC SD       MO  0.2 ST0.365 OM  1.7 f00.045 R0.0042 AL      WI      MW  0.1 3
 GAP=189        1.29       5.0     2.5 14.5  0.5852E+01 -0.1037E+02 -0.1593E+02E
 SPEC CRPRBH N MO 12.8 ST0.788 OM  1.7 f0 3.59 R0.3298 AL-0.00 WI 20.0 MW  2.5 3
 SPEC CRPRBH N T 117 7 K 0.020 GD  143 VS 3.20 DE 2.60 Q0400.0 QA 0.70 Q1 0.00 3
 SPEC AOPRBH N MO 13.1 ST  1.5 OM  2.0 f0 3.50 R0.3383 AL-0.00 WI 20.0 MW  2.7 3
 SPEC AOPRBH N T 117 9 K 0.020 GD  149 VS 3.20 DE 2.60 Q0400.0 QA 0.70 Q1 0.00 3
 LOCALITY: 105.9 Km al Este de Miches. Oceano Atlantico.                       3
 2020-12-03-0116-00S.MAN___129                                                 6
 OLDACT:ARG 20-12-03 03:41 OP:njm  STATUS:               ID:20201203011600     3
 OLDACT:UP  20-12-03 03:51 OP:AMMR STATUS:               ID:20201203011600     3
 ACTION:UP  22-01-13 17:41 OP:jmlc STATUS:               ID:20201203011626 L   I
 OLDACT:UP  21-12-08 12:21 OP:CGRS STATUS:               ID:20201203011600     3
 OLDACT:UP  21-12-08 12:18 OP:CGRS STATUS:               ID:20201203011600     3
 OLDACT:UP  21-12-08 12:13 OP:CGRS STATUS:               ID:20201203011600     3
 OLDACT:UP  20-12-03 03:52 OP:AMMR STATUS:               ID:20201203011600     3
 STAT SP IPHASW D HRMM SECON CODA AMPLIT PERI AZIMU VELO AIN AR TRES W  DIS CAZ7
 PCDR BZ IP     D  116 36.49   35                         94   -0.2910 61.5 219 
 PCDR BE IS     C  116 44.29                              94    0.1110 61.5 219 
 PCDR BN  IAML     116 45.13      1009.3 0.25                          61.5 219 
 HIDR BZ IP     C  116 39.67   39                         92   -0.4710 83.7 242 
 HIDR BE IS     C  116 49.71                              92   -0.3110 83.7 242 
 HIDR BN  IAML     116 55.14       296.2 0.25                          83.7 242 
 SADR BZ EPg    C  116 45.27   52                         91    0.2310  116 224 
 SADR BN  IAML     117  4.40       208.2 0.40                           116 224 
 SMDR BZ EPg    C  116 46.61   41                         91   -0.4410  129 287 
 SMDR BE ESg    C  117  3.01                              91    0.9710  129 287 
 SMDR BN  IAML     117  6.54      1069.2 0.30                           129 287 
 CRPR BZ IP     C  116 48.45   54                         55   -0.0110  143 137 
 CRPR BE ESg    D  117  5.51                              91   -0.0310  143 137 
 CRPR BN  IAML     117 12.06       296.7 0.36                           143 137 
 MLPR BZ IP   3 D  116 49.37   54                         55    0.14 2  149 136 
 MLPR BE ISg    D  117  8.07                              91    0.8910  149 136 
 MLPR BN  IAML     117 14.03       309.9 0.32                           149 136 
 AOPR BZ EPg    D  116 50.16   49                         91    0.1910  149 116 
 AOPR BE ISg    D  117  6.67                              91   -0.4710  149 116 
 AOPR BN  IAML     117 18.89       415.4 0.32                           149 116 
 CELP BZ EPg    C  116 53.92   48                         91   -0.7810  180 122 
 CELP BN ISg    D  117 15.77                              91    0.4110  180 122 
 CELP BN  IAML     117 20.33       436.3 0.32                           180 122 
                                                                                
 2020 12 3 0133 54.30L  18.009 -71.282 13.5  DOM  4 0.2 2.7LDOM 2.4CDOM 2.5WDOM1
 SPEC AVERAGE  MO 12.8 ST  3.9 OM  2.9 f0 5.83 R0.2935 AL 0.00 WI 20.0 MW  2.5 3
 SPEC SD       MO  0.1 ST  4.8 OM  1.3 f0 2.77 R0.1049 AL      WI      MW  0.1 3
 GAP=312        0.52       3.8     3.3  2.1  0.1264E+01  0.2087E+01  0.6566E+00E
 SPEC PODRBH N MO 12.9 ST 10.6 OM  2.3 f0 9.75 R0.1457 AL-0.00 WI 20.0 MW  2.5 3
 SPEC PODRBH N T 13359 K 0.020 GD 22.0 VS 3.84 DE 2.87 Q0400.0 QA 0.70 Q1 0.00 3
 SPEC JIDRBH N MO 12.6 ST0.426 OM  1.5 f0 3.98 R0.3570 AL-0.00 WI 20.0 MW  2.4 3
 SPEC JIDRBH N T 13415 K 0.020 GD 81.9 VS 3.84 DE 2.87 Q0400.0 QA 0.70 Q1 0.00 3
 SPEC REDRBH N MO 12.8 ST0.503 OM  1.4 f0 3.76 R0.3779 AL-0.00 WI 20.0 MW  2.5 3
 SPEC REDRBH N T 13431 K 0.020 GD  144 VS 3.84 DE 2.87 Q0400.0 QA 0.70 Q1 0.00 3
 LOCALITY: 9.0 Km al Sur de Polo. Barahona.                                    3
 2020-12-03-0133-00S.MAN___129                                                 6
 OLDACT:ARG 20-12-03 03:42 OP:njm  STATUS:               ID:20201203013300     3
 OLDACT:UP  20-12-03 03:58 OP:AMMR STATUS:               ID:20201203013300     3
 ACTION:UP  22-01-13 17:41 OP:jmlc STATUS:               ID:20201203013354 L   I
 OLDACT:UP  20-12-03 03:58 OP:AMMR STATUS:               ID:20201203013300     3
 STAT SP IPHASW D HRMM SECON CODA AMPLIT PERI AZIMU VELO AIN AR TRES W  DIS CAZ7
 PODR BZ IP     C  133 58.27   18                        127    0.2410 17.4   0 
 PODR BE IS     D  134  0.77                             127   -0.0010 17.4   0 
 PODR BN  IAML     134  3.34      4961.2 0.25                          17.4   0 
 NEDR BZ IP     C  134  3.42   20                         94   -0.0810 56.1 339 
 NEDR BE IS     C  134 10.07                              94   -0.2210 56.1 339 
 NEDR BN  IAML     134 12.35       570.8 0.30                          56.1 339 
 JIDR BZ IP     C  134  7.02   27                         92   -0.2310 80.8 312 
 JIDR BE IS     D  134 17.03                              92    0.2210 80.8 312 
 JIDR BN  IAML     134 23.49       317.5 0.35                          80.8 312 
 REDR BZ IP     D  134 16.62   39                         55   -0.0810  147 343 
 REDR BE IS     D  134 33.41                              55    0.1610  147 343 
 REDR BN  IAML     134 33.91        53.4 0.25                           147 343 
                                                                                
 2020 12 3 0211  8.80L  18.810 -70.459100.5  DOM  7 0.6 2.5LDOM 2.7CDOM 2.8WDOM1
 SPEC AVERAGE  MO 13.3 ST  3.6 OM  2.3 f0 5.89 R0.3848 AL 0.00 WI 20.0 MW  2.8 3
 SPEC SD       MO  0.7 ST  2.3 OM  1.0 f0 2.71 R0.2391 AL      WI      MW  0.5 3
 GAP=115        1.67       8.8     5.5 10.1 -0.8663E+01 -0.3962E+01 -0.1307E+02E
 SPEC BADRBH N MO 13.0 ST  5.4 OM  1.5 f0 7.94 R0.2088 AL-0.00 WI 20.0 MW  2.6 3
 SPEC BADRBH N T 21133 K 0.020 GD  110 VS 4.48 DE 3.40 Q0400.0 QA 0.70 Q1 0.00 3
 SPEC NADRBH N MO 14.4 ST  2.5 OM  2.8 f0 2.12 R0.7819 AL-0.00 WI 20.0 MW  3.6 3
 SPEC NADRBH N T 21137 K 0.020 GD  133 VS 4.48 DE 3.40 Q0400.0 QA 0.70 Q1 0.00 3
 SPEC REDRBH N MO 12.9 ST  6.0 OM  1.2 f0 8.92 R0.1858 AL-0.00 WI 20.0 MW  2.6 3
 SPEC REDRBH N T 21149 K 0.020 GD  173 VS 4.48 DE 3.40 Q0400.0 QA 0.70 Q1 0.00 3
 SPEC SMDRBH N MO 12.6 ST0.412 OM  0.9 f0 4.57 R0.3627 AL-0.00 WI 20.0 MW  2.4 3
 SPEC SMDRBH N T 21147 K 0.020 GD  175 VS 4.48 DE 3.40 Q0400.0 QA 0.70 Q1 0.00 3
 LOCALITY: 9.4 Km al SSO de Bonao. Monseor Nouel.                             3
 2020-12-03-0210-00S.MAN___129                                                 6
 OLDACT:ARG 20-12-03 03:43 OP:njm  STATUS:               ID:20201203021000     3
 OLDACT:UP  20-12-03 04:04 OP:AMMR STATUS:               ID:20201203021000     3
 ACTION:UP  22-01-13 17:41 OP:jmlc STATUS:               ID:20201203021108 L   I
 OLDACT:UP  20-12-03 04:04 OP:AMMR STATUS:               ID:20201203021000     3
 STAT SP IPHASW D HRMM SECON CODA AMPLIT PERI AZIMU VELO AIN AR TRES W  DIS CAZ7
 ABDR BZ IP     D  211 21.65   24                        169   -0.9210 17.6 271 
 ABDR BE IS     C  211 32.13                             169   -0.6110 17.6 271 
 ABDR BN  IAML     211 34.63        29.1 1.00                          17.6 271 
 BADR BZ IP     C  211 23.23   27                        153   -0.1710 46.7 167 
 BADR BE IS     C  211 34.89                             153    0.7010 46.7 167 
 BADR BN  IAML     211 36.21        58.6 1.90                          46.7 167 
 NADR BZ IP     C  211 25.05   28                        135   -1.0710 87.5  46 
 NADR BE IS     C  211 39.18                             135    0.2610 87.5  46 
 NADR BN  IAML     211 39.50       615.9 0.25                          87.5  46 
 PODR BZ IP        211 28.72   38                        127    0.1710  112 231 
 PODR BN  IAML     211 53.46       120.7 0.35                           112 231 
 REDR BZ IP     D  211 31.60   44                        120    0.3910  141 292 
 REDR BE ISg    C  211 48.40                             120    0.6110  141 292 
 SMDR BZ IP     D  211 31.02   31                        119   -0.4510  144  68 
 SMDR BE IS     D  211 49.21                             119    0.9810  144  68 
 SMDR BN  IAML     212 31.83        33.7 0.65                           144  68 
 PCDR BZ IP     C  211 40.04   47                        107    0.1110  222  98 
 PCDR BN  IAML     212 10.98        74.3 0.40                           222  98 
                                                                                
 2020 12 3 0317 55.80L  18.049 -71.376 10.7  DOM  6 0.8 2.5LDOM 2.7CDOM 2.7WDOM1
 SPEC AVERAGE  MO 13.2 ST 12.0 OM  2.8 f0 5.27 R0.3340 AL 0.00 WI 20.0 MW  2.7 3
 SPEC SD       MO  0.3 ST 19.4 OM  0.7 f0 2.74 R0.1917 AL      WI      MW  0.2 3
 GAP=244        2.12      11.6     5.7  7.3  0.2914E+02  0.1470E+02  0.2615E+02E
 SPEC PODRBH N MO 13.4 ST 50.5 OM  3.1 f0 9.44 R0.1337 AL-0.00 WI 20.0 MW  2.9 3
 SPEC PODRBH N T 31759 K 0.020 GD 19.5 VS 3.41 DE 2.69 Q0400.0 QA 0.70 Q1 0.00 3
 SPEC NEDRBH N MO 13.4 ST0.850 OM  2.7 f0 2.40 R0.5257 AL-0.00 WI 20.0 MW  2.9 3
 SPEC NEDRBH N T 318 8 K 0.020 GD 50.2 VS 3.41 DE 2.69 Q0400.0 QA 0.70 Q1 0.00 3
 SPEC JIDRBH N MO 13.4 ST0.504 OM  2.5 f0 2.09 R0.6037 AL-0.00 WI 20.0 MW  2.9 3
 SPEC JIDRBH N T 31815 K 0.020 GD 71.3 VS 3.41 DE 2.69 Q0400.0 QA 0.70 Q1 0.00 3
 SPEC BADRBH N MO 13.0 ST  5.2 OM  1.9 f0 6.28 R0.2009 AL-0.00 WI 20.0 MW  2.6 3
 SPEC BADRBH N T 31829 K 0.020 GD  108 VS 3.41 DE 2.69 Q0400.0 QA 0.70 Q1 0.00 3
 SPEC REDRBH N MO 12.7 ST  2.7 OM  1.6 f0 6.13 R0.2058 AL-0.00 WI 20.0 MW  2.4 3
 SPEC REDRBH N T 31831 K 0.020 GD  122 VS 3.41 DE 2.69 Q0400.0 QA 0.70 Q1 0.00 3
 LOCALITY: 23.9 Km al Norte de Oviedo. Pedernales.                             3
 2020-12-03-0317-00S.MAN___129                                                 6
 OLDACT:ARG 20-12-03 03:40 OP:njm  STATUS:               ID:20201203031700     3
 OLDACT:UP  20-12-03 04:09 OP:AMMR STATUS:               ID:20201203031700     3
 ACTION:UP  22-01-13 17:41 OP:jmlc STATUS:               ID:20201203031755 L   I
 OLDACT:UP  20-12-03 04:10 OP:AMMR STATUS:               ID:20201203031700     3
 STAT SP IPHASW D HRMM SECON CODA AMPLIT PERI AZIMU VELO AIN AR TRES W  DIS CAZ7
 PODR BZ IP     C  317 58.20   26                        127   -0.8610 16.3  38 
 PODR BE IS     D  318  0.70                             127   -0.8010 16.3  38 
 PODR BN  IAML     318  1.20      4133.7 0.15                          16.3  38 
 NEDR BZ IP     D  318  3.15   24                        102   -0.6910 49.0 349 
 NEDR BE IS     C  318 10.46                             102    0.6310 49.0 349 
 NEDR BN  IAML     318 11.76       382.5 0.30                          49.0 349 
 JIDR BZ IP     D  318  7.04   40                         70   -0.1310 70.5 314 
 JIDR BE ESg    D  318 17.01                              99    1.2510 70.5 314 
 JIDR BN  IAML     318 22.72       222.2 0.50                          70.5 314 
 BADR BZ IP     C  318 15.22   40                         70    1.3910  114  70 
 BADR BE ISg    D  318 28.12                              96    0.1910  114  70 
 BADR BN  IAML     318 32.99        86.1 0.80                           114  70 
 ABDR BZ IP     C  318 14.55   40                         70    0.3710  116  43 
 ABDR BE ISg    D  318 28.81                              97    0.3610  116  43 
 ABDR BN  IAML     318 36.94        69.0 0.50                           116  43 
 REDR BZ IP     D  318 16.46   45                         50   -1.0510  140 346 
 REDR BE IS     C  318 32.94                              50   -0.6610  140 346 
 REDR BN  IAML     318 37.69        80.6 0.20                           140 346 
                                                                                
 2020 12 3 0640 52.20L  18.123 -71.114 37.3  DOM  3 0.2 2.9LDOM 2.5CDOM 2.8WDOM1
 SPEC AVERAGE  MO 13.3 ST 11.4 OM  3.5 f0 6.71 R0.3477 AL 0.00 WI 20.0 MW  2.8 3
 SPEC SD       MO  0.0 ST 10.8 OM  1.4 f0 3.59 R0.1860 AL      WI      MW  0.0 3
 GAP=328        0.53       6.8     7.0  4.3  0.2677E+02  0.1038E+01 -0.1116E+02E
 SPEC PODRBH N MO 13.3 ST 22.3 OM  2.2 f0 10.3 R0.1617 AL-0.00 WI 20.0 MW  2.8 3
 SPEC PODRBH N T 641 1 K 0.020 GD 41.6 VS 4.50 DE 3.40 Q0400.0 QA 0.70 Q1 0.00 3
 SPEC NEDRBH N MO 13.3 ST0.622 OM  2.0 f0 3.12 R0.5337 AL-0.00 WI 20.0 MW  2.8 3
 SPEC NEDRBH N T 641 7 K 0.020 GD 66.2 VS 4.50 DE 3.40 Q0400.0 QA 0.70 Q1 0.00 3
 LOCALITY: 6.3 Km al Norte de La Cienaga. Barahona.                            3
 2020-12-03-0640-00S.MAN___129                                                 6
 OLDACT:UP  20-12-03 10:20 OP:AMMR STATUS:               ID:20201203064000     3
 OLDACT:ARG 20-12-03 10:16 OP:njm  STATUS:               ID:20201203064000     3
 OLDACT:UP  20-12-03 10:21 OP:AMMR STATUS:               ID:20201203064000     3
 ACTION:UP  22-01-13 17:41 OP:jmlc STATUS:               ID:20201203064052 L   I
 OLDACT:UP  21-12-08 12:28 OP:CGRS STATUS:               ID:20201203064000     3
 OLDACT:UP  20-12-03 10:21 OP:AMMR STATUS:               ID:20201203064000     3
 STAT SP IPHASW D HRMM SECON CODA AMPLIT PERI AZIMU VELO AIN AR TRES W  DIS CAZ7
 PODR BZ IP     D  640 58.47   25                        150   -0.0510 18.4 285 
 PODR BE IS     C  641  3.26                             150    0.0310 18.4 285 
 PODR BN  IAML     641  5.09      2753.8 0.30                          18.4 285 
 NEDR BZ IP     C  641  2.10   26                        110    0.2910 54.7 317 
 NEDR BE IS     C  641  8.79                             110   -0.1710 54.7 317 
 NEDR BN  IAML     641  9.72       909.8 0.25                          54.7 317 
 JIDR BZ IP     C  641  5.63   34                         98   -0.2410 88.3 298 
 JIDR BE IS     D  641 16.16                              98    0.1410 88.3 298 
 JIDR BN  IAML     641 19.14       206.9 0.35                          88.3 298 
                                                                                
