 2020  1 2 0625 40.70L  19.319 -67.343 49.4  DOM  6 0.6 1.9LDOM 3.1CDOM 2.8WDOM1
 SPEC AVERAGE  MO 13.2 ST0.723 OM  2.2 f0 3.31 R0.9993 AL 0.00 WI 20.0 MW  2.8 3
 SPEC SD       MO  0.5 ST0.649 OM  0.8 f0 1.62 R1.0369 AL      WI      MW  0.3 3
 GAP=251        1.65      14.1    11.5 89.8  0.7492E+02  0.5364E+03 -0.3762E+03E
 SPEC AGPRBH N MO 13.2 ST  1.7 OM  1.7 f0 4.65 R0.3581 AL-0.00 WI 20.0 MW  2.8 3
 SPEC AGPRBH N T 626 7 K 0.020 GD  108 VS 4.50 DE 3.40 Q0400.0 QA 0.70 Q1 0.00 3
 SPEC AOPRBH N MO 13.3 ST0.902 OM  1.7 f0 3.52 R0.4730 AL-0.00 WI 20.0 MW  2.8 3
 SPEC AOPRBH N T 62610 K 0.020 GD  133 VS 4.50 DE 3.40 Q0400.0 QA 0.70 Q1 0.00 3
 SPEC MLPRBH N MO 12.5 ST0.280 OM  0.8 f0 4.47 R0.3725 AL-0.00 WI 20.0 MW  2.3 3
 SPEC MLPRBH N T 62617 K 0.020 GD  160 VS 4.50 DE 3.40 Q0400.0 QA 0.70 Q1 0.00 3
 SPEC MIDRHH N MO 13.8 ST0.012 OM  2.0 f00.596 R2.7936 AL-0.00 WI 20.0 MW  3.1 3
 SPEC MIDRHH N T 62623 K 0.020 GD  189 VS 4.50 DE 3.40 Q0400.0 QA 0.70 Q1 0.00 3
 LOCALITY: 180.8 Km al Este de Miches, Oceano Atlantico.                       3
 2020-01-02-0625-00S.MAN___144                                                 6
 OLDACT:ARG 20-01-02 10:50 OP:nr   STATUS:               ID:20200102062500     3
 OLDACT:UP  20-01-02 12:05 OP:AMMR STATUS:               ID:20200102062500     3
 ACTION:UP  21-12-07 16:32 OP:JMLC STATUS:               ID:20200102062540 L   I
 OLDACT:UP  20-04-19 16:56 OP:JMLC STATUS:               ID:20200102062540 L   3
 STAT SP IPHASW D HRMM SECON CODA AMPLIT PERI AZIMU VELO AIN AR TRES W  DIS CAZ7
 AGPR BZ EPg    C  625 56.35   35                        106    0.5910 97.1 165 
 AGPR BN  IAML     626 10.88        78.6 1.45                          97.1 165 
 AOPR BZ EPg    D  625 58.49   61                        101   -0.5310  124 150 
 AOPR BN  IAML     626 28.02        27.7 0.25                           124 150 
 CRPR BZ EPg    C  626  1.15   43                         98   -0.6710  148 170 
 CRPR BE ISg    C  626 16.92                              98   -0.5310  148 170 
 CRPR BN  IAML     626 21.10        19.5 0.20                           148 170 
 MLPR BZ EPg    C  626  3.05   42                         98    0.6410  153 168 
 MLPR BE ESg    C  626 18.96                              98    0.4810  153 168 
 MLPR BN  IAML     626 20.58        10.2 0.45                           153 168 
 MIDR HZ EPg    C  626  5.40   47                         96   -0.7410  183 259 
 MIDR BN  IAML     626 27.18        12.3 0.54                           183 259 
 HMDR BZ EPg    C  626 11.92   53                         94    0.9710  222 255 
 HMDR BE ESg    C  626 33.11                              94   -0.2310  222 255 
 HMDR BN  IAML     626 38.21        10.2 1.65                           222 255 
                                                                                
 2020  1 2 0628 54.80L  19.196 -67.570 15.0  DOM 11 0.9 2.2LDOM 3.4CDOM 2.5WDOM1
 SPEC AVERAGE  MO 12.9 ST 97.9 OM  1.7 f0 8.29 R0.3223 AL 0.00 WI 20.0 MW  2.5 3
 SPEC SD       MO  0.5 ST207.5 OM  0.6 f0 5.64 R0.2897 AL      WI      MW  0.4 3
 GAP=214        2.42      17.4     6.5144.1  0.9221E+02 -0.5237E+03 -0.2000E+04E
 SPEC HIDRBH N MO 12.6 ST 23.8 OM  1.2 f0 16.0 R0.0902 AL-0.00 WI 20.0 MW  2.3 3
 SPEC HIDRBH N T 62929 K 0.020 GD  138 VS 3.90 DE 2.90 Q0400.0 QA 0.70 Q1 0.00 3
 SPEC CRPRBH N MO 12.8 ST  1.0 OM  1.4 f0 4.74 R0.3044 AL-0.00 WI 20.0 MW  2.5 3
 SPEC CRPRBH N T 62931 K 0.020 GD  141 VS 3.90 DE 2.90 Q0400.0 QA 0.70 Q1 0.00 3
 SPEC MLPRBH N MO 13.0 ST0.056 OM  1.6 f0 1.53 R0.9431 AL-0.00 WI 20.0 MW  2.6 3
 SPEC MLPRBH N T 62933 K 0.020 GD  147 VS 3.90 DE 2.90 Q0400.0 QA 0.70 Q1 0.00 3
 SPEC MIDRHH N MO 12.4 ST0.755 OM  0.9 f0 6.10 R0.2366 AL-0.00 WI 20.0 MW  2.2 3
 SPEC MIDRHH N T 62935 K 0.020 GD  158 VS 3.90 DE 2.90 Q0400.0 QA 0.70 Q1 0.00 3
 SPEC HMDRBH N MO 12.4 ST0.634 OM  0.9 f0 5.36 R0.2692 AL-0.00 WI 20.0 MW  2.2 3
 SPEC HMDRBH N T 62946 K 0.020 GD  196 VS 3.90 DE 2.90 Q0400.0 QA 0.70 Q1 0.00 3
 SPEC NAVIBH N MO 14.0 ST561.5 OM  2.3 f0 16.0 R0.0902 AL-0.00 WI 20.0 MW  3.3 3
 SPEC NAVIBH N T 630 4 K 0.020 GD  260 VS 3.90 DE 2.90 Q0400.0 QA 0.70 Q1 0.00 3
 LOCALITY: 157.2 Km al Este de Miches, Oceano Atlantico.                       3
 2020-01-02-0628-00S.MAN___144                                                 6
 OLDACT:ARG 20-01-02 13:02 OP:JMLC STATUS:               ID:20200102062800     3
 OLDACT:UP  20-01-02 13:36 OP:JMLC STATUS:               ID:20200102062800     3
 ACTION:UP  21-12-07 16:32 OP:JMLC STATUS:               ID:20200102062854 L   I
 OLDACT:UP  20-04-19 16:56 OP:JMLC STATUS:               ID:20200102062854 L   3
 STAT SP IPHASW D HRMM SECON CODA AMPLIT PERI AZIMU VELO AIN AR TRES W  DIS CAZ7
 PRSN BZ EPg       629 12.31   58                         92                    
 PRSN BN ESg       629 26.38                              92                    
 PRSN BN  IAML     629 36.70        96.4 0.25                                   
 AGPR BZ EPg       629 10.68   49                         93    1.0210 93.8 149 
 AGPR BN  IAML     629 20.22        67.0 1.60                          93.8 149 
 AGPR BN ESg       629 20.75                              93    0.0710 93.8 149 
 AOPR BZ EPg       629 15.47   67                         92    0.7110  127 137 
 AOPR BN  IAML     629 52.97        30.1 0.35                           127 137 
 HIDR BZ EPg       629 16.07   68                         92   -0.2710  138 241 
 HIDR BN ESg       629 31.24                              92   -1.0710  138 241 
 HIDR BN  IAML     629 55.54        38.5 0.20                           138 241 
 CRPR BZ EPg       629 16.19   54                         92   -0.6210  141 159 
 CRPR BN ESg       629 33.04                              92   -0.0910  141 159 
 CRPR BN  IAML     629 37.04        42.1 0.25                           141 159 
 MLPR BZ EPg       629 17.76   55                         92    0.1110  147 158 
 MLPR BN ESg       629 35.34                              92    0.7510  147 158 
 MLPR BN  IAML     629 36.66        11.9 0.45                           147 158 
 MIDR HZ EPg       629 17.73   66                         91   -1.5710  158 262 
 MIDR HN ESg       629 36.78                              91   -0.6810  158 262 
 MIDR BN  IAML     629 43.47        12.7 0.50                           158 262 
 SJG  BZ EPg       629 24.49   58                         91   -0.0410  192 128 
 SJG  BN ESg       629 45.49                              91   -1.0810  192 128 
 HMDR BZ EPg       629 24.61   70                         91   -0.5310  196 257 
 HMDR BN ESg       629 48.10                              91    0.4710  196 257 
 HMDR BN  IAML     630  7.17         8.2 1.25                           196 257 
 NADR BZ EPg       629 31.37   76                         91   -0.5710  241 275 
 NADR BN  IAML     630 26.18        95.1 0.80                           241 275 
 NAVI BZ EPg       629 36.46   70                         91    1.6010  260 265 
 NAVI BN ESg       630  6.33                              91    1.7910  260 265 
 NAVI BN  IAML     630 31.51       271.5 0.30                           260 265 
                                                                                
 2020  1 2 0630 46.30L  17.870 -66.905 18.6  DOM 15 0.8 3.3LDOM 2.9CDOM 3.4WDOM1
 SPEC AVERAGE  MO 14.1 ST  5.6 OM  2.7 f0 2.74 R0.8954 AL 0.00 WI 20.0 MW  3.4 3
 SPEC SD       MO  0.6 ST  7.1 OM  0.7 f0 1.28 R1.0407 AL      WI      MW  0.4 3
 GAP=203        2.25       8.5     3.9  9.9 -0.3298E+01  0.4365E+01  0.2258E+02E
 LOCALITY: 35.0 Km al OSO de Ponce, Region de Puerto Rico.                     3
 SPEC MLPRBH N MO 13.9 ST 11.8 OM  3.1 f0 5.02 R0.3074 AL-0.00 WI 20.0 MW  3.2 3
 SPEC MLPRBH N T 63051 K 0.020 GD 26.1 VS 4.17 DE 3.12 Q0400.0 QA 0.70 Q1 0.00 3
 SPEC CRPRBH N MO 14.3 ST 25.2 OM  3.4 f0 4.86 R0.3175 AL-0.00 WI 20.0 MW  3.5 3
 SPEC CRPRBH N T 63054 K 0.020 GD 30.8 VS 4.17 DE 3.12 Q0400.0 QA 0.70 Q1 0.00 3
 SPEC PRSNBH N MO 14.1 ST 12.6 OM  3.0 f0 4.44 R 0.347 AL-0.00 WI 20.0 MW  3.3 3
 SPEC PRSNBH N T 63059 K 0.020 GD50.80 VS 4.17 DE 3.12 Q0400.0 QA 0.70 Q1      3
 SPEC AOPRBH N MO 14.4 ST  9.3 OM  3.3 f0 3.04 R0.5075 AL-0.00 WI 20.0 MW  3.6 3
 SPEC AOPRBH N T 63060 K 0.020 GD 58.2 VS 4.17 DE 3.12 Q0400.0 QA 0.70 Q1 0.00 3
 SPEC AGPRBH N MO 14.3 ST  8.1 OM  3.1 f0 3.16 R0.4883 AL-0.00 WI 20.0 MW  3.5 3
 SPEC AGPRBH N T 631 4 K 0.020 GD 72.2 VS 4.17 DE 3.12 Q0400.0 QA 0.70 Q1 0.00 3
 SPEC HIDRBH N MO 13.8 ST  3.5 OM  2.1 f0 3.62 R0.4262 AL-0.00 WI 20.0 MW  3.1 3
 SPEC HIDRBH N T 63141 K 0.020 GD  207 VS 4.17 DE 3.12 Q0400.0 QA 0.70 Q1 0.00 3
 SPEC MIDRHH N MO 13.7 ST0.847 OM  1.9 f0 2.44 R0.6323 AL-0.00 WI 20.0 MW  3.1 3
 SPEC MIDRHH N T 63155 K 0.020 GD  258 VS 4.17 DE 3.12 Q0400.0 QA 0.70 Q1 0.00 3
 SPEC HMDRBH N MO 13.7 ST0.640 OM  1.9 f0 2.16 R0.7143 AL-0.00 WI 20.0 MW  3.1 3
 SPEC HMDRBH N T 63160 K 0.020 GD  281 VS 4.17 DE 3.12 Q0400.0 QA 0.70 Q1 0.00 3
 SPEC SMDRBH N MO 13.8 ST0.395 OM  2.0 f0 1.69 R0.9130 AL-0.00 WI 20.0 MW  3.2 3
 SPEC SMDRBH N T 632 1 K 0.020 GD  288 VS 4.17 DE 3.12 Q0400.0 QA 0.70 Q1 0.00 3
 SPEC NAVIBH N MO 14.6 ST  6.2 OM  2.7 f0 2.32 R0.6650 AL-0.00 WI 20.0 MW  3.7 3
 SPEC NAVIBH N T 63217 K 0.020 GD  351 VS 4.17 DE 3.12 Q0400.0 QA 0.70 Q1 0.00 3
 SPEC SC01BH N MO 15.3 ST0.115 OM  3.3 f00.359 R4.2978 AL-0.00 WI 20.0 MW  4.2 3
 SPEC SC01BH N T 63250 K 0.020 GD  439 VS 4.17 DE 3.12 Q0400.0 QA 0.70 Q1 0.00 3
 SPEC PODRBH N MO 13.8 ST0.988 OM  1.8 f0 2.28 R0.6767 AL-0.00 WI 20.0 MW  3.2 3
 SPEC PODRBH N T 63257 K 0.020 GD  465 VS 4.17 DE 3.12 Q0400.0 QA 0.70 Q1 0.00 3
 SPEC SDDRBH N MO 13.9 ST0.617 OM  1.8 f0 1.93 R0.7994 AL-0.00 WI 20.0 MW  3.2 3
 SPEC SDDRBH N T 63251 K 0.020 GD  479 VS 4.17 DE 3.12 Q0400.0 QA 0.70 Q1 0.00 3
 2020-01-02-0628-00S.MAN___144                                                 6
 OLDACT:DUP 20-01-02 13:02 OP:JMLC STATUS:               ID:20200102062801D    3
 OLDACT:UP  20-01-02 13:51 OP:JMLC STATUS:               ID:20200102062801D    3
 ACTION:UP  21-12-07 16:32 OP:JMLC STATUS:               ID:20200102063046 L   I
 STAT SP IPHASW D HRMM SECON CODA AMPLIT PERI AZIMU VELO AIN AR TRES W  DIS CAZ7
 PRSN BZ EPg       630 54.20                             107                    
 PRSN BN ESg       631  0.93                             107                    
 PRSN BN  IAML     631  4.86      4652.4 0.25                                   
 MLPR BZ EPg       630 50.19                             133   -0.2810 18.3 307 
 MLPR BN ESg       630 52.83                             133   -0.6910 18.3 307 
 MLPR BN  IAML     630 52.88      3694.4 0.35                          18.3 307 
 CRPR BZ EPg       630 51.48   24                        124    0.2610 24.6 308 
 CRPR BN ESg       630 55.76                             124    0.9410 24.6 308 
 CRPR BN  IAML     630 56.18      7883.9 0.15                          24.6 308 
 AOPR BZ EPg       630 55.24   54                        104   -0.2710 55.1  17 
 AOPR BN ESg       631  1.61                             104   -0.6710 55.1  17 
 AOPR BN  IAML     631  2.83      2120.6 0.35                          55.1  17 
 AGPR BZ EPg       630 57.78   43                         99    0.1010 69.8 342 
 AGPR BN ESg       631  5.99                              99   -0.0710 69.8 342 
 AGPR BN  IAML     631  7.94      1592.3 0.25                          69.8 342 
 SJG  BZ EPg       631  0.18   59                         97    0.3010 84.3  71 
 SJG  BN ESg       631 10.77                              97    0.8810 84.3  71 
 HIDR BZ EPg       631 18.54                              92    0.0810  207 293 
 HIDR BN ESg       631 43.45                              92    1.2310  207 293 
 HIDR BN  IAML     631 52.57        97.8 0.25                           207 293 
 MIDR HZ EPg       631 24.38                              92   -1.7210  258 299 
 MIDR HN ESg       631 57.27                              92    1.7610  258 299 
 MIDR BN  IAML     632  3.88        43.5 0.36                           258 299 
 HMDR BZ EPg       631 28.72                              92   -0.8610  281 292 
 HMDR BN ESg       632  1.69                              92    0.1210  281 292 
 HMDR BN  IAML     632 10.47        40.6 0.55                           281 292 
 SMDR BZ EPg       631 29.23                              91   -1.3810  288 303 
 SMDR BN ESg       632  3.44                              91    0.0810  288 303 
 SMDR BN  IAML     632 10.14        62.8 0.95                           288 303 
 NAVI BZ EPg       631 39.28                              91   -0.9910  351 291 
 NAVI BN ESg       632 19.39                              91   -0.7910  351 291 
 NAVI BN  IAML     632 20.46       723.4 0.05                           351 291 
 NADR BZ EPg       631 41.30                              91    0.9310  352 298 
 NADR BN ESg       632 20.55                              91    0.2110  352 298 
 NADR BN  IAML     632 38.18       195.2 0.40                           352 298 
 SC01 BZ EPg       631 54.41                              91    0.9310  439 294 
 SC01 BN  IAML     633  0.50        45.7 1.35                           439 294 
 PODR BZ EPg       631 58.34                              91    0.8410  465 275 
 PODR BN  IAML     633 40.78        51.7 1.60                           465 275 
 SDDR BZ EPg       631 59.20                              91   -0.4610  479 286 
 SDDR BN ESg       632 53.42                              91   -0.4910  479 286 
 SDDR BN  IAML     633  0.12        18.8 0.55                           479 286 
                                                                                
 2020  1 2 0632 11.90L  17.926 -66.913 14.7  DOM  8 0.5 2.7LDOM 3.0CDOM 2.9WDOM1
 SPEC AVERAGE  MO 13.4 ST  9.0 OM  2.8 f0 5.97 R0.3145 AL 0.00 WI 20.0 MW  2.9 3
 SPEC SD       MO  0.5 ST  6.2 OM  0.9 f0 3.18 R0.2769 AL      WI      MW  0.3 3
 GAP=214        1.35       5.5     3.5  8.3 -0.1596E+00 -0.1537E+02 -0.8133E+01E
 LOCALITY: 32.9 Km al OSO de Ponce, Region de Puerto Rico.                     3
 SPEC MLPRBH N MO 13.3 ST 19.0 OM  2.8 f0 8.22 R0.1728 AL-0.00 WI 20.0 MW  2.8 3
 SPEC MLPRBH N T 63215 K 0.020 GD 20.8 VS 3.84 DE 2.87 Q0400.0 QA 0.70 Q1 0.00 3
 SPEC CRPRBH N MO 13.6 ST 14.5 OM  3.0 f0 6.03 R0.2356 AL-0.00 WI 20.0 MW  3.0 3
 SPEC CRPRBH N T 63217 K 0.020 GD 25.4 VS 3.84 DE 2.87 Q0400.0 QA 0.70 Q1 0.00 3
 SPEC PRSNBH N MO 13.6 ST 10.4 OM  2.7 f0 5.61 R 0.253 AL-0.00 WI 20.0 MW  3.0 3
 SPEC PRSNBH N T 63223 K 0.020 GD44.80 VS 3.84 DE 2.87 Q0400.0 QA 0.70 Q1      3
 SPEC AOPRBH N MO 13.8 ST  6.9 OM  2.9 f0 4.00 R0.3552 AL-0.00 WI 20.0 MW  3.2 3
 SPEC AOPRBH N T 63224 K 0.020 GD 51.6 VS 3.84 DE 2.87 Q0400.0 QA 0.70 Q1 0.00 3
 SPEC AGPRBH N MO 13.7 ST  5.6 OM  2.7 f0 4.04 R0.3517 AL-0.00 WI 20.0 MW  3.1 3
 SPEC AGPRBH N T 63228 K 0.020 GD 65.4 VS 3.84 DE 2.87 Q0400.0 QA 0.70 Q1 0.00 3
 SPEC MIDRHH N MO 12.5 ST  7.6 OM  0.9 f0 11.3 R0.1257 AL-0.00 WI 20.0 MW  2.3 3
 SPEC MIDRHH N T 63323 K 0.020 GD  254 VS 3.84 DE 2.87 Q0400.0 QA 0.70 Q1 0.00 3
 SPEC HMDRBH N MO 13.3 ST0.308 OM  1.6 f0 2.20 R0.6458 AL-0.00 WI 20.0 MW  2.8 3
 SPEC HMDRBH N T 63330 K 0.020 GD  278 VS 3.84 DE 2.87 Q0400.0 QA 0.70 Q1 0.00 3
 2020-01-02-0628-00S.MAN___144                                                 6
 OLDACT:DUP 20-01-02 13:02 OP:JMLC STATUS:               ID:20200102062802D    3
 OLDACT:UP  20-01-02 13:57 OP:JMLC STATUS:               ID:20200102062802D    3
 ACTION:UP  21-12-07 16:32 OP:JMLC STATUS:               ID:20200102063211 L   I
 STAT SP IPHASW D HRMM SECON CODA AMPLIT PERI AZIMU VELO AIN AR TRES W  DIS CAZ7
 PRSN BZ EPg       632 18.96   30                         99                    
 PRSN BN ESg       632 25.34                              99                    
 PRSN BN  IAML     632 27.66      1703.1 0.20                                   
 MLPR BZ EPg       632 14.87   20                        132   -0.3510 14.7 289 
 MLPR BN ESg       632 17.44                             132   -0.2410 14.7 289 
 MLPR BN  IAML     632 17.84      2109.9 0.60                          14.7 289 
 CRPR BZ EPg       632 16.12   23                        121    0.1710 20.7 296 
 CRPR BN ESg       632 19.44                             121    0.4810 20.7 296 
 CRPR BN  IAML     632 20.97      3853.8 0.20                          20.7 296 
 AOPR BZ EPg       632 19.88   49                         98   -0.2410 49.5  20 
 AOPR BN ESg       632 26.20                              98   -0.0010 49.5  20 
 AOPR BN  IAML     632 27.52      1237.4 0.40                          49.5  20 
 AGPR BZ EPg       632 22.52   50                         95    0.2710 63.7 341 
 AGPR BN ESg       632 29.82                              95   -0.0910 63.7 341 
 AGPR BN  IAML     632 31.00      1176.0 0.25                          63.7 341 
 SJG  BZ EPg       632 24.97   49                         93   -0.2610 83.3  76 
 SJG  BN ESg       632 35.44                              93    0.3510 83.3  76 
 MIDR HZ EPg       632 49.99   77                         91   -1.1010  254 298 
 MIDR BN  IAML     633 27.86        13.9 0.66                           254 298 
 HMDR BZ EPg       632 55.69   82                         91    1.0210  278 290 
 HMDR BN  IAML     633 45.19        14.0 1.75                           278 290 
                                                                                
