 2020  2 2 0025 44.90L  18.978 -67.725  0.0  DOM  8 0.8 4.2LDOM 3.8CDOM 4.0WDOM1
 SPEC AVERAGE  MO 15.1 ST 14.1 OM  4.9 f0 1.41 R0.9318 AL 0.00 WI 20.0 MW  4.0 3
 SPEC SD       MO  0.3 ST 16.9 OM  0.8 f00.524 R0.2687 AL      WI      MW  0.2 3
 GAP=208        2.13      12.3     5.0 13.6  0.2905E+02 -0.1674E+01 -0.1166E+03E
 SPEC AGPRBH N MO 15.1 ST 48.5 OM  4.2 f0 2.47 R0.4794 AL-0.00 WI 20.0 MW  4.0 3
 SPEC AGPRBH N T 026 5 K 0.020 GD 85.8 VS 3.20 DE 2.60 Q0400.0 QA 0.70 Q1 0.00 3
 SPEC PRSNBH N MO 14.8 ST 91.2 OM  3.8 f0 3.92 R0.3020 AL-0.00 WI 20.0 MW  3.8 3
 SPEC PRSNBH N T 02614 K 0.020 GD  101 VS 3.20 DE 2.60 Q0400.0 QA 0.70 Q1 0.00 3
 SPEC HIDRBH N MO 15.2 ST 14.8 OM  4.2 f0 1.55 R0.7639 AL-0.00 WI 20.0 MW  4.1 3
 SPEC HIDRBH N T 02615 K 0.020 GD  106 VS 3.20 DE 2.60 Q0400.0 QA 0.70 Q1 0.00 3
 SPEC CRPRBH N MO 15.3 ST 10.9 OM  4.3 f0 1.27 R0.9323 AL-0.00 WI 20.0 MW  4.1 3
 SPEC CRPRBH N T 02620 K 0.020 GD  112 VS 3.20 DE 2.60 Q0400.0 QA 0.70 Q1 0.00 3
 SPEC HMDRBH N MO 15.2 ST  2.5 OM  4.1 f00.862 R1.3735 AL-0.00 WI 20.0 MW  4.1 3
 SPEC HMDRBH N T 02634 K 0.020 GD  132 VS 3.20 DE 2.60 Q0400.0 QA 0.70 Q1 0.00 3
 SPEC MIDRHH N MO 15.0 ST  4.6 OM  4.0 f0 1.18 R1.0034 AL-0.00 WI 20.0 MW  4.0 3
 SPEC MIDRHH N T 02626 K 0.020 GD  118 VS 3.20 DE 2.60 Q0400.0 QA 0.70 Q1 0.00 3
 SPEC SMDRBH N MO 14.9 ST  3.5 OM  3.9 f0 1.14 R1.0386 AL-0.00 WI 20.0 MW  3.9 3
 SPEC SMDRBH N T 02631 K 0.020 GD  125 VS 3.20 DE 2.60 Q0400.0 QA 0.70 Q1 0.00 3
 LOCALITY: 150.8 Km al Este de Miches, Oceano Atlantico.                       3
 2020-02-02-0025-00S.MAN___147                                                 6
 OLDACT:ARG 20-02-02 00:55 OP:jrdn STATUS:               ID:20200202002500     3
 OLDACT:UP  20-02-02 01:24 OP:AMMR STATUS:               ID:20200202002500     3
 ACTION:UP  22-01-05 18:33 OP:JMLC STATUS:               ID:20200202002544 L   I
 OLDACT:UP  21-11-07 22:30 OP:CGRS STATUS:               ID:20200202002544 L   3
 OLDACT:UP  20-04-19 16:58 OP:JMLC STATUS:               ID:20200202002544 L   3
 STAT SP IPHASW D HRMM SECON CODA AMPLIT PERI AZIMU VELO AIN AR TRES W  DIS CAZ7
 PRSN BZ IP     C  026  0.85   59                         90                    
 PRSN BE IS     C  026 12.99                              90                    
 PRSN BN  IAML     026 16.75     11370.3 0.25                                   
 AGPR BZ IP     D  025 57.41  164                         90   -1.3110 85.8 131 
 AGPR BN  IAML     026  8.14     13892.2 0.40                          85.8 131 
 AGPR BE IS        026  8.47                              90   -0.5010 85.8 131 
 PCDR HZ IP     C  025 59.07   61                         90    0.2810 86.2 234 
 PCDR HE IS     C  026  9.71                              90    0.6310 86.2 234 
 HIDR BZ IP     C  026  2.64  136                         90   -0.4410  113 248 
 HIDR BE IS        026 15.58                              90   -0.9710  113 248 
 HIDR BN  IAML     026 26.30      4692.9 0.25                           113 248 
 CRPR BZ IP        026  6.08   53                         90    0.7510  127 148 
 CRPR BE IS     C  026 21.02                              90    0.5510  127 148 
 CRPR BN  IAML     026 21.87     13343.6 0.60                           127 148 
 MIDR HZ IP     C  026  8.35  147                         70    1.0010  140 270 
 MIDR HE IS     C  026 22.62                              70   -1.3610  140 270 
 MIDR HN  IAML     026 28.63      3260.5 0.96                           140 270 
 MIDR BN  IAML     026 28.65      3259.3 0.96                           140 270 
 SMDR BZ IP        026 10.80  166                         50    0.9510  158 283 
 SMDR BE IS     C  026 28.26                              50   -0.0710  158 283 
 SMDR BN  IAML     026 33.88      3982.1 0.85                           158 283 
 HMDR BZ IP     C  026 11.88   63                         50   -0.2510  176 263 
 HMDR BE IS     C  026 33.04                              50    0.7410  176 263 
 HMDR BN  IAML     026 37.01      2823.3 1.55                           176 263 
                                                                                
 2020  2 2 0142  2.10L  18.961 -67.654  0.1  DOM  9 0.9 4.3LDOM 3.7CDOM 4.0WDOM1
 SPEC AVERAGE  MO 15.1 ST164.3 OM  4.9 f0 3.18 R0.4323 AL 0.00 WI 20.0 MW  4.0 3
 SPEC SD       MO  0.1 ST188.6 OM  0.8 f0 1.37 R0.1913 AL      WI      MW  0.0 3
 GAP=197        2.49      13.8     5.5 12.5  0.5249E+02 -0.2788E+02 -0.1200E+03E
 SPEC AGPRBH N MO 15.0 ST563.0 OM  4.2 f0 5.75 R0.2059 AL-0.00 WI 20.0 MW  4.0 3
 SPEC AGPRBH N T 14223 K 0.020 GD 79.0 VS 3.20 DE 2.60 Q0400.0 QA 0.70 Q1 0.00 3
 SPEC CRPRBH N MO 15.2 ST140.2 OM  4.2 f0 3.24 R0.3654 AL-0.00 WI 20.0 MW  4.1 3
 SPEC CRPRBH N T 14237 K 0.020 GD  110 VS 3.20 DE 2.60 Q0400.0 QA 0.70 Q1 0.00 3
 SPEC PRSNBH N MO 14.8 ST999.9 OM  3.9 f0 9.07 R0.1305 AL-0.00 WI 20.0 MW  3.8 3
 SPEC PRSNBH N T 14229 K 0.020 GD 98.7 VS 3.20 DE 2.60 Q0400.0 QA 0.70 Q1 0.00 3
 SPEC MIDRHH N MO 15.0 ST 62.9 OM  4.0 f0 2.80 R0.4229 AL-0.00 WI 20.0 MW  4.0 3
 SPEC MIDRHH N T 14243 K 0.020 GD  121 VS 3.20 DE 2.60 Q0400.0 QA 0.70 Q1 0.00 3
 SPEC SMDRBH N MO 15.1 ST 19.0 OM  4.0 f0 1.84 R0.6435 AL-0.00 WI 20.0 MW  4.0 3
 SPEC SMDRBH N T 14247 K 0.020 GD  128 VS 3.20 DE 2.60 Q0400.0 QA 0.70 Q1 0.00 3
 SPEC HIDRBH N MO 15.2 ST178.3 OM  4.2 f0 3.52 R0.3364 AL-0.00 WI 20.0 MW  4.1 3
 SPEC HIDRBH N T 14231 K 0.020 GD  109 VS 3.20 DE 2.60 Q0400.0 QA 0.70 Q1 0.00 3
 SPEC HMDRBH N MO 15.1 ST 22.3 OM  4.0 f0 1.91 R0.6199 AL-0.00 WI 20.0 MW  4.0 3
 SPEC HMDRBH N T 14252 K 0.020 GD  135 VS 3.20 DE 2.60 Q0400.0 QA 0.70 Q1 0.00 3
 LOCALITY: 151.7 Km al Este de Miches, Oceano Atlantico.                       3
 2020-02-02-0140-00S.MAN___147                                                 6
 OLDACT:ARG 20-02-02 01:51 OP:jrdn STATUS:               ID:20200202014000     3
 ACTION:UP  22-01-05 18:33 OP:JMLC STATUS:               ID:20200202014200 L   I
 OLDACT:UP  21-11-07 22:35 OP:CGRS STATUS:               ID:20200202014200 L   3
 OLDACT:UP  20-04-19 16:58 OP:JMLC STATUS:               ID:20200202014200 L   3
 STAT SP IPHASW D HRMM SECON CODA AMPLIT PERI AZIMU VELO AIN AR TRES W  DIS CAZ7
 PRSN BZ IP     C  142 17.17   66                         90                    
 PRSN BE IS     C  142 29.89                              90                    
 PRSN BN  IAML     142 35.17     18841.1 0.25                                   
 AGPR BZ IP     C  142 14.59   99                         90   -0.2110 79.0 133 
 AGPR BE IS     C  142 24.87                              90    0.6410 79.0 133 
 AGPR BN  IAML     142 25.53     13449.2 0.30                          79.0 133 
 PCDR HZ IP     C  142 16.84   59                         90    0.0610 91.3 237 
 PCDR HE IS     C  142 27.15                              90   -0.5310 91.3 237 
 HIDR BZ IP     D  142 20.48  125                         90   -0.7910  119 250 
 HIDR BE IS     C  142 34.25                              90   -1.2410  119 250 
 HIDR BN  IAML     142 37.51      5671.8 0.60                           119 250 
 CRPR BZ IP     C  142 20.79   61                         90   -0.8310  121 150 
 CRPR BE IS     C  142 37.51                              90    1.4110  121 150 
 CRPR BN  IAML     142 41.51     10018.3 0.55                           121 150 
 MIDR HZ IP     C  142 24.59  120                         70   -1.0710  147 271 
 MIDR HE IS     C  142 43.81                              70    0.6810  147 271 
 MIDR HN  IAML     142 47.59      3986.8 0.60             90            147 271 
 MIDR BN  IAML     142 47.91      4262.6 0.50                           147 271 
 SMDR BZ IP     C  142 27.55  125                         50   -0.4410  166 283 
 SMDR BE IS     C  142 48.14                              50    0.9710  166 283 
 SMDR BN  IAML     142 51.74      4469.7 0.50                           166 283 
 HMDR BZ IP     C  142 31.70  108                         50    1.5010  183 264 
 HMDR BE IS     C  142 52.32                              50    1.2910  183 264 
 HMDR BN  IAML     142 55.37      2958.8 0.70             90            183 264 
 SJG  BZ IP     C  142 29.21   90                         50   -1.1810  184 120 
 SJG  BE IS        142 51.11                              50   -0.2510  184 120 
                                                                                
 2020  2 2 0144 27.50L  18.020 -66.782  3.9  DOM  4 0.2 3.9LDOM 3.5CDOM 3.7WDOM1
 SPEC AVERAGE  MO 14.6 ST783.3 OM  6.5 f0 9.47 R0.1374 AL 0.00 WI 20.0 MW  3.7 3
 SPEC SD       MO  0.2 ST216.6 OM  2.5 f0 2.84 R0.0412 AL      WI      MW  0.1 3
 GAP=186        0.66       3.7     1.9 49.1  0.2852E+01 -0.6156E+02 -0.9151E+02E
 SPEC AGPRBH N MO 14.4 ST999.9 OM  3.7 f0 12.3 R0.0963 AL-0.00 WI 20.0 MW  3.6 3
 SPEC AGPRBH N T 14443 K 0.020 GD 60.8 VS 3.20 DE 2.60 Q0400.0 QA 0.70 Q1 0.00 3
 SPEC CRPRBH N MO 14.9 ST566.7 OM  4.4 f0 6.63 R0.1786 AL-0.00 WI 20.0 MW  3.9 3
 SPEC CRPRBH N T 14435 K 0.020 GD 32.7 VS 3.20 DE 2.60 Q0400.0 QA 0.70 Q1 0.00 3
 SPEC PRSNBH N MO 14.8 ST999.0 OM  4.2 f0 9.51 R 0.124 AL-0.00 WI 20.0 MW  3.8 3
 SPEC PRSNBH N T 14439 K 0.020 GD46.40 VS 3.20 DE 2.60 Q0400.0 QA 0.70 Q1      3
 LOCALITY: 18.5 Km al Oeste de Ponce, Region de Puerto Rico.                   3
 2020-02-02-0143-00S.MAN___147                                                 6
 OLDACT:UP  20-02-02 02:09 OP:AMMR STATUS:               ID:20200202014300     3
 OLDACT:ARG 20-02-02 01:51 OP:jrdn STATUS:               ID:20200202014300     3
 ACTION:UP  22-01-05 18:33 OP:JMLC STATUS:               ID:20200202014427 L   I
 STAT SP IPHASW D HRMM SECON CODA AMPLIT PERI AZIMU VELO AIN AR TRES W  DIS CAZ7
 PRSN BZ EPg    C  144 34.57   70                         93                    
 PRSN BN ESg    D  144 40.53                              93                    
 PRSN BN  IAML     144 42.53     32669.9 0.20                                   
 CRPR BZ EPg    D  144 33.25   69                         97    0.4110 32.5 267 
 CRPR BN ESg    D  144 36.51                              97   -0.2410 32.5 267 
 CRPR BN  IAML     144 38.06     19879.8 0.25                          32.5 267 
 AGPR BZ EPg    C  144 37.17   93                         94   -0.1910 60.7 325 
 AGPR BN ESg    D  144 44.74                              94    0.1110 60.7 325 
 AGPR BN  IAML     144 49.34      5772.7 0.40                          60.7 325 
 SJG  BZ EPg    D  144 38.27  100                         94   -0.2210 67.7  81 
 SJG  BN ESg    D  144 46.71                              94    0.1310 67.7  81 
                                                                                
 2020  2 2 0208 15.30L  18.939 -67.654 20.8  DOM 10 0.8 3.0LDOM 3.4CDOM 3.6WDOM1
 SPEC AVERAGE  MO 14.4 ST  4.7 OM  3.6 f0 2.71 R2.8106 AL 0.00 WI 20.0 MW  3.6 3
 SPEC SD       MO  1.0 ST198.7 OM  1.1 f0 1.82 R5.6801 AL      WI      MW  0.6 3
 GAP=208        2.16      11.9     6.9397.0  0.4994E+02  0.1036E+04 -0.1215E+04E
 SPEC PCDRHN N MO 14.0 ST  1.5 OM  2.6 f0 2.40 R0.6752 AL-0.00 WI 20.0 MW  3.3 3
 SPEC PCDRHN N T 2 841 K 0.020 GD 92.4 VS 4.38 DE 3.30 Q0400.0 QA 0.70 Q1 0.00 3
 SPEC PRSNBH N MO 13.5 ST 14.2 OM  2.0 f0 7.79 R 0.208 AL-0.00 WI 20.0 MW  2.9 3
 SPEC PRSNBH N T 2 840 K 0.020 GD10.00 VS 4.38 DE 3.30 Q0400.0 QA 0.70 Q1      3
 SPEC HIDRBH N MO 13.9 ST  4.5 OM  2.4 f0 3.68 R0.4404 AL-0.00 WI 20.0 MW  3.2 3
 SPEC HIDRBH N T 2 845 K 0.020 GD  119 VS 4.38 DE 3.30 Q0400.0 QA 0.70 Q1 0.00 3
 SPEC CRPRBH N MO 14.4 ST0.633 OM  2.9 f0 1.30 R1.2466 AL-0.00 WI 20.0 MW  3.6 3
 SPEC CRPRBH N T 2 846 K 0.020 GD  120 VS 4.38 DE 3.30 Q0400.0 QA 0.70 Q1 0.00 3
 SPEC SMDRBH N MO 14.1 ST0.609 OM  2.4 f0 1.69 R0.9589 AL-0.00 WI 20.0 MW  3.3 3
 SPEC SMDRBH N T 2 858 K 0.020 GD  167 VS 4.38 DE 3.30 Q0400.0 QA 0.70 Q1 0.00 3
 SPEC HMDRBH N MO 13.6 ST  1.5 OM  1.9 f0 3.22 R0.5033 AL-0.00 WI 20.0 MW  3.0 3
 SPEC HMDRBH N T 2 9 0 K 0.020 GD  184 VS 4.38 DE 3.30 Q0400.0 QA 0.70 Q1 0.00 3
 SPEC NADRBH N MO 14.6 ST  8.5 OM  2.8 f0 2.67 R0.6070 AL-0.00 WI 20.0 MW  3.7 3
 SPEC NADRBH N T 2 916 K 0.020 GD  236 VS 4.38 DE 3.30 Q0400.0 QA 0.70 Q1 0.00 3
 SPEC NAVIBH N MO 16.9 ST0.057 OM  5.0 f00.091 R 17.81 AL-0.00 WI 20.0 MW  5.2 3
 SPEC NAVIBH N T 2 918 K 0.020 GD  250 VS 4.38 DE 3.30 Q0400.0 QA 0.70 Q1 0.00 3
 SPEC BADRBH N MO 13.8 ST 20.3 OM  1.9 f0 6.62 R0.2448 AL-0.00 WI 20.0 MW  3.2 3
 SPEC BADRBH N T 2 930 K 0.020 GD  292 VS 4.38 DE 3.30 Q0400.0 QA 0.70 Q1 0.00 3
 LOCALITY: 85.2 Km al ENE de Punta Cana, Canal de la Mona.                     3
 2020-02-02-0208-00S.MAN___147                                                 6
 OLDACT:ARG 20-02-02 02:16 OP:cgrs STATUS:               ID:20200202020800     3
 OLDACT:UP  20-02-02 02:28 OP:CGRS STATUS:               ID:20200202020800     3
 ACTION:UP  22-01-05 18:33 OP:JMLC STATUS:               ID:20200202020814 L   I
 STAT SP IPHASW D HRMM SECON CODA AMPLIT PERI AZIMU VELO AIN AR TRES W  DIS CAZ7
 PRSN BZ EPg    D  2 8 30.35   54                         99                    
 PRSN BN ESg    C  2 8 42.02                              99                    
 PRSN BN  IAML     2 8 46.47       490.6 0.30                                   
 AGPR BZ EPg       2 8 26.90   49                         92   -0.8610 77.4 132 
 AGPR BN ESg    C  2 8 37.43                              92    0.4610 77.4 132 
 AGPR BN  IAML     2 8 38.56       298.9 0.20                          77.4 132 
 PCDR HZ EPg       2 8 30.75   47                         91    1.1710 90.0 239 
 PCDR BN  IAML     2 8 45.55       219.0 0.72                          90.0 239 
 HIDR BZ EPg    D  2 8 32.76   65                         91   -0.9410  118 251 
 HIDR BN ESg    C  2 8 47.19                              91   -0.1310  118 251 
 HIDR BN  IAML     2 8 49.42       211.6 0.20                           118 251 
 CRPR BZ EPg    D  2 8 33.50   52                         91   -0.3410  119 150 
 CRPR BN ESg    C  2 8 48.12                              91    0.5610  119 150 
 CRPR BN  IAML     2 8 52.97       215.8 0.50                           119 150 
 SMDR BZ EPg    C  2 8 39.45   72                         90   -1.2010  166 284 
 SMDR BN ESg    C  2 9  0.42                              90    1.0310  166 284 
 SMDR BN  IAML     2 9  2.49       125.8 0.25                           166 284 
 HMDR BZ EPg       2 8 43.44   67                         90    0.3310  183 265 
 HMDR BN ESg    D  2 9  2.37                              90   -1.3110  183 265 
 HMDR BN  IAML     2 9  6.75        59.8 0.40                           183 265 
 NADR BZ EPg    C  2 8 51.52   75                         90    0.6610  236 282 
 NADR BN ESg    C  2 9 18.36                              90    1.1910  236 282 
 NADR BN  IAML     2 9 28.96       275.5 0.30                           236 282 
 NAVI BZ EPg    C  2 8 53.03   75                         90    0.1110  250 271 
 NAVI BN ESg    D  2 9 19.89                              90   -0.8610  250 271 
 NAVI BN  IAML     2 9 27.01      2135.1 0.20                           250 271 
 BADR BZ EPg       2 8 58.68   84                         90   -0.3410  292 259 
 BADR BN ESg    C  2 9 31.83                              90    0.4610  292 259 
 BADR BN  IAML     2 9 38.13        89.3 0.85                           292 259 
                                                                                
 2020  2 2 0226 59.20L  18.969 -67.652 18.6  DOM  9 0.7 3.9LDOM 3.6CDOM 4.1WDOM1
 SPEC AVERAGE  MO 15.2 ST 89.3 OM  4.0 f0 2.19 R1.1053 AL 0.00 WI 20.0 MW  4.1 3
 SPEC SD       MO  0.5 ST 81.1 OM  0.8 f0 1.13 R0.5968 AL      WI      MW  0.3 3
 GAP=211        1.79      13.7     4.9 94.0  0.3521E+02 -0.6325E+02 -0.9577E+03E
 LOCALITY: 146.6 Km al Este de Miches, Oceano Atlantico.                       3
 SPEC AGPRBH N MO 14.9 ST 35.8 OM  3.5 f0 3.58 R0.4558 AL-0.00 WI 20.0 MW  3.9 3
 SPEC AGPRBH N T 22721 K 0.020 GD 81.5 VS 4.41 DE 3.33 Q0400.0 QA 0.70 Q1 0.00 3
 SPEC PCDRHN N MO 15.5 ST  1.7 OM  4.1 f00.774 R2.1081 AL-0.00 WI 20.0 MW  4.3 3
 SPEC PCDRHN N T 22723 K 0.020 GD 93.8 VS 4.41 DE 3.33 Q0400.0 QA 0.70 Q1 0.00 3
 SPEC PRSNBH N MO 14.6 ST 51.8 OM  3.1 f0 5.05 R0.3231 AL-0.00 WI 20.0 MW  3.7 3
 SPEC PRSNBH N T 22727 K 0.020 GD  105 VS 4.41 DE 3.33 Q0400.0 QA 0.70 Q1 0.00 3
 SPEC HIDRBH N MO 14.9 ST 16.5 OM  3.3 f0 2.82 R0.5786 AL-0.00 WI 20.0 MW  3.9 3
 SPEC HIDRBH N T 22730 K 0.020 GD  121 VS 4.41 DE 3.33 Q0400.0 QA 0.70 Q1 0.00 3
 SPEC CRPRBH N MO 15.2 ST  8.4 OM  3.6 f0 1.78 R0.9167 AL-0.00 WI 20.0 MW  4.1 3
 SPEC CRPRBH N T 22730 K 0.020 GD  123 VS 4.41 DE 3.33 Q0400.0 QA 0.70 Q1 0.00 3
 SPEC MIDRHH N MO 14.9 ST  2.9 OM  3.3 f0 1.48 R1.1025 AL-0.00 WI 20.0 MW  3.9 3
 SPEC MIDRHH N T 22737 K 0.020 GD  148 VS 4.41 DE 3.33 Q0400.0 QA 0.70 Q1 0.00 3
 SPEC SMDRBH N MO 15.1 ST  1.2 OM  3.4 f00.993 R1.6432 AL-0.00 WI 20.0 MW  4.0 3
 SPEC SMDRBH N T 22744 K 0.020 GD  167 VS 4.41 DE 3.33 Q0400.0 QA 0.70 Q1 0.00 3
 SPEC HMDRBH N MO 15.1 ST  1.2 OM  3.4 f00.949 R1.7194 AL-0.00 WI 20.0 MW  4.0 3
 SPEC HMDRBH N T 22747 K 0.020 GD  183 VS 4.41 DE 3.33 Q0400.0 QA 0.70 Q1 0.00 3
 SPEC NAVIBH N MO 15.7 ST646.9 OM  3.8 f0 5.13 R0.3181 AL-0.00 WI 20.0 MW  4.4 3
 SPEC NAVIBH N T 228 5 K 0.020 GD  250 VS 4.41 DE 3.33 Q0400.0 QA 0.70 Q1 0.00 3
 2020-02-02-0226-00S.MAN___147                                                 6
 OLDACT:UP  20-02-02 05:03 OP:CGRS STATUS:               ID:20200202022600     3
 OLDACT:ARG 20-02-02 04:40 OP:njm  STATUS:               ID:20200202022600     3
 OLDACT:UP  20-02-02 05:04 OP:CGRS STATUS:               ID:20200202022600     3
 ACTION:UP  22-01-05 18:33 OP:JMLC STATUS:               ID:20200202022659 L   I
 OLDACT:UP  21-11-07 23:40 OP:CGRS STATUS:               ID:20200202022659 L   3
 OLDACT:UP  20-04-19 16:58 OP:JMLC STATUS:               ID:20200202022659 L   3
 STAT SP IPHASW D HRMM SECON CODA AMPLIT PERI AZIMU VELO AIN AR TRES W  DIS CAZ7
 PRSN BZ EPg    C  227 15.10   82                         98                    
 PRSN BE ESg    C  227 29.33                              98                    
 PRSN BN  IAML     227 37.21      4527.7 0.25                                   
 AGPR BZ EPg    C  227 11.95   90                         98   -0.0710 79.4 134 
 AGPR BE ESg    D  227 22.57                              98    1.0910 79.4 134 
 AGPR BN  IAML     227 24.25      3809.2 0.20                          79.4 134 
 PCDR HZ EPg    D  227 13.74   73                         96   -0.1610 91.9 237 
 PCDR HE ESg    C  227 25.06                              96    0.3210 91.9 237 
 PCDR BN  IAML     227 26.35      2606.2 0.88                          91.9 237 
 HIDR BZ EPg    C  227 17.32   82                         94   -0.7610  120 250 
 HIDR BE ESg    C  227 31.71                              94   -0.3010  120 250 
 HIDR BN  IAML     227 34.49      1480.3 0.55                           120 250 
 CRPR BZ EPg    C  227 17.80   80                         94   -0.6310  122 151 
 CRPR BN  IAML     227 39.54      3702.7 0.50                           122 151 
 MIDR HZ EPg    C  227 21.62   91                         93   -0.6310  147 271 
 MIDR BN  IAML     227 43.10      1229.0 0.52                           147 271 
 SMDR BZ EPg    D  227 24.69   88                         93   -0.3210  166 283 
 SMDR BE ESg    C  227 45.70                              93    1.6210  166 283 
 SMDR BN  IAML     227 50.97      1083.8 0.70                           166 283 
 HMDR BZ EPg    C  227 27.33  101                         93   -0.3910  183 264 
 HMDR BN  IAML     227 51.50       660.4 1.10                           183 264 
 NAVI BZ EPg    C  227 37.71   89                         92   -0.1610  250 270 
 NAVI BE ESg    C  228  6.85                              92    0.3910  250 270 
 NAVI BN  IAML     228  8.17      7015.0 0.85                           250 270 
                                                                                
