 2020  2 1 0341 38.30L  17.836 -66.854 19.7  DOM  6 0.8 2.8LDOM 3.7CDOM 3.4WDOM1
 SPEC AVERAGE  MO 14.3 ST  7.6 OM  3.2 f0 2.80 R1.4335 AL 0.00 WI 20.0 MW  3.4 3
 SPEC SD       MO  0.6 ST 10.1 OM  0.6 f0 2.15 R1.3914 AL      WI      MW  0.4 3
 GAP=313        2.09      16.2    27.7 23.8 -0.2402E+03 -0.3684E+03  0.2082E+03E
 LOCALITY: 31.8 Km al SO de Ponce, Region de Puerto Rico.                      3
 SPEC CRPRBH N MO 14.1 ST 25.5 OM  3.1 f0 5.76 R0.2704 AL-0.00 WI 20.0 MW  3.3 3
 SPEC CRPRBH N T 34146 K 0.020 GD 36.9 VS 4.21 DE 3.16 Q0400.0 QA 0.70 Q1 0.00 3
 SPEC PRSNBH N MO 13.9 ST 23.2 OM  2.8 f0 6.14 R0.2537 AL-0.00 WI 20.0 MW  3.2 3
 SPEC PRSNBH N T 34151 K 0.020 GD 55.2 VS 4.21 DE 3.16 Q0400.0 QA 0.70 Q1 0.00 3
 SPEC AGPRBH N MO 14.0 ST 11.8 OM  2.7 f0 4.72 R0.3300 AL-0.00 WI 20.0 MW  3.3 3
 SPEC AGPRBH N T 34157 K 0.020 GD 77.7 VS 4.21 DE 3.16 Q0400.0 QA 0.70 Q1 0.00 3
 SPEC PCDRHN N MO 15.0 ST0.079 OM  3.4 f00.394 R3.9536 AL-0.00 WI 20.0 MW  4.0 3
 SPEC PCDRHN N T 34227 K 0.020 GD  179 VS 4.21 DE 3.16 Q0400.0 QA 0.70 Q1 0.00 3
 SPEC MIDRHH N MO 14.5 ST0.197 OM  2.7 f00.802 R1.9423 AL-0.00 WI 20.0 MW  3.6 3
 SPEC MIDRHH N T 34252 K 0.020 GD  264 VS 4.21 DE 3.16 Q0400.0 QA 0.70 Q1 0.00 3
 SPEC HMDRBH N MO 13.7 ST0.652 OM  1.8 f0 2.32 R0.6714 AL-0.00 WI 20.0 MW  3.0 3
 SPEC HMDRBH N T 34258 K 0.020 GD  287 VS 4.21 DE 3.16 Q0400.0 QA 0.70 Q1 0.00 3
 2020-02-01-0341-00S.MAN___147                                                 6
 OLDACT:ARG 20-02-01 05:47 OP:njm  STATUS:               ID:20200201034100     3
 OLDACT:UP  20-02-01 11:27 OP:AMMR STATUS:               ID:20200201034100     3
 ACTION:UP  22-01-05 18:33 OP:JMLC STATUS:               ID:20200201034138 L   I
 OLDACT:UP  21-11-07 23:20 OP:CGRS STATUS:               ID:20200201034138 L   3
 OLDACT:UP  20-04-19 16:58 OP:JMLC STATUS:               ID:20200201034138 L   3
 STAT SP IPHASW D HRMM SECON CODA AMPLIT PERI AZIMU VELO AIN AR TRES W  DIS CAZ7
 PRSN BZ EPg    C  341 46.89   77                        106                    
 PRSN BE ESg    C  341 53.31                             106                    
 PRSN BN  IAML     341 56.24      1497.2 0.20                                   
 CRPR BZ EPg    C  341 44.21   74                        119    0.1010 31.2 307 
 CRPR BE ESg    D  341 48.38                             119   -0.0310 31.2 307 
 CRPR BN  IAML     341 48.68      2148.1 0.30                          31.2 307 
 AGPR BZ EPg    C  341 50.31   83                        100   -0.1610 75.2 339 
 AGPR BE ESg    D  341 59.41                             100   -0.0610 75.2 339 
 AGPR BN  IAML     342  6.84       437.4 0.30                          75.2 339 
 PCDR HZ EPg    C  342  6.73   82                         93    0.7410  178 295 
 PCDR BN  IAML     342 34.40        93.8 1.26                           178 295 
 MIDR HZ EPg    C  342 20.16  101                         92    1.1010  264 299 
 HMDR BZ EPg    D  342 20.83  112                         92   -1.6910  287 292 
 HMDR BN  IAML     343  3.10        40.3 1.35                           287 292 
                                                                                
 2020  2 1 0527 52.80L  18.591 -69.056153.9  DOM  8 0.7 2.8LDOM 3.1CDOM 2.9WDOM1
 SPEC AVERAGE  MO 13.4 ST180.7 OM  2.1 f0 12.4 R0.1741 AL 0.00 WI 20.0 MW  2.9 3
 SPEC SD       MO  0.5 ST336.2 OM  0.7 f0 4.58 R0.1203 AL      WI      MW  0.4 3
 GAP=162        1.81      15.2     8.0 11.7  0.1052E+02  0.2977E+02  0.6659E+02E
 LOCALITY: 19.4 Km al Sur de El Seibo, El Seibo.                               3
 SPEC HIDRBH N MO 13.3 ST 69.7 OM  1.6 f0 15.3 R0.1069 AL-0.00 WI 20.0 MW  2.8 3
 SPEC HIDRBH N T 52825 K 0.020 GD  158 VS 4.42 DE 3.40 Q0400.0 QA 0.70 Q1 0.00 3
 SPEC HMDRBH N MO 12.9 ST 16.8 OM  1.2 f0 12.9 R0.1268 AL-0.00 WI 20.0 MW  2.5 3
 SPEC HMDRBH N T 52824 K 0.020 GD  159 VS 4.42 DE 3.40 Q0400.0 QA 0.70 Q1 0.00 3
 SPEC MIDRHH N MO 12.9 ST 32.1 OM  1.2 f0 16.0 R0.1022 AL-0.00 WI 20.0 MW  2.5 3
 SPEC MIDRHH N T 52827 K 0.020 GD  159 VS 4.42 DE 3.40 Q0400.0 QA 0.70 Q1 0.00 3
 SPEC SMDRBH N MO 13.2 ST0.802 OM  1.5 f0 3.62 R0.4518 AL-0.00 WI 20.0 MW  2.8 3
 SPEC SMDRBH N T 52829 K 0.020 GD  172 VS 4.42 DE 3.40 Q0400.0 QA 0.70 Q1 0.00 3
 SPEC NAVIBH N MO 14.5 ST999.9 OM  2.7 f0 15.5 R0.1055 AL-0.00 WI 20.0 MW  3.6 3
 SPEC NAVIBH N T 52832 K 0.020 GD  189 VS 4.42 DE 3.40 Q0400.0 QA 0.70 Q1 0.00 3
 SPEC BADRBH N MO 13.9 ST 31.8 OM  2.1 f0 7.32 R0.2234 AL-0.00 WI 20.0 MW  3.2 3
 SPEC BADRBH N T 52837 K 0.020 GD  208 VS 4.42 DE 3.40 Q0400.0 QA 0.70 Q1 0.00 3
 SPEC PODRBH N MO 13.4 ST114.2 OM  1.5 f0 16.0 R0.1022 AL-0.00 WI 20.0 MW  2.9 3
 SPEC PODRBH N T 52855 K 0.020 GD  285 VS 4.42 DE 3.40 Q0400.0 QA 0.70 Q1 0.00 3
 2020-02-01-0527-00S.MAN___147                                                 6
 OLDACT:ARG 20-02-01 05:48 OP:njm  STATUS:               ID:20200201052700     3
 OLDACT:UP  20-02-01 11:30 OP:AMMR STATUS:               ID:20200201052700     3
 ACTION:UP  22-01-05 18:33 OP:JMLC STATUS:               ID:20200201052752 L   I
 OLDACT:UP  21-11-07 23:21 OP:CGRS STATUS:               ID:20200201052752 L   3
 OLDACT:UP  20-04-19 16:58 OP:JMLC STATUS:               ID:20200201052752 L   3
 STAT SP IPHASW D HRMM SECON CODA AMPLIT PERI AZIMU VELO AIN AR TRES W  DIS CAZ7
 HIDR BZ EPg       528 12.92   41                        166    0.2310 35.9  90 
 HIDR BE ESg       528 27.01                             166   -0.4210 35.9  90 
 HIDR BN  IAML     528 27.16       144.7 0.25                          35.9  90 
 HMDR BZ EPg       528 11.86   70                        164   -1.0310 40.7 302 
 HMDR BE ESg       528 26.30                             164   -1.4710 40.7 302 
 HMDR BN  IAML     528 27.23        41.2 0.50                          40.7 302 
 MIDR HZ EPg       528 12.92   42                        163    0.0110 43.4   1 
 MIDR HE ESg       528 28.77                             163    0.9610 43.4   1 
 MIDR BN  IAML     528 29.72        38.8 0.08                          43.4   1 
 PCDR HZ EPg       528 13.97   53                        154   -0.1810 71.7  97 
 PCDR HE ESg       528 30.53                             154    0.5710 71.7  97 
 PCDR BN  IAML     529  2.70       114.2 2.24                          71.7  97 
 SMDR BZ EPg       528 14.68   46                        151    0.1610 78.6 350 
 SMDR BE ESg       528 31.23                             151    0.6210 78.6 350 
 SMDR BN  IAML     528 37.68        58.2 0.75                          78.6 350 
 NAVI BZ EPg       528 16.09   40                        142   -0.5810  110 292 
 NAVI BE ESg       528 34.05                             142   -0.3010  110 292 
 NAVI BN  IAML     528 37.73      1073.3 0.25                           110 292 
 BADR BZ EPg       528 18.90   43                        135   -0.0910  140 261 
 BADR BE ESg       528 39.33                             135    0.9510  140 261 
 BADR BN  IAML     528 40.96       224.8 0.20                           140 261 
 PODR BZ EPg       528 29.12   51                        119    0.5710  240 259 
 PODR BN  IAML     528 59.22        70.0 1.20                           240 259 
                                                                                
 2020  2 1 0554 16.80L  18.023 -67.732 17.2  DOM  5 0.8 2.3LDOM 3.0CDOM 2.7WDOM1
 SPEC AVERAGE  MO 13.1 ST  1.6 OM  2.3 f0 3.66 R0.4431 AL 0.00 WI 20.0 MW  2.7 3
 SPEC SD       MO  0.2 ST  1.5 OM  0.5 f0 1.45 R0.2004 AL      WI      MW  0.1 3
 GAP=243        2.15      20.5     6.7 12.2  0.1045E+02  0.4797E+02  0.7919E+02E
 LOCALITY: 94.4 Km al SE de Punta Cana, Canal de la Mona.                      3
 SPEC AGPRBH N MO 13.1 ST  3.6 OM  2.0 f0 5.50 R0.2449 AL-0.00 WI 20.0 MW  2.7 3
 SPEC AGPRBH N T 55438 K 0.020 GD 84.1 VS 3.64 DE 2.79 Q0400.0 QA 0.70 Q1 0.00 3
 SPEC PCDRHN N MO 13.5 ST0.274 OM  2.4 f0 1.69 R0.7969 AL-0.00 WI 20.0 MW  2.9 3
 SPEC PCDRHN N T 55441 K 0.020 GD 89.2 VS 3.64 DE 2.79 Q0400.0 QA 0.70 Q1 0.00 3
 SPEC HIDRBH N MO 13.1 ST  3.3 OM  1.9 f0 5.13 R0.2625 AL-0.00 WI 20.0 MW  2.7 3
 SPEC HIDRBH N T 55447 K 0.020 GD  122 VS 3.64 DE 2.79 Q0400.0 QA 0.70 Q1 0.00 3
 SPEC MIDRHH N MO 13.2 ST0.560 OM  1.8 f0 2.71 R0.4970 AL-0.00 WI 20.0 MW  2.7 3
 SPEC MIDRHH N T 55457 K 0.020 GD  175 VS 3.64 DE 2.79 Q0400.0 QA 0.70 Q1 0.00 3
 SPEC HMDRBH N MO 12.8 ST0.426 OM  1.4 f0 3.25 R0.4144 AL-0.00 WI 20.0 MW  2.5 3
 SPEC HMDRBH N T 555 6 K 0.020 GD  194 VS 3.64 DE 2.79 Q0400.0 QA 0.70 Q1 0.00 3
 2020-02-01-0554-00S.MAN___147                                                 6
 OLDACT:UP  20-02-01 11:35 OP:AMMR STATUS:               ID:20200201055400     3
 OLDACT:UP  20-02-01 11:33 OP:AMMR STATUS:               ID:20200201055400     3
 OLDACT:ARG 20-02-01 10:49 OP:njm  STATUS:               ID:20200201055400     3
 OLDACT:UP  20-02-01 11:36 OP:AMMR STATUS:               ID:20200201055400     3
 ACTION:UP  22-01-05 18:33 OP:JMLC STATUS:               ID:20200201055417 L   I
 OLDACT:UP  21-11-07 23:22 OP:CGRS STATUS:               ID:20200201055417 L   3
 OLDACT:UP  21-11-07 16:58 OP:CGRS STATUS:               ID:20200201055417 L   3
 OLDACT:UP  21-11-07 16:57 OP:CGRS STATUS:               ID:20200201055417 L   3
 OLDACT:UP  20-04-19 16:58 OP:JMLC STATUS:               ID:20200201055417 L   3
 STAT SP IPHASW D HRMM SECON CODA AMPLIT PERI AZIMU VELO AIN AR TRES W  DIS CAZ7
 AGPR BZ IP        554 29.85   40                         96   -0.1810 82.3  53 
 AGPR BN IS     C  554 40.19                              96    0.4010 82.3  53 
 AGPR BE  IAML     554 41.22        40.9 0.20             98           82.3  53 
 AGPR BN  IAML     554 48.84       137.3 0.25                          82.3  53 
 PCDR HZ IP     C  554 30.59   47                         95   -0.2210 87.5 308 
 PCDR HN IS     C  554 41.32                              95    0.1810 87.5 308 
 PCDR HN  IAML     554 46.65        91.5 0.72                          87.5 308 
 PCDR HE  IAML     554 48.81       101.5 1.52             97           87.5 308 
 PCDR BN  IAML     554 52.18        79.3 1.74                          87.5 308 
 HIDR BZ IP     C  554 34.90   40                         55   -0.7310  121 301 
 HIDR BN  IAML     554 49.47        94.4 0.20                           121 301 
 HIDR BN IS     C  554 50.58                              55    1.0510  121 301 
 HIDR BE  IAML     554 53.52        72.1 0.60             95            121 301 
 MIDR HZ IP     C  554 41.37   50                         55   -0.9110  175 308 
 MIDR HN IS     C  554 59.63                              55   -1.4710  175 308 
 MIDR HN  IAML     555  0.87        80.7 0.32                           175 308 
 MIDR BN  IAML     555  0.89        78.5 0.32                           175 308 
 HMDR BZ IP     C  554 45.68   48                         55    1.0510  194 296 
 HMDR BN IS     C  555  6.01                              55    0.8210  194 296 
 HMDR BN  IAML     555 11.43        19.4 0.50                           194 296 
                                                                                
 2020  2 1 0617 54.20L  17.806 -66.834 20.1  DOM  7 0.4 3.7LDOM 3.7CDOM 4.0WDOM1
 SPEC AVERAGE  MO 15.1 ST  5.8 OM  3.9 f0 1.33 R1.3244 AL 0.00 WI 20.0 MW  4.0 3
 SPEC SD       MO  0.7 ST  7.3 OM  0.8 f00.453 R0.4762 AL      WI      MW  0.4 3
 GAP=314        1.01       6.9    14.2 14.1 -0.4418E+02 -0.1237E+03  0.4029E+02E
 LOCALITY: 38.1 Km al SO de Ponce, Region de Puerto Rico.                      3
 SPEC CRPRBH N MO 15.3 ST 20.7 OM  4.3 f0 2.07 R0.7597 AL-0.00 WI 20.0 MW  4.2 3
 SPEC CRPRBH N T 618 3 K 0.020 GD 40.3 VS 4.25 DE 3.19 Q0400.0 QA 0.70 Q1 0.00 3
 SPEC PRSNBH N MO 14.9 ST 63.4 OM  3.7 f0 4.06 R0.3873 AL-0.00 WI 20.0 MW  3.9 3
 SPEC PRSNBH N T 618 9 K 0.020 GD 65.1 VS 4.25 DE 3.19 Q0400.0 QA 0.70 Q1 0.00 3
 SPEC AGPRBH N MO 15.2 ST  9.1 OM  3.9 f0 1.69 R0.9305 AL-0.00 WI 20.0 MW  4.1 3
 SPEC AGPRBH N T 61814 K 0.020 GD 81.6 VS 4.25 DE 3.19 Q0400.0 QA 0.70 Q1 0.00 3
 SPEC PCDRHN N MO 15.2 ST0.775 OM  3.5 f00.774 R2.0317 AL-0.00 WI 20.0 MW  4.1 3
 SPEC PCDRHN N T 61843 K 0.020 GD  182 VS 4.25 DE 3.19 Q0400.0 QA 0.70 Q1 0.00 3
 SPEC HIDRBH N MO 14.8 ST  2.4 OM  3.1 f0 1.44 R1.0920 AL-0.00 WI 20.0 MW  3.8 3
 SPEC HIDRBH N T 61854 K 0.020 GD  217 VS 4.25 DE 3.19 Q0400.0 QA 0.70 Q1 0.00 3
 SPEC MIDRHH N MO 14.9 ST  1.0 OM  3.1 f0 1.01 R1.5569 AL-0.00 WI 20.0 MW  3.9 3
 SPEC MIDRHH N T 619 8 K 0.020 GD  268 VS 4.25 DE 3.19 Q0400.0 QA 0.70 Q1 0.00 3
 SPEC HMDRBH N MO 15.0 ST  1.1 OM  3.1 f00.998 R1.5757 AL-0.00 WI 20.0 MW  3.9 3
 SPEC HMDRBH N T 61915 K 0.020 GD  290 VS 4.25 DE 3.19 Q0400.0 QA 0.70 Q1 0.00 3
 2020-02-01-0617-00S.MAN___147                                                 6
 OLDACT:ARG 20-02-01 10:50 OP:njm  STATUS:               ID:20200201061700     3
 OLDACT:UP  20-02-01 11:41 OP:AMMR STATUS:               ID:20200201061700     3
 ACTION:UP  22-01-05 18:33 OP:JMLC STATUS:               ID:20200201061753 L   I
 OLDACT:UP  21-11-07 23:23 OP:CGRS STATUS:               ID:20200201061753 L   3
 OLDACT:UP  20-04-19 16:58 OP:JMLC STATUS:               ID:20200201061753 L   3
 STAT SP IPHASW D HRMM SECON CODA AMPLIT PERI AZIMU VELO AIN AR TRES W  DIS CAZ7
 PRSN BZ EPg    C  618  3.20   76                        103                    
 PRSN BE ESg    C  618 10.78                             103                    
 PRSN BN  IAML     618 13.48     17055.4 0.35                                   
 CRPR BZ EPg    D  618  0.48   55                        111   -0.0710 34.9 309 
 CRPR BE ESg    C  618  5.08                             111   -0.1610 34.9 309 
 CRPR BN  IAML     618  5.33     32963.5 0.60                          34.9 309 
 AGPR BZ EPg    C  618  6.79   85                         90   -0.1110 79.1 338 
 AGPR BE ESg    D  618 16.48                              90    0.1910 79.1 338 
 AGPR BN  IAML     618 19.38      3225.7 0.45                          79.1 338 
 PCDR HZ EPg    C  618 22.29  105                         90    0.4910  181 296 
 PCDR BN  IAML     618 57.24       847.3 0.96                           181 296 
 HIDR BZ EPg    C  618 27.33  115                         90    0.3310  217 294 
 HIDR BN  IAML     618 58.31       610.4 0.25                           217 294 
 MIDR HZ EPg    C  618 33.54   98                         90   -0.8410  268 299 
 MIDR BN  IAML     619 14.99       202.7 0.86                           268 299 
 HMDR BZ EPg    C  618 37.84  111                         90    0.1710  290 292 
 HMDR BN  IAML     619 22.21       214.4 0.60                           290 292 
                                                                                
 2020  2 1 0644  3.10L  18.981 -67.662  0.0  DOM  6 0.9 2.0LDOM 2.8CDOM 2.2WDOM1
 SPEC AVERAGE  MO 12.3 ST  1.5 OM  2.7 f0 6.05 R0.1991 AL 0.00 WI 20.0 MW  2.2 3
 SPEC SD       MO  0.2 ST  1.1 OM  1.3 f00.756 R0.0266 AL      WI      MW  0.1 3
 GAP=224        2.52      15.8     6.5 17.2  0.6002E+02 -0.4127E+01 -0.1554E+03E
 LOCALITY: 145.8 Km al Este de Miches, Oceano Atlantico.                       3
 SPEC AGPRBH N MO 12.6 ST  3.1 OM  1.7 f0 6.82 R0.1736 AL-0.00 WI 20.0 MW  2.3 3
 SPEC AGPRBH N T 64424 K 0.020 GD 81.2 VS 3.20 DE 2.60 Q0400.0 QA 0.70 Q1 0.00 3
 SPEC CRPRBH N MO 12.4 ST0.837 OM  1.4 f0 5.02 R0.2359 AL-0.00 WI 20.0 MW  2.2 3
 SPEC CRPRBH N T 64437 K 0.020 GD  111 VS 3.20 DE 2.60 Q0400.0 QA 0.70 Q1 0.00 3
 SPEC MIDRHH N MO 12.0 ST0.715 OM  1.0 f0 6.30 R0.1879 AL-0.00 WI 20.0 MW  2.0 3
 SPEC MIDRHH N T 64442 K 0.020 GD  120 VS 3.20 DE 2.60 Q0400.0 QA 0.70 Q1 0.00 3
 2020-02-01-0643-00S.MAN___147                                                 6
 OLDACT:UP  20-02-01 11:46 OP:AMMR STATUS:               ID:20200201064300     3
 OLDACT:UP  20-02-01 11:44 OP:AMMR STATUS:               ID:20200201064300     3
 OLDACT:ARG 20-02-01 10:51 OP:njm  STATUS:               ID:20200201064300     3
 OLDACT:UP  20-02-01 11:47 OP:AMMR STATUS:               ID:20200201064300     3
 ACTION:UP  22-01-05 18:33 OP:JMLC STATUS:               ID:20200201064402 L   I
 OLDACT:UP  21-11-07 17:13 OP:CGRS STATUS:               ID:20200201064402 L   3
 OLDACT:UP  21-11-07 17:12 OP:CGRS STATUS:               ID:20200201064402 L   3
 OLDACT:UP  20-04-19 16:58 OP:JMLC STATUS:               ID:20200201064402 L   3
 STAT SP IPHASW D HRMM SECON CODA AMPLIT PERI AZIMU VELO AIN AR TRES W  DIS CAZ7
 AGPR BZ IP     C  644 15.14   41                         90   -1.0610 81.2 134 
 AGPR BE IS     C  644 26.93                              90    1.0410 81.2 134 
 AGPR BN  IAML     644 28.82        41.6 0.25                          81.2 134 
 AGPR BE  IAML     644 29.62        46.5 0.20             90           81.2 134 
 PCDR HZ IP     C  644 17.29   33                         90   -0.6210 91.7 236 
 PCDR HE IS     C  644 29.53                              90    0.6710 91.7 236 
 PCDR HN  IAML     644 30.36        75.7 1.16                          91.7 236 
 PCDR BN  IAML     645  5.44       125.7 3.34                          91.7 236 
 HIDR BZ IP     C  644 21.02   34                         90   -1.2910  119 249 
 HIDR BE IS        644 35.12                              90   -1.4010  119 249 
 HIDR BN  IAML     644 35.94        30.3 0.25                           119 249 
 CRPR BZ IP     C  644 23.04   41                         90   -0.0210  124 151 
 CRPR BE IS     C  644 38.13                              90    0.3110  124 151 
 CRPR BN  IAML     644 41.84        36.8 0.55                           124 151 
 MIDR HZ IP     C  644 26.45   38                         70   -0.1310  146 270 
 MIDR HE IS     C  644 45.83                              70    1.8910  146 270 
 MIDR HN  IAML     644 46.94        25.1 0.32                           146 270 
 MIDR BN  IAML     644 46.94        25.1 0.32                           146 270 
 HMDR BZ IP        644 31.15   42                         50   -0.0310  182 264 
 HMDR BE IS     C  644 52.61                              50    0.6610  182 264 
 HMDR BN  IAML     644 57.74         5.4 0.40                           182 264 
                                                                                
