 2020  1 1 0742 43.90L  17.907 -66.882 15.0  DOM  8 0.5 2.6LDOM 3.2CDOM 2.8WDOM1
 SPEC AVERAGE  MO 13.2 ST  7.2 OM  2.1 f0 5.56 R0.3056 AL 0.00 WI 20.0 MW  2.8 3
 SPEC SD       MO  5.4 ST  5.4 OM  1.0 f0 2.65 R0.1434 AL      WI      MW  1.1 3
 GAP=217        1.25       5.2     3.3 11.7 -0.4580E+00 -0.1702E+02 -0.3583E+01E
 SPEC MLPRBH N MO 13.1 ST 13.3 OM  2.5 f0 8.75 R0.1653 AL-0.00 WI 20.0 MW  2.7 3
 SPEC MLPRBH N T 74247 K 0.020 GD 23.7 VS 3.91 DE 2.91 Q0400.0 QA 0.70 Q1 0.00 3
 SPEC CRPRBH N MO 13.5 ST  9.9 OM  2.8 f0 5.90 R0.2452 AL-0.00 WI 20.0 MW  3.0 3
 SPEC CRPRBH N T 74250 K 0.020 GD 28.7 VS 3.91 DE 2.91 Q0400.0 QA 0.70 Q1 0.00 3
 SPEC PRSNBH N MO 13.4 ST  8.7 OM  2.5 f0 6.07 R0.2383 AL-0.00 WI 20.0 MW  2.9 3
 SPEC PRSNBH N T 74254 K 0.020 GD 46.5 VS 3.91 DE 2.91 Q0400.0 QA 0.70 Q1 0.00 3
 SPEC AOPRBH N MO 13.6 ST 13.0 OM  2.6 f0 6.17 R0.2345 AL-0.00 WI 20.0 MW  3.0 3
 SPEC AOPRBH N T 74256 K 0.020 GD 52.7 VS 3.91 DE 2.91 Q0400.0 QA 0.70 Q1 0.00 3
 SPEC AGPRBH N MO 13.4 ST  5.8 OM  2.3 f0 5.43 R0.2664 AL-0.00 WI 20.0 MW  2.9 3
 SPEC AGPRBH N T 743 1 K 0.020 GD 68.4 VS 3.91 DE 2.91 Q0400.0 QA 0.70 Q1 0.00 3
 SPEC MIDRHH N MO 12.7 ST0.738 OM  1.0 f0 4.76 R0.3039 AL-0.00 WI 20.0 MW  2.4 3
 SPEC MIDRHH N T 74356 K 0.020 GD  258 VS 3.91 DE 2.91 Q0400.0 QA 0.70 Q1 0.00 3
 SPEC HMDRBH N MO 13.1 ST0.240 OM  1.4 f0 2.34 R0.6182 AL-0.00 WI 20.0 MW  2.7 3
 SPEC HMDRBH N T 744 2 K 0.020 GD  281 VS 3.91 DE 2.91 Q0400.0 QA 0.70 Q1 0.00 3
 LOCALITY: 30.7 Km al OSO de Ponce, Region de Puerto Rico.                     3
 2020-01-01-0742-00S.MAN___144                                                 6
 OLDACT:ARG 20-01-01 12:07 OP:AMMR STATUS:               ID:20200101074200     3
 OLDACT:UP  20-01-01 12:22 OP:AMMR STATUS:               ID:20200101074200     3
 ACTION:UP  21-12-07 16:32 OP:JMLC STATUS:               ID:20200101074243 L   I
 OLDACT:UP  20-04-19 16:56 OP:JMLC STATUS:               ID:20200101074243 L   3
 STAT SP IPHASW D HRMM SECON CODA AMPLIT PERI AZIMU VELO AIN AR TRES W  DIS CAZ7
 PRSN BZ EPg    C  742 50.93   44                        101                    
 PRSN BE  IAML     742 59.40       734.7 0.20                                   
 PRSN BN  IAML     743  0.74      1473.4 0.25                                   
 MLPR BZ EP     C  742 46.97                             125   -0.6710 18.4 292 
 MLPR BE  IAML     742 50.73      1034.8 0.15                          18.4 292 
 MLPR BN  IAML     742 50.84      1193.6 0.15                          18.4 292 
 CRPR BZ EPg    C  742 48.22   49                        117   -0.2110 24.5 297 
 CRPR BN ESg    D  742 52.48                             117    0.6710 24.5 297 
 CRPR BE  IAML     742 52.58      1983.5 0.20                          24.5 297 
 CRPR BN  IAML     742 54.45      1538.1 0.25                          24.5 297 
 AOPR BZ EPg    C  742 51.75   64                         99   -0.4710 50.5  16 
 AOPR BE ESg    D  742 58.03                              99   -0.3810 50.5  16 
 AOPR BE  IAML     742 58.19      1896.2 0.30                          50.5  16 
 AOPR BN  IAML     743  1.10      1003.3 0.20                          50.5  16 
 AGPR BZ EPg    C  742 54.48   61                         95   -0.1810 66.7 339 
 AGPR BZ E      C  742 54.49                                           66.7 339 
 AGPR BN ESg    C  743  3.01                              95    0.3610 66.7 339 
 AGPR BE  IAML     743  5.92       196.9 0.25                          66.7 339 
 AGPR BN  IAML     743  9.96       191.9 0.80                          66.7 339 
 SJG  BZ EPg       742 56.59   69                         94   -0.2110 80.8  74 
 SJG  BN ESg       743  7.11                              94    0.7310 80.8  74 
 MIDR HZ EPg       743 24.19                              91    0.5710  258 298 
 MIDR BN  IAML     744 33.61        24.5 2.20                           258 298 
 HMDR BZ EPg       743 26.98                              91   -0.2110  281 291 
 HMDR BN  IAML     744  6.76        13.7 1.05                           281 291 
                                                                                
 2020  1 1 0837 40.50L  19.180 -67.565 10.3  DOM 12 0.7 3.4LDOM 3.2CDOM 3.4WDOM1
 SPEC AVERAGE  MO 14.2 ST 10.2 OM  3.2 f0 2.63 R0.6621 AL 0.00 WI 20.0 MW  3.4 3
 SPEC SD       MO  4.5 ST 14.9 OM  1.1 f0 1.49 R0.3635 AL      WI      MW  1.1 3
 GAP=214        1.87      12.8     5.8120.8  0.5141E+02 -0.1103E+03 -0.1037E+04E
 SPEC AGPRBH N MO 14.3 ST 50.4 OM  3.2 f0 5.14 R0.2613 AL-0.00 WI 20.0 MW  3.5 3
 SPEC AGPRBH N T 838 4 K 0.020 GD 92.7 VS 3.63 DE 2.78 Q0400.0 QA 0.70 Q1 0.00 3
 SPEC PCDRHN N MO 14.8 ST  2.2 OM  3.6 f0 1.27 R1.0576 AL-0.00 WI 20.0 MW  3.8 3
 SPEC PCDRHN N T 83811 K 0.020 GD  106 VS 3.63 DE 2.78 Q0400.0 QA 0.70 Q1 0.00 3
 SPEC PRSNBH N MO 14.1 ST 24.7 OM  2.9 f0 4.85 R0.2769 AL-0.00 WI 20.0 MW  3.3 3
 SPEC PRSNBH N T 83812 K 0.020 GD  107 VS 3.63 DE 2.78 Q0400.0 QA 0.70 Q1 0.00 3
 SPEC AOPRBH N MO 14.1 ST 21.9 OM  2.9 f0 4.58 R0.2933 AL-0.00 WI 20.0 MW  3.3 3
 SPEC AOPRBH N T 83814 K 0.020 GD  113 VS 3.63 DE 2.78 Q0400.0 QA 0.70 Q1 0.00 3
 SPEC HIDRBH N MO 14.3 ST 12.9 OM  3.1 f0 3.24 R0.4145 AL-0.00 WI 20.0 MW  3.5 3
 SPEC HIDRBH N T 83817 K 0.020 GD  119 VS 3.63 DE 2.78 Q0400.0 QA 0.70 Q1 0.00 3
 SPEC CRPRBH N MO 14.5 ST  4.5 OM  3.3 f0 1.95 R0.6888 AL-0.00 WI 20.0 MW  3.6 3
 SPEC CRPRBH N T 83818 K 0.020 GD  119 VS 3.63 DE 2.78 Q0400.0 QA 0.70 Q1 0.00 3
 SPEC MLPRBH N MO 13.8 ST  1.9 OM  2.6 f0 2.51 R0.5351 AL-0.00 WI 20.0 MW  3.2 3
 SPEC MLPRBH N T 83820 K 0.020 GD  122 VS 3.63 DE 2.78 Q0400.0 QA 0.70 Q1 0.00 3
 SPEC MIDRHH N MO 14.0 ST  4.3 OM  2.7 f0 2.98 R0.4507 AL-0.00 WI 20.0 MW  3.2 3
 SPEC MIDRHH N T 83825 K 0.020 GD  128 VS 3.63 DE 2.78 Q0400.0 QA 0.70 Q1 0.00 3
 SPEC SMDRBH N MO 14.6 ST0.923 OM  3.3 f0 1.11 R1.2100 AL-0.00 WI 20.0 MW  3.7 3
 SPEC SMDRBH N T 83830 K 0.020 GD  133 VS 3.63 DE 2.78 Q0400.0 QA 0.70 Q1 0.00 3
 SPEC HMDRBH N MO 14.1 ST  2.8 OM  2.8 f0 2.31 R0.5814 AL-0.00 WI 20.0 MW  3.3 3
 SPEC HMDRBH N T 83834 K 0.020 GD  144 VS 3.63 DE 2.78 Q0400.0 QA 0.70 Q1 0.00 3
 SPEC SDD BH N MO 13.8 ST0.181 OM  2.4 f0 1.19 R1.1287 AL-0.00 WI 20.0 MW  3.1 3
 SPEC SDD BH N T 83853 K 0.020 GD  168 VS 3.63 DE 2.78 Q0400.0 QA 0.70 Q1 0.00 3
 LOCALITY: 157.5 Km al Este de Miches, Oceano Atlantico.                       3
 2020-01-01-0837-00S.MAN___144                                                 6
 OLDACT:UP  20-01-01 12:27 OP:AMMR STATUS:               ID:20200101083700     3
 OLDACT:ARG 20-01-01 12:07 OP:AMMR STATUS:               ID:20200101083700     3
 OLDACT:UP  20-01-01 12:31 OP:AMMR STATUS:               ID:20200101083700     3
 ACTION:UP  21-12-07 16:32 OP:JMLC STATUS:               ID:20200101083740 L   I
 OLDACT:UP  21-05-04 19:54 OP:AMMR STATUS:               ID:20200101083740 L   3
 OLDACT:UP  20-04-19 16:56 OP:JMLC STATUS:               ID:20200101083740 L   3
 STAT SP IPHASW D HRMM SECON CODA AMPLIT PERI AZIMU VELO AIN AR TRES W  DIS CAZ7
 PRSN BZ EPg       837 59.29                              91                    
 PRSN BE  IAML     838 17.18      1838.0 0.20                                   
 PRSN BN  IAML     838 17.67      2580.4 0.25                                   
 AGPR BZ EPg    C  837 56.12   37                         96    0.6910 92.1 148 
 AGPR BN ESg    C  838  6.33                              96   -0.1610 92.1 148 
 AGPR BN  IAML     838  6.90      4923.4 0.45                          92.1 148 
 AGPR BE  IAML     838  6.96      5671.1 0.30                          92.1 148 
 PCDR HZ EPg       837 58.49                              95   -0.3410  113 230 
 PCDR BN  IAML     838 13.82       888.9 0.28                           113 230 
 AOPR BZ EPg    C  838  1.23   54                         95    0.3810  126 137 
 AOPR BE ESg    C  838 16.42                              95    0.5010  126 137 
 AOPR BE  IAML     838 19.84      2854.3 0.35                           126 137 
 AOPR BN  IAML     838 26.27      1181.5 0.30                           126 137 
 HIDR BZ EPg       838  2.20   57                         94   -0.5310  138 242 
 HIDR BE  IAML     838 22.34       911.8 0.30                           138 242 
 HIDR BN  IAML     838 22.50       688.0 0.25                           138 242 
 CRPR BZ EPg       838  1.91   46                         94   -1.1010  139 159 
 CRPR BE  IAML     838 20.49      1513.6 0.45                           139 159 
 CRPR BN ESg    D  838 20.49                              94    0.8110  139 159 
 CRPR BN  IAML     838 20.69      1238.5 0.70                           139 159 
 MLPR BZ EPg       838  2.85   51                         94   -1.0610  145 158 
 MLPR BE ESg    D  838 21.58                              94    0.3410  145 158 
 MLPR BE  IAML     838 22.48       267.5 0.20                           145 158 
 MLPR BN  IAML     838 22.86       374.2 0.35                           145 158 
 MIDR HZ EPg       838  6.49   62                         94    0.5110  158 262 
 MIDR HE  IAML     838 27.37       330.4 0.94                           158 262 
 MIDR HN  IAML     838 29.51       459.1 0.62                           158 262 
 MIDR BN  IAML     838 29.53       459.1 0.62                           158 262 
 SMDR BZ EPg    C  838  9.60   59                         93    1.4710  171 274 
 SMDR BN  IAML     838 32.92       449.4 1.00                           171 274 
 SMDR BE  IAML     838 39.77       465.8 0.50                           171 274 
 SJG  BZ EPg       838 10.61                              93   -0.6510  190 128 
 HMDR BZ EPg       838 11.57   63                         93   -0.5810  196 258 
 HMDR BN ESg    D  838 35.66                              93    0.0810  196 258 
 HMDR BN  IAML     838 36.56       323.2 1.45                           196 258 
 HMDR BE  IAML     838 37.24       244.4 0.70                           196 258 
 SDD  BZ EPg       838 22.17   71                         92   -0.3510  260 253 
 SDD  BN  IAML     838 56.91        57.4 0.50                           260 253 
 SDD  BE  IAML     838 57.61        56.4 1.00                           260 253 
                                                                                
 2020  1 1 0905 14.70L  17.890 -66.865 15.0  DOM 10 0.7 3.1LDOM 3.4CDOM 3.4WDOM1
 SPEC AVERAGE  MO 14.1 ST  2.5 OM  3.3 f0 2.13 R0.8755 AL 0.00 WI 20.0 MW  3.4 3
 SPEC SD       MO  5.0 ST  2.3 OM  1.3 f0 1.29 R0.5660 AL      WI      MW  1.2 3
 GAP=219        1.98       8.2     4.7 13.9 -0.5599E+01 -0.2712E+02  0.8339E+01E
 SPEC MLPRBH N MO 14.0 ST  2.4 OM  3.3 f0 2.62 R0.5508 AL-0.00 WI 20.0 MW  3.3 3
 SPEC MLPRBH N T 9 519 K 0.020 GD 25.7 VS 3.90 DE 2.90 Q0400.0 QA 0.70 Q1 0.00 3
 SPEC CRPRBH N MO 14.6 ST  2.0 OM  3.9 f0 1.45 R0.9952 AL-0.00 WI 20.0 MW  3.7 3
 SPEC CRPRBH N T 9 522 K 0.020 GD 30.9 VS 3.90 DE 2.90 Q0400.0 QA 0.70 Q1 0.00 3
 SPEC PRSNBH N MO 14.2 ST  5.7 OM  3.3 f0 2.81 R0.5135 AL-0.00 WI 20.0 MW  3.4 3
 SPEC PRSNBH N T 9 526 K 0.020 GD 49.0 VS 3.90 DE 2.90 Q0400.0 QA 0.70 Q1 0.00 3
 SPEC AOPRBH N MO 14.3 ST  6.2 OM  3.3 f0 2.80 R0.5154 AL-0.00 WI 20.0 MW  3.5 3
 SPEC AOPRBH N T 9 527 K 0.020 GD 54.0 VS 3.90 DE 2.90 Q0400.0 QA 0.70 Q1 0.00 3
 SPEC AGPRBH N MO 14.4 ST  2.6 OM  3.3 f0 1.92 R0.7516 AL-0.00 WI 20.0 MW  3.5 3
 SPEC AGPRBH N T 9 533 K 0.020 GD 70.9 VS 3.90 DE 2.90 Q0400.0 QA 0.70 Q1 0.00 3
 SPEC HIDRBH N MO 13.7 ST  5.9 OM  2.1 f0 4.38 R0.3295 AL-0.00 WI 20.0 MW  3.1 3
 SPEC HIDRBH N T 9 613 K 0.020 GD  211 VS 3.90 DE 2.90 Q0400.0 QA 0.70 Q1 0.00 3
 SPEC MIDRHH N MO 13.9 ST0.257 OM  2.2 f0 1.33 R1.0850 AL-0.00 WI 20.0 MW  3.2 3
 SPEC MIDRHH N T 9 627 K 0.020 GD  261 VS 3.90 DE 2.90 Q0400.0 QA 0.70 Q1 0.00 3
 SPEC HMDRBH N MO 14.4 ST0.149 OM  2.7 f00.734 R1.9659 AL-0.00 WI 20.0 MW  3.6 3
 SPEC HMDRBH N T 9 634 K 0.020 GD  284 VS 3.90 DE 2.90 Q0400.0 QA 0.70 Q1 0.00 3
 SPEC SMDRBH N MO 13.7 ST0.432 OM  2.0 f0 1.78 R0.8107 AL-0.00 WI 20.0 MW  3.1 3
 SPEC SMDRBH N T 9 636 K 0.020 GD  290 VS 3.90 DE 2.90 Q0400.0 QA 0.70 Q1 0.00 3
 LOCALITY: 29.8 Km al OSO de Ponce, Region de Puerto Rico.                     3
 2020-01-01-0905-00S.MAN___144                                                 6
 OLDACT:ARG 20-01-01 12:07 OP:AMMR STATUS:               ID:20200101090500     3
 OLDACT:UP  20-01-01 12:38 OP:AMMR STATUS:               ID:20200101090500     3
 ACTION:UP  21-12-07 16:32 OP:JMLC STATUS:               ID:20200101090514 L   I
 OLDACT:UP  20-04-19 16:56 OP:JMLC STATUS:               ID:20200101090514 L   3
 STAT SP IPHASW D HRMM SECON CODA AMPLIT PERI AZIMU VELO AIN AR TRES W  DIS CAZ7
 PRSN BZ EPg       9 5 22.04   64                        100                    
 PRSN BE  IAML     9 5 31.69      3054.5 0.30                                   
 PRSN BN  IAML     9 5 31.69      5435.4 0.30                                   
 MLPR BZ EP        9 5 18.08   45                        122   -0.7210 20.9 295 
 MLPR BN ES        9 5 21.28                             122   -0.5610 20.9 295 
 MLPR BN  IAML     9 5 22.25      3638.3 0.35                          20.9 295 
 CRPR BZ EP        9 5 19.34   61                        114   -0.2810 27.0 299 
 CRPR BE ES        9 5 23.60                             114    0.3310 27.0 299 
 CRPR BE  IAML     9 5 24.11      5636.0 0.20                          27.0 299 
 CRPR BN  IAML     9 5 26.20      4038.4 0.65                          27.0 299 
 AOPR BZ EPg    C  9 5 22.65   76                         98   -0.6310 51.9  13 
 AOPR BE ESg    C  9 5 29.24                              98   -0.4010 51.9  13 
 AOPR BE  IAML     9 5 29.70      5181.7 0.75                          51.9  13 
 AOPR BN  IAML     9 5 34.74      2310.8 0.30                          51.9  13 
 AGPR BZ EPg    C  9 5 25.58   76                         95   -0.3010 69.3 338 
 AGPR BE ESg    D  9 5 34.67                              95    0.5110 69.3 338 
 AGPR BN  IAML     9 5 34.79      1570.0 0.45                          69.3 338 
 AGPR BE  IAML     9 5 42.14       760.2 0.50                          69.3 338 
 SJG  BZ EPg       9 5 27.32   73                         94   -0.1410 79.6  72 
 SJG  BN ESg       9 5 37.47                              94    0.5610 79.6  72 
 HIDR BZ EPg       9 5 47.20                              91   -0.0710  211 292 
 HIDR BN  IAML     9 6 17.40       104.0 0.30                           211 292 
 MIDR HZ EPg       9 5 56.71                              91    1.8510  261 298 
 MIDR HN  IAML     9 6 31.62        47.9 0.86                           261 298 
 MIDR BN  IAML     9 6 31.65        47.9 0.86                           261 298 
 HMDR BZ EPg       9 5 57.35  112                         91   -1.0610  284 291 
 HMDR BE  IAML     9 6 36.54        63.6 0.45                           284 291 
 HMDR BN  IAML     9 6 40.54        61.1 0.85                           284 291 
 SMDR BZ EPg       9 6  0.23                              91    0.9110  290 303 
 SMDR BN  IAML     9 6 41.03        69.6 0.45                           290 303 
                                                                                
 2020  1 1 0948 13.20L  17.950 -70.170 31.1  DOM  9 0.5 2.2LDOM 3.2CDOM 2.8WDOM1
 SPEC AVERAGE  MO 13.3 ST110.6 OM  2.1 f0 7.97 R0.2489 AL 0.00 WI 20.0 MW  2.8 3
 SPEC SD       MO  0.6 ST258.6 OM  0.7 f0 3.63 R0.1018 AL      WI      MW  0.4 3
 GAP=236        1.23       6.0     3.2 18.2 -0.1157E+02 -0.1267E+02  0.4335E+02E
 SPEC SDD BH N MO 12.4 ST0.319 OM  1.0 f0 5.28 R0.3153 AL-0.00 WI 20.0 MW  2.2 3
 SPEC SDD BH N T 94830 K 0.020 GD 70.0 VS 4.50 DE 3.40 Q0400.0 QA 0.70 Q1 0.00 3
 SPEC NAVIBH N MO 14.3 ST744.1 OM  2.7 f0 16.0 R0.1041 AL-0.00 WI 20.0 MW  3.5 3
 SPEC NAVIBH N T 94841 K 0.020 GD  117 VS 4.50 DE 3.40 Q0400.0 QA 0.70 Q1 0.00 3
 SPEC PODRBH N MO 13.5 ST 10.6 OM  1.9 f0 7.04 R0.2365 AL-0.00 WI 20.0 MW  2.9 3
 SPEC PODRBH N T 94844 K 0.020 GD  123 VS 4.50 DE 3.40 Q0400.0 QA 0.70 Q1 0.00 3
 SPEC HMDRBH N MO 13.0 ST  6.8 OM  1.4 f0 8.80 R0.1892 AL-0.00 WI 20.0 MW  2.6 3
 SPEC HMDRBH N T 94845 K 0.020 GD  128 VS 4.50 DE 3.40 Q0400.0 QA 0.70 Q1 0.00 3
 SPEC NADRBH N MO 13.7 ST  2.5 OM  2.0 f0 3.67 R0.4537 AL-0.00 WI 20.0 MW  3.1 3
 SPEC NADRBH N T 94854 K 0.020 GD  162 VS 4.50 DE 3.40 Q0400.0 QA 0.70 Q1 0.00 3
 SPEC MIDRHH N MO 13.1 ST  5.1 OM  1.4 f0 7.33 R0.2271 AL-0.00 WI 20.0 MW  2.7 3
 SPEC MIDRHH N T 94855 K 0.020 GD  167 VS 4.50 DE 3.40 Q0400.0 QA 0.70 Q1 0.00 3
 SPEC REDRBH N MO 13.1 ST  4.9 OM  1.2 f0 7.70 R0.2162 AL-0.00 WI 20.0 MW  2.6 3
 SPEC REDRBH N T 94913 K 0.020 GD  220 VS 4.50 DE 3.40 Q0400.0 QA 0.70 Q1 0.00 3
 LOCALITY: 34.7 Km al Sur de Sabana Grande de Palenque, Mar Caribe.            3
 2020-01-01-0946-00S.MAN___144                                                 6
 OLDACT:ARG 20-01-01 12:07 OP:AMMR STATUS:               ID:20200101094600     3
 OLDACT:UP  20-01-01 12:45 OP:AMMR STATUS:               ID:20200101094600     3
 ACTION:UP  21-12-07 16:32 OP:JMLC STATUS:               ID:20200101094813 L   I
 OLDACT:UP  20-04-19 16:56 OP:JMLC STATUS:               ID:20200101094813 L   3
 STAT SP IPHASW D HRMM SECON CODA AMPLIT PERI AZIMU VELO AIN AR TRES W  DIS CAZ7
 SDD  BZ EPg    C  948 23.65   43                        110   -0.1810 62.7  25 
 SDD  BE ESg    C  948 31.68                             110   -0.0110 62.7  25 
 SDD  BE  IAML     948 31.84        43.2 0.45                          62.7  25 
 SDD  BN  IAML     948 32.38        21.2 0.15                          62.7  25 
 BRDR HZ EPg       948 29.30                              99   -0.0410  103 287 
 BRDR HN ESg       948 41.62                              99    0.3410  103 287 
 ABDR BE ESg    C  948 42.48                             100   -0.1410  107 333 
 ABDR BE  IAML     948 43.24         1.3 0.40                           107 333 
 ABDR BN  IAML     949 26.28         0.3 0.50                           107 333 
 NAVI BZ EPg       948 30.03   43                         98   -0.7110  113   8 
 NAVI BN ESg    D  948 42.97                              98   -0.7410  113   8 
 NAVI BE  IAML     948 43.30       958.4 0.15                           113   8 
 NAVI BN  IAML     948 44.87      1584.6 0.20                           113   8 
 PODR BZ EPg       948 31.78   66                         98   -0.0710  120 282 
 PODR BN ESg    D  948 46.28                              98    0.6310  120 282 
 PODR BN  IAML     948 47.38       105.8 0.20                           120 282 
 PODR BE  IAML     948 47.83       166.3 0.15                           120 282 
 HMDR BZ EPg    C  948 32.46   67                         97    0.0610  125  42 
 HMDR BN ESg    D  948 47.39                              97    0.8010  125  42 
 HMDR BE  IAML     948 47.41        79.5 0.55                           125  42 
 HMDR BN  IAML     948 48.29        49.9 0.20                           125  42 
 NADR BZ EPg       948 37.04                              95   -0.1210  159  12 
 NADR BN ESg    D  948 55.62                              95    0.7410  159  12 
 NADR BN  IAML     949  2.94        98.7 0.90                           159  12 
 MIDR HZ EPg       948 37.70   65                         95   -0.2510  165  46 
 MIDR HE ESg    C  948 56.51                              95    0.2610  165  46 
 MIDR HE  IAML     948 56.92        42.9 0.20                           165  46 
 MIDR HN  IAML     948 57.33        62.0 0.30                           165  46 
 MIDR BN  IAML     948 57.35        62.0 0.30                           165  46 
 REDR BZ EPg       948 45.01                              93   -0.5610  218 312 
 REDR BE  IAML     949 13.08        14.0 0.25                           218 312 
 REDR BN  IAML     949 23.01        21.6 0.20                           218 312 
                                                                                
