 2020  6 2 0727 11.60L  19.702 -68.989 31.1  DOM 16 0.8 3.7LDOM 3.5CDOM 3.8WDOM1
 SPEC AVERAGE  MO 14.7 ST103.7 OM  3.2 f0 4.25 R0.6623 AL 0.00 WI 20.0 MW  3.8 3
 SPEC SD       MO  0.3 ST261.8 OM  0.5 f0 3.98 R0.4021 AL      WI      MW  0.2 3
 GAP=251        2.21       6.8     6.6 48.2  0.2170E+02 -0.3651E+02 -0.1289E+03E
 SPEC CADRBH N MO 15.2 ST 22.9 OM  3.7 f0 2.42 R0.6880 AL-0.00 WI 20.0 MW  4.1 3
 SPEC CADRBH N T 72738 K 0.020 GD  104 VS 4.50 DE 3.40 Q0400.0 QA 0.70 Q1 0.00 3
 SPEC HMDRBH N MO 14.3 ST 43.7 OM  2.7 f0 6.29 R0.2647 AL-0.00 WI 20.0 MW  3.5 3
 SPEC HMDRBH N T 72737 K 0.020 GD  113 VS 4.50 DE 3.40 Q0400.0 QA 0.70 Q1 0.00 3
 SPEC HIDRBH N MO 14.5 ST999.9 OM  2.9 f0 16.0 R0.1041 AL-0.00 WI 20.0 MW  3.6 3
 SPEC HIDRBH N T 72744 K 0.020 GD  129 VS 4.50 DE 3.40 Q0400.0 QA 0.70 Q1 0.00 3
 SPEC SDD BH N MO 14.7 ST  6.9 OM  3.0 f0 2.36 R0.7055 AL-0.00 WI 20.0 MW  3.8 3
 SPEC SDD BH N T 72753 K 0.020 GD  170 VS 4.50 DE 3.40 Q0400.0 QA 0.70 Q1 0.00 3
 SPEC SODRBH N MO 15.3 ST  1.9 OM  3.6 f00.974 R1.7094 AL-0.00 WI 20.0 MW  4.2 3
 SPEC SODRBH N T 72755 K 0.020 GD  168 VS 4.50 DE 3.40 Q0400.0 QA 0.70 Q1 0.00 3
 SPEC SC01BH N MO 14.6 ST  9.0 OM  2.8 f0 2.91 R0.5722 AL-0.00 WI 20.0 MW  3.7 3
 SPEC SC01BH N T 72757 K 0.020 GD  187 VS 4.50 DE 3.40 Q0400.0 QA 0.70 Q1 0.00 3
 SPEC BADRBH N MO 15.0 ST118.3 OM  3.2 f0 4.89 R0.3405 AL-0.00 WI 20.0 MW  4.0 3
 SPEC BADRBH N T 728 3 K 0.020 GD  206 VS 4.50 DE 3.40 Q0400.0 QA 0.70 Q1 0.00 3
 SPEC MADRBH N MO 14.8 ST 13.0 OM  2.9 f0 2.87 R0.5801 AL-0.00 WI 20.0 MW  3.8 3
 SPEC MADRBH N T 728 8 K 0.020 GD  224 VS 4.50 DE 3.40 Q0400.0 QA 0.70 Q1 0.00 3
 SPEC SDDRBH N MO 14.6 ST  2.6 OM  2.7 f0 1.86 R0.8952 AL-0.00 WI 20.0 MW  3.7 3
 SPEC SDDRBH N T 72816 K 0.020 GD  256 VS 4.50 DE 3.40 Q0400.0 QA 0.70 Q1 0.00 3
 SPEC MCDRBH N MO 14.3 ST118.5 OM  2.3 f0 8.80 R0.1892 AL-0.00 WI 20.0 MW  3.5 3
 SPEC MCDRBH N T 72821 K 0.020 GD  281 VS 4.50 DE 3.40 Q0400.0 QA 0.70 Q1 0.00 3
 SPEC NEDRBH N MO 14.5 ST  3.6 OM  2.5 f0 2.31 R0.7208 AL-0.00 WI 20.0 MW  3.6 3
 SPEC NEDRBH N T 72823 K 0.020 GD  295 VS 4.50 DE 3.40 Q0400.0 QA 0.70 Q1 0.00 3
 SPEC PODRBH N MO 15.0 ST  5.2 OM  3.0 f0 1.78 R0.9354 AL-0.00 WI 20.0 MW  3.9 3
 SPEC PODRBH N T 72824 K 0.020 GD  296 VS 4.50 DE 3.40 Q0400.0 QA 0.70 Q1 0.00 3
 SPEC JIDRBH N MO 14.6 ST  2.5 OM  2.6 f0 1.84 R0.9049 AL-0.00 WI 20.0 MW  3.7 3
 SPEC JIDRBH N T 72843 K 0.020 GD  331 VS 4.50 DE 3.40 Q0400.0 QA 0.70 Q1 0.00 3
 LOCALITY: 47.8 Km al NNE de Las Galeras, Oceano Atlantico.                    3
 2020-06-02-0727-00S.MAN___126                                                 6
 OLDACT:ARG 20-06-02 09:39 OP:nr   STATUS:               ID:20200602072700     3
 OLDACT:UP  20-06-02 09:53 OP:JMLC STATUS:               ID:20200602072700     3
 ACTION:UP  22-01-18 18:54 OP:JMLC STATUS:               ID:20200602072711 L   I
 OLDACT:UP  21-12-23 11:14 OP:NEJM STATUS:               ID:20200602072700     3
 OLDACT:UP  20-06-02 09:54 OP:JMLC STATUS:               ID:20200602072700     3
 STAT SP IPHASW D HRMM SECON CODA AMPLIT PERI AZIMU VELO AIN AR TRES W  DIS CAZ7
 CADR BZ EPg    C  727 27.79   47                        100    0.4810 99.7 268 
 CADR BE ESg    C  727 40.08                             100    1.1710 99.7 268 
 CADR BN  IAML     727 42.23      6976.8 0.25                          99.7 268 
 HMDR BZ EPg    D  727 28.93   60                         99    0.2610  109 202 
 HMDR BE ESg    C  727 41.68                              99    0.4210  109 202 
 HMDR BN  IAML     727 45.01      1057.4 0.35                           109 202 
 HIDR BZ EPg    C  727 31.39   77                         97    0.3810  126 167 
 HIDR BE ESg    C  727 45.99                              97    0.6510  126 167 
 HIDR BN  IAML     727 47.34      3239.7 0.25                           126 167 
 NAVI BZ EPg    D  727 32.28   54                         96   -0.2310  137 233 
 NAVI BE ESg    C  727 47.70                              96   -0.2610  137 233 
 NAVI BN  IAML     727 49.47     49201.9 0.20                           137 233 
 SODR BZ EPg    D  727 37.16   69                         95    0.5210  166 272 
 SODR BN  IAML     728  4.89       939.1 0.50                           166 272 
 SDD  BZ EPg    D  727 37.12   64                         94    0.2010  168 216 
 SDD  BE ESg    C  727 55.47                              94   -0.1610  168 216 
 SDD  BN  IAML     727 56.47      1050.4 0.65                           168 216 
 SC01 BZ EPg       727 39.37   79                         94    0.1210  185 261 
 SC01 BE ESg    C  727 59.30                              94   -0.3910  185 261 
 SC01 BN  IAML     728 17.18       420.0 0.40                           185 261 
 ABDR BZ EPg    C  727 39.85   58                         94   -1.4910  198 240 
 ABDR BE ESg    D  728  2.75                              94   -0.5710  198 240 
 ABDR BE  IAML     728  4.15        12.7 0.35                           198 240 
 BADR BZ EPg    C  727 42.19   60                         93    0.1710  204 225 
 BADR BE ESg    C  728  5.10                              93    0.6110  204 225 
 BADR BN  IAML     728  8.57      1464.0 0.65                           204 225 
 LUDR BZ EPg    D  727 41.98   75                         93   -0.3410  207 276 
 LUDR BE ESg    C  728  5.95                              93    0.9310  207 276 
 MADR BZ EPg    C  727 44.00   81                         93   -0.4810  222 266 
 MADR BE ESg    C  728 10.09                              93    1.3210  222 266 
 MADR BN  IAML     728 25.71       694.2 0.40                           222 266 
 SDDR BZ EPg    C  727 50.23   73                         93    1.1510  255 252 
 SDDR BE ESg    C  728 17.87                              93    1.0810  255 252 
 SDDR BN  IAML     728 20.42       354.5 0.40                           255 252 
 MCDR BZ EPg    C  727 51.15   94                         92   -1.5010  280 275 
 MCDR BE ESg    C  728 22.74                              92   -0.2610  280 275 
 MCDR BN  IAML     728 52.71       194.2 0.85                           280 275 
 NEDR BZ EPg    C  727 55.02   82                         92    0.4910  294 243 
 NEDR BE ESg    C  728 25.33                              92   -0.9410  294 243 
 NEDR BN  IAML     728 27.90       146.0 0.45                           294 243 
 PODR BZ EPg    C  727 54.47   79                         92   -0.4210  295 235 
 PODR BE ESg    C  728 25.77                              92   -1.1210  295 235 
 PODR BN  IAML     728 29.35       266.8 0.55                           295 235 
 JIDR BZ EPg    C  727 57.83   92                         92   -1.7810  330 247 
 JIDR BN  IAML     728 38.64       118.5 0.40                           330 247 
                                                                                
 2020  6 2 1232 53.70L  19.028 -68.022 12.3  DOM  3 0.4 1.9LDOM 2.9CDOM 2.5WDOM1
 SPEC AVERAGE  MO 12.8 ST0.757 OM  2.9 f0 4.76 R0.4103 AL 0.00 WI 20.0 MW  2.5 3
 SPEC SD       MO  0.3 ST0.524 OM  1.6 f0 2.17 R0.1877 AL      WI      MW  0.2 3
 GAP=290        1.00       5.0     9.0  7.0  0.2339E+02  0.1059E+02 -0.1198E+01E
 SPEC SMDRBH N MO 13.1 ST0.234 OM  1.6 f0 2.58 R0.5980 AL-0.00 WI 20.0 MW  2.6 3
 SPEC SMDRBH N T123326 K 0.020 GD  120 VS 4.17 DE 3.12 Q0400.0 QA 0.70 Q1 0.00 3
 SPEC HMDRBH N MO 12.5 ST  1.3 OM  1.0 f0 6.93 R0.2226 AL-0.00 WI 20.0 MW  2.3 3
 SPEC HMDRBH N T123331 K 0.020 GD  135 VS 4.17 DE 3.12 Q0400.0 QA 0.70 Q1 0.00 3
 LOCALITY: 103.2 Km al Este de Miches, Oceano Atlantico.                       3
 2020-06-02-1232-00S.MAN___126                                                 6
 OLDACT:ARG 20-06-02 13:26 OP:njm  STATUS:               ID:20200602123200     3
 OLDACT:UP  20-06-02 13:29 OP:JMLC STATUS:               ID:20200602123200     3
 ACTION:UP  22-01-18 18:54 OP:JMLC STATUS:               ID:20200602123253 L   I
 OLDACT:UP  21-12-23 11:13 OP:NEJM STATUS:               ID:20200602123200     3
 OLDACT:UP  20-06-02 13:29 OP:JMLC STATUS:               ID:20200602123200     3
 STAT SP IPHASW D HRMM SECON CODA AMPLIT PERI AZIMU VELO AIN AR TRES W  DIS CAZ7
 PCDR BZ IP     C 1233  5.44   28                         90    0.6610 68.4 214 
 PCDR BE IS     C 1233 12.56                              90   -0.3810 68.4 214 
 PCDR BN  IAML    1233 13.40        69.3 0.30                          68.4 214 
 SMDR BZ IP     C 1233 13.25   40                         90   -0.2610  126 283 
 SMDR BE IS     C 1233 28.29                              90    0.1510  126 283 
 SMDR BN  IAML    1233 29.64        47.6 0.40                           126 283 
 HMDR BZ IP     D 1233 15.60   57                         55   -0.4010  146 260 
 HMDR BE IS     C 1233 32.69                              55    0.2310  146 260 
 HMDR BN  IAML    1233 34.57        14.3 0.25                           146 260 
                                                                                
 2020  6 2 1546 21.50L  20.383 -71.133  0.0  DOM 15 1.1 3.2LDOM 3.4CDOM 3.4WDOM1
 SPEC AVERAGE  MO 14.2 ST 30.1 OM  3.1 f0 3.12 R0.7544 AL 0.00 WI 20.0 MW  3.4 3
 SPEC SD       MO  0.4 ST 74.0 OM  0.5 f0 2.38 R0.5236 AL      WI      MW  0.3 3
 GAP=135        3.03       5.6     8.0  9.5 -0.9152E+01 -0.3483E+02  0.1520E+02E
 SPEC MCDRBH N MO 13.9 ST  3.2 OM  2.8 f0 2.95 R0.4728 AL-0.00 WI 20.0 MW  3.2 3
 SPEC MCDRBH N T154643 K 0.020 GD 77.1 VS 3.77 DE 2.85 Q0400.0 QA 0.70 Q1 0.00 3
 SPEC SODRBH N MO 15.0 ST0.461 OM  3.8 f00.677 R2.0604 AL-0.00 WI 20.0 MW  3.9 3
 SPEC SODRBH N T154645 K 0.020 GD 90.9 VS 3.77 DE 2.85 Q0400.0 QA 0.70 Q1 0.00 3
 SPEC MADRBH N MO 14.7 ST  1.6 OM  3.5 f0 1.28 R1.0898 AL-0.00 WI 20.0 MW  3.7 3
 SPEC MADRBH N T154644 K 0.020 GD 90.5 VS 3.77 DE 2.85 Q0400.0 QA 0.70 Q1 0.00 3
 SPEC SC01BH N MO 14.2 ST  1.4 OM  3.0 f0 1.71 R0.8157 AL-0.00 WI 20.0 MW  3.4 3
 SPEC SC01BH N T154650 K 0.020 GD  106 VS 3.77 DE 2.85 Q0400.0 QA 0.70 Q1 0.00 3
 SPEC GRTKBH N MO 13.9 ST  9.2 OM  2.6 f0 4.30 R0.3244 AL-0.00 WI 20.0 MW  3.2 3
 SPEC GRTKBH N T154656 K 0.020 GD  111 VS 3.77 DE 2.85 Q0400.0 QA 0.70 Q1 0.00 3
 SPEC REDRBH N MO 13.8 ST 53.7 OM  2.5 f0 8.25 R0.1691 AL-0.00 WI 20.0 MW  3.1 3
 SPEC REDRBH N T154658 K 0.020 GD  116 VS 3.77 DE 2.85 Q0400.0 QA 0.70 Q1 0.00 3
 SPEC SDDRBH N MO 14.3 ST0.364 OM  3.0 f0 1.04 R1.3413 AL-0.00 WI 20.0 MW  3.5 3
 SPEC SDDRBH N T1547 2 K 0.020 GD  124 VS 3.77 DE 2.85 Q0400.0 QA 0.70 Q1 0.00 3
 SPEC NADRBH N MO 14.4 ST 36.1 OM  3.1 f0 4.37 R0.3192 AL-0.00 WI 20.0 MW  3.6 3
 SPEC NADRBH N T1547 6 K 0.020 GD  132 VS 3.77 DE 2.85 Q0400.0 QA 0.70 Q1 0.00 3
 SPEC NAVIBH N MO 14.6 ST280.4 OM  3.2 f0 7.87 R0.1772 AL-0.00 WI 20.0 MW  3.6 3
 SPEC NAVIBH N T154712 K 0.020 GD  140 VS 3.77 DE 2.85 Q0400.0 QA 0.70 Q1 0.00 3
 SPEC JIDRBH N MO 14.3 ST0.517 OM  2.9 f0 1.19 R1.1722 AL-0.00 WI 20.0 MW  3.5 3
 SPEC JIDRBH N T154719 K 0.020 GD  148 VS 3.77 DE 2.85 Q0400.0 QA 0.70 Q1 0.00 3
 SPEC BADRBH N MO 14.0 ST  3.1 OM  2.6 f0 2.70 R0.5166 AL-0.00 WI 20.0 MW  3.3 3
 SPEC BADRBH N T154724 K 0.020 GD  152 VS 3.77 DE 2.85 Q0400.0 QA 0.70 Q1 0.00 3
 SPEC SMDRBH N MO 13.8 ST0.565 OM  2.4 f0 1.78 R0.7837 AL-0.00 WI 20.0 MW  3.1 3
 SPEC SMDRBH N T154721 K 0.020 GD  153 VS 3.77 DE 2.85 Q0400.0 QA 0.70 Q1 0.00 3
 SPEC HMDRBH N MO 13.6 ST0.989 OM  2.2 f0 2.47 R0.5647 AL-0.00 WI 20.0 MW  3.0 3
 SPEC HMDRBH N T154725 K 0.020 GD  159 VS 3.77 DE 2.85 Q0400.0 QA 0.70 Q1 0.00 3
 LOCALITY: 53.3 Km al NNO de Luperon, Oceano Atlantico.                        3
 2020-06-02-1546-00S.MAN___126                                                 6
 OLDACT:UP  20-06-02 16:09 OP:JMLC STATUS:               ID:20200602154600     3
 OLDACT:UP  20-06-02 16:06 OP:JMLC STATUS:               ID:20200602154600     3
 OLDACT:ARG 20-06-02 16:01 OP:njm  STATUS:               ID:20200602154600     3
 OLDACT:UP  20-06-02 16:11 OP:JMLC STATUS:               ID:20200602154600     3
 ACTION:UP  22-01-18 18:54 OP:JMLC STATUS:               ID:20200602154621 L   I
 OLDACT:UP  21-12-23 11:14 OP:NEJM STATUS:               ID:20200602154600     3
 OLDACT:UP  20-06-02 16:11 OP:JMLC STATUS:               ID:20200602154600     3
 STAT SP IPHASW D HRMM SECON CODA AMPLIT PERI AZIMU VELO AIN AR TRES W  DIS CAZ7
 LUDR BZ IP     C 1546 30.01   63                         90   -0.7210 57.4 161 
 LUDR BE IS     C 1546 39.62                              90    2.0410 57.4 161 
 LUDR BE  IAML    1546 58.47      2523.1 0.30                          57.4 161 
 MCDR BZ IP     C 1546 33.80   71                         90   -0.1110 77.1 225 
 MCDR BE IS     C 1546 44.88                              90    1.7710 77.1 225 
 MCDR BN  IAML    1546 52.46       258.7 0.25                          77.1 225 
 MADR BZ IP     C 1546 35.55   47                         90   -0.5210 90.5 178 
 MADR BN  IAML    1546 52.21      2177.1 0.60                          90.5 178 
 SODR BZ IP     C 1546 35.93   77                         90   -0.2110 90.9 140 
 SODR BN  IAML    1546 55.44      1388.9 0.50                          90.9 140 
 SC01 BZ IP     D 1546 39.32   75                         90   -0.5410  114 158 
 SC01 BN  IAML    1546 58.44       431.4 0.70                           114 158 
 GRTK BZ IP     D 1546 41.45   56                         90   -0.1810  125   0 
 GRTK BE IS     C 1546 58.16                              90    1.6210  125   0 
 GRTK BN  IAML    1547  3.36       641.5 0.25                           125   0 
 REDR BZ IP     C 1546 41.63   67                         90   -1.8010  136 206 
 REDR BE IS     D 1546 59.56                              90   -0.1210  136 206 
 REDR BN  IAML    1547  4.54       444.5 0.20                           136 206 
 SDDR BZ IP     C 1546 44.66   60                         50   -1.6510  156 186 
 SDDR BN IS     C 1547  3.97                              50   -0.7110  156 186 
 SDDR BN  IAML    1547  8.29       442.0 0.65                           156 186 
 NADR BZ IP     D 1546 48.11   56                         50   -0.5610  176 130 
 NADR BN  IAML    1547 19.34      1145.7 0.65                           176 130 
 ABDR BZ IP     D 1546 48.58   49                         50   -1.1510  182 163 
 ABDR BE IS     C 1547 10.61                              50   -0.0210  182 163 
 ABDR BE  IAML    1547 12.81         4.1 0.70                           182 163 
 NAVI BZ IP     C 1546 50.28   70                         50   -0.9410  196 143 
 NAVI BE IS     C 1547 14.15                              50    0.9210  196 143 
 NAVI BN  IAML    1547 21.35      1836.8 0.20                           196 143 
 JIDR BZ IP     C 1546 54.86   59                         50    0.3810  222 200 
 JIDR BE IS     C 1547 20.55                              50    1.6510  222 200 
 JIDR BN  IAML    1547 25.15       246.2 0.65                           222 200 
 BADR BZ IP     C 1546 56.59   72                         50    0.5410  234 160 
 BADR BN  IAML    1547 30.10       243.6 0.55                           234 160 
 SMDR BZ IP     C 1546 55.02   76                         50   -1.2710  237 120 
 SMDR BE IS     C 1547 23.45                              50    1.4010  237 120 
 SMDR BN  IAML    1547 34.30       142.0 0.45                           237 120 
 HMDR BZ IP     C 1546 57.39   75                         50   -1.1710  255 134 
 HMDR BE IS     D 1547 27.35                              50    1.3510  255 134 
 HMDR BN  IAML    1547 37.48        79.3 0.60                           255 134 
                                                                                
 2020  6 2 1559 55.60L  20.313 -71.118 20.2  DOM  6 0.9 2.3LDOM 3.1CDOM 3.7WDOM1
 SPEC AVERAGE  MO 14.6 ST0.097 OM  4.6 f00.754 R6.6403 AL 0.00 WI 20.0 MW  3.7 3
 SPEC SD       MO  0.7 ST0.092 OM  1.8 f00.616 R5.4249 AL      WI      MW  0.5 3
 GAP=133        2.32       4.8     7.4 13.5 -0.1060E+01 -0.3023E+01 -0.3280E+02E
 SPEC MCDRBH N MO 15.3 ST0.005 OM  3.9 f00.138 R 12.07 AL-0.00 WI 20.0 MW  4.1 3
 SPEC MCDRBH N T16 014 K 0.020 GD 75.8 VS 4.50 DE 3.40 Q0400.0 QA 0.70 Q1 0.00 3
 SPEC SDDRBH N MO 13.9 ST0.190 OM  2.2 f0 1.37 R1.2153 AL-0.00 WI 20.0 MW  3.2 3
 SPEC SDDRBH N T16 034 K 0.020 GD  150 VS 4.50 DE 3.40 Q0400.0 QA 0.70 Q1 0.00 3
 LOCALITY: 53.4 Km al NNO de Luperon, Oceano Atlantico.                        3
 2020-06-02-1559-00S.MAN___126                                                 6
 OLDACT:ARG 20-06-02 16:03 OP:njm  STATUS:               ID:20200602155900     3
 OLDACT:UP  20-06-02 16:16 OP:JMLC STATUS:               ID:20200602155900     3
 ACTION:UP  22-01-18 18:54 OP:JMLC STATUS:               ID:20200602155955 L   I
 OLDACT:UP  20-06-02 16:16 OP:JMLC STATUS:               ID:20200602155900     3
 STAT SP IPHASW D HRMM SECON CODA AMPLIT PERI AZIMU VELO AIN AR TRES W  DIS CAZ7
 LUDR BZ IP     C 16 0  3.95   53                         98   -0.0910 49.6 160 
 LUDR BE ESg    C 16 0 11.63                              98    1.3710 49.6 160 
 LUDR BE  IAML    16 0 16.92       463.4 0.35                          49.6 160 
 MCDR BZ IP     C 16 0  5.92   46                         91   -1.5310 73.1 230 
 MCDR BE ESg    C 16 0 17.07                              91    0.8710 73.1 230 
 MCDR BE  IAML    16 0 20.91        57.5 0.35                          73.1 230 
 REDR BZ IP     C 16 0 13.87   38                         59   -1.4310  130 208 
 REDR BE ESg    C 16 0 30.35                              90   -0.3410  130 208 
 REDR BN  IAML    16 0 33.79       139.0 0.30                           130 208 
 GRTK BZ IP     C 16 0 14.67   49                         59   -0.8810  133 359 
 GRTK BE ES     C 16 0 31.38                              59    1.1010  133 359 
 GRTK BE ESg    C 16 0 31.38                              90    0.1110  133 359 
 GRTK BN  IAML    16 0 35.43        35.7 0.40                           133 359 
 SDDR BZ IP     C 16 0 17.50   49                         59   -0.1010  149 187 
 SDDR BN ESg    C 16 0 36.16                              90    0.7610  149 187 
 SDDR BN  IAML    16 0 38.76        72.0 0.30                           149 187 
 HMDR BZ IP     D 16 0 29.84   67                         59   -0.1510  249 133 
 HMDR BE ESg    C 16 1  0.98                              90    0.3110  249 133 
 HMDR BN  IAML    16 1  5.11        13.4 1.50                           249 133 
                                                                                
