 2020  1 1 1320 18.20L  19.275 -67.435 18.0  DOM  6 0.7 2.1LDOM 2.9CDOM 2.5WDOM1
 SPEC AVERAGE  MO 12.8 ST  2.3 OM  1.8 f0 6.89 R0.2566 AL 0.00 WI 20.0 MW  2.5 3
 SPEC SD       MO  0.3 ST  1.6 OM  0.8 f0 1.99 R0.0691 AL      WI      MW  0.2 3
 GAP=234        1.83      19.3    11.8129.3  0.1907E+03 -0.4382E+03 -0.1555E+04E
 SPEC AGPRBH N MO 13.1 ST  4.9 OM  1.6 f0 7.49 R0.2179 AL-0.00 WI 20.0 MW  2.7 3
 SPEC AGPRBH N T132042 K 0.020 GD 97.1 VS 4.41 DE 3.32 Q0400.0 QA 0.70 Q1 0.00 3
 SPEC CRPRBH N MO 13.0 ST  1.2 OM  1.4 f0 4.76 R0.3428 AL-0.00 WI 20.0 MW  2.6 3
 SPEC CRPRBH N T132056 K 0.020 GD  146 VS 4.41 DE 3.32 Q0400.0 QA 0.70 Q1 0.00 3
 SPEC MIDRHH N MO 12.4 ST  2.5 OM  0.7 f0 9.85 R0.1657 AL-0.00 WI 20.0 MW  2.2 3
 SPEC MIDRHH N T1321 3 K 0.020 GD  173 VS 4.41 DE 3.32 Q0400.0 QA 0.70 Q1 0.00 3
 SPEC HMDRBH N MO 12.6 ST0.653 OM  0.8 f0 5.44 R0.2999 AL-0.00 WI 20.0 MW  2.3 3
 SPEC HMDRBH N T132117 K 0.020 GD  212 VS 4.41 DE 3.32 Q0400.0 QA 0.70 Q1 0.00 3
 LOCALITY: 172.5 Km al Este de Miches, Oceano Atlantico.                       3
 2020-01-01-1319-00S.MAN___144                                                 6
 OLDACT:ARG 20-01-01 17:07 OP:AMMR STATUS:               ID:20200101131900     3
 OLDACT:UP  20-01-01 17:11 OP:AMMR STATUS:               ID:20200101131900     3
 ACTION:UP  21-12-07 16:32 OP:JMLC STATUS:               ID:20200101132018 L   I
 STAT SP IPHASW D HRMM SECON CODA AMPLIT PERI AZIMU VELO AIN AR TRES W  DIS CAZ7
 AGPR BZ EPg    D 1320 33.56   34                         95    0.2110 95.4 159 
 AGPR BE ESg    D 1320 44.00                              95   -0.5810 95.4 159 
 AGPR BE  IAML    1320 44.25        97.2 0.20                          95.4 159 
 AGPR BN  IAML    1320 44.68        68.6 0.55                          95.4 159 
 AOPR BZ EPg    D 1320 38.75   45                         94    0.8710  125 145 
 CRPR BZ EPg      1320 40.32   39                         93   -0.5310  145 165 
 CRPR BE  IAML    1320 57.58        39.2 0.45                           145 165 
 CRPR BN ESg    D 1320 58.14                              93    0.5110  145 165 
 CRPR BN  IAML    1320 58.71        31.0 0.50                           145 165 
 MIDR HZ EPg      1320 44.27   42                         92   -0.7910  173 260 
 MIDR BN  IAML    1321  6.55        16.1 2.02                           173 260 
 SMDR BN ESg      1321  9.01                              92    1.0610  184 271 
 HMDR BZ EPg      1320 50.23   43                         92   -0.7410  212 256 
 HMDR BN  IAML    1321 14.29         8.1 1.30                           212 256 
                                                                                
 2020  1 1 1336  1.40L  19.218 -67.468 15.0  DOM  7 0.8 2.2LDOM 3.0CDOM 2.4WDOM1
 SPEC AVERAGE  MO 12.7 ST  1.9 OM  1.8 f0 6.03 R0.2815 AL 0.00 WI 20.0 MW  2.4 3
 SPEC SD       MO  0.4 ST  1.4 OM  0.7 f0 2.80 R0.0944 AL      WI      MW  0.3 3
 GAP=229        2.10      20.2    11.0313.2  0.1908E+03 -0.1183E+04 -0.3846E+04E
 SPEC AGPRBH N MO 13.2 ST  2.9 OM  2.0 f0 4.93 R0.2927 AL-0.00 WI 20.0 MW  2.8 3
 SPEC AGPRBH N T133624 K 0.020 GD 92.2 VS 3.90 DE 2.90 Q0400.0 QA 0.70 Q1 0.00 3
 SPEC CRPRBH N MO 13.0 ST0.713 OM  1.6 f0 3.64 R0.3964 AL-0.00 WI 20.0 MW  2.6 3
 SPEC CRPRBH N T133638 K 0.020 GD  140 VS 3.90 DE 2.90 Q0400.0 QA 0.70 Q1 0.00 3
 SPEC MLPRBH N MO 12.4 ST0.415 OM  1.0 f0 4.76 R0.3032 AL-0.00 WI 20.0 MW  2.2 3
 SPEC MLPRBH N T133639 K 0.020 GD  145 VS 3.90 DE 2.90 Q0400.0 QA 0.70 Q1 0.00 3
 SPEC MIDRHH N MO 12.3 ST  3.5 OM  0.8 f0 10.8 R0.1336 AL-0.00 WI 20.0 MW  2.1 3
 SPEC MIDRHH N T133645 K 0.020 GD  168 VS 3.90 DE 2.90 Q0400.0 QA 0.70 Q1 0.00 3
 LOCALITY: 168.2 Km al Este de Miches, Oceano Atlantico.                       3
 2020-01-01-1335-00S.MAN___144                                                 6
 OLDACT:ARG 20-01-01 17:07 OP:AMMR STATUS:               ID:20200101133500     3
 OLDACT:UP  20-01-01 17:15 OP:AMMR STATUS:               ID:20200101133500     3
 OLDACT:UP  20-01-01 17:15 OP:AMMR STATUS:               ID:20200101133500     3
 ACTION:UP  21-12-07 16:32 OP:JMLC STATUS:               ID:20200101133601 L   I
 OLDACT:UP  21-05-05 14:12 OP:JMLC STATUS:               ID:20200101133601 L   3
 OLDACT:UP  20-04-19 16:56 OP:JMLC STATUS:               ID:20200101133601 L   3
 STAT SP IPHASW D HRMM SECON CODA AMPLIT PERI AZIMU VELO AIN AR TRES W  DIS CAZ7
 AGPR BZ EPg      1336 16.04   37                         93    0.2110 91.0 155 
 AGPR BN ESg    C 1336 25.94                              93   -0.5910 91.0 155 
 AGPR BE  IAML    1336 26.70       260.1 0.25                          91.0 155 
 AGPR BN  IAML    1336 26.76       208.5 0.15                          91.0 155 
 AOPR BZ EPg      1336 21.32   49                         92    0.7310  122 142 
 AOPR BE  IAML    1336 39.46        95.2 0.30                           122 142 
 AOPR BN  IAML    1336 42.93        49.5 0.40                           122 142 
 CRPR BZ EPg      1336 23.71   42                         92    0.4710  140 163 
 CRPR BE ESg    C 1336 39.86                              92    0.4410  140 163 
 CRPR BE  IAML    1336 42.00        33.6 0.30                           140 163 
 CRPR BN  IAML    1336 43.91        54.3 0.30                           140 163 
 MLPR BZ EPg    D 1336 23.48   41                         92   -0.5610  145 162 
 MLPR BN  IAML    1336 42.43        13.7 0.40                           145 162 
 MIDR HZ EPg      1336 25.96   47                         91   -1.5910  168 261 
 MIDR HN ESg      1336 46.81                              91   -0.1210  168 261 
 MIDR BN  IAML    1336 48.23        15.4 1.20                           168 261 
 SMDR BE ESg      1336 51.66                              91    1.4210  181 273 
 SMDR BN  IAML    1337  5.76        81.7 0.75                           181 273 
 HMDR BZ EPg      1336 32.99   62                         91   -0.4110  207 257 
 HMDR BE  IAML    1336 57.28         7.2 0.10                           207 257 
 HMDR BN  IAML    1337  1.24         8.1 0.70                           207 257 
                                                                                
 2020  1 1 1357 33.90L  19.153 -69.780 19.9  DOM 11 0.8 2.4LDOM 2.7CDOM 2.8WDOM1
 SPEC AVERAGE  MO 13.2 ST 10.4 OM  2.1 f0 7.32 R0.2810 AL 0.00 WI 20.0 MW  2.8 3
 SPEC SD       MO  0.4 ST  9.3 OM  0.6 f0 3.90 R0.1362 AL      WI      MW  0.3 3
 GAP= 96        2.05       4.3     3.0 12.1  0.3833E+01 -0.2756E+01  0.9623E+01E
 SPEC NADRBH N MO 13.9 ST 13.6 OM  3.0 f0 5.30 R0.3016 AL-0.00 WI 20.0 MW  3.2 3
 SPEC NADRBH N T135740 K 0.020 GD 30.9 VS 4.32 DE 3.25 Q0400.0 QA 0.70 Q1 0.00 3
 SPEC SFDRBH N MO 13.6 ST 14.1 OM  2.4 f0 7.03 R0.2274 AL-0.00 WI 20.0 MW  3.0 3
 SPEC SFDRBH N T135747 K 0.020 GD 54.7 VS 4.32 DE 3.25 Q0400.0 QA 0.70 Q1 0.00 3
 SPEC HMDRBH N MO 13.0 ST  5.5 OM  1.8 f0 7.84 R0.2039 AL-0.00 WI 20.0 MW  2.6 3
 SPEC HMDRBH N T135749 K 0.020 GD 61.6 VS 4.32 DE 3.25 Q0400.0 QA 0.70 Q1 0.00 3
 SPEC SDD BH N MO 12.8 ST0.211 OM  1.5 f0 3.04 R0.5258 AL-0.00 WI 20.0 MW  2.5 3
 SPEC SDD BH N T135754 K 0.020 GD 80.2 VS 4.32 DE 3.25 Q0400.0 QA 0.70 Q1 0.00 3
 SPEC MIDRHH N MO 12.5 ST 15.7 OM  1.2 f0 16.0 R0.0999 AL-0.00 WI 20.0 MW  2.3 3
 SPEC MIDRHH N T135754 K 0.020 GD 81.6 VS 4.32 DE 3.25 Q0400.0 QA 0.70 Q1 0.00 3
 SPEC SC01BH N MO 13.4 ST  1.0 OM  1.9 f0 3.48 R0.4593 AL-0.00 WI 20.0 MW  2.9 3
 SPEC SC01BH N T1358 2 K 0.020 GD  105 VS 4.32 DE 3.25 Q0400.0 QA 0.70 Q1 0.00 3
 SPEC HIDRBH N MO 13.2 ST  3.2 OM  1.6 f0 5.93 R0.2695 AL-0.00 WI 20.0 MW  2.7 3
 SPEC HIDRBH N T1358 7 K 0.020 GD  129 VS 4.32 DE 3.25 Q0400.0 QA 0.70 Q1 0.00 3
 SPEC REDRBH N MO 13.4 ST 29.9 OM  1.7 f0 9.96 R0.1605 AL-0.00 WI 20.0 MW  2.9 3
 SPEC REDRBH N T135827 K 0.020 GD  203 VS 4.32 DE 3.25 Q0400.0 QA 0.70 Q1 0.00 3
 LOCALITY: 9.5 Km al ESE de Arenoso, Duarte.                                   3
 2020-01-01-1356-00S.MAN___144                                                 6
 OLDACT:ARG 20-01-01 17:07 OP:AMMR STATUS:               ID:20200101135600     3
 OLDACT:UP  20-01-01 17:26 OP:AMMR STATUS:               ID:20200101135600     3
 ACTION:UP  21-12-07 16:32 OP:JMLC STATUS:               ID:20200101135733 L   I
 OLDACT:UP  20-04-19 16:56 OP:JMLC STATUS:               ID:20200101135733 L   3
 STAT SP IPHASW D HRMM SECON CODA AMPLIT PERI AZIMU VELO AIN AR TRES W  DIS CAZ7
 NADR BZ EPg      1357 37.80   26                        128   -0.9710 23.7 340 
 NADR BN ESg    D 1357 42.48                             128    0.1010 23.7 340 
 NADR BN  IAML    1357 42.65      2114.6 0.40                          23.7 340 
 NADR BE  IAML    1357 42.76      1931.4 0.40                          23.7 340 
 NAVI BZ EPg    D 1357 39.65   23                        118   -0.4610 33.7 231 
 NAVI BE  IAML    1357 39.83      5741.9 0.10                          33.7 231 
 NAVI BN ESg      1357 44.83                             118    0.1210 33.7 231 
 NAVI BN  IAML    1357 45.33      7005.0 0.15                          33.7 231 
 SFDR BZ EPg    D 1357 41.69   35                        107   -0.8010 51.0 287 
 SFDR BN ESg    C 1357 49.30                             107    0.4410 51.0 287 
 SFDR BN  IAML    1357 49.73       497.0 0.25                          51.0 287 
 HMDR BZ EPg    C 1357 43.33   27                        104   -0.2410 58.3 134 
 HMDR BN ESg    D 1357 51.39                             104    0.6510 58.3 134 
 HMDR BN  IAML    1357 51.64       265.6 0.30                          58.3 134 
 HMDR BE  IAML    1357 51.75       179.4 0.15                          58.3 134 
 SMDR BZ EPg      1357 43.60   29                        102   -0.7910 64.0  76 
 SMDR BN ESg      1357 53.75                             102    1.5810 64.0  76 
 SMDR BE  IAML    1357 54.45       222.0 0.65                          64.0  76 
 SMDR BN  IAML    1357 54.75       196.0 0.50                          64.0  76 
 SDD  BZ EPg    D 1357 46.30   34                         99   -0.1310 77.7 191 
 SDD  BN ESg    D 1357 56.42                              99    0.7010 77.7 191 
 SDD  BN  IAML    1357 58.37        23.1 0.25                          77.7 191 
 SDD  BE  IAML    1357 58.78        25.4 0.65                          77.7 191 
 MIDR HZ EPg      1357 45.96   45                         99   -0.6810 79.1 104 
 MIDR HE ESg      1357 55.71                              99   -0.3610 79.1 104 
 MIDR HN  IAML    1357 59.86        33.1 0.14                          79.1 104 
 MIDR BN  IAML    1357 59.87        33.1 0.14                          79.1 104 
 MIDR HE  IAML    1358  0.03        46.0 0.12                          79.1 104 
 SC01 BZ EPg      1357 50.75   45                         96    0.3410  104 287 
 SC01 BN  IAML    1358  9.47        56.3 0.70                           104 287 
 HIDR BZ EPg      1357 53.78   54                         95   -0.2510  128 119 
 HIDR BN ESg      1358  9.28                              95    0.3410  128 119 
 HIDR BN  IAML    1358 10.48        66.2 0.25                           128 119 
 LUDR BE ESg    C 1358 15.59                              94    1.4810  148 304 
 LUDR BE  IAML    1358 18.16       350.9 0.25                           148 304 
 REDR BZ EPg      1358  3.87   53                         93   -1.4310  203 274 
 REDR BN ESg    C 1358 28.93                              93    0.3810  203 274 
 REDR BE  IAML    1358 29.70        43.0 0.10                           203 274 
 REDR BN  IAML    1358 30.88        90.7 0.10                           203 274 
                                                                                
 2020  1 1 1404 23.50L  19.256 -67.460 15.0  DOM  4 0.4 2.0LDOM 2.9CDOM 2.4WDOM1
 SPEC AVERAGE  MO 12.6 ST  2.6 OM  1.7 f0 7.43 R0.2414 AL 0.00 WI 20.0 MW  2.4 3
 SPEC SD       MO  0.4 ST  2.4 OM  0.7 f0 4.03 R0.0907 AL      WI      MW  0.3 3
 GAP=257        1.03      12.4     7.0191.3  0.7075E+02 -0.2833E+03 -0.1369E+04E
 SPEC AGPRBH N MO 13.2 ST  1.8 OM  2.0 f0 4.13 R0.3494 AL-0.00 WI 20.0 MW  2.8 3
 SPEC AGPRBH N T14 447 K 0.020 GD 95.7 VS 3.90 DE 2.90 Q0400.0 QA 0.70 Q1 0.00 3
 SPEC CRPRBH N MO 12.7 ST  1.0 OM  1.3 f0 5.16 R0.2797 AL-0.00 WI 20.0 MW  2.4 3
 SPEC CRPRBH N T14 5 1 K 0.020 GD  144 VS 3.90 DE 2.90 Q0400.0 QA 0.70 Q1 0.00 3
 SPEC MIDRHH N MO 12.2 ST  6.6 OM  0.7 f0 14.3 R0.1009 AL-0.00 WI 20.0 MW  2.1 3
 SPEC MIDRHH N T14 5 7 K 0.020 GD  170 VS 3.90 DE 2.90 Q0400.0 QA 0.70 Q1 0.00 3
 SPEC HMDRBH N MO 12.4 ST0.799 OM  0.8 f0 6.12 R0.2358 AL-0.00 WI 20.0 MW  2.2 3
 SPEC HMDRBH N T14 521 K 0.020 GD  209 VS 3.90 DE 2.90 Q0400.0 QA 0.70 Q1 0.00 3
 LOCALITY: 169.7 Km al Este de Miches, Oceano Atlantico.                       3
 2020-01-01-1404-00S.MAN___144                                                 6
 OLDACT:ARG 20-01-01 17:07 OP:AMMR STATUS:               ID:20200101140400     3
 OLDACT:UP  20-01-01 17:30 OP:AMMR STATUS:               ID:20200101140400     3
 ACTION:UP  21-12-07 16:32 OP:JMLC STATUS:               ID:20200101140423 L   I
 OLDACT:UP  21-11-25 23:04 OP:AMMR STATUS:               ID:20200101140423 L   3
 OLDACT:UP  21-05-05 14:28 OP:JMLC STATUS:               ID:20200101140423 L   3
 OLDACT:UP  20-04-19 16:56 OP:JMLC STATUS:               ID:20200101140423 L   3
 STAT SP IPHASW D HRMM SECON CODA AMPLIT PERI AZIMU VELO AIN AR TRES W  DIS CAZ7
 AGPR BZ EPg      14 4 38.98   34                         93    0.4510 94.5 157 
 AGPR BN ESg    D 14 4 49.21                              93   -0.4210 94.5 157 
 AGPR BE  IAML    14 4 49.64        67.6 0.20                          94.5 157 
 AGPR BN  IAML    14 4 49.65        75.9 0.15                          94.5 157 
 CRPR BZ EPg      14 4 45.44   40                         92   -0.5410  144 164 
 CRPR BN ESg    D 14 5  3.07                              92    0.4710  144 164 
 CRPR BE  IAML    14 5  6.88        19.8 1.05                           144 164 
 CRPR BN  IAML    14 5  8.35        24.4 1.60                           144 164 
 MIDR HN ESg      14 5  9.38                              91   -0.1210  170 260 
 MIDR BN  IAML    14 5 25.75        10.8 1.02                           170 260 
 HMDR BZ EPg      14 4 56.01   52                         91    0.1710  209 256 
                                                                                
 2020  1 1 1424  5.00L  17.890 -71.227 15.0  DOM  4 0.5 2.3LDOM 2.5CDOM 2.6WDOM1
 SPEC AVERAGE  MO 12.9 ST  5.8 OM  2.7 f0 6.14 R0.2270 AL 0.00 WI 20.0 MW  2.6 3
 SPEC SD       MO  0.4 ST  4.9 OM  1.1 f00.585 R0.0216 AL      WI      MW  0.3 3
 GAP=295        1.25      13.6     6.6 21.8  0.1072E+02  0.6008E+02  0.2017E+03E
 SPEC PODRBH N MO 13.3 ST 10.7 OM  2.6 f0 6.72 R0.2054 AL-0.00 WI 20.0 MW  2.8 3
 SPEC PODRBH N T142412 K 0.020 GD 34.5 VS 3.73 DE 2.83 Q0400.0 QA 0.70 Q1 0.00 3
 SPEC REDRBH N MO 12.5 ST0.896 OM  1.1 f0 5.55 R0.2487 AL-0.00 WI 20.0 MW  2.3 3
 SPEC REDRBH N T142447 K 0.020 GD  161 VS 3.73 DE 2.83 Q0400.0 QA 0.70 Q1 0.00 3
 LOCALITY: 13.6 Km al SSO de Paraiso, Mar Caribe.                              3
 2020-01-01-1423-00S.MAN___144                                                 6
 OLDACT:ARG 20-01-01 17:07 OP:AMMR STATUS:               ID:20200101142300     3
 OLDACT:UP  20-01-01 17:37 OP:AMMR STATUS:               ID:20200101142300     3
 ACTION:UP  21-12-07 16:32 OP:JMLC STATUS:               ID:20200101142405 L   I
 OLDACT:UP  21-05-05 14:31 OP:JMLC STATUS:               ID:20200101142405 L   3
 OLDACT:UP  20-04-19 16:56 OP:JMLC STATUS:               ID:20200101142405 L   3
 STAT SP IPHASW D HRMM SECON CODA AMPLIT PERI AZIMU VELO AIN AR TRES W  DIS CAZ7
 PODR BZ EP       1424 10.45   19                        113   -0.2010 31.1 349 
 PODR BE ES       1424 14.18                             113   -0.6410 31.1 349 
 PODR BE  IAML    1424 15.33      1335.1 0.20                          31.1 349 
 PODR BN  IAML    1424 16.43      1352.1 0.30                          31.1 349 
 BRDR HZ EPg      1424 11.99                             104    0.3710 38.7  20 
 BRDR HN ESg    C 1424 16.93                             104    0.4310 38.7  20 
 JIDR BZ EPg    D 1424 20.11   36                         93    0.1510 94.1 315 
 JIDR BE ESg      1424 31.59                              93    0.5810 94.1 315 
 JIDR BE  IAML    1424 32.90        44.3 0.20                          94.1 315 
 JIDR BN  IAML    1424 35.31        32.6 0.75                          94.1 315 
 REDR BZ EPg      1424 29.50   32                         91   -0.7010  161 342 
 REDR BN  IAML    1424 52.29        24.9 0.20                           161 342 
                                                                                
