 2020  4 2 1013 24.60L  19.843 -73.168 15.0  DOM  8 0.5 2.9LDOM 3.2CDOM 3.1WDOM1
 SPEC AVERAGE  MO 13.7 ST 10.2 OM  2.2 f0 7.10 R2.3232 AL 0.00 WI 20.0 MW  3.1 3
 SPEC SD       MO  0.9 ST 12.8 OM  0.9 f0 5.56 R3.2991 AL      WI      MW  0.6 3
 GAP=159        1.45       7.3     2.9 11.2  0.1441E+02 -0.4730E+01  0.6781E+01E
 SPEC MASCHH N MO 12.8 ST  8.8 OM  1.2 f0 11.5 R0.1448 AL-0.00 WI 20.0 MW  2.5 3
 SPEC MASCHH N T101359 K 0.020 GD  117 VS 4.50 DE 3.40 Q0400.0 QA 0.70 Q1 0.00 3
 SPEC MCDRBH N MO 13.3 ST 11.8 OM  1.6 f0 8.45 R0.1970 AL-0.00 WI 20.0 MW  2.8 3
 SPEC MCDRBH N T1014 5 K 0.020 GD  158 VS 4.50 DE 3.40 Q0400.0 QA 0.70 Q1 0.00 3
 SPEC REDRBH N MO 13.4 ST 39.3 OM  1.7 f0 11.5 R0.1448 AL-0.00 WI 20.0 MW  2.9 3
 SPEC REDRBH N T1014 8 K 0.020 GD  166 VS 4.50 DE 3.40 Q0400.0 QA 0.70 Q1 0.00 3
 SPEC QMBUHH N MO 13.6 ST0.749 OM  1.8 f0 2.79 R0.5968 AL-0.00 WI 20.0 MW  3.0 3
 SPEC QMBUHH N T101410 K 0.020 GD  176 VS 4.50 DE 3.40 Q0400.0 QA 0.70 Q1 0.00 3
 SPEC GTBYBH N MO 12.5 ST 10.7 OM  0.7 f0 15.0 R0.1110 AL-0.00 WI 20.0 MW  2.3 3
 SPEC GTBYBH N T101416 K 0.020 GD  204 VS 4.50 DE 3.40 Q0400.0 QA 0.70 Q1 0.00 3
 SPEC JIDRBH N MO 15.1 ST0.014 OM  3.3 f00.221 R7.5339 AL-0.00 WI 20.0 MW  4.0 3
 SPEC JIDRBH N T101418 K 0.020 GD  204 VS 4.50 DE 3.40 Q0400.0 QA 0.70 Q1 0.00 3
 SPEC HMDRBH N MO 15.0 ST0.011 OM  2.9 f00.221 R7.5339 AL-0.00 WI 20.0 MW  4.0 3
 SPEC HMDRBH N T1015 3 K 0.020 GD  415 VS 4.50 DE 3.40 Q0400.0 QA 0.70 Q1 0.00 3
 LOCALITY: 154.5 Km al Oeste de San Fernando de Montecristi. Oceano Atlantico. 3
 2020-04-02-1013-00S.MAN___123                                                 6
 OLDACT:UP  20-04-02 11:38 OP:AMMR STATUS:               ID:20200402101300     3
 OLDACT:ARG 20-04-02 11:32 OP:plst STATUS:               ID:20200402101300     3
 OLDACT:UP  20-04-02 11:39 OP:AMMR STATUS:               ID:20200402101300     3
 ACTION:UP  22-03-16 16:59 OP:JMLC STATUS:               ID:20200402101324 L   I
 OLDACT:UP  21-02-16 11:50 OP:AMMR STATUS:               ID:20200402101300     3
 OLDACT:UP  20-04-02 11:39 OP:AMMR STATUS:               ID:20200402101300     3
 STAT SP IPHASW D HRMM SECON CODA AMPLIT PERI AZIMU VELO AIN AR TRES W  DIS CAZ7
 MASC HZ IP     C 1013 43.65   41                         68    0.6110  117 288 
 MASC HN ISg    C 1013 57.65                              92    0.9410  117 288 
 MASC HN  IAML    1014  2.71       536.4 0.28                           117 288 
 MCDR BZ EPg    C 1013 48.51   58                         91   -0.7810  158  88 
 MCDR BN ESg    C 1014  7.42                              91   -0.1310  158  88 
 MCDR HN  IAML    1014  9.14        50.3 0.70                           158  88 
 MCDR BN  IAML    1014 15.91       550.9 0.35                           158  88 
 REDR BZ IP     C 1013 49.16   43                         55   -0.0610  166 112 
 REDR BN ISg    D 1014  9.86                              91    0.1810  166 112 
 REDR HN  IAML    1014 12.96       118.1 0.20                           166 112 
 REDR BN  IAML    1014 13.23       659.6 0.25                           166 112 
 QMBU HZ EPg    C 1013 51.86   47                         91   -0.1810  176 283 
 QMBU HN ESg    C 1014 12.38                              91    0.0510  176 283 
 QMBU HN  IAML    1014 16.49       801.8 0.32                           176 283 
 GTBY BZ EPg    C 1013 55.75   57                         91   -0.3910  204 273 
 GTBY BN ESg    C 1014 18.47                              91   -1.0010  204 273 
 GTBY HN  IAML    1014 24.15        15.0 1.35                           204 273 
 GTBY BN  IAML    1014 25.01       191.4 0.30                           204 273 
 JIDR BE ESg    C 1014 19.61                              91    0.1610  204 137 
 JIDR BN  IAML    1014 26.00        61.5 0.25                           204 137 
 JIDR HN  IAML    1015  4.99        40.2 3.85                           204 137 
 BADR BZ IP     D 1014 10.82   85                         54    0.6110  336 118 
 BADR BN  IAML    1015 10.93        71.3 0.30                           336 118 
 BADR HN  IAML    1015 22.77        24.1 1.60                           336 118 
 HMDR HN  IAML    1015 12.21        11.1 1.60                           415 106 
 HMDR BN  IAML    1015 14.75        34.1 0.30                           415 106 
                                                                                
 2020  4 2 1311 43.60L  19.994 -71.936 22.9  DOM  8 0.6 3.2LDOM 3.2CDOM 2.7WDOM1
 SPEC AVERAGE  MO 13.2 ST  1.1 OM  3.6 f0 4.28 R0.3830 AL 0.00 WI 20.0 MW  2.7 3
 SPEC SD       MO  0.0 ST0.000 OM  2.2 f00.000 R0.0000 AL      WI      MW  0.0 3
 GAP=209        1.63       4.3     8.4 12.9  0.8275E+01  0.2785E+02 -0.6724E-02E
 SPEC GRTKBH N MO 13.2 ST  1.1 OM  1.4 f0 4.28 R0.3830 AL-0.00 WI 20.0 MW  2.7 3
 SPEC GRTKBH N T131232 K 0.020 GD  189 VS 4.43 DE 3.34 Q0400.0 QA 0.70 Q1 0.00 3
 LOCALITY: 34.5 Km al ONO de San Fernando de Montecristi, Oceano Atlantico.    3
 2020-04-02-1311-00S.MAN___123                                                 6
 OLDACT:UP  20-04-02 15:11 OP:AMMR STATUS:               ID:20200402131100     3
 OLDACT:UP  20-04-02 15:09 OP:AMMR STATUS:               ID:20200402131100     3
 OLDACT:ARG 20-04-02 14:56 OP:plst STATUS:               ID:20200402131100     3
 OLDACT:UP  20-04-02 15:12 OP:AMMR STATUS:               ID:20200402131100     3
 OLDACT:UP  20-04-02 15:12 OP:AMMR STATUS:               ID:20200402131100     3
 OLDACT:UP  20-04-02 15:11 OP:AMMR STATUS:               ID:20200402131100     3
 ACTION:UP  22-03-16 16:59 OP:JMLC STATUS:               ID:20200402131143 L   I
 OLDACT:UP  21-02-16 11:51 OP:AMMR STATUS:               ID:20200402131100     3
 OLDACT:UP  21-02-16 11:51 OP:AMMR STATUS:               ID:20200402131100     3
 OLDACT:UP  20-04-02 15:12 OP:AMMR STATUS:               ID:20200402131100     3
 STAT SP IPHASW D HRMM SECON CODA AMPLIT PERI AZIMU VELO AIN AR TRES W  DIS CAZ7
 MCDR BZ EPg    C 1311 50.19   38                        121    0.5110 31.3 111 
 MCDR BN ESg    C 1311 54.09                             121   -0.0710 31.3 111 
 MCDR BN  IAML    1311 58.87       936.0 0.25                          31.3 111 
 LUDR BZ EPg    C 1311 58.83   54                         93   -1.0510  104  96 
 SDDR BZ EPg    C 1312  4.01   50                         92    0.0710  131 149 
 SDDR BN  IAML    1312 29.21       736.6 0.30                           131 149 
 SC01 BZ EPg    C 1312  6.22   52                         92    0.8210  141 116 
 SC01 BN ESg    C 1312 20.73                              92   -0.7910  141 116 
 SC01 BN  IAML    1312 30.58       753.4 0.30                           141 116 
 JIDR BZ EPg    C 1312  9.04   47                         91    0.0210  166 177 
 JIDR BN  IAML    1312 39.86       143.9 0.40                           166 177 
 GRTK BZ EPg    C 1312 11.86   56                         91   -0.2610  188  26 
 GRTK BE ESg    C 1312 33.77                              91    0.5710  188  26 
 GRTK BN  IAML    1312 35.70       902.9 0.30                           188  26 
 BADR BE ESg    C 1312 47.79                              91    0.6510  242 137 
 BADR BN  IAML    1313  1.17       125.2 0.30                           242 137 
 HMDR BZ EPg    C 1312 27.57   78                         91   -0.9010  300 116 
 HMDR BE ESg    C 1313  2.08                              91    0.4310  300 116 
 HMDR BN  IAML    1313  7.16        39.5 0.30                           300 116 
                                                                                
 2020  4 2 1442 42.20L  18.910 -68.878 31.0  DOM 12 0.7 2.9LDOM 3.1CDOM 2.7WDOM1
 SPEC AVERAGE  MO 13.1 ST104.5 OM  1.9 f0 9.99 R0.2788 AL 0.00 WI 20.0 MW  2.7 3
 SPEC SD       MO  0.5 ST244.4 OM  0.7 f0 5.36 R0.2556 AL      WI      MW  0.3 3
 GAP=142        2.02       6.3     3.4 10.2  0.1137E+02 -0.3063E+01 -0.9211E+01E
 SPEC HIDRBH N MO 12.9 ST 31.7 OM  1.7 f0 16.0 R0.1041 AL-0.00 WI 20.0 MW  2.6 3
 SPEC HIDRBH N T144255 K 0.020 GD 50.0 VS 4.50 DE 3.40 Q0400.0 QA 0.70 Q1 0.00 3
 SPEC SMDRBH N MO 12.8 ST0.954 OM  1.5 f0 5.41 R0.3078 AL-0.00 WI 20.0 MW  2.5 3
 SPEC SMDRBH N T144257 K 0.020 GD 61.6 VS 4.50 DE 3.40 Q0400.0 QA 0.70 Q1 0.00 3
 SPEC HMDRBH N MO 12.7 ST  8.7 OM  1.4 f0 12.1 R0.1376 AL-0.00 WI 20.0 MW  2.4 3
 SPEC HMDRBH N T144258 K 0.020 GD 62.9 VS 4.50 DE 3.40 Q0400.0 QA 0.70 Q1 0.00 3
 SPEC NAVIBH N MO 14.3 ST793.1 OM  2.7 f0 16.0 R0.1041 AL-0.00 WI 20.0 MW  3.5 3
 SPEC NAVIBH N T144313 K 0.020 GD  124 VS 4.50 DE 3.40 Q0400.0 QA 0.70 Q1 0.00 3
 SPEC BADRBH N MO 13.2 ST 67.6 OM  1.5 f0 16.0 R0.1041 AL-0.00 WI 20.0 MW  2.8 3
 SPEC BADRBH N T144323 K 0.020 GD  168 VS 4.50 DE 3.40 Q0400.0 QA 0.70 Q1 0.00 3
 SPEC MLPRBH N MO 12.5 ST0.460 OM  0.6 f0 5.52 R0.3016 AL-0.00 WI 20.0 MW  2.2 3
 SPEC MLPRBH N T144336 K 0.020 GD  222 VS 4.50 DE 3.40 Q0400.0 QA 0.70 Q1 0.00 3
 SPEC SDDRBH N MO 13.4 ST0.136 OM  1.5 f0 1.76 R0.9460 AL-0.00 WI 20.0 MW  2.9 3
 SPEC SDDRBH N T144344 K 0.020 GD  255 VS 4.50 DE 3.40 Q0400.0 QA 0.70 Q1 0.00 3
 SPEC CELPBH N MO 12.9 ST0.728 OM  1.0 f0 4.48 R0.3717 AL-0.00 WI 20.0 MW  2.6 3
 SPEC CELPBH N T144346 K 0.020 GD  261 VS 4.50 DE 3.40 Q0400.0 QA 0.70 Q1 0.00 3
 SPEC REDRBH N MO 13.3 ST 37.2 OM  1.3 f0 12.6 R0.1321 AL-0.00 WI 20.0 MW  2.8 3
 SPEC REDRBH N T1444 5 K 0.020 GD  301 VS 4.50 DE 3.40 Q0400.0 QA 0.70 Q1 0.00 3
 LOCALITY: 19.5 Km al ESE de Miches. El Seibo.                                 3
 2020-04-02-1442-00S.MAN___123                                                 6
 OLDACT:ARG 20-04-02 14:57 OP:plst STATUS:               ID:20200402144200     3
 OLDACT:UP  20-04-02 15:22 OP:AMMR STATUS:               ID:20200402144200     3
 OLDACT:UP  20-04-02 15:21 OP:AMMR STATUS:               ID:20200402144200     3
 ACTION:UP  22-03-16 16:59 OP:JMLC STATUS:               ID:20200402144242 L   I
 OLDACT:UP  22-01-09 04:35 OP:CGRS STATUS:               ID:20200402144200     3
 OLDACT:UP  20-04-02 15:22 OP:AMMR STATUS:               ID:20200402144200     3
 STAT SP IPHASW D HRMM SECON CODA AMPLIT PERI AZIMU VELO AIN AR TRES W  DIS CAZ7
 HIDR BZ EPg    C 1442 49.44   30                        124   -0.4810 39.2 154 
 HIDR BN ESg    C 1442 56.50                             124    0.9010 39.2 154 
 HIDR BN  IAML    1442 57.54       956.4 0.25                          39.2 154 
 SMDR BZ EPg    C 1442 50.54   35                        115   -1.0810 53.2 322 
 SMDR BN ESg    C 1442 59.44                             115    0.8810 53.2 322 
 SMDR BN  IAML    1443  0.07        63.0 0.30                          53.2 322 
 HMDR BZ EPg    C 1442 51.74   32                        114   -0.1210 54.7 256 
 HMDR BN ESg    C 1443  0.31                             114    1.3510 54.7 256 
 HMDR BN  IAML    1443  0.82       770.6 0.30                          54.7 256 
 NAVI BZ EPg    C 1443  0.18   51                         97   -0.7810  121 273 
 NAVI BN ESg    C 1443 15.08                              97    0.2810  121 273 
 NAVI BN  IAML    1443 16.62      3189.9 0.25                           121 273 
 CADR BN ESg    C 1443 19.29                              96    0.1210  140 307 
 CADR BN  IAML    1443 21.86       146.8 1.55                           140 307 
 BADR BZ EPg    C 1443  6.58   52                         95   -0.7410  166 250 
 BADR BN ESg    C 1443 25.48                              95   -0.3910  166 250 
 BADR BN  IAML    1443 35.12       360.3 0.25                           166 250 
 AGPR BZ EPg    C 1443 12.21   50                         94    1.2610  193 104 
 AGPR BN ESg    C 1443 32.79                              94    0.6010  193 104 
 AGPR BN  IAML    1443 38.34       151.9 0.32                           193 104 
 SC01 BN ISg      1443 34.29                              93   -0.3610  203 287 
 SC01 BN  IAML    1443 39.31        52.1 0.30                           203 287 
 MLPR BN ESg    C 1443 38.37                              93   -0.4610  220 118 
 MLPR BN  IAML    1443 46.16        76.4 0.28                           220 118 
 SDDR BZ EPg    C 1443 20.31   69                         93    0.6910  254 272 
 SDDR BN ESg    C 1443 46.47                              93   -0.8010  254 272 
 SDDR BN  IAML    1443 54.54        14.1 1.80                           254 272 
 CELP BZ EPg    C 1443 19.96   62                         93   -0.4710  260 110 
 CELP BN ESg    C 1443 47.74                              93   -0.9510  260 110 
 CELP BN  IAML    1443 51.51       183.2 0.32                           260 110 
 REDR BZ IP       1443 22.63   76                         60    0.5510  300 278 
 REDR BN  IAML    1444  2.24       135.9 0.25                           300 278 
                                                                                
 2020  4 2 1529 37.60L  19.947 -70.997 12.1  DOM 17 0.8 3.3LDOM 3.0CDOM 2.8WDOM1
 SPEC AVERAGE  MO 13.3 ST 73.5 OM  2.2 f0 6.60 R0.3799 AL 0.00 WI 20.0 MW  2.8 3
 SPEC SD       MO  0.4 ST197.5 OM  0.5 f0 5.27 R0.2381 AL      WI      MW  0.2 3
 GAP=110        2.07       3.2     3.4  7.4 -0.2441E-01  0.1286E+01 -0.1541E+01E
 SPEC MADRBH N MO 13.6 ST  1.6 OM  2.8 f0 2.81 R0.4911 AL-0.00 WI 20.0 MW  3.0 3
 SPEC MADRBH N T152947 K 0.020 GD 45.2 VS 3.73 DE 2.83 Q0400.0 QA 0.70 Q1 0.00 3
 SPEC SODRBH N MO 13.5 ST0.389 OM  2.6 f0 1.96 R0.7041 AL-0.00 WI 20.0 MW  2.9 3
 SPEC SODRBH N T152948 K 0.020 GD 50.5 VS 3.73 DE 2.83 Q0400.0 QA 0.70 Q1 0.00 3
 SPEC SC01BH N MO 13.2 ST  2.3 OM  2.2 f0 4.39 R0.3144 AL-0.00 WI 20.0 MW  2.7 3
 SPEC SC01BH N T152956 K 0.020 GD 65.2 VS 3.73 DE 2.83 Q0400.0 QA 0.70 Q1 0.00 3
 SPEC MCDRBH N MO 12.8 ST 19.3 OM  1.8 f0 11.9 R0.1160 AL-0.00 WI 20.0 MW  2.5 3
 SPEC MCDRBH N T152956 K 0.020 GD 70.4 VS 3.73 DE 2.83 Q0400.0 QA 0.70 Q1 0.00 3
 SPEC REDRBH N MO 13.2 ST109.8 OM  2.0 f0 16.0 R0.0863 AL-0.00 WI 20.0 MW  2.7 3
 SPEC REDRBH N T1530 5 K 0.020 GD  104 VS 3.73 DE 2.83 Q0400.0 QA 0.70 Q1 0.00 3
 SPEC SDDRBH N MO 13.2 ST0.377 OM  2.0 f0 2.38 R0.5799 AL-0.00 WI 20.0 MW  2.8 3
 SPEC SDDRBH N T1530 7 K 0.020 GD  108 VS 3.73 DE 2.83 Q0400.0 QA 0.70 Q1 0.00 3
 SPEC NAVIBH N MO 14.0 ST721.2 OM  2.7 f0 16.0 R0.0863 AL-0.00 WI 20.0 MW  3.3 3
 SPEC NAVIBH N T153017 K 0.020 GD  136 VS 3.73 DE 2.83 Q0400.0 QA 0.70 Q1 0.00 3
 SPEC BADRBH N MO 13.1 ST 24.1 OM  1.7 f0 10.5 R0.1314 AL-0.00 WI 20.0 MW  2.7 3
 SPEC BADRBH N T153028 K 0.020 GD  161 VS 3.73 DE 2.83 Q0400.0 QA 0.70 Q1 0.00 3
 SPEC JIDRBH N MO 13.6 ST0.518 OM  2.2 f0 1.99 R0.6935 AL-0.00 WI 20.0 MW  3.0 3
 SPEC JIDRBH N T153028 K 0.020 GD  161 VS 3.73 DE 2.83 Q0400.0 QA 0.70 Q1 0.00 3
 SPEC PODRBH N MO 13.4 ST0.381 OM  2.0 f0 2.05 R0.6732 AL-0.00 WI 20.0 MW  2.9 3
 SPEC PODRBH N T153032 K 0.020 GD  171 VS 3.73 DE 2.83 Q0400.0 QA 0.70 Q1 0.00 3
 SPEC SMDRBH N MO 12.9 ST0.387 OM  1.5 f0 3.01 R0.4585 AL-0.00 WI 20.0 MW  2.6 3
 SPEC SMDRBH N T153032 K 0.020 GD  174 VS 3.73 DE 2.83 Q0400.0 QA 0.70 Q1 0.00 3
 SPEC HMDRBH N MO 12.7 ST  2.2 OM  1.3 f0 6.16 R0.2240 AL-0.00 WI 20.0 MW  2.4 3
 SPEC HMDRBH N T153036 K 0.020 GD  181 VS 3.73 DE 2.83 Q0400.0 QA 0.70 Q1 0.00 3
 LOCALITY: 7.3 Km al NO de Luperon, Oceano Atlantico.                          3
 2020-04-02-1529-00S.MAN___123                                                 6
 OLDACT:ARG 20-04-02 15:47 OP:plst STATUS:               ID:20200402152900     3
 OLDACT:UP  20-04-02 16:01 OP:AMMR STATUS:               ID:20200402152900     3
 OLDACT:UP  20-04-02 16:00 OP:AMMR STATUS:               ID:20200402152900     3
 ACTION:UP  22-03-16 16:59 OP:JMLC STATUS:               ID:20200402152937 L   I
 OLDACT:UP  22-01-09 04:51 OP:CGRS STATUS:               ID:20200402152900     3
 OLDACT:UP  20-04-02 16:01 OP:AMMR STATUS:               ID:20200402152900     3
 STAT SP IPHASW D HRMM SECON CODA AMPLIT PERI AZIMU VELO AIN AR TRES W  DIS CAZ7
 LUDR BZ EPg    C 1529 40.74   20                        148    0.8510 7.52 142 
 LUDR BE ESg    C 1529 41.91                             148    0.3210 7.52 142 
 MADR BZ IP       1529 44.59   43                        106   -0.3010 43.6 195 
 MADR BN ESg    C 1529 49.49                             106   -0.8010 43.6 195 
 MADR BN  IAML    1529 52.74      6168.3 0.35                          43.6 195 
 SODR BN ESg      1529 50.00                             104   -1.7610 49.0 116 
 SODR BN  IAML    1529 56.18      1438.8 0.30                          49.0 116 
 SC01 BZ EPg    C 1529 46.70   47                        101   -1.4110 64.1 154 
 SC01 BN ESg    C 1529 57.63                             101    1.7310 64.1 154 
 SC01 BN  IAML    1530  1.93      3451.2 0.25                          64.1 154 
 MCDR BZ EPg    C 1529 48.82   43                        100   -0.1210 69.4 265 
 MCDR BN  IAML    1530  9.93       916.3 0.30                          69.4 265 
 REDR BZ EPg    C 1529 54.71   32                         97    0.1110  105 225 
 REDR BN ESg    C 1530  7.01                              97   -0.1810  105 225 
 REDR BN  IAML    1530 10.01      1290.3 0.25                           105 225 
 SFDR BN ESg    C 1530  8.74                              96    0.7810  108 133 
 SFDR BN  IAML    1530 12.15      2186.6 0.30                           108 133 
 SDDR BZ EPg    C 1529 55.32   34                         96   -0.3410  111 196 
 SDDR BN ESg    C 1530  8.72                              96   -0.3210  111 196 
 SDDR BN  IAML    1530  9.70      4083.0 0.30                           111 196 
 CADR BN ESg    C 1530 10.90                              96    0.8610  115 105 
 CADR BN  IAML    1530 11.94       753.8 0.30                           115 105 
 ABDR BE ESg    C 1530 14.68                              96   -0.0410  131 163 
 ABDR BN  IAML    1531  6.56         1.4 0.35                           131 163 
 NAVI BZ EPg    C 1530  2.00   47                         95    0.2410  149 137 
 NAVI BN ESg    C 1530 18.87                              95   -0.7810  149 137 
 NAVI BN  IAML    1530 22.01      1728.1 0.20                           149 137 
 GRTK BZ EPg    C 1530  6.50   74                         94    0.8210  174 355 
 GRTK BN ESg    C 1530 26.29                              94   -0.1810  174 355 
 GRTK BN  IAML    1530 32.05      2232.5 0.30                           174 355 
 JIDR BN  IAML    1530 30.96      1166.5 0.30                           184 209 
 BADR BZ EPg    C 1530  7.28   68                         94   -0.0610  184 159 
 BADR BN ESg    C 1530 30.00                              94    0.6410  184 159 
 BADR BN  IAML    1530 33.70       857.6 0.35                           184 159 
 JIDR BN ESg    C 1530 30.04                              94    0.6010  184 209 
 PODR BZ EPg      1530  8.97                              94   -0.8410  199 189 
 PODR BN ESg    C 1530 34.40                              94    0.7410  199 189 
 PODR BN  IAML    1530 40.22        39.2 1.20                           199 189 
 SMDR BN ESg    C 1530 34.23                              93   -0.4810  203 111 
 SMDR BN  IAML    1530 42.47       514.9 0.35                           203 111 
 HMDR BZ IP     C 1530  8.83   65                         50   -0.0710  213 127 
 HMDR BN  IAML    1530 38.58       211.6 0.30                           213 127 
                                                                                
