 2020  2 1 0708 28.60L  18.924 -67.679  0.1  DOM  7 0.8 2.9LDOM 3.1CDOM 3.1WDOM1
 SPEC AVERAGE  MO 13.7 ST  2.6 OM  3.0 f0 2.77 R0.6429 AL 0.00 WI 20.0 MW  3.1 3
 SPEC SD       MO  0.7 ST  2.9 OM  0.9 f0 1.99 R0.3592 AL      WI      MW  0.5 3
 GAP=217        2.10      13.4     5.3 14.3  0.4207E+02 -0.4082E+01 -0.1102E+03E
 LOCALITY: 86.0 Km al ENE de Punta Cana, Canal de la Mona.                     3
 SPEC AGPRBH N MO 13.6 ST  6.3 OM  2.5 f0 4.62 R0.2987 AL-0.00 WI 20.0 MW  3.0 3
 SPEC AGPRBH N T 7 849 K 0.020 GD 78.3 VS 3.73 DE 2.83 Q0400.0 QA 0.70 Q1 0.00 3
 SPEC PCDRHN N MO 14.1 ST0.427 OM  3.0 f0 1.24 R1.1130 AL-0.00 WI 20.0 MW  3.4 3
 SPEC PCDRHN N T 7 853 K 0.020 GD 86.9 VS 3.73 DE 2.83 Q0400.0 QA 0.70 Q1 0.00 3
 SPEC PRSNBH N MO 13.4 ST  8.6 OM  2.2 f0 5.99 R0.2304 AL-0.00 WI 20.0 MW  2.9 3
 SPEC PRSNBH N T 7 857 K 0.020 GD 97.8 VS 3.73 DE 2.83 Q0400.0 QA 0.70 Q1 0.00 3
 SPEC HIDRBH N MO 13.6 ST  7.1 OM  2.4 f0 4.67 R0.2955 AL-0.00 WI 20.0 MW  3.0 3
 SPEC HIDRBH N T 7 860 K 0.020 GD  107 VS 3.73 DE 2.83 Q0400.0 QA 0.70 Q1 0.00 3
 SPEC CRPRBH N MO 14.0 ST0.518 OM  2.8 f0 1.43 R0.9651 AL-0.00 WI 20.0 MW  3.3 3
 SPEC CRPRBH N T 7 9 3 K 0.020 GD  109 VS 3.73 DE 2.83 Q0400.0 QA 0.70 Q1 0.00 3
 SPEC MIDRHH N MO 13.6 ST0.813 OM  2.3 f0 2.36 R0.5848 AL-0.00 WI 20.0 MW  3.0 3
 SPEC MIDRHH N T 7 9 8 K 0.020 GD  120 VS 3.73 DE 2.83 Q0400.0 QA 0.70 Q1 0.00 3
 SPEC HMDRBH N MO 13.4 ST0.529 OM  2.1 f0 2.30 R0.6000 AL-0.00 WI 20.0 MW  2.9 3
 SPEC HMDRBH N T 7 918 K 0.020 GD  134 VS 3.73 DE 2.83 Q0400.0 QA 0.70 Q1 0.00 3
 2020-02-01-0708-00S.MAN___147                                                 6
 OLDACT:UP  20-02-01 11:51 OP:AMMR STATUS:               ID:20200201070800     3
 OLDACT:ARG 20-02-01 10:53 OP:njm  STATUS:               ID:20200201070800     3
 OLDACT:UP  20-02-01 11:51 OP:AMMR STATUS:               ID:20200201070800     3
 ACTION:UP  22-01-05 18:33 OP:JMLC STATUS:               ID:20200201070825 L   I
 OLDACT:UP  21-11-07 23:24 OP:CGRS STATUS:               ID:20200201070825 L   3
 OLDACT:UP  21-11-07 17:28 OP:CGRS STATUS:               ID:20200201070825 L   3
 OLDACT:UP  20-04-19 16:58 OP:JMLC STATUS:               ID:20200201070825 L   3
 STAT SP IPHASW D HRMM SECON CODA AMPLIT PERI AZIMU VELO AIN AR TRES W  DIS CAZ7
 PRSN BZ IP     C  7 8 43.30   50                         90                    
 PRSN BE IS     C  7 8 56.65                              90                    
 PRSN BN  IAML     7 9  7.75       443.2 0.30                                   
 AGPR BZ IP     C  7 8 41.01   48                         90   -0.2410 78.3 130 
 AGPR BE IS        7 8 51.10                              90    0.5110 78.3 130 
 AGPR BN  IAML     7 8 52.30       378.2 0.40                          78.3 130 
 PCDR HZ IP     C  7 8 42.65   44                         90    0.0010 86.9 239 
 PCDR HE IS     C  7 8 53.23                              90    0.2110 86.9 239 
 PCDR HN  IAML     7 8 55.45       249.3 0.76                          86.9 239 
 PCDR BN  IAML     7 8 59.49       318.4 0.34                          86.9 239 
 HIDR BZ IP     C  7 8 46.10   46                         90   -1.1310  115 252 
 HIDR BE IS     C  7 9  0.02                              90   -0.9710  115 252 
 HIDR BN  IAML     7 9  5.12       435.2 0.30                           115 252 
 CRPR BZ IP     C  7 8 47.27   45                         90   -0.5810  119 148 
 CRPR BE IS        7 9  2.60                              90    0.5310  119 148 
 CRPR BN  IAML     7 9  8.21       342.2 0.55                           119 148 
 MIDR HZ IP     C  7 8 50.97   52                         70   -0.8810  145 273 
 MIDR HE IS        7 9 10.74                              70    1.7010  145 273 
 MIDR HN  IAML     7 9 12.08       274.0 0.32                           145 273 
 MIDR BN  IAML     7 9 12.09       274.0 0.32                           145 273 
 HMDR BZ IP     C  7 8 56.45   55                         50    0.0510  180 265 
 HMDR BE IS     C  7 9 17.76                              50    0.8010  180 265 
 HMDR BN  IAML     7 9 20.80        78.3 0.40                           180 265 
                                                                                
 2020  2 1 0732 27.00L  18.578 -71.435 20.0  DOM  5 0.8 2.1LDOM 2.9CDOM 2.6WDOM1
 SPEC AVERAGE  MO 13.0 ST  3.8 OM  2.6 f0 6.28 R0.2692 AL 0.00 WI 20.0 MW  2.6 3
 SPEC SD       MO  0.2 ST  4.0 OM  0.8 f0 1.88 R0.0599 AL      WI      MW  0.1 3
 GAP=143        1.99       4.9     6.8 13.0  0.3936E+01 -0.1670E+02 -0.3906E+02E
 LOCALITY: 9.8 Km al Norte de Neiba, Bahoruco.                                 3
 SPEC NEDRBH N MO 12.8 ST0.895 OM  2.0 f0 5.12 R0.3086 AL-0.00 WI 20.0 MW  2.5 3
 SPEC NEDRBH N T 73231 K 0.020 GD 22.8 VS 4.27 DE 3.21 Q0400.0 QA 0.70 Q1 0.00 3
 SPEC JIDRBH N MO 12.8 ST  1.1 OM  1.7 f0 5.33 R0.2964 AL-0.00 WI 20.0 MW  2.5 3
 SPEC JIDRBH N T 73240 K 0.020 GD 49.3 VS 4.27 DE 3.21 Q0400.0 QA 0.70 Q1 0.00 3
 SPEC PODRBH N MO 13.2 ST  2.6 OM  2.1 f0 5.16 R0.3062 AL-0.00 WI 20.0 MW  2.8 3
 SPEC PODRBH N T 73240 K 0.020 GD 52.4 VS 4.27 DE 3.21 Q0400.0 QA 0.70 Q1 0.00 3
 SPEC REDRBH N MO 13.0 ST 10.7 OM  1.7 f0 9.53 R0.1658 AL-0.00 WI 20.0 MW  2.6 3
 SPEC REDRBH N T 73248 K 0.020 GD 84.6 VS 4.27 DE 3.21 Q0400.0 QA 0.70 Q1 0.00 3
 2020-02-01-0731-00S.MAN___147                                                 6
 OLDACT:ARG 20-02-01 10:55 OP:njm  STATUS:               ID:20200201073100     3
 OLDACT:UP  20-02-01 11:56 OP:AMMR STATUS:               ID:20200201073100     3
 ACTION:UP  22-01-05 18:33 OP:JMLC STATUS:               ID:20200201073227 L   I
 OLDACT:UP  21-11-07 23:25 OP:CGRS STATUS:               ID:20200201073227 L   3
 OLDACT:UP  20-04-19 16:58 OP:JMLC STATUS:               ID:20200201073227 L   3
 STAT SP IPHASW D HRMM SECON CODA AMPLIT PERI AZIMU VELO AIN AR TRES W  DIS CAZ7
 NEDR BZ EPg    C  732 29.55   37                        150   -1.0710 11.0 198 
 NEDR BE ESg    C  732 33.39                             150    0.1110 11.0 198 
 NEDR BN  IAML     732 33.96       226.1 0.35                          11.0 198 
 JIDR BZ EPg    D  732 34.38   42                        110   -0.4010 45.1 258 
 JIDR BE ESg    D  732 41.57                             110    1.0510 45.1 258 
 JIDR BN  IAML     732 41.72       134.0 0.20                          45.1 258 
 PODR BZ EPg    C  732 34.92   44                        110   -0.4410 48.4 160 
 PODR BE ESg    D  732 42.35                             110    0.8210 48.4 160 
 PODR BN  IAML     732 42.65       218.8 0.30                          48.4 160 
 REDR BZ EPg    D  732 39.58   54                         99   -0.7110 82.2 340 
 REDR BE ESg    C  732 49.92                              99   -0.1810 82.2 340 
 REDR BN  IAML     732 50.22        99.2 0.15                          82.2 340 
 MADR BZ EPg    C  732 44.68   45                         96   -0.4610  115  18 
 MADR BE ESg    C  732 59.84                              96    1.2910  115  18 
 MADR BN  IAML     733  5.41        60.1 2.10                           115  18 
                                                                                
 2020  2 1 0812 44.60L  17.877 -66.914 21.0  DOM  6 1.0 2.9LDOM 3.5CDOM 3.7WDOM1
 SPEC AVERAGE  MO 14.6 ST  7.0 OM  3.6 f0 2.26 R3.2187 AL 0.00 WI 20.0 MW  3.7 3
 SPEC SD       MO  1.1 ST  8.8 OM  1.1 f0 2.37 R4.3606 AL      WI      MW  0.7 3
 GAP=309        2.49      19.1    32.3 19.7 -0.3673E+03 -0.2669E+03  0.1580E+03E
 LOCALITY: 34.2 Km al OSO de Ponce, Region de Puerto Rico.                     3
 SPEC CRPRBH N MO 14.2 ST 22.3 OM  3.3 f0 4.99 R0.3107 AL-0.00 WI 20.0 MW  3.4 3
 SPEC CRPRBH N T 81251 K 0.020 GD 31.4 VS 4.19 DE 3.14 Q0400.0 QA 0.70 Q1 0.00 3
 SPEC PRSNBH N MO 14.0 ST 22.7 OM  2.9 f0 5.84 R0.2655 AL-0.00 WI 20.0 MW  3.3 3
 SPEC PRSNBH N T 81256 K 0.020 GD 50.2 VS 4.19 DE 3.14 Q0400.0 QA 0.70 Q1 0.00 3
 SPEC AGPRBH N MO 14.1 ST 12.2 OM  2.9 f0 4.21 R0.3682 AL-0.00 WI 20.0 MW  3.4 3
 SPEC AGPRBH N T 813 2 K 0.020 GD 71.9 VS 4.19 DE 3.14 Q0400.0 QA 0.70 Q1 0.00 3
 SPEC PCDRHN N MO 16.0 ST0.030 OM  4.4 f00.134 R 11.57 AL-0.00 WI 20.0 MW  4.6 3
 SPEC PCDRHN N T 81333 K 0.020 GD  171 VS 4.19 DE 3.14 Q0400.0 QA 0.70 Q1 0.00 3
 SPEC MIDRHH N MO 14.6 ST0.083 OM  2.8 f00.563 R2.7536 AL-0.00 WI 20.0 MW  3.7 3
 SPEC MIDRHH N T 81356 K 0.020 GD  257 VS 4.19 DE 3.14 Q0400.0 QA 0.70 Q1 0.00 3
 SPEC HMDRBH N MO 13.9 ST0.289 OM  2.1 f0 1.42 R1.0918 AL-0.00 WI 20.0 MW  3.2 3
 SPEC HMDRBH N T 814 2 K 0.020 GD  280 VS 4.19 DE 3.14 Q0400.0 QA 0.70 Q1 0.00 3
 2020-02-01-0812-00S.MAN___147                                                 6
 OLDACT:ARG 20-02-01 10:56 OP:njm  STATUS:               ID:20200201081200     3
 OLDACT:UP  20-02-01 11:58 OP:AMMR STATUS:               ID:20200201081200     3
 ACTION:UP  22-01-05 18:33 OP:JMLC STATUS:               ID:20200201081244 L   I
 OLDACT:UP  21-11-07 23:26 OP:CGRS STATUS:               ID:20200201081244 L   3
 OLDACT:UP  20-04-19 16:58 OP:JMLC STATUS:               ID:20200201081244 L   3
 STAT SP IPHASW D HRMM SECON CODA AMPLIT PERI AZIMU VELO AIN AR TRES W  DIS CAZ7
 PRSN BZ EPg    C  812 51.87   63                        108                    
 PRSN BE ESg    C  812 57.93                             108                    
 PRSN BN  IAML     813  0.00      3536.8 0.25                                   
 CRPR BZ EPg    C  812 49.01   46                        127   -0.5210 23.4 308 
 CRPR BE ESg    C  812 52.60                             127   -0.5810 23.4 308 
 CRPR BN  IAML     812 53.15      5392.9 0.20                          23.4 308 
 AGPR BZ EPg    C  812 55.47   78                         93   -0.3310 68.8 343 
 AGPR BE ESg    D  813  3.70                              93   -0.3910 68.8 343 
 AGPR BN  IAML     813  4.55      1109.5 0.25                          68.8 343 
 PCDR HZ EPg       813 12.92   75                         90    2.3410  170 295 
 PCDR BN  IAML     813 44.47       125.5 0.88                           170 295 
 MIDR HZ EPg       813 23.13   91                         90    0.0010  257 299 
 MIDR BN  IAML     813 59.27        32.4 0.50                           257 299 
 HMDR BZ EPg       813 25.95   96                         90   -0.5310  280 292 
 HMDR BN  IAML     814  7.26        30.4 0.60                           280 292 
                                                                                
 2020  2 1 0906 15.70L  18.988 -67.638  0.0  DOM  5 1.0 2.0LDOM 2.9CDOM 2.5WDOM1
 SPEC AVERAGE  MO 12.8 ST  1.6 OM  2.0 f0 5.39 R0.3271 AL 0.00 WI 20.0 MW  2.5 3
 SPEC SD       MO  0.2 ST  1.8 OM  0.8 f0 1.41 R0.0702 AL      WI      MW  0.1 3
 GAP=226        2.50      18.1     7.7 18.9  0.6017E+02  0.2099E+02 -0.2278E+03E
 LOCALITY: 148.7 Km al Este de Miches, Oceano Atlantico.                       3
 SPEC AGPRBH N MO 13.0 ST  5.2 OM  1.6 f0 8.08 R0.2061 AL-0.00 WI 20.0 MW  2.6 3
 SPEC AGPRBH N T 9 636 K 0.020 GD 79.9 VS 4.50 DE 3.40 Q0400.0 QA 0.70 Q1 0.00 3
 SPEC CRPRBH N MO 13.0 ST  1.0 OM  1.4 f0 4.90 R0.3398 AL-0.00 WI 20.0 MW  2.6 3
 SPEC CRPRBH N T 9 640 K 0.020 GD  110 VS 4.50 DE 3.40 Q0400.0 QA 0.70 Q1 0.00 3
 SPEC PCDRHN N MO 13.0 ST0.560 OM  1.5 f0 3.93 R0.4237 AL-0.00 WI 20.0 MW  2.6 3
 SPEC PCDRHN N T 9 639 K 0.020 GD 94.3 VS 4.50 DE 3.40 Q0400.0 QA 0.70 Q1 0.00 3
 SPEC MIDRHH N MO 12.7 ST0.680 OM  1.1 f0 5.23 R0.3184 AL-0.00 WI 20.0 MW  2.4 3
 SPEC MIDRHH N T 9 656 K 0.020 GD  122 VS 4.50 DE 3.40 Q0400.0 QA 0.70 Q1 0.00 3
 SPEC HMDRBH N MO 12.5 ST0.367 OM  0.9 f0 4.79 R0.3476 AL-0.00 WI 20.0 MW  2.3 3
 SPEC HMDRBH N T 9 7 4 K 0.020 GD  136 VS 4.50 DE 3.40 Q0400.0 QA 0.70 Q1 0.00 3
 2020-02-01-0906-00S.MAN___147                                                 6
 OLDACT:ARG 20-02-01 10:57 OP:njm  STATUS:               ID:20200201090600     3
 OLDACT:UP  20-02-01 12:07 OP:AMMR STATUS:               ID:20200201090600     3
 ACTION:UP  22-01-05 18:33 OP:JMLC STATUS:               ID:20200201090617 L   I
 OLDACT:UP  21-11-07 23:28 OP:CGRS STATUS:               ID:20200201090617 L   3
 OLDACT:UP  21-11-07 19:56 OP:CGRS STATUS:               ID:20200201090617 L   3
 OLDACT:UP  20-04-19 16:58 OP:JMLC STATUS:               ID:20200201090617 L   3
 STAT SP IPHASW D HRMM SECON CODA AMPLIT PERI AZIMU VELO AIN AR TRES W  DIS CAZ7
 AGPR BZ IP     C  9 6 27.67   45                         90   -0.9710 79.9 136 
 AGPR BE IS     C  9 6 38.42                              90    0.2510 79.9 136 
 AGPR BN  IAML     9 6 45.50        62.2 0.65                          79.9 136 
 PCDR HZ IP     C  9 6 29.43   35                         90   -1.5310 94.3 236 
 PCDR BN  IAML     9 6 41.26        84.6 2.26                          94.3 236 
 PCDR HE IS     C  9 6 41.60                              90   -0.6110 94.3 236 
 PCDR HN  IAML     9 6 42.65        56.1 1.72                          94.3 236 
 CRPR BZ IP     C  9 6 34.86   31                         90   -0.7510  123 152 
 CRPR BE IS        9 6 51.80                              90    1.5010  123 152 
 CRPR BN  IAML     9 6 55.53        43.8 0.50                           123 152 
 MIDR HZ IP     C  9 6 39.10   44                         50   -0.4910  149 270 
 MIDR HE IS     C  9 6 58.36                              50    1.1310  149 270 
 MIDR HN  IAML     9 6 59.44        23.6 0.30                           149 270 
 MIDR BN  IAML     9 6 59.44        24.3 0.30                           149 270 
 HMDR BZ IP     C  9 6 44.85   52                         50    0.7110  185 263 
 HMDR BE IS        9 7  5.91                              50    0.7610  185 263 
 HMDR BN  IAML     9 7 18.60        16.9 1.90                           185 263 
                                                                                
 2020  2 1 1005 48.40L  17.879 -66.860 20.1  DOM  8 0.6 3.8LDOM 3.5CDOM 4.1WDOM1
 SPEC AVERAGE  MO 15.2 ST 15.6 OM  3.9 f0 1.87 R1.0611 AL 0.00 WI 20.0 MW  4.1 3
 SPEC SD       MO  0.9 ST 16.1 OM  1.1 f0 1.42 R0.5726 AL      WI      MW  0.6 3
 GAP=220        1.65       9.6     4.5 13.9  0.4319E+01 -0.2272E+02  0.2033E-01E
 LOCALITY: 32.7 Km al OSO de Ponce, Region de Puerto Rico.                     3
 SPEC CRPRBH N MO 15.4 ST 31.3 OM  4.4 f0 2.28 R0.7189 AL-0.00 WI 20.0 MW  4.2 3
 SPEC CRPRBH N T10 556 K 0.020 GD 34.5 VS 4.43 DE 3.34 Q0400.0 QA 0.70 Q1 0.00 3
 SPEC PRSNBH N MO 15.1 ST109.8 OM  3.9 f0 4.37 R0.3751 AL-0.00 WI 20.0 MW  4.0 3
 SPEC PRSNBH N T10 6 0 K 0.020 GD 54.5 VS 4.43 DE 3.34 Q0400.0 QA 0.70 Q1 0.00 3
 SPEC AGPRBH N MO 15.2 ST 42.3 OM  3.9 f0 2.88 R0.5691 AL-0.00 WI 20.0 MW  4.1 3
 SPEC AGPRBH N T10 6 7 K 0.020 GD 73.4 VS 4.43 DE 3.34 Q0400.0 QA 0.70 Q1 0.00 3
 SPEC PCDRHN N MO 15.5 ST  1.8 OM  3.8 f00.815 R2.0112 AL-0.00 WI 20.0 MW  4.3 3
 SPEC PCDRHN N T10 637 K 0.020 GD  177 VS 4.43 DE 3.34 Q0400.0 QA 0.70 Q1 0.00 3
 SPEC HIDRBH N MO 14.9 ST 13.3 OM  3.1 f0 2.54 R0.6453 AL-0.00 WI 20.0 MW  3.9 3
 SPEC HIDRBH N T10 646 K 0.020 GD  212 VS 4.43 DE 3.34 Q0400.0 QA 0.70 Q1 0.00 3
 SPEC MIDRHH N MO 14.9 ST  2.2 OM  3.0 f0 1.40 R1.1708 AL-0.00 WI 20.0 MW  3.9 3
 SPEC MIDRHH N T10 7 1 K 0.020 GD  262 VS 4.43 DE 3.34 Q0400.0 QA 0.70 Q1 0.00 3
 SPEC HMDRBH N MO 15.0 ST  2.5 OM  3.1 f0 1.31 R1.2512 AL-0.00 WI 20.0 MW  4.0 3
 SPEC HMDRBH N T10 7 7 K 0.020 GD  285 VS 4.43 DE 3.34 Q0400.0 QA 0.70 Q1 0.00 3
 2020-02-01-1005-00S.MAN___147                                                 6
 OLDACT:ARG 20-02-01 10:59 OP:njm  STATUS:               ID:20200201100500     3
 OLDACT:UP  20-02-01 12:13 OP:AMMR STATUS:               ID:20200201100500     3
 ACTION:UP  22-01-05 18:33 OP:JMLC STATUS:               ID:20200201100547 L   I
 OLDACT:UP  21-11-07 23:28 OP:CGRS STATUS:               ID:20200201100547 L   3
 OLDACT:UP  20-04-19 16:58 OP:JMLC STATUS:               ID:20200201100547 L   3
 STAT SP IPHASW D HRMM SECON CODA AMPLIT PERI AZIMU VELO AIN AR TRES W  DIS CAZ7
 PRSN BZ EPg    C 10 5 56.19   66                        111                    
 PRSN BE ESg    D 10 6  2.44                             111                    
 PRSN BN  IAML    10 6  3.22     31544.3 0.30                                   
 CRPR BZ EPg    D 10 5 53.51   54                        119   -0.3810 28.1 300 
 CRPR BN  IAML    10 5 57.81     20983.4 0.25                          28.1 300 
 CRPR BE ESg    C 10 5 57.88                             119   -0.0410 28.1 300 
 AGPR BZ EPg    C 10 5 59.61   73                         90   -0.3010 70.6 338 
 AGPR BE ESg    D 10 6  8.50                              90    0.1210 70.6 338 
 AGPR BN  IAML    10 6 12.25      4064.6 0.30                          70.6 338 
 SJG  BZ EPg    C 10 6  1.12   65                         90   -0.1010 79.4  71 
 SJG  BE ESg    D 10 6 10.80                              90    0.1410 79.4  71 
 PCDR HZ EPg      10 6 16.79   84                         90    1.5910  176 294 
 PCDR BN  IAML    10 6 50.67      1043.5 0.96                           176 294 
 HIDR BZ EPg      10 6 20.67   61                         90    0.2510  212 292 
 HIDR BN  IAML    10 6 57.06      1052.3 0.65                           212 292 
 MIDR HZ EPg      10 6 27.36   98                         90   -0.3610  262 298 
 MIDR BN  IAML    10 7  7.70       375.5 1.10                           262 298 
 HMDR BZ EPg      10 6 30.18  103                         90   -0.9410  285 291 
 HMDR BN  IAML    10 7 15.19       397.9 0.55                           285 291 
                                                                                
