 2020  9 5 2346 35.1 L  19.007 -68.112 37.6  DOM  9 0.9 2.0LDOM 3.3CDOM 1.9WDOM1
 SPEC AVERAGE  MO 12.0 ST0.074 OM  4.2 f0 3.01 R0.3934 AL 0.00 WI 20.0 MW  1.9 3
 SPEC SD       MO  0.0 ST0.000 OM  3.0 f00.000 R0.0000 AL      WI      MW  0.0 3
 GAP=191        2.36      14.8     9.2 18.2  0.9638E+02 -0.1451E+03 -0.1953E+03E
 LOCALITY: 105.6 Km al Este de Miches. Oceano Atlantico.                       3
 SPEC PCDRBH N MO 12.0 ST0.074 OM  1.2 f0 3.01 R0.3934 AL-0.00 WI 20.0 MW  1.9 3
 SPEC PCDRBH N T234656 K 0.020 GD 72.1 VS 3.20 DE 2.60 Q0400.0 QA 0.70 Q1 1.00 3
 2020-09-05-2346-00S.MAN___123                                                 6
 OLDACT:ARG 20-09-06 00:09 OP:plst STATUS:               ID:20200905234600     3
 ACTION:UP  22-06-23 12:36 OP:jmlc STATUS:               ID:20200905234635 L   I
 OLDACT:UP  20-09-06 00:13 OP:CGRS STATUS:               ID:20200905234600     3
 OLDACT:UP  20-09-06 00:13 OP:CGRS STATUS:               ID:20200905234600     3
 OLDACT:UP  20-09-06 00:12 OP:CGRS STATUS:               ID:20200905234600     3
 STAT SP IPHASW D HRMM SECON CODA AMPLIT PERI AZIMU VELO AIN AR TRES W  DIS CAZ7
 PCDR BZ IP     C 2346 47.55   55                        107   -0.3310 61.5 208 
 PCDR BN IS     C 2346 58.26                             107    0.6910 61.5 208 
 PCDR BN  IAML    2347 20.56        73.4 1.80                          61.5 208 
 HIDR BZ IP     C 2346 50.02   55                        101   -0.2910 78.5 234 
 HIDR BN IS     C 2347  1.29                             101   -0.5510 78.5 234 
 HIDR BN  IAML    2347  3.34        34.7 0.30                          78.5 234 
 SMDR BN IS     C 2347 11.15                              65    0.0310  117 286 
 SMDR BN  IAML    2347 22.70        49.4 3.10                           117 286 
 AGPR BN IS     C 2347 11.15                              65   -0.8710  121 119 
 AGPR BN  IAML    2347 20.89        68.4 2.08                           121 119 
 PRSN BE IS     C 2347 13.97                              65   -1.1010  134 130 
 PRSN BN  IAML    2347 26.77        25.1 1.08                           134 130 
 CRPR BZ IP     C 2347  0.23   61                         65   -0.3210  155 136 
 CRPR BN IS     C 2347 21.03                              65    1.1610  155 136 
 CRPR BN  IAML    2347 23.91        33.3 1.48                           155 136 
 MLPR BZ IP     C 2347  1.29   58                         58   -0.0510  161 135 
 MLPR BE IS     C 2347 21.72                              58    0.4610  161 135 
 MLPR BN  IAML    2347 27.38        13.3 1.68                           161 135 
 AOPR BZ IP     C 2347  3.76   67                         58    2.3710  161 117 
 AOPR BN IS     C 2347 20.31                              58   -1.0310  161 117 
 AOPR BN  IAML    2347 32.81        23.8 1.20                           161 117 
 CELP BZ IP     C 2347  4.79   59                         58   -0.4610  192 122 
 CELP BN IS     C 2347 28.42                              58    0.2710  192 122 
 CELP BN  IAML    2348 10.28         6.0 2.32                           192 122 
                                                                                
 2020  9 6 0005 31.8 L  17.620 -71.553 25.2  DOM  5 0.8 1.9LDOM 3.3CDOM 2.0WDOM1
 SPEC AVERAGE  MO 12.0 ST0.581 OM  5.0 f0 5.94 R0.1993 AL 0.00 WI 20.0 MW  2.0 3
 SPEC SD       MO  0.0 ST0.000 OM  4.2 f00.000 R0.0000 AL      WI      MW  0.0 3
 GAP=305        1.95      13.3    10.2  8.5  0.6536E+01  0.2767E+02 -0.9435E+01E
 LOCALITY: 17.6 Km al SSO de Isla Beata. Mar Caribe.                           3
 SPEC REDRBH N MO 12.0 ST0.581 OM  0.8 f0 5.94 R0.1993 AL-0.00 WI 20.0 MW  2.0 3
 SPEC REDRBH N T 0 624 K 0.020 GD  185 VS 3.20 DE 2.60 Q0400.0 QA 0.70 Q1 1.00 3
 2020-09-06-0005-00S.MAN___123                                                 6
 OLDACT:UP  20-09-06 00:47 OP:CGRS STATUS:               ID:20200906000500     3
 OLDACT:ARG 20-09-06 00:41 OP:plst STATUS:               ID:20200906000500     3
 ACTION:UP  22-06-23 12:36 OP:jmlc STATUS:               ID:20200906000531 L   I
 OLDACT:UP  20-09-06 00:48 OP:CGRS STATUS:               ID:20200906000500     3
 STAT SP IPHASW D HRMM SECON CODA AMPLIT PERI AZIMU VELO AIN AR TRES W  DIS CAZ7
 PODR BZ IP     C  0 5 45.09   60                         99   -0.2810 66.6  26 
 PODR BN IS     C  0 5 56.01                              99    0.3010 66.6  26 
 PODR BN  IAML     0 6 13.86        67.6 1.95                          66.6  26 
 JIDR BZ IP     C  0 5 49.67   59                         62   -0.9610  102 342 
 JIDR BN IS     C  0 6  5.52                              62    0.5510  102 342 
 JIDR BN  IAML     0 6  5.69        25.6 1.80                           102 342 
 SDDR BN IS     C  0 6 16.79                              53   -1.1610  153  10 
 SDDR BN  IAML     0 6 56.04        16.6 1.95                           153  10 
 ABDR BZ IP     C  0 6  0.94   72                         53    1.0410  164  36 
 ABDR BN IS     C  0 6 21.02                              53   -0.2610  164  36 
 ABDR BN  IAML     0 6 52.52        23.0 1.25                           164  36 
 REDR BN IS     C  0 6 25.95                              48    0.7710  184 355 
 REDR BN  IAML     0 6 28.05        12.6 1.75                           184 355 
                                                                                
 2020  9 6 0114 58.9 L  18.002 -68.336 33.2  DOM  8 1.1 2.0LDOM 3.3CDOM 2.0WDOM1
 SPEC AVERAGE  MO 12.1 ST  2.2 OM  2.4 f0 5.85 R0.2911 AL 0.00 WI 20.0 MW  2.0 3
 SPEC SD       MO  0.4 ST  3.5 OM  1.3 f0 3.68 R0.1556 AL      WI      MW  0.2 3
 GAP=237        3.03      17.0    11.4 17.2  0.1410E+03 -0.2949E+02  0.8993E+02E
 LOCALITY: 46.9 Km al SE de Mano Juan Isla Saona. Mar Caribe.                  3
 SPEC PCDRBH N MO 12.4 ST0.077 OM  1.6 f0 2.32 R0.5103 AL-0.00 WI 20.0 MW  2.2 3
 SPEC PCDRBH N T 11519 K 0.020 GD 65.9 VS 3.20 DE 2.60 Q0400.0 QA 0.70 Q1 1.00 3
 SPEC HIDRBH N MO 12.3 ST  8.1 OM  1.4 f0 11.8 R0.1003 AL-0.00 WI 20.0 MW  2.1 3
 SPEC HIDRBH N T 11520 K 0.020 GD 83.5 VS 3.20 DE 2.60 Q0400.0 QA 0.70 Q1 1.00 3
 SPEC SMDRBH N MO 12.4 ST0.241 OM  1.2 f0 3.34 R0.3545 AL-0.00 WI 20.0 MW  2.2 3
 SPEC SMDRBH N T 11546 K 0.020 GD  172 VS 3.20 DE 2.60 Q0400.0 QA 0.70 Q1 1.00 3
 SPEC CELPBH N MO 11.5 ST0.187 OM  0.3 f0 5.94 R0.1993 AL-0.00 WI 20.0 MW  1.6 3
 SPEC CELPBH N T 11549 K 0.020 GD  188 VS 3.20 DE 2.60 Q0400.0 QA 0.70 Q1 1.00 3
 2020-09-06-0114-00S.MAN___123                                                 6
 OLDACT:ARG 20-09-06 07:34 OP:plst STATUS:               ID:20200906011400     3
 ACTION:UP  22-06-23 12:36 OP:jmlc STATUS:               ID:20200906011458 L   I
 OLDACT:UP  20-09-06 07:49 OP:CGRS STATUS:               ID:20200906011400     3
 OLDACT:UP  20-09-06 07:49 OP:CGRS STATUS:               ID:20200906011400     3
 OLDACT:UP  20-09-06 07:48 OP:CGRS STATUS:               ID:20200906011400     3
 STAT SP IPHASW D HRMM SECON CODA AMPLIT PERI AZIMU VELO AIN AR TRES W  DIS CAZ7
 PCDR BZ IP     C  115 11.28   57                        100    0.4610 56.9 355 
 PCDR BN IS     C  115 21.38                             100    1.5010 56.9 355 
 PCDR BN  IAML     115 39.88        98.7 2.40                          56.9 355 
 HIDR BZ IP        115 12.83   63                         95   -0.8710 76.6 328 
 HIDR BN IS     C  115 22.43                              95   -2.5410 76.6 328 
 HIDR BN  IAML     115 24.56        74.3 0.25                          76.6 328 
 CRPR BZ IP     C  115 22.07   77                         65    0.5210  132  90 
 CRPR BN IS     C  115 37.22                              65   -1.5610  132  90 
 CRPR BN  IAML     115 45.00        38.7 2.08                           132  90 
 MLPR BZ IP     C  115 21.37   59                         65   -0.8210  137  91 
 MLPR BN IS     C  115 39.69                              65   -0.2110  137  91 
 MLPR BN  IAML     116  8.01         9.8 1.44                           137  91 
 AGPR BZ IP     C  115 24.19   57                         65    1.6110  140  68 
 AGPR BN IS     C  115 40.04                              65   -0.5410  140  68 
 AGPR BN  IAML     116 10.90        53.8 2.72                           140  68 
 SMDR BZ IP     C  115 27.01   48                         58    0.6110  169 328 
 SMDR BN IS     C  115 47.79                              58    0.4810  169 328 
 SMDR BN  IAML     116  7.19        47.5 1.40                           169 328 
 AOPR BZ IP     C  115 28.06   78                         58    1.2210  172  77 
 AOPR BN  IAML     115 59.91        22.4 0.72                           172  77 
 CELP BZ IP     C  115 29.47   72                         58    0.8110  186  87 
 CELP BN IS     C  115 50.61                              58   -0.6710  186  87 
 CELP BN  IAML     116  8.59         8.0 2.16                           186  87 
                                                                                
 2020  9 6 0251 16.3 L  18.698 -68.158 50.0  DOM  7 1.8 1.9LDOM 2.9CDOM 2.5WDOM1
 SPEC AVERAGE  MO 12.8 ST  3.8 OM  2.2 f0 10.8 R1.1597 AL 0.00 WI 20.0 MW  2.5 3
 SPEC SD       MO  1.2 ST  4.0 OM  1.5 f0 7.30 R1.4930 AL      WI      MW  0.8 3
 GAP=163        4.74      24.0    10.9 90.7  0.1007E+03  0.1113E+03  0.4263E+02E
 LOCALITY: 28.4 Km al ENE de Punta Cana. Canal de la Mona.                     3
 SPEC PCDRBH N MO 12.4 ST  9.4 OM  1.1 f0 16.0 R0.1041 AL-0.00 WI 20.0 MW  2.2 3
 SPEC PCDRBH N T 25128 K 0.020 GD 58.9 VS 4.50 DE 3.40 Q0400.0 QA 0.70 Q1 1.00 3
 SPEC HIDRBH N MO 14.4 ST0.032 OM  3.0 f00.509 R3.2711 AL-0.00 WI 20.0 MW  3.5 3
 SPEC HIDRBH N T 25136 K 0.020 GD 78.1 VS 4.50 DE 3.40 Q0400.0 QA 0.70 Q1 1.00 3
 SPEC MLPRBH N MO 11.7 ST  1.9 OM  0.0 f0 16.0 R0.1041 AL-0.00 WI 20.0 MW  1.7 3
 SPEC MLPRBH N T 25151 K 0.020 GD  151 VS 4.50 DE 3.40 Q0400.0 QA 0.70 Q1 1.00 3
 2020-09-06-0251-00S.MAN___123                                                 6
 OLDACT:UP  20-09-06 07:56 OP:CGRS STATUS:               ID:20200906025100     3
 OLDACT:UP  20-09-06 07:55 OP:CGRS STATUS:               ID:20200906025100     3
 OLDACT:ARG 20-09-06 07:37 OP:plst STATUS:               ID:20200906025100     3
 ACTION:UP  22-06-23 12:36 OP:jmlc STATUS:               ID:20200906025116 L   I
 OLDACT:UP  20-09-06 08:02 OP:CGRS STATUS:               ID:20200906025100     3
 OLDACT:UP  20-09-06 08:02 OP:CGRS STATUS:               ID:20200906025100     3
 STAT SP IPHASW D HRMM SECON CODA AMPLIT PERI AZIMU VELO AIN AR TRES W  DIS CAZ7
 PCDR BZ IP        251 27.05   39                         69    2.3010 31.2 229 
 PCDR BN IS     C  251 29.96                              69   -1.2110 31.2 229 
 PCDR BN  IAML     251 30.61       103.7 0.10                          31.2 229 
 HIDR BN IS     C  251 37.81                              69    0.3310 60.0 259 
 HIDR BN  IAML     252 14.56        37.0 2.05                          60.0 259 
 SMDR BE IS     C  251 50.19                              69   -1.8610  127 301 
 SMDR BN  IAML     252 26.72        41.2 2.15                           127 301 
 CRPR BZ IP     C  251 40.08   42                         69    2.2610  136 124 
 CRPR BE IS     C  251 52.35                              69   -1.8210  136 124 
 CRPR BN  IAML     252 18.09        34.7 1.76                           136 124 
 MLPR BN IS     C  251 53.25                              69   -2.2710  143 124 
 MLPR BN  IAML     252 32.57         8.5 2.44                           143 124 
 AOPR BN IS     C  251 57.77                              69   -0.1710  153 104 
 AOPR BN  IAML     252 41.97        14.4 1.12                           153 104 
 CELP BZ IP     C  251 45.79   47                         69    2.4410  181 112 
 CELP BN  IAML     252 11.09         7.5 3.00                           181 112 
                                                                                
 2020  9 6 0754 16.6 L  18.648 -69.069 84.7  DOM  9 1.5 2.2LDOM 3.3CDOM 2.1WDOM1
 SPEC AVERAGE  MO 12.3 ST  3.3 OM  0.9 f0 9.96 R0.2087 AL 0.00 WI 20.0 MW  2.1 3
 SPEC SD       MO  0.3 ST  3.6 OM  0.5 f0 4.05 R0.1100 AL      WI      MW  0.2 3
 GAP=148        3.78      22.8     9.6 22.7  0.1667E+02 -0.4210E+02  0.2032E+03E
 LOCALITY: 12.6 Km al SSO de El Seibo. El Seibo.                               3
 SPEC HIDRBH N MO 12.5 ST 10.5 OM  1.0 f0 15.4 R0.1081 AL-0.00 WI 20.0 MW  2.3 3
 SPEC HIDRBH N T 75440 K 0.020 GD 92.8 VS 4.50 DE 3.40 Q0400.0 QA 0.70 Q1 1.00 3
 SPEC SMDRBH N MO 12.3 ST0.421 OM  0.7 f0 6.25 R0.2664 AL-0.00 WI 20.0 MW  2.1 3
 SPEC SMDRBH N T 75444 K 0.020 GD  111 VS 4.50 DE 3.40 Q0400.0 QA 0.70 Q1 1.00 3
 SPEC PCDRBH N MO 12.2 ST0.083 OM  0.6 f0 3.91 R0.4258 AL-0.00 WI 20.0 MW  2.1 3
 SPEC PCDRBH N T 75444 K 0.020 GD  112 VS 4.50 DE 3.40 Q0400.0 QA 0.70 Q1 1.00 3
 SPEC MLPRBH N MO 11.9 ST0.944 OM  0.0 f0 10.8 R0.1542 AL-0.00 WI 20.0 MW  1.9 3
 SPEC MLPRBH N T 75517 K 0.020 GD  242 VS 4.50 DE 3.40 Q0400.0 QA 0.70 Q1 1.00 3
 SPEC AOPRBH N MO 12.8 ST  5.1 OM  0.9 f0 9.27 R0.1796 AL-0.00 WI 20.0 MW  2.5 3
 SPEC AOPRBH N T 75516 K 0.020 GD  261 VS 4.50 DE 3.40 Q0400.0 QA 0.70 Q1 1.00 3
 SPEC CELPBH N MO 12.0 ST  2.5 OM  0.0 f0 14.1 R0.1181 AL-0.00 WI 20.0 MW  1.9 3
 SPEC CELPBH N T 75523 K 0.020 GD  283 VS 4.50 DE 3.40 Q0400.0 QA 0.70 Q1 1.00 3
 2020-09-06-0754-00S.MAN___123                                                 6
 OLDACT:UP  20-09-06 08:10 OP:CGRS STATUS:               ID:20200906075400     3
 OLDACT:ARG 20-09-06 08:05 OP:plst STATUS:               ID:20200906075400     3
 ACTION:UP  22-06-23 12:36 OP:jmlc STATUS:               ID:20200906075416 L   I
 OLDACT:UP  20-09-06 08:12 OP:CGRS STATUS:               ID:20200906075400     3
 OLDACT:UP  20-09-06 08:12 OP:CGRS STATUS:               ID:20200906075400     3
 STAT SP IPHASW D HRMM SECON CODA AMPLIT PERI AZIMU VELO AIN AR TRES W  DIS CAZ7
 HIDR BN IS     C  754 42.16                             150    0.9710 37.9  99 
 HIDR BN  IAML     754 45.96        39.1 1.00                          37.9  99 
 SMDR BN IS     C  754 45.79                             128    0.0210 72.1 350 
 SMDR BN  IAML     754 46.61        59.0 2.35                          72.1 350 
 PCDR BE IS     C  754 45.79                             127   -0.3310 74.1 101 
 PCDR BN  IAML     755 20.51        80.7 1.70                          74.1 101 
 SDD  BN IS     C  754 47.67                             119   -1.4510 91.8 257 
 SDD  BN  IAML     755  3.85        77.6 1.80                          91.8 257 
 BADR BN IS     C  754 58.83                             102    0.3310  139 259 
 BADR BN  IAML     755 39.03        37.8 1.70                           139 259 
 CRPR BZ IP     C  754 50.37   58                         93    0.7010  221 108 
 CRPR BN  IAML     755 49.89        40.4 3.00                           221 108 
 MLPR BZ IP     C  754 53.19   51                         93    2.8510  227 109 
 MLPR BN  IAML     755 45.41         9.3 2.20                           227 109 
 AOPR BN IS     C  755 17.50                              92   -2.6210  247  97 
 AOPR BN  IAML     755 22.26        19.3 2.32                           247  97 
 CELP BN IS     C  755 24.54                              92   -0.4710  271 103 
 CELP BN  IAML     755 48.42         9.6 3.28                           271 103 
                                                                                
 2020  9 6 0839 46.8 L  18.594 -69.421 92.7  DOM  6 1.3 2.3LDOM 3.3CDOM 2.2WDOM1
 SPEC AVERAGE  MO 12.3 ST  1.9 OM  0.9 f0 8.37 R0.2403 AL 0.00 WI 20.0 MW  2.2 3
 SPEC SD       MO  0.3 ST  1.6 OM  0.5 f0 3.64 R0.1048 AL      WI      MW  0.2 3
 GAP=150        3.54      23.0    10.6 28.6 -0.6233E+02 -0.1374E+03  0.2838E+03E
 LOCALITY: 5.2 Km al Este de Los Llanos. San Pedro de Macoris.                 3
 SPEC HIDRBH N MO 12.8 ST  4.0 OM  1.2 f0 8.79 R0.1886 AL-0.00 WI 20.0 MW  2.5 3
 SPEC HIDRBH N T 84016 K 0.020 GD  118 VS 4.48 DE 3.40 Q0400.0 QA 0.70 Q1 1.00 3
 SPEC SMDRBH N MO 12.4 ST0.684 OM  0.8 f0 6.58 R0.2519 AL-0.00 WI 20.0 MW  2.2 3
 SPEC SMDRBH N T 84016 K 0.020 GD  122 VS 4.48 DE 3.40 Q0400.0 QA 0.70 Q1 1.00 3
 SPEC PCDRBH N MO 12.2 ST0.098 OM  0.5 f0 4.12 R0.4023 AL-0.00 WI 20.0 MW  2.1 3
 SPEC PCDRBH N T 84020 K 0.020 GD  143 VS 4.48 DE 3.40 Q0400.0 QA 0.70 Q1 1.00 3
 SPEC CRPRBH N MO 12.0 ST  2.9 OM  0.1 f0 14.0 R0.1184 AL-0.00 WI 20.0 MW  2.0 3
 SPEC CRPRBH N T 84047 K 0.020 GD  271 VS 4.48 DE 3.40 Q0400.0 QA 0.70 Q1 1.00 3
 2020-09-06-0839-00S.MAN___123                                                 6
 OLDACT:UP  20-09-06 10:37 OP:CGRS STATUS:               ID:20200906083900     3
 OLDACT:ARG 20-09-06 10:28 OP:plst STATUS:               ID:20200906083900     3
 ACTION:UP  22-06-23 12:36 OP:jmlc STATUS:               ID:20200906083946 L   I
 OLDACT:UP  20-09-06 10:39 OP:CGRS STATUS:               ID:20200906083900     3
 OLDACT:UP  20-09-06 10:39 OP:CGRS STATUS:               ID:20200906083900     3
 OLDACT:UP  20-09-06 10:39 OP:CGRS STATUS:               ID:20200906083900     3
 STAT SP IPHASW D HRMM SECON CODA AMPLIT PERI AZIMU VELO AIN AR TRES W  DIS CAZ7
 SDD  BE IS     C  840 14.68                             143    0.1410 54.3 255 
 SDD  BN  IAML     840 28.23        92.9 2.55                          54.3 255 
 HIDR BZ IP     C  840  5.05   54                        132    0.9010 74.5  90 
 HIDR BN IS        840 18.24                             132    0.8810 74.5  90 
 HIDR BN  IAML     840 20.36        45.6 0.25                          74.5  90 
 SMDR BN IS     C  840 17.50                             129   -0.8110 80.8  18 
 SMDR BN  IAML     840 19.97        44.0 0.75                          80.8  18 
 BADR BZ IP     C  840  6.58   62                        121   -0.2910  102 258 
 BADR BE IS     C  840 21.37                             121   -0.7810  102 258 
 BADR BN  IAML     840 38.17        52.9 1.75                           102 258 
 PCDR BZ IP     C  840  9.75   65                        118    2.2010  110  94 
 PCDR BN IS     C  840 22.43                             118   -0.9110  110  94 
 PCDR BN  IAML     840 24.48       105.3 2.35                           110  94 
 CRPR BZ IP     C  840 25.24   57                         96    1.4410  255 104 
 CRPR BN IS     C  840 49.20                              96   -2.7410  255 104 
 CRPR BN  IAML     840 50.26        36.1 1.92                           255 104 
                                                                                
